{"type":"FeatureCollection","features":[{"type":"Feature","geometry":{"type":"LineString","coordinates":[[37.640764466,55.698407392],[37.640970064,55.698459253],[37.641057597,55.698490409],[37.641434987,55.699078695],[37.640778481,55.699655539],[37.640564644,55.699815101]]},"properties":{"id":"hn_16","object_type":"heat_network","variant_id":"variant_1","start_node_id":"16","end_node_id":"ch_tie_16","flow_tph":76.27,"diameter":200,"length":188.89,"laying_method":"special","depth_start":null,"depth_end":null,"cost":2.385515742E7}},{"type":"Feature","geometry":{"type":"LineString","coordinates":[[37.636381851,55.700155199],[37.63708524,55.700099699],[37.640029536,55.699944967]]},"properties":{"id":"hn_4","object_type":"heat_network","variant_id":"variant_1","start_node_id":"4","end_node_id":"108","flow_tph":47.7,"diameter":150,"length":230.51,"laying_method":"base","depth_start":null,"depth_end":null,"cost":2.43200666E7}},{"type":"Feature","geometry":{"type":"LineString","coordinates":[[37.633139322,55.698653068],[37.633246346,55.698687563],[37.633444619,55.698693479],[37.638389091,55.697655649],[37.638397815,55.697655776]]},"properties":{"id":"hn_12","object_type":"heat_network","variant_id":"variant_1","start_node_id":"12","end_node_id":"ch_merge_5_12","flow_tph":40.0,"diameter":125,"length":352.35,"laying_method":"special","depth_start":null,"depth_end":null,"cost":3.598849945E7}},{"type":"Feature","geometry":{"type":"LineString","coordinates":[[37.634446268,55.697252392],[37.634674435,55.697319546],[37.636042005,55.697139769]]},"properties":{"id":"hn_9","object_type":"heat_network","variant_id":"variant_1","start_node_id":"9","end_node_id":"ch_merge_13_9","flow_tph":34.53,"diameter":125,"length":104.44,"laying_method":"special","depth_start":null,"depth_end":null,"cost":1.066707179E7}},{"type":"Feature","geometry":{"type":"LineString","coordinates":[[37.63609324,55.697296569],[37.635849361,55.69727754],[37.635850937,55.697219522],[37.635932027,55.697175491],[37.63617217,55.697133227],[37.636409184,55.697180791],[37.637344746,55.697730356],[37.638461839,55.697638533]]},"properties":{"id":"hn_10","object_type":"heat_network","variant_id":"variant_1","start_node_id":"10","end_node_id":"106","flow_tph":33.14,"diameter":125,"length":216.44,"laying_method":"special","depth_start":null,"depth_end":null,"cost":2.210697212E7}},{"type":"Feature","geometry":{"type":"LineString","coordinates":[[37.632034439,55.69704569],[37.632028219,55.696971634],[37.632257485,55.696235982],[37.633292947,55.695744278],[37.636558586,55.694971491]]},"properties":{"id":"hn_15","object_type":"heat_network","variant_id":"variant_1","start_node_id":"15","end_node_id":"112","flow_tph":31.89,"diameter":125,"length":399.01,"laying_method":"special","depth_start":null,"depth_end":null,"cost":4.075442295E7}},{"type":"Feature","geometry":{"type":"LineString","coordinates":[[37.632846602,55.70027576],[37.632621811,55.70036437]]},"properties":{"id":"hn_3","object_type":"heat_network","variant_id":"variant_1","start_node_id":"3","end_node_id":"ch_junction_3_6","flow_tph":29.42,"diameter":125,"length":17.23,"laying_method":"base","depth_start":null,"depth_end":null,"cost":1676140.55}},{"type":"Feature","geometry":{"type":"LineString","coordinates":[[37.638280304,55.697956786],[37.638304804,55.697850137],[37.638439724,55.697814393],[37.638624652,55.697885691]]},"properties":{"id":"hn_7","object_type":"heat_network","variant_id":"variant_1","start_node_id":"7","end_node_id":"ch_tie_7","flow_tph":27.82,"diameter":125,"length":35.41,"laying_method":"base","depth_start":null,"depth_end":null,"cost":3444727.58}},{"type":"Feature","geometry":{"type":"LineString","coordinates":[[37.635417056,55.698614732],[37.63532791,55.698482532],[37.638397815,55.697655776]]},"properties":{"id":"hn_5","object_type":"heat_network","variant_id":"variant_1","start_node_id":"5","end_node_id":"ch_merge_5_12","flow_tph":26.09,"diameter":125,"length":229.53,"laying_method":"special","depth_start":null,"depth_end":null,"cost":2.344419007E7}},{"type":"Feature","geometry":{"type":"LineString","coordinates":[[37.634405404,55.699481064],[37.634497338,55.699592642],[37.636995023,55.699092394],[37.637509015,55.698954318],[37.637411772,55.698090552],[37.637544017,55.697948239],[37.638425481,55.697650801],[37.63843079,55.697646895]]},"properties":{"id":"hn_1","object_type":"heat_network","variant_id":"variant_1","start_node_id":"1","end_node_id":"ch_merge_5_1","flow_tph":24.87,"diameter":125,"length":395.37,"laying_method":"special","depth_start":null,"depth_end":null,"cost":4.038217992E7}},{"type":"Feature","geometry":{"type":"LineString","coordinates":[[37.639538146,55.696851829],[37.639420457,55.696774386],[37.638853925,55.696884409],[37.638594447,55.697025313],[37.638240271,55.69734639]]},"properties":{"id":"hn_17","object_type":"heat_network","variant_id":"variant_1","start_node_id":"17","end_node_id":"ch_tie_17","flow_tph":20.63,"diameter":100,"length":113.75,"laying_method":"special","depth_start":null,"depth_end":null,"cost":1.071926134E7}},{"type":"Feature","geometry":{"type":"LineString","coordinates":[[37.633901056,55.697722607],[37.633892743,55.697640879],[37.635983491,55.697155002]]},"properties":{"id":"hn_13","object_type":"heat_network","variant_id":"variant_1","start_node_id":"13","end_node_id":"ch_merge_13_14","flow_tph":19.77,"diameter":100,"length":151.23,"laying_method":"special","depth_start":null,"depth_end":null,"cost":1.425095465E7}},{"type":"Feature","geometry":{"type":"LineString","coordinates":[[37.633752441,55.697472329],[37.633895727,55.697451653],[37.635530641,55.697278867],[37.635977743,55.697158761],[37.635983491,55.697155002]]},"properties":{"id":"hn_14","object_type":"heat_network","variant_id":"variant_1","start_node_id":"14","end_node_id":"ch_merge_13_14","flow_tph":19.73,"diameter":100,"length":145.53,"laying_method":"special","depth_start":null,"depth_end":null,"cost":1.371368011E7}},{"type":"Feature","geometry":{"type":"LineString","coordinates":[[37.634582926,55.699854464],[37.634618199,55.699710838],[37.637376767,55.699096631],[37.637631263,55.699099455],[37.638499515,55.6997561],[37.638751517,55.699830784],[37.63989994,55.699765923]]},"properties":{"id":"hn_2","object_type":"heat_network","variant_id":"variant_1","start_node_id":"2","end_node_id":"ch_tie_2","flow_tph":18.76,"diameter":100,"length":400.17,"laying_method":"special","depth_start":null,"depth_end":null,"cost":3.77102732E7}},{"type":"Feature","geometry":{"type":"LineString","coordinates":[[37.632202634,55.700314417],[37.632346532,55.70031684],[37.632862881,55.700771829]]},"properties":{"id":"hn_8","object_type":"heat_network","variant_id":"variant_1","start_node_id":"8","end_node_id":"ch_merge_ch_junction_3_6_8","flow_tph":18.03,"diameter":100,"length":69.2,"laying_method":"base","depth_start":null,"depth_end":null,"cost":6210333.15}},{"type":"Feature","geometry":{"type":"LineString","coordinates":[[37.632012226,55.700048261],[37.632148816,55.700076975],[37.632621811,55.70036437]]},"properties":{"id":"hn_6","object_type":"heat_network","variant_id":"variant_1","start_node_id":"6","end_node_id":"ch_junction_3_6","flow_tph":15.99,"diameter":100,"length":52.83,"laying_method":"base","depth_start":null,"depth_end":null,"cost":4741504.12}},{"type":"Feature","geometry":{"type":"LineString","coordinates":[[37.633204499,55.699575075],[37.63304393,55.699628167],[37.633059261,55.699704644],[37.633218324,55.699706415],[37.633539583,55.699620127],[37.633645754,55.698857471],[37.63372685,55.698813442],[37.638378228,55.697506598]]},"properties":{"id":"hn_11","object_type":"heat_network","variant_id":"variant_1","start_node_id":"11","end_node_id":"ch_tie_11","flow_tph":4.08,"diameter":65,"length":471.4,"laying_method":"special","depth_start":null,"depth_end":null,"cost":3.892019355E7}},{"type":"Feature","geometry":{"type":"LineString","coordinates":[[37.632621811,55.70036437],[37.632862881,55.700771829]]},"properties":{"id":"hn_ch_junction_3_6","object_type":"heat_network","variant_id":"variant_1","start_node_id":"ch_junction_3_6","end_node_id":"ch_merge_ch_junction_3_6_8","flow_tph":45.41,"diameter":150,"length":47.82,"laying_method":"base","depth_start":null,"depth_end":null,"cost":5044857.17}},{"type":"Feature","geometry":{"type":"LineString","coordinates":[[37.635983491,55.697155002],[37.636042005,55.697139769]]},"properties":{"id":"hn_ch_merge_13_14","object_type":"heat_network","variant_id":"variant_1","start_node_id":"ch_merge_13_14","end_node_id":"ch_merge_13_9","flow_tph":39.5,"diameter":125,"length":4.05,"laying_method":"special","depth_start":null,"depth_end":null,"cost":413681.36}},{"type":"Feature","geometry":{"type":"LineString","coordinates":[[37.636042005,55.697139769],[37.636299098,55.697143623],[37.637297029,55.697729826],[37.637551517,55.69773265],[37.638378228,55.697506598]]},"properties":{"id":"hn_ch_merge_13_9","object_type":"heat_network","variant_id":"variant_1","start_node_id":"ch_merge_13_9","end_node_id":"ch_tie_13","flow_tph":74.03,"diameter":200,"length":180.41,"laying_method":"special","depth_start":null,"depth_end":null,"cost":2.27841869E7}},{"type":"Feature","geometry":{"type":"LineString","coordinates":[[37.63843079,55.697646895],[37.638461839,55.697638533]]},"properties":{"id":"hn_ch_merge_5_1","object_type":"heat_network","variant_id":"variant_1","start_node_id":"ch_merge_5_1","end_node_id":"106","flow_tph":90.96,"diameter":200,"length":2.16,"laying_method":"special","depth_start":null,"depth_end":null,"cost":273075.92}},{"type":"Feature","geometry":{"type":"LineString","coordinates":[[37.638397815,55.697655776],[37.63843079,55.697646895]]},"properties":{"id":"hn_ch_merge_5_12","object_type":"heat_network","variant_id":"variant_1","start_node_id":"ch_merge_5_12","end_node_id":"ch_merge_5_1","flow_tph":66.09,"diameter":200,"length":2.3,"laying_method":"special","depth_start":null,"depth_end":null,"cost":290010.66}},{"type":"Feature","geometry":{"type":"LineString","coordinates":[[37.632862881,55.700771829],[37.633114879,55.700846525],[37.635787206,55.700876244],[37.640029536,55.699944967]]},"properties":{"id":"hn_ch_merge_ch_junction_3_6_8","object_type":"heat_network","variant_id":"variant_1","start_node_id":"ch_merge_ch_junction_3_6_8","end_node_id":"108","flow_tph":63.44,"diameter":150,"length":471.98,"laying_method":"base","depth_start":null,"depth_end":null,"cost":4.979697866E7}},{"type":"Feature","geometry":{"type":"Point","coordinates":[37.640564644,55.699815101]},"properties":{"id":"ch_tie_16","object_type":"heat_chamber","variant_id":"variant_1","diameter":300,"cost":5000000.0}},{"type":"Feature","geometry":{"type":"Point","coordinates":[37.638624652,55.697885691]},"properties":{"id":"ch_tie_7","object_type":"heat_chamber","variant_id":"variant_1","diameter":300,"cost":5000000.0}},{"type":"Feature","geometry":{"type":"Point","coordinates":[37.638240271,55.69734639]},"properties":{"id":"ch_tie_17","object_type":"heat_chamber","variant_id":"variant_1","diameter":400,"cost":5000000.0}},{"type":"Feature","geometry":{"type":"Point","coordinates":[37.63989994,55.699765923]},"properties":{"id":"ch_tie_2","object_type":"heat_chamber","variant_id":"variant_1","diameter":300,"cost":5000000.0}},{"type":"Feature","geometry":{"type":"Point","coordinates":[37.638378228,55.697506598]},"properties":{"id":"ch_tie_11","object_type":"heat_chamber","variant_id":"variant_1","diameter":400,"cost":5000000.0}},{"type":"Feature","geometry":{"type":"Point","coordinates":[37.638378228,55.697506598]},"properties":{"id":"ch_tie_13","object_type":"heat_chamber","variant_id":"variant_1","diameter":300,"cost":5000000.0}},{"type":"Feature","geometry":{"type":"Point","coordinates":[37.632621811,55.70036437]},"properties":{"id":"ch_branch_ch_junction_3_6","object_type":"heat_chamber","variant_id":"variant_1","diameter":150,"cost":3000000.0}},{"type":"Feature","geometry":{"type":"Point","coordinates":[37.635983491,55.697155002]},"properties":{"id":"ch_branch_ch_merge_13_14","object_type":"heat_chamber","variant_id":"variant_1","diameter":125,"cost":3000000.0}},{"type":"Feature","geometry":{"type":"Point","coordinates":[37.636042005,55.697139769]},"properties":{"id":"ch_branch_ch_merge_13_9","object_type":"heat_chamber","variant_id":"variant_1","diameter":200,"cost":3000000.0}},{"type":"Feature","geometry":{"type":"Point","coordinates":[37.63843079,55.697646895]},"properties":{"id":"ch_branch_ch_merge_5_1","object_type":"heat_chamber","variant_id":"variant_1","diameter":200,"cost":3000000.0}},{"type":"Feature","geometry":{"type":"Point","coordinates":[37.638397815,55.697655776]},"properties":{"id":"ch_branch_ch_merge_5_12","object_type":"heat_chamber","variant_id":"variant_1","diameter":200,"cost":3000000.0}},{"type":"Feature","geometry":{"type":"Point","coordinates":[37.632862881,55.700771829]},"properties":{"id":"ch_branch_ch_merge_ch_junction_3_6_8","object_type":"heat_chamber","variant_id":"variant_1","diameter":150,"cost":3000000.0}},{"type":"Feature","geometry":{"type":"Point","coordinates":[37.638397815,55.697655776]},"properties":{"id":"ch_merge_5_12","object_type":"technical_node","variant_id":"variant_1"}},{"type":"Feature","geometry":{"type":"Point","coordinates":[37.632862881,55.700771829]},"properties":{"id":"ch_merge_ch_junction_3_6_8","object_type":"technical_node","variant_id":"variant_1"}},{"type":"Feature","geometry":{"type":"Point","coordinates":[37.635983491,55.697155002]},"properties":{"id":"ch_merge_13_14","object_type":"technical_node","variant_id":"variant_1"}},{"type":"Feature","geometry":{"type":"Point","coordinates":[37.636042005,55.697139769]},"properties":{"id":"ch_merge_13_9","object_type":"technical_node","variant_id":"variant_1"}},{"type":"Feature","geometry":{"type":"Point","coordinates":[37.63843079,55.697646895]},"properties":{"id":"ch_merge_5_1","object_type":"technical_node","variant_id":"variant_1"}},{"type":"Feature","geometry":{"type":"Point","coordinates":[37.632621811,55.70036437]},"properties":{"id":"ch_junction_3_6","object_type":"technical_node","variant_id":"variant_1"}},{"type":"Feature","geometry":null,"properties":{"id":"variant_1_summary","object_type":"variant_summary","variant_id":"variant_1","rank":1,"construction_cost":5.0450841925E8,"chamber_construction_cost":4.8E7,"existing_chamber_tie_in_count":5,"existing_chamber_tie_in_cost":2.5E7,"unconnected_penalty":0.0,"calculated_cost":5.0450841925E8,"new_network_length":4282.0,"length":4282.0,"score":26.97,"solution_status":"FULL","full_connectivity_status":"FULL","certified":true,"complete":true,"connected_oks_count":17,"total_oks_count":17,"coverage_percent":100.0,"unconnected_oks_ids":[],"diagnostics":["algorithm=B2-U/near_first","updated TZ: no tie_in output; connection is represented by heat_chamber","updated TZ: economic refusal disabled; unconnected only if no route is found","coincident_root_tails_merged=5","aggregate_diameter_shared_junctions_relocated=1","JUNCTION_IN_EDGE proposed=70, feasible=1, accepted=1, rejections={NEAR_ENDPOINT=4, SPECIAL_HOST=64, TURN_ANGLE=1}, accepted_moves=[consumer=6, host=3->108, x=414063.96, y=6173578.96, delta_score=-2.333884]","B2-U medoid=5, selected backbone seed=near_first","B2-lite: medoid/order seeds with exterior projected junctions; consumer nodes remain terminal","B3 certified archive selected=B2-U, accepted=7, rejected=0, evaluated=7, unique_constructions=4, duplicate_constructions=3","B3-lite evaluated 28 deterministic destroy/repair orders plus verified B2/B2-C-J seeds","B3 exact order search=false (enabled for at most 6 connection points)","B3 geometry guard rejected=0 unsafe relaxed candidates; strict fallback remained available","B3 structured_rebuilds proposed=12, evaluated=4, accepted=3, rejected=1, complete_incumbent=true","adaptive operator weights and edge-level subtree removal remain research extensions","entry_strategy_candidate=PORTAL_ONLY","routing_cache=route-cache-v9-clarified-exterior-entry hits=1441, misses=92, unique=92, timeout_aborted=0","routing_attempts=attempts=92, successes=82, direct_successes=0, missing_endpoint_approach=0, core_failures=74, combined_geometry_rejections=52, combined_turn_rejections=112, endpoints_inside_oks=19, endpoints_outside_oks=58, containing_oks_matches=19, boundary_candidates=147, endpoint_portals_created=114, portal_own_footprint_rejections=0, portal_single_exit_rejections=0, portal_restriction_rejections=40, entry_cache_hits=107, entry_cache_misses=77, entry_interval_rejections=0","entry_witnesses=none","ruleset=CLARIFIED_EXTERIOR_BOUNDARY_V1","ruleset_hash=d9df75b26108ba55325d73b4241098ef41850d7ce7adc3590abeda66fe08be7f","ruleset_experimental=false","ruleset_authority=additional_clarifications_2026-09-29.docx#15-17","entry_strategy_mode=AUTO","entry_strategy_selected=PORTAL_ONLY","entry_strategy_accepted=PORTAL_ONLY","entry_strategy_failures=none","search_budget_ms=359997, elapsed_ms=213344, deadline_reached=false","portfolio_branch=B3, elapsed_ms=213344","algorithm=PORTFOLIO","PORTFOLIO mode=parallel, selected=B3","PORTFOLIO accepted=B3,B2-C-J","PORTFOLIO construction_diversity=evaluated=2, unique_constructions=2, duplicate_constructions=0","PORTFOLIO failures=none","PORTFOLIO branches=R1,R2, wall_time_ms=360063, requested_budget_ms=360000","FIRST_FULL preflight=NO_VERIFIED_LOCAL_BLOCKER, portfolio_skipped=false","algorithm=FIRST-FULL","FIRST_FULL objective=connected_targets_then_score","FIRST_FULL status=FULL","search_budget_ms=360000, elapsed_ms=360069, deadline_reached=true","post_export_geometry_normalized=true","certification_status=CERTIFIED_AFTER_EXPORT"]}}]}