{
  "type": "FeatureCollection",
  "name": "kazan_center_+0_-3_5944cc2b",
  "metadata": {
    "category": "shared_pipe",
    "rank": 33,
    "city": "Казань",
    "seed": "kazan_center",
    "center": [
      49.0656505,
      55.7961
    ],
    "bbox_south_west_north_east": [
      55.7947525,
      49.0632534,
      55.7974475,
      49.0680475
    ],
    "source": "OpenStreetMap via Overpass API",
    "note": "Real OSM geometry only. Category is a heuristic research bucket, not heat-network ground truth.",
    "metrics": {
      "counts": {
        "building": 43,
        "road": 21,
        "major_road": 0,
        "railway": 0,
        "water": 0,
        "green": 0
      },
      "lengths_m": {
        "road": 2727.43,
        "major_road": 0.0,
        "railway": 0.0,
        "water": 0.0
      },
      "building_centers": 43,
      "building_spread": 0.1992,
      "barrier_score": 0.0,
      "road_score": 3.0437,
      "category_scores": {
        "shared_pipe": 2.9454,
        "separate_pipes": 2.7705,
        "fifty_fifty": 2.0734,
        "refusal": 0.8062
      }
    }
  },
  "features": [
    {
      "type": "Feature",
      "properties": {
        "osm_kind": "building",
        "name": "",
        "source": "OpenStreetMap",
        "download_window_id": "kazan_center_+0_-3_5944cc2b",
        "download_city": "Казань",
        "osm_tags": {
          "building": "apartments"
        },
        "osm_id": 69707399,
        "osm_type": "way"
      },
      "geometry": {
        "type": "Polygon",
        "coordinates": [
          [
            [
              49.0664767,
              55.797659
            ],
            [
              49.0667465,
              55.7976874
            ],
            [
              49.0667941,
              55.7975447
            ],
            [
              49.0673356,
              55.7975999
            ],
            [
              49.0673826,
              55.7974542
            ],
            [
              49.0668426,
              55.7973993
            ],
            [
              49.0665728,
              55.7973709
            ],
            [
              49.0664767,
              55.797659
            ]
          ]
        ]
      }
    },
    {
      "type": "Feature",
      "properties": {
        "osm_kind": "road",
        "name": "улица Сардара Ваисова",
        "source": "OpenStreetMap",
        "download_window_id": "kazan_center_+0_-3_5944cc2b",
        "download_city": "Казань",
        "osm_tags": {
          "highway": "residential",
          "name": "улица Сардара Ваисова"
        },
        "osm_id": 69707447,
        "osm_type": "way"
      },
      "geometry": {
        "type": "LineString",
        "coordinates": [
          [
            49.0665099,
            55.7972076
          ],
          [
            49.0665304,
            55.7971454
          ],
          [
            49.0666799,
            55.7966912
          ],
          [
            49.0668008,
            55.7963238
          ],
          [
            49.0649721,
            55.7961071
          ]
        ]
      }
    },
    {
      "type": "Feature",
      "properties": {
        "osm_kind": "road",
        "name": "",
        "source": "OpenStreetMap",
        "download_window_id": "kazan_center_+0_-3_5944cc2b",
        "download_city": "Казань",
        "osm_tags": {
          "highway": "service"
        },
        "osm_id": 182993742,
        "osm_type": "way"
      },
      "geometry": {
        "type": "LineString",
        "coordinates": [
          [
            49.0665099,
            55.7972076
          ],
          [
            49.0664906,
            55.7972563
          ],
          [
            49.0663924,
            55.7975044
          ]
        ]
      }
    },
    {
      "type": "Feature",
      "properties": {
        "osm_kind": "road",
        "name": "",
        "source": "OpenStreetMap",
        "download_window_id": "kazan_center_+0_-3_5944cc2b",
        "download_city": "Казань",
        "osm_tags": {
          "highway": "service"
        },
        "osm_id": 262494306,
        "osm_type": "way"
      },
      "geometry": {
        "type": "LineString",
        "coordinates": [
          [
            49.0644102,
            55.7958947
          ],
          [
            49.0645198,
            55.7955761
          ],
          [
            49.0650601,
            55.7956137
          ],
          [
            49.0649721,
            55.7961071
          ]
        ]
      }
    },
    {
      "type": "Feature",
      "properties": {
        "osm_kind": "building",
        "name": "",
        "source": "OpenStreetMap",
        "download_window_id": "kazan_center_+0_-3_5944cc2b",
        "download_city": "Казань",
        "osm_tags": {
          "building": "house"
        },
        "osm_id": 262494307,
        "osm_type": "way"
      },
      "geometry": {
        "type": "Polygon",
        "coordinates": [
          [
            [
              49.0675896,
              55.796845
            ],
            [
              49.0676147,
              55.7967174
            ],
            [
              49.0675757,
              55.7967025
            ],
            [
              49.0675854,
              55.7966266
            ],
            [
              49.0675381,
              55.7965859
            ],
            [
              49.0676536,
              55.7965319
            ],
            [
              49.0677455,
              55.7965781
            ],
            [
              49.0680338,
              55.7965922
            ],
            [
              49.0680254,
              55.7966462
            ],
            [
              49.0680769,
              55.7966235
            ],
            [
              49.0681591,
              55.7966814
            ],
            [
              49.0681201,
              55.7967041
            ],
            [
              49.0682134,
              55.7967675
            ],
            [
              49.0681869,
              55.7967785
            ],
            [
              49.0682064,
              55.7967941
            ],
            [
              49.068102,
              55.7968427
            ],
            [
              49.0680101,
              55.7967808
            ],
            [
              49.0679655,
              55.7967808
            ],
            [
              49.0679669,
              55.7967495
            ],
            [
              49.0677971,
              55.7967401
            ],
            [
              49.0677636,
              55.7968575
            ],
            [
              49.0675896,
              55.796845
            ]
          ]
        ]
      }
    },
    {
      "type": "Feature",
      "properties": {
        "osm_kind": "building",
        "name": "",
        "source": "OpenStreetMap",
        "download_window_id": "kazan_center_+0_-3_5944cc2b",
        "download_city": "Казань",
        "osm_tags": {
          "building": "detached"
        },
        "osm_id": 262494309,
        "osm_type": "way"
      },
      "geometry": {
        "type": "Polygon",
        "coordinates": [
          [
            [
              49.0635552,
              55.7969757
            ],
            [
              49.0634804,
              55.7971573
            ],
            [
              49.0636377,
              55.7971778
            ],
            [
              49.0637126,
              55.7969962
            ],
            [
              49.0635552,
              55.7969757
            ]
          ]
        ]
      }
    },
    {
      "type": "Feature",
      "properties": {
        "osm_kind": "building",
        "name": "",
        "source": "OpenStreetMap",
        "download_window_id": "kazan_center_+0_-3_5944cc2b",
        "download_city": "Казань",
        "osm_tags": {
          "building": "house"
        },
        "osm_id": 262494311,
        "osm_type": "way"
      },
      "geometry": {
        "type": "Polygon",
        "coordinates": [
          [
            [
              49.0650888,
              55.7962374
            ],
            [
              49.0650549,
              55.7963436
            ],
            [
              49.0652306,
              55.7963613
            ],
            [
              49.0652645,
              55.7962551
            ],
            [
              49.0650888,
              55.7962374
            ]
          ]
        ]
      }
    },
    {
      "type": "Feature",
      "properties": {
        "osm_kind": "building",
        "name": "",
        "source": "OpenStreetMap",
        "download_window_id": "kazan_center_+0_-3_5944cc2b",
        "download_city": "Казань",
        "osm_tags": {
          "building": "house"
        },
        "osm_id": 262494312,
        "osm_type": "way"
      },
      "geometry": {
        "type": "Polygon",
        "coordinates": [
          [
            [
              49.0663097,
              55.7964897
            ],
            [
              49.0664568,
              55.7965046
            ],
            [
              49.066487,
              55.79641
            ],
            [
              49.0663399,
              55.7963952
            ],
            [
              49.0663097,
              55.7964897
            ]
          ]
        ]
      }
    },
    {
      "type": "Feature",
      "properties": {
        "osm_kind": "building",
        "name": "",
        "source": "OpenStreetMap",
        "download_window_id": "kazan_center_+0_-3_5944cc2b",
        "download_city": "Казань",
        "osm_tags": {
          "building": "house"
        },
        "osm_id": 262494313,
        "osm_type": "way"
      },
      "geometry": {
        "type": "Polygon",
        "coordinates": [
          [
            [
              49.0632141,
              55.79643
            ],
            [
              49.0631727,
              55.7965597
            ],
            [
              49.0635765,
              55.7966004
            ],
            [
              49.0636179,
              55.7964707
            ],
            [
              49.0632141,
              55.79643
            ]
          ]
        ]
      }
    },
    {
      "type": "Feature",
      "properties": {
        "osm_kind": "building",
        "name": "",
        "source": "OpenStreetMap",
        "download_window_id": "kazan_center_+0_-3_5944cc2b",
        "download_city": "Казань",
        "osm_tags": {
          "building": "house"
        },
        "osm_id": 262494314,
        "osm_type": "way"
      },
      "geometry": {
        "type": "Polygon",
        "coordinates": [
          [
            [
              49.0665171,
              55.7961691
            ],
            [
              49.0665576,
              55.7960558
            ],
            [
              49.0667974,
              55.7960834
            ],
            [
              49.0667491,
              55.7962182
            ],
            [
              49.0666006,
              55.7962014
            ],
            [
              49.0666084,
              55.7961795
            ],
            [
              49.0665171,
              55.7961691
            ]
          ]
        ]
      }
    },
    {
      "type": "Feature",
      "properties": {
        "osm_kind": "building",
        "name": "",
        "source": "OpenStreetMap",
        "download_window_id": "kazan_center_+0_-3_5944cc2b",
        "download_city": "Казань",
        "osm_tags": {
          "building": "house"
        },
        "osm_id": 262494316,
        "osm_type": "way"
      },
      "geometry": {
        "type": "Polygon",
        "coordinates": [
          [
            [
              49.0656775,
              55.7967791
            ],
            [
              49.0656885,
              55.7967346
            ],
            [
              49.0656499,
              55.7967312
            ],
            [
              49.0656662,
              55.7966735
            ],
            [
              49.0658378,
              55.7966888
            ],
            [
              49.0658216,
              55.7967465
            ],
            [
              49.065783,
              55.7967431
            ],
            [
              49.0657705,
              55.7967874
            ],
            [
              49.0656775,
              55.7967791
            ]
          ]
        ]
      }
    },
    {
      "type": "Feature",
      "properties": {
        "osm_kind": "building",
        "name": "",
        "source": "OpenStreetMap",
        "download_window_id": "kazan_center_+0_-3_5944cc2b",
        "download_city": "Казань",
        "osm_tags": {
          "building": "house"
        },
        "osm_id": 262494320,
        "osm_type": "way"
      },
      "geometry": {
        "type": "Polygon",
        "coordinates": [
          [
            [
              49.0655378,
              55.7964698
            ],
            [
              49.0656399,
              55.7964801
            ],
            [
              49.0656835,
              55.7963436
            ],
            [
              49.0655814,
              55.7963333
            ],
            [
              49.0655378,
              55.7964698
            ]
          ]
        ]
      }
    },
    {
      "type": "Feature",
      "properties": {
        "osm_kind": "building",
        "name": "",
        "source": "OpenStreetMap",
        "download_window_id": "kazan_center_+0_-3_5944cc2b",
        "download_city": "Казань",
        "osm_tags": {
          "building": "detached"
        },
        "osm_id": 262494329,
        "osm_type": "way"
      },
      "geometry": {
        "type": "Polygon",
        "coordinates": [
          [
            [
              49.0643357,
              55.79751
            ],
            [
              49.0643677,
              55.7974185
            ],
            [
              49.0644254,
              55.7974248
            ],
            [
              49.064434,
              55.7974026
            ],
            [
              49.0644785,
              55.7974081
            ],
            [
              49.0644703,
              55.7974296
            ],
            [
              49.064531,
              55.7974362
            ],
            [
              49.064499,
              55.7975278
            ],
            [
              49.0643357,
              55.79751
            ]
          ]
        ]
      }
    },
    {
      "type": "Feature",
      "properties": {
        "osm_kind": "building",
        "name": "",
        "source": "OpenStreetMap",
        "download_window_id": "kazan_center_+0_-3_5944cc2b",
        "download_city": "Казань",
        "osm_tags": {
          "building": "house"
        },
        "osm_id": 262494331,
        "osm_type": "way"
      },
      "geometry": {
        "type": "Polygon",
        "coordinates": [
          [
            [
              49.0653291,
              55.796337
            ],
            [
              49.0652625,
              55.7965454
            ],
            [
              49.0654354,
              55.7965628
            ],
            [
              49.0655019,
              55.7963544
            ],
            [
              49.0653291,
              55.796337
            ]
          ]
        ]
      }
    },
    {
      "type": "Feature",
      "properties": {
        "osm_kind": "building",
        "name": "",
        "source": "OpenStreetMap",
        "download_window_id": "kazan_center_+0_-3_5944cc2b",
        "download_city": "Казань",
        "osm_tags": {
          "building": "detached"
        },
        "osm_id": 262494333,
        "osm_type": "way"
      },
      "geometry": {
        "type": "Polygon",
        "coordinates": [
          [
            [
              49.0645315,
              55.7972722
            ],
            [
              49.0647315,
              55.7972924
            ],
            [
              49.0647796,
              55.7971416
            ],
            [
              49.0645796,
              55.7971214
            ],
            [
              49.0645315,
              55.7972722
            ]
          ]
        ]
      }
    },
    {
      "type": "Feature",
      "properties": {
        "osm_kind": "building",
        "name": "",
        "source": "OpenStreetMap",
        "download_window_id": "kazan_center_+0_-3_5944cc2b",
        "download_city": "Казань",
        "osm_tags": {
          "building": "house"
        },
        "osm_id": 262494335,
        "osm_type": "way"
      },
      "geometry": {
        "type": "Polygon",
        "coordinates": [
          [
            [
              49.0645182,
              55.7964649
            ],
            [
              49.0644755,
              55.7965986
            ],
            [
              49.0646639,
              55.7966176
            ],
            [
              49.0647066,
              55.7964839
            ],
            [
              49.0645182,
              55.7964649
            ]
          ]
        ]
      }
    },
    {
      "type": "Feature",
      "properties": {
        "osm_kind": "building",
        "name": "",
        "source": "OpenStreetMap",
        "download_window_id": "kazan_center_+0_-3_5944cc2b",
        "download_city": "Казань",
        "osm_tags": {
          "building": "house"
        },
        "osm_id": 262494337,
        "osm_type": "way"
      },
      "geometry": {
        "type": "Polygon",
        "coordinates": [
          [
            [
              49.0636985,
              55.7966182
            ],
            [
              49.0638384,
              55.7966323
            ],
            [
              49.0638718,
              55.7965274
            ],
            [
              49.063732,
              55.7965133
            ],
            [
              49.0636985,
              55.7966182
            ]
          ]
        ]
      }
    },
    {
      "type": "Feature",
      "properties": {
        "osm_kind": "building",
        "name": "",
        "source": "OpenStreetMap",
        "download_window_id": "kazan_center_+0_-3_5944cc2b",
        "download_city": "Казань",
        "osm_tags": {
          "building": "house"
        },
        "osm_id": 262494339,
        "osm_type": "way"
      },
      "geometry": {
        "type": "Polygon",
        "coordinates": [
          [
            [
              49.066932,
              55.7962042
            ],
            [
              49.067113,
              55.7962224
            ],
            [
              49.0671683,
              55.7960492
            ],
            [
              49.0669873,
              55.7960309
            ],
            [
              49.066932,
              55.7962042
            ]
          ]
        ]
      }
    },
    {
      "type": "Feature",
      "properties": {
        "osm_kind": "building",
        "name": "",
        "source": "OpenStreetMap",
        "download_window_id": "kazan_center_+0_-3_5944cc2b",
        "download_city": "Казань",
        "osm_tags": {
          "building": "house"
        },
        "osm_id": 262494340,
        "osm_type": "way"
      },
      "geometry": {
        "type": "Polygon",
        "coordinates": [
          [
            [
              49.0661207,
              55.7961776
            ],
            [
              49.0663897,
              55.7962047
            ],
            [
              49.0664436,
              55.7960359
            ],
            [
              49.0661746,
              55.7960087
            ],
            [
              49.0661207,
              55.7961776
            ]
          ]
        ]
      }
    },
    {
      "type": "Feature",
      "properties": {
        "osm_kind": "building",
        "name": "",
        "source": "OpenStreetMap",
        "download_window_id": "kazan_center_+0_-3_5944cc2b",
        "download_city": "Казань",
        "osm_tags": {
          "building": "yes"
        },
        "osm_id": 262494344,
        "osm_type": "way"
      },
      "geometry": {
        "type": "Polygon",
        "coordinates": [
          [
            [
              49.0646635,
              55.7958211
            ],
            [
              49.0648539,
              55.7958404
            ],
            [
              49.0648919,
              55.7957215
            ],
            [
              49.0647014,
              55.7957023
            ],
            [
              49.0646635,
              55.7958211
            ]
          ]
        ]
      }
    },
    {
      "type": "Feature",
      "properties": {
        "osm_kind": "building",
        "name": "",
        "source": "OpenStreetMap",
        "download_window_id": "kazan_center_+0_-3_5944cc2b",
        "download_city": "Казань",
        "osm_tags": {
          "building": "yes"
        },
        "osm_id": 262494348,
        "osm_type": "way"
      },
      "geometry": {
        "type": "Polygon",
        "coordinates": [
          [
            [
              49.0641346,
              55.7971816
            ],
            [
              49.0641068,
              55.7972688
            ],
            [
              49.0643417,
              55.7972925
            ],
            [
              49.0643695,
              55.7972053
            ],
            [
              49.0641346,
              55.7971816
            ]
          ]
        ]
      }
    },
    {
      "type": "Feature",
      "properties": {
        "osm_kind": "building",
        "name": "",
        "source": "OpenStreetMap",
        "download_window_id": "kazan_center_+0_-3_5944cc2b",
        "download_city": "Казань",
        "osm_tags": {
          "building": "detached"
        },
        "osm_id": 262494349,
        "osm_type": "way"
      },
      "geometry": {
        "type": "Polygon",
        "coordinates": [
          [
            [
              49.065131,
              55.7972064
            ],
            [
              49.0649165,
              55.7971818
            ],
            [
              49.0648554,
              55.7973501
            ],
            [
              49.06507,
              55.7973747
            ],
            [
              49.065131,
              55.7972064
            ]
          ]
        ]
      }
    },
    {
      "type": "Feature",
      "properties": {
        "osm_kind": "building",
        "name": "",
        "source": "OpenStreetMap",
        "download_window_id": "kazan_center_+0_-3_5944cc2b",
        "download_city": "Казань",
        "osm_tags": {
          "building": "yes"
        },
        "osm_id": 262494350,
        "osm_type": "way"
      },
      "geometry": {
        "type": "Polygon",
        "coordinates": [
          [
            [
              49.0676944,
              55.7969023
            ],
            [
              49.067661,
              55.7970103
            ],
            [
              49.0678282,
              55.7970266
            ],
            [
              49.0678616,
              55.7969186
            ],
            [
              49.0676944,
              55.7969023
            ]
          ]
        ]
      }
    },
    {
      "type": "Feature",
      "properties": {
        "osm_kind": "building",
        "name": "",
        "source": "OpenStreetMap",
        "download_window_id": "kazan_center_+0_-3_5944cc2b",
        "download_city": "Казань",
        "osm_tags": {
          "building": "house"
        },
        "osm_id": 262494351,
        "osm_type": "way"
      },
      "geometry": {
        "type": "Polygon",
        "coordinates": [
          [
            [
              49.0644891,
              55.796257
            ],
            [
              49.0645336,
              55.796127
            ],
            [
              49.0645394,
              55.7961103
            ],
            [
              49.064572,
              55.7960964
            ],
            [
              49.0646078,
              55.7961003
            ],
            [
              49.0646288,
              55.79612
            ],
            [
              49.0646352,
              55.7961207
            ],
            [
              49.0646443,
              55.7961239
            ],
            [
              49.0646394,
              55.7961385
            ],
            [
              49.0646268,
              55.7961371
            ],
            [
              49.0646233,
              55.7961476
            ],
            [
              49.0647041,
              55.7961565
            ],
            [
              49.064706,
              55.7961511
            ],
            [
              49.06471,
              55.7961515
            ],
            [
              49.064717,
              55.7961314
            ],
            [
              49.0647336,
              55.7961265
            ],
            [
              49.0647415,
              55.7961055
            ],
            [
              49.0647984,
              55.7961119
            ],
            [
              49.0647921,
              55.7961328
            ],
            [
              49.0648055,
              55.7961409
            ],
            [
              49.0647986,
              55.796161
            ],
            [
              49.0648028,
              55.7961615
            ],
            [
              49.0647598,
              55.7962859
            ],
            [
              49.0646741,
              55.7962768
            ],
            [
              49.0646624,
              55.7962792
            ],
            [
              49.0646537,
              55.7963053
            ],
            [
              49.0645625,
              55.7962957
            ],
            [
              49.0645714,
              55.7962691
            ],
            [
              49.0645637,
              55.796265
            ],
            [
              49.0644891,
              55.796257
            ]
          ]
        ]
      }
    },
    {
      "type": "Feature",
      "properties": {
        "osm_kind": "building",
        "name": "",
        "source": "OpenStreetMap",
        "download_window_id": "kazan_center_+0_-3_5944cc2b",
        "download_city": "Казань",
        "osm_tags": {
          "building": "house"
        },
        "osm_id": 262494355,
        "osm_type": "way"
      },
      "geometry": {
        "type": "Polygon",
        "coordinates": [
          [
            [
              49.0656953,
              55.7959916
            ],
            [
              49.065915,
              55.7960138
            ],
            [
              49.0659553,
              55.7958876
            ],
            [
              49.0657356,
              55.7958654
            ],
            [
              49.0656953,
              55.7959916
            ]
          ]
        ]
      }
    },
    {
      "type": "Feature",
      "properties": {
        "osm_kind": "building",
        "name": "",
        "source": "OpenStreetMap",
        "download_window_id": "kazan_center_+0_-3_5944cc2b",
        "download_city": "Казань",
        "osm_tags": {
          "building": "house"
        },
        "osm_id": 262494357,
        "osm_type": "way"
      },
      "geometry": {
        "type": "Polygon",
        "coordinates": [
          [
            [
              49.0638876,
              55.7961554
            ],
            [
              49.0638533,
              55.7962629
            ],
            [
              49.0640609,
              55.7962839
            ],
            [
              49.0640952,
              55.7961764
            ],
            [
              49.0638876,
              55.7961554
            ]
          ]
        ]
      }
    },
    {
      "type": "Feature",
      "properties": {
        "osm_kind": "building",
        "name": "",
        "source": "OpenStreetMap",
        "download_window_id": "kazan_center_+0_-3_5944cc2b",
        "download_city": "Казань",
        "osm_tags": {
          "building": "house"
        },
        "osm_id": 262494359,
        "osm_type": "way"
      },
      "geometry": {
        "type": "Polygon",
        "coordinates": [
          [
            [
              49.0659198,
              55.7964698
            ],
            [
              49.0660798,
              55.796486
            ],
            [
              49.0661167,
              55.7963702
            ],
            [
              49.0659568,
              55.7963541
            ],
            [
              49.0659198,
              55.7964698
            ]
          ]
        ]
      }
    },
    {
      "type": "Feature",
      "properties": {
        "osm_kind": "building",
        "name": "",
        "source": "OpenStreetMap",
        "download_window_id": "kazan_center_+0_-3_5944cc2b",
        "download_city": "Казань",
        "osm_tags": {
          "building": "yes"
        },
        "osm_id": 262494361,
        "osm_type": "way"
      },
      "geometry": {
        "type": "Polygon",
        "coordinates": [
          [
            [
              49.0647934,
              55.7964477
            ],
            [
              49.0647589,
              55.796556
            ],
            [
              49.0650022,
              55.7965805
            ],
            [
              49.0650367,
              55.7964722
            ],
            [
              49.0647934,
              55.7964477
            ]
          ]
        ]
      }
    },
    {
      "type": "Feature",
      "properties": {
        "osm_kind": "building",
        "name": "",
        "source": "OpenStreetMap",
        "download_window_id": "kazan_center_+0_-3_5944cc2b",
        "download_city": "Казань",
        "osm_tags": {
          "building": "yes"
        },
        "osm_id": 262494366,
        "osm_type": "way"
      },
      "geometry": {
        "type": "Polygon",
        "coordinates": [
          [
            [
              49.0642345,
              55.7959435
            ],
            [
              49.0643704,
              55.7959546
            ],
            [
              49.0643894,
              55.7958812
            ],
            [
              49.0642535,
              55.7958701
            ],
            [
              49.0642345,
              55.7959435
            ]
          ]
        ]
      }
    },
    {
      "type": "Feature",
      "properties": {
        "osm_kind": "building",
        "name": "",
        "source": "OpenStreetMap",
        "download_window_id": "kazan_center_+0_-3_5944cc2b",
        "download_city": "Казань",
        "osm_tags": {
          "building": "house"
        },
        "osm_id": 262494368,
        "osm_type": "way"
      },
      "geometry": {
        "type": "Polygon",
        "coordinates": [
          [
            [
              49.0639624,
              55.7965628
            ],
            [
              49.0639356,
              55.7966467
            ],
            [
              49.0641357,
              55.7966669
            ],
            [
              49.0641625,
              55.796583
            ],
            [
              49.0639624,
              55.7965628
            ]
          ]
        ]
      }
    },
    {
      "type": "Feature",
      "properties": {
        "osm_kind": "building",
        "name": "",
        "source": "OpenStreetMap",
        "download_window_id": "kazan_center_+0_-3_5944cc2b",
        "download_city": "Казань",
        "osm_tags": {
          "building": "detached"
        },
        "osm_id": 262494369,
        "osm_type": "way"
      },
      "geometry": {
        "type": "Polygon",
        "coordinates": [
          [
            [
              49.0655657,
              55.7972544
            ],
            [
              49.0653903,
              55.7972329
            ],
            [
              49.0653332,
              55.7973802
            ],
            [
              49.0655085,
              55.7974016
            ],
            [
              49.0655657,
              55.7972544
            ]
          ]
        ]
      }
    },
    {
      "type": "Feature",
      "properties": {
        "osm_kind": "building",
        "name": "",
        "source": "OpenStreetMap",
        "download_window_id": "kazan_center_+0_-3_5944cc2b",
        "download_city": "Казань",
        "osm_tags": {
          "building": "house"
        },
        "osm_id": 371302999,
        "osm_type": "way"
      },
      "geometry": {
        "type": "Polygon",
        "coordinates": [
          [
            [
              49.0633483,
              55.7962438
            ],
            [
              49.0636355,
              55.7962728
            ],
            [
              49.0636785,
              55.7961379
            ],
            [
              49.0633913,
              55.796109
            ],
            [
              49.0633483,
              55.7962438
            ]
          ]
        ]
      }
    },
    {
      "type": "Feature",
      "properties": {
        "osm_kind": "building",
        "name": "",
        "source": "OpenStreetMap",
        "download_window_id": "kazan_center_+0_-3_5944cc2b",
        "download_city": "Казань",
        "osm_tags": {
          "building": "house"
        },
        "osm_id": 578641492,
        "osm_type": "way"
      },
      "geometry": {
        "type": "Polygon",
        "coordinates": [
          [
            [
              49.0672905,
              55.7963231
            ],
            [
              49.0674485,
              55.796344
            ],
            [
              49.0674926,
              55.7962527
            ],
            [
              49.0673351,
              55.7962332
            ],
            [
              49.0672905,
              55.7963231
            ]
          ]
        ]
      }
    },
    {
      "type": "Feature",
      "properties": {
        "osm_kind": "building",
        "name": "",
        "source": "OpenStreetMap",
        "download_window_id": "kazan_center_+0_-3_5944cc2b",
        "download_city": "Казань",
        "osm_tags": {
          "building": "house"
        },
        "osm_id": 578641493,
        "osm_type": "way"
      },
      "geometry": {
        "type": "Polygon",
        "coordinates": [
          [
            [
              49.067035,
              55.7964293
            ],
            [
              49.0671161,
              55.7964373
            ],
            [
              49.0671211,
              55.7964214
            ],
            [
              49.0671539,
              55.7964246
            ],
            [
              49.067149,
              55.7964406
            ],
            [
              49.0671732,
              55.7964429
            ],
            [
              49.0671789,
              55.7964252
            ],
            [
              49.0672641,
              55.7964336
            ],
            [
              49.0672259,
              55.7965553
            ],
            [
              49.0671392,
              55.7965469
            ],
            [
              49.0671521,
              55.7965036
            ],
            [
              49.0671275,
              55.7965011
            ],
            [
              49.0671175,
              55.7965325
            ],
            [
              49.0670062,
              55.7965215
            ],
            [
              49.067035,
              55.7964293
            ]
          ]
        ]
      }
    },
    {
      "type": "Feature",
      "properties": {
        "osm_kind": "road",
        "name": "улица Сардара Ваисова",
        "source": "OpenStreetMap",
        "download_window_id": "kazan_center_+0_-3_5944cc2b",
        "download_city": "Казань",
        "osm_tags": {
          "highway": "residential",
          "name": "улица Сардара Ваисова"
        },
        "osm_id": 599465488,
        "osm_type": "way"
      },
      "geometry": {
        "type": "LineString",
        "coordinates": [
          [
            49.0668008,
            55.7963238
          ],
          [
            49.0676665,
            55.7964221
          ]
        ]
      }
    },
    {
      "type": "Feature",
      "properties": {
        "osm_kind": "road",
        "name": "",
        "source": "OpenStreetMap",
        "download_window_id": "kazan_center_+0_-3_5944cc2b",
        "download_city": "Казань",
        "osm_tags": {
          "highway": "service"
        },
        "osm_id": 665293581,
        "osm_type": "way"
      },
      "geometry": {
        "type": "LineString",
        "coordinates": [
          [
            49.0672612,
            55.7981855
          ],
          [
            49.0673263,
            55.7980452
          ],
          [
            49.0673614,
            55.7977768
          ],
          [
            49.0673585,
            55.797753
          ],
          [
            49.0674811,
            55.7973889
          ],
          [
            49.0675006,
            55.7973282
          ]
        ]
      }
    },
    {
      "type": "Feature",
      "properties": {
        "osm_kind": "building",
        "name": "",
        "source": "OpenStreetMap",
        "download_window_id": "kazan_center_+0_-3_5944cc2b",
        "download_city": "Казань",
        "osm_tags": {
          "building": "detached"
        },
        "osm_id": 687915094,
        "osm_type": "way"
      },
      "geometry": {
        "type": "Polygon",
        "coordinates": [
          [
            [
              49.0638034,
              55.7970841
            ],
            [
              49.0638459,
              55.7969648
            ],
            [
              49.0640122,
              55.7969807
            ],
            [
              49.0639627,
              55.797102
            ],
            [
              49.0638034,
              55.7970841
            ]
          ]
        ]
      }
    },
    {
      "type": "Feature",
      "properties": {
        "osm_kind": "building",
        "name": "",
        "source": "OpenStreetMap",
        "download_window_id": "kazan_center_+0_-3_5944cc2b",
        "download_city": "Казань",
        "osm_tags": {
          "building": "house"
        },
        "osm_id": 687916676,
        "osm_type": "way"
      },
      "geometry": {
        "type": "Polygon",
        "coordinates": [
          [
            [
              49.0653003,
              55.7960328
            ],
            [
              49.0651968,
              55.7960224
            ],
            [
              49.0652186,
              55.7959622
            ],
            [
              49.0651896,
              55.7959589
            ],
            [
              49.0652092,
              55.7959099
            ],
            [
              49.0652364,
              55.795913
            ],
            [
              49.0652741,
              55.7958088
            ],
            [
              49.065381,
              55.7958217
            ],
            [
              49.0653485,
              55.7959065
            ],
            [
              49.0654598,
              55.7959201
            ],
            [
              49.0654835,
              55.7958583
            ],
            [
              49.0655723,
              55.795869
            ],
            [
              49.0655184,
              55.7960165
            ],
            [
              49.0653787,
              55.7959996
            ],
            [
              49.0653735,
              55.7960136
            ],
            [
              49.0653105,
              55.796006
            ],
            [
              49.0653003,
              55.7960328
            ]
          ]
        ]
      }
    },
    {
      "type": "Feature",
      "properties": {
        "osm_kind": "building",
        "name": "",
        "source": "OpenStreetMap",
        "download_window_id": "kazan_center_+0_-3_5944cc2b",
        "download_city": "Казань",
        "osm_tags": {
          "building": "house"
        },
        "osm_id": 687919690,
        "osm_type": "way"
      },
      "geometry": {
        "type": "Polygon",
        "coordinates": [
          [
            [
              49.0667036,
              55.7969385
            ],
            [
              49.0667587,
              55.7967923
            ],
            [
              49.0669543,
              55.7968158
            ],
            [
              49.0668985,
              55.796962
            ],
            [
              49.0667036,
              55.7969385
            ]
          ]
        ]
      }
    },
    {
      "type": "Feature",
      "properties": {
        "osm_kind": "building",
        "name": "",
        "source": "OpenStreetMap",
        "download_window_id": "kazan_center_+0_-3_5944cc2b",
        "download_city": "Казань",
        "osm_tags": {
          "building": "house"
        },
        "osm_id": 687919691,
        "osm_type": "way"
      },
      "geometry": {
        "type": "Polygon",
        "coordinates": [
          [
            [
              49.0661834,
              55.7970635
            ],
            [
              49.066224,
              55.7969572
            ],
            [
              49.0664029,
              55.796979
            ],
            [
              49.0663622,
              55.7970864
            ],
            [
              49.0661834,
              55.7970635
            ]
          ]
        ]
      }
    },
    {
      "type": "Feature",
      "properties": {
        "osm_kind": "building",
        "name": "",
        "source": "OpenStreetMap",
        "download_window_id": "kazan_center_+0_-3_5944cc2b",
        "download_city": "Казань",
        "osm_tags": {
          "building": "house"
        },
        "osm_id": 687919693,
        "osm_type": "way"
      },
      "geometry": {
        "type": "Polygon",
        "coordinates": [
          [
            [
              49.065286,
              55.7967461
            ],
            [
              49.0653141,
              55.7966398
            ],
            [
              49.0655352,
              55.7966582
            ],
            [
              49.0655071,
              55.7967645
            ],
            [
              49.065286,
              55.7967461
            ]
          ]
        ]
      }
    },
    {
      "type": "Feature",
      "properties": {
        "osm_kind": "road",
        "name": "",
        "source": "OpenStreetMap",
        "download_window_id": "kazan_center_+0_-3_5944cc2b",
        "download_city": "Казань",
        "osm_tags": {
          "highway": "footway"
        },
        "osm_id": 694263391,
        "osm_type": "way"
      },
      "geometry": {
        "type": "LineString",
        "coordinates": [
          [
            49.0665747,
            55.797277
          ],
          [
            49.0665978,
            55.7972181
          ],
          [
            49.0666218,
            55.7971552
          ]
        ]
      }
    },
    {
      "type": "Feature",
      "properties": {
        "osm_kind": "road",
        "name": "",
        "source": "OpenStreetMap",
        "download_window_id": "kazan_center_+0_-3_5944cc2b",
        "download_city": "Казань",
        "osm_tags": {
          "highway": "footway"
        },
        "osm_id": 694263392,
        "osm_type": "way"
      },
      "geometry": {
        "type": "LineString",
        "coordinates": [
          [
            49.0664159,
            55.7971332
          ],
          [
            49.0665304,
            55.7971454
          ],
          [
            49.0666218,
            55.7971552
          ]
        ]
      }
    },
    {
      "type": "Feature",
      "properties": {
        "osm_kind": "road",
        "name": "",
        "source": "OpenStreetMap",
        "download_window_id": "kazan_center_+0_-3_5944cc2b",
        "download_city": "Казань",
        "osm_tags": {
          "highway": "footway"
        },
        "osm_id": 694264501,
        "osm_type": "way"
      },
      "geometry": {
        "type": "LineString",
        "coordinates": [
          [
            49.0630201,
            55.7968611
          ],
          [
            49.0631106,
            55.796872
          ],
          [
            49.064073,
            55.7969827
          ],
          [
            49.0643941,
            55.7970196
          ],
          [
            49.0645583,
            55.7970384
          ],
          [
            49.0648907,
            55.7970766
          ],
          [
            49.0654435,
            55.7971407
          ],
          [
            49.066052,
            55.7972052
          ],
          [
            49.0664295,
            55.7972492
          ],
          [
            49.0664906,
            55.7972563
          ],
          [
            49.0665747,
            55.797277
          ]
        ]
      }
    },
    {
      "type": "Feature",
      "properties": {
        "osm_kind": "road",
        "name": "",
        "source": "OpenStreetMap",
        "download_window_id": "kazan_center_+0_-3_5944cc2b",
        "download_city": "Казань",
        "osm_tags": {
          "highway": "footway"
        },
        "osm_id": 694264502,
        "osm_type": "way"
      },
      "geometry": {
        "type": "LineString",
        "coordinates": [
          [
            49.0665747,
            55.797277
          ],
          [
            49.0674811,
            55.7973889
          ],
          [
            49.0677838,
            55.7974239
          ],
          [
            49.0679738,
            55.7974499
          ],
          [
            49.068198,
            55.797489
          ],
          [
            49.0682883,
            55.7975302
          ],
          [
            49.0683581,
            55.7976233
          ],
          [
            49.0683449,
            55.7977294
          ],
          [
            49.0682974,
            55.7979065
          ],
          [
            49.068279,
            55.7979749
          ],
          [
            49.0681216,
            55.7985188
          ],
          [
            49.0680718,
            55.7986661
          ],
          [
            49.0679965,
            55.7988889
          ]
        ]
      }
    },
    {
      "type": "Feature",
      "properties": {
        "osm_kind": "road",
        "name": "",
        "source": "OpenStreetMap",
        "download_window_id": "kazan_center_+0_-3_5944cc2b",
        "download_city": "Казань",
        "osm_tags": {
          "highway": "footway"
        },
        "osm_id": 694264506,
        "osm_type": "way"
      },
      "geometry": {
        "type": "LineString",
        "coordinates": [
          [
            49.0679147,
            55.7996798
          ],
          [
            49.0680938,
            55.7992036
          ],
          [
            49.0681717,
            55.798941
          ],
          [
            49.0684911,
            55.7980261
          ],
          [
            49.0685282,
            55.7979036
          ],
          [
            49.0685819,
            55.7976809
          ],
          [
            49.0685978,
            55.79757
          ],
          [
            49.0685493,
            55.797464
          ],
          [
            49.068477,
            55.7974131
          ],
          [
            49.0683813,
            55.7973753
          ],
          [
            49.0679609,
            55.7973077
          ],
          [
            49.0674959,
            55.7972545
          ],
          [
            49.0672371,
            55.7972245
          ]
        ]
      }
    },
    {
      "type": "Feature",
      "properties": {
        "osm_kind": "road",
        "name": "",
        "source": "OpenStreetMap",
        "download_window_id": "kazan_center_+0_-3_5944cc2b",
        "download_city": "Казань",
        "osm_tags": {
          "highway": "footway"
        },
        "osm_id": 694264508,
        "osm_type": "way"
      },
      "geometry": {
        "type": "LineString",
        "coordinates": [
          [
            49.0664159,
            55.7971332
          ],
          [
            49.0663348,
            55.7971265
          ],
          [
            49.0651213,
            55.7969892
          ],
          [
            49.0646062,
            55.7969258
          ],
          [
            49.0642831,
            55.7968861
          ],
          [
            49.0639153,
            55.7968409
          ],
          [
            49.063764,
            55.7968258
          ],
          [
            49.0634308,
            55.7967924
          ],
          [
            49.0631463,
            55.796764
          ]
        ]
      }
    },
    {
      "type": "Feature",
      "properties": {
        "osm_kind": "road",
        "name": "",
        "source": "OpenStreetMap",
        "download_window_id": "kazan_center_+0_-3_5944cc2b",
        "download_city": "Казань",
        "osm_tags": {
          "highway": "footway"
        },
        "osm_id": 746322761,
        "osm_type": "way"
      },
      "geometry": {
        "type": "LineString",
        "coordinates": [
          [
            49.0661199,
            55.7975778
          ],
          [
            49.0661917,
            55.7975033
          ],
          [
            49.066352,
            55.7974392
          ],
          [
            49.0664295,
            55.7972492
          ]
        ]
      }
    },
    {
      "type": "Feature",
      "properties": {
        "osm_kind": "road",
        "name": "",
        "source": "OpenStreetMap",
        "download_window_id": "kazan_center_+0_-3_5944cc2b",
        "download_city": "Казань",
        "osm_tags": {
          "highway": "footway"
        },
        "osm_id": 1041507413,
        "osm_type": "way"
      },
      "geometry": {
        "type": "LineString",
        "coordinates": [
          [
            49.0672371,
            55.7972245
          ],
          [
            49.066731,
            55.7971658
          ],
          [
            49.0666218,
            55.7971552
          ]
        ]
      }
    },
    {
      "type": "Feature",
      "properties": {
        "osm_kind": "road",
        "name": "",
        "source": "OpenStreetMap",
        "download_window_id": "kazan_center_+0_-3_5944cc2b",
        "download_city": "Казань",
        "osm_tags": {
          "highway": "path"
        },
        "osm_id": 1056221264,
        "osm_type": "way"
      },
      "geometry": {
        "type": "LineString",
        "coordinates": [
          [
            49.0672371,
            55.7972245
          ],
          [
            49.0687603,
            55.7973285
          ],
          [
            49.0688548,
            55.7973587
          ],
          [
            49.0689114,
            55.797393
          ]
        ]
      }
    },
    {
      "type": "Feature",
      "properties": {
        "osm_kind": "road",
        "name": "Большая улица",
        "source": "OpenStreetMap",
        "download_window_id": "kazan_center_+0_-3_5944cc2b",
        "download_city": "Казань",
        "osm_tags": {
          "highway": "tertiary",
          "name": "Большая улица"
        },
        "osm_id": 1057806012,
        "osm_type": "way"
      },
      "geometry": {
        "type": "LineString",
        "coordinates": [
          [
            49.0684282,
            55.7975687
          ],
          [
            49.0683638,
            55.7974993
          ],
          [
            49.0682887,
            55.7974481
          ],
          [
            49.0681868,
            55.7974179
          ],
          [
            49.0680342,
            55.7973906
          ],
          [
            49.0675006,
            55.7973282
          ],
          [
            49.0667419,
            55.7972354
          ],
          [
            49.0665978,
            55.7972181
          ],
          [
            49.0665099,
            55.7972076
          ],
          [
            49.0645757,
            55.7969943
          ],
          [
            49.0640878,
            55.7969394
          ],
          [
            49.0637374,
            55.7969
          ],
          [
            49.0634109,
            55.7968632
          ],
          [
            49.0632065,
            55.7968402
          ],
          [
            49.0631242,
            55.796831
          ],
          [
            49.0630315,
            55.7968207
          ],
          [
            49.0629549,
            55.7968122
          ],
          [
            49.0628127,
            55.7967957
          ],
          [
            49.0613822,
            55.7966299
          ],
          [
            49.0612022,
            55.7966081
          ],
          [
            49.0604063,
            55.7965154
          ],
          [
            49.0598898,
            55.7964552
          ],
          [
            49.0593625,
            55.7963938
          ],
          [
            49.0591423,
            55.7963688
          ],
          [
            49.0589652,
            55.7963477
          ],
          [
            49.0586793,
            55.7963148
          ],
          [
            49.0583928,
            55.7962798
          ],
          [
            49.0582007,
            55.7962563
          ],
          [
            49.0571911,
            55.7961329
          ]
        ]
      }
    },
    {
      "type": "Feature",
      "properties": {
        "osm_kind": "road",
        "name": "",
        "source": "OpenStreetMap",
        "download_window_id": "kazan_center_+0_-3_5944cc2b",
        "download_city": "Казань",
        "osm_tags": {
          "highway": "service"
        },
        "osm_id": 1259394861,
        "osm_type": "way"
      },
      "geometry": {
        "type": "LineString",
        "coordinates": [
          [
            49.0639436,
            55.7975043
          ],
          [
            49.0639865,
            55.7972359
          ],
          [
            49.064073,
            55.7969827
          ],
          [
            49.0640878,
            55.7969394
          ]
        ]
      }
    },
    {
      "type": "Feature",
      "properties": {
        "osm_kind": "road",
        "name": "",
        "source": "OpenStreetMap",
        "download_window_id": "kazan_center_+0_-3_5944cc2b",
        "download_city": "Казань",
        "osm_tags": {
          "highway": "service"
        },
        "osm_id": 1259394862,
        "osm_type": "way"
      },
      "geometry": {
        "type": "LineString",
        "coordinates": [
          [
            49.0644371,
            55.797346
          ],
          [
            49.0645583,
            55.7970384
          ],
          [
            49.0645757,
            55.7969943
          ]
        ]
      }
    },
    {
      "type": "Feature",
      "properties": {
        "osm_kind": "road",
        "name": "",
        "source": "OpenStreetMap",
        "download_window_id": "kazan_center_+0_-3_5944cc2b",
        "download_city": "Казань",
        "osm_tags": {
          "highway": "service"
        },
        "osm_id": 1259394863,
        "osm_type": "way"
      },
      "geometry": {
        "type": "LineString",
        "coordinates": [
          [
            49.0647027,
            55.7967097
          ],
          [
            49.0646062,
            55.7969258
          ],
          [
            49.0645757,
            55.7969943
          ]
        ]
      }
    },
    {
      "type": "Feature",
      "properties": {
        "osm_kind": "road",
        "name": "",
        "source": "OpenStreetMap",
        "download_window_id": "kazan_center_+0_-3_5944cc2b",
        "download_city": "Казань",
        "osm_tags": {
          "highway": "service"
        },
        "osm_id": 1259394864,
        "osm_type": "way"
      },
      "geometry": {
        "type": "LineString",
        "coordinates": [
          [
            49.0671113,
            55.7971394
          ],
          [
            49.0668941,
            55.7971289
          ],
          [
            49.0667908,
            55.797158
          ],
          [
            49.0667419,
            55.7972354
          ]
        ]
      }
    },
    {
      "type": "Feature",
      "properties": {
        "osm_kind": "building",
        "name": "",
        "source": "OpenStreetMap",
        "download_window_id": "kazan_center_+0_-3_5944cc2b",
        "download_city": "Казань",
        "osm_tags": {
          "building": "garages"
        },
        "osm_id": 1259394866,
        "osm_type": "way"
      },
      "geometry": {
        "type": "Polygon",
        "coordinates": [
          [
            [
              49.0659285,
              55.7972073
            ],
            [
              49.0658614,
              55.7973739
            ],
            [
              49.0660462,
              55.7973974
            ],
            [
              49.0661133,
              55.7972308
            ],
            [
              49.0659285,
              55.7972073
            ]
          ]
        ]
      }
    },
    {
      "type": "Feature",
      "properties": {
        "osm_kind": "building",
        "name": "",
        "source": "OpenStreetMap",
        "download_window_id": "kazan_center_+0_-3_5944cc2b",
        "download_city": "Казань",
        "osm_tags": {
          "building": "house"
        },
        "osm_id": 1259394867,
        "osm_type": "way"
      },
      "geometry": {
        "type": "Polygon",
        "coordinates": [
          [
            [
              49.0656897,
              55.7971839
            ],
            [
              49.0656482,
              55.7973045
            ],
            [
              49.0657515,
              55.7973158
            ],
            [
              49.0657931,
              55.7971952
            ],
            [
              49.0656897,
              55.7971839
            ]
          ]
        ]
      }
    },
    {
      "type": "Feature",
      "properties": {
        "osm_kind": "building",
        "name": "",
        "source": "OpenStreetMap",
        "download_window_id": "kazan_center_+0_-3_5944cc2b",
        "download_city": "Казань",
        "osm_tags": {
          "building": "yes"
        },
        "osm_id": 1268486847,
        "osm_type": "way"
      },
      "geometry": {
        "type": "Polygon",
        "coordinates": [
          [
            [
              49.0671864,
              55.7968937
            ],
            [
              49.0671591,
              55.7969727
            ],
            [
              49.0673914,
              55.7969981
            ],
            [
              49.0674188,
              55.7969191
            ],
            [
              49.0671864,
              55.7968937
            ]
          ]
        ]
      }
    },
    {
      "type": "Feature",
      "properties": {
        "osm_kind": "road",
        "name": "",
        "source": "OpenStreetMap",
        "download_window_id": "kazan_center_+0_-3_5944cc2b",
        "download_city": "Казань",
        "osm_tags": {
          "highway": "service"
        },
        "osm_id": 1421638253,
        "osm_type": "way"
      },
      "geometry": {
        "type": "LineString",
        "coordinates": [
          [
            49.0634716,
            55.7966472
          ],
          [
            49.0634308,
            55.7967924
          ],
          [
            49.0634109,
            55.7968632
          ]
        ]
      }
    },
    {
      "type": "Feature",
      "properties": {
        "osm_kind": "road",
        "name": "",
        "source": "OpenStreetMap",
        "download_window_id": "kazan_center_+0_-3_5944cc2b",
        "download_city": "Казань",
        "osm_tags": {
          "highway": "service"
        },
        "osm_id": 1421638254,
        "osm_type": "way"
      },
      "geometry": {
        "type": "LineString",
        "coordinates": [
          [
            49.0638213,
            55.7966654
          ],
          [
            49.063764,
            55.7968258
          ],
          [
            49.0637374,
            55.7969
          ]
        ]
      }
    },
    {
      "type": "Feature",
      "properties": {
        "osm_kind": "building",
        "name": "",
        "source": "OpenStreetMap",
        "download_window_id": "kazan_center_+0_-3_5944cc2b",
        "download_city": "Казань",
        "osm_tags": {
          "building": "yes"
        },
        "osm_id": 1443782338,
        "osm_type": "way"
      },
      "geometry": {
        "type": "Polygon",
        "coordinates": [
          [
            [
              49.0672641,
              55.7964336
            ],
            [
              49.0672259,
              55.7965553
            ],
            [
              49.0673721,
              55.7965698
            ],
            [
              49.0674103,
              55.7964481
            ],
            [
              49.0672641,
              55.7964336
            ]
          ]
        ]
      }
    },
    {
      "type": "Feature",
      "properties": {
        "osm_kind": "building",
        "name": "",
        "source": "OpenStreetMap",
        "download_window_id": "kazan_center_+0_-3_5944cc2b",
        "download_city": "Казань",
        "osm_tags": {
          "building": "yes"
        },
        "osm_id": 1443782339,
        "osm_type": "way"
      },
      "geometry": {
        "type": "Polygon",
        "coordinates": [
          [
            [
              49.0650997,
              55.796758
            ],
            [
              49.0650688,
              55.7968319
            ],
            [
              49.0651838,
              55.796847
            ],
            [
              49.0652147,
              55.7967732
            ],
            [
              49.0650997,
              55.796758
            ]
          ]
        ]
      }
    },
    {
      "type": "Feature",
      "properties": {
        "osm_kind": "building",
        "name": "",
        "source": "OpenStreetMap",
        "download_window_id": "kazan_center_+0_-3_5944cc2b",
        "download_city": "Казань",
        "osm_tags": {
          "building": "house"
        },
        "osm_id": 1443782340,
        "osm_type": "way"
      },
      "geometry": {
        "type": "Polygon",
        "coordinates": [
          [
            [
              49.0659615,
              55.797044
            ],
            [
              49.0659691,
              55.797018
            ],
            [
              49.065975,
              55.7969983
            ],
            [
              49.0660425,
              55.7970046
            ],
            [
              49.0660393,
              55.7970158
            ],
            [
              49.0660785,
              55.7970195
            ],
            [
              49.0660796,
              55.7970159
            ],
            [
              49.0661087,
              55.7970186
            ],
            [
              49.0660977,
              55.7970563
            ],
            [
              49.0660945,
              55.797056
            ],
            [
              49.0660916,
              55.7970658
            ],
            [
              49.0660703,
              55.7970637
            ],
            [
              49.0660719,
              55.797058
            ],
            [
              49.0660685,
              55.7970576
            ],
            [
              49.0660696,
              55.7970541
            ],
            [
              49.0659615,
              55.797044
            ]
          ]
        ]
      }
    },
    {
      "type": "Feature",
      "properties": {
        "osm_kind": "building",
        "name": "",
        "source": "OpenStreetMap",
        "download_window_id": "kazan_center_+0_-3_5944cc2b",
        "download_city": "Казань",
        "osm_tags": {
          "building": "house"
        },
        "osm_id": 1443782341,
        "osm_type": "way"
      },
      "geometry": {
        "type": "Polygon",
        "coordinates": [
          [
            [
              49.065894,
              55.797011
            ],
            [
              49.0659112,
              55.7969524
            ],
            [
              49.0659989,
              55.7969606
            ],
            [
              49.0659957,
              55.7969717
            ],
            [
              49.06609,
              55.7969805
            ],
            [
              49.0660785,
              55.7970195
            ],
            [
              49.0660393,
              55.7970158
            ],
            [
              49.0660425,
              55.7970046
            ],
            [
              49.065975,
              55.7969983
            ],
            [
              49.0659691,
              55.797018
            ],
            [
              49.065894,
              55.797011
            ]
          ]
        ]
      }
    }
  ]
}