{
  "type": "FeatureCollection",
  "name": "kazan_kaban_-1_-2_b2a9f243",
  "metadata": {
    "category": "shared_pipe",
    "rank": 43,
    "city": "Казань Кабан",
    "seed": "kazan_kaban",
    "center": [
      49.1028483,
      55.7673644
    ],
    "bbox_south_west_north_east": [
      55.7660169,
      49.1004531,
      55.7687118,
      49.1052436
    ],
    "source": "OpenStreetMap via Overpass API",
    "note": "Real OSM geometry only. Category is a heuristic research bucket, not heat-network ground truth.",
    "metrics": {
      "counts": {
        "building": 18,
        "road": 15,
        "major_road": 1,
        "railway": 0,
        "water": 0,
        "green": 0
      },
      "lengths_m": {
        "road": 2594.43,
        "major_road": 421.32,
        "railway": 0.0,
        "water": 0.0
      },
      "building_centers": 18,
      "building_spread": 0.2818,
      "barrier_score": 0.4213,
      "road_score": 2.7879,
      "category_scores": {
        "shared_pipe": 1.704,
        "separate_pipes": 2.073,
        "fifty_fifty": 1.7189,
        "refusal": 1.3908
      }
    }
  },
  "features": [
    {
      "type": "Feature",
      "properties": {
        "osm_kind": "road",
        "name": "улица Мазита Гафури",
        "source": "OpenStreetMap",
        "download_window_id": "kazan_kaban_-1_-2_b2a9f243",
        "download_city": "Казань Кабан",
        "osm_tags": {
          "highway": "residential",
          "name": "улица Мазита Гафури"
        },
        "osm_id": 28465078,
        "osm_type": "way"
      },
      "geometry": {
        "type": "LineString",
        "coordinates": [
          [
            49.1052176,
            55.7662249
          ],
          [
            49.1051684,
            55.7663774
          ],
          [
            49.1051545,
            55.7664425
          ],
          [
            49.1050157,
            55.7667026
          ],
          [
            49.1048769,
            55.7669652
          ],
          [
            49.1043907,
            55.7680143
          ],
          [
            49.104139,
            55.7685075
          ],
          [
            49.1040306,
            55.76874
          ],
          [
            49.103933,
            55.768944
          ]
        ]
      }
    },
    {
      "type": "Feature",
      "properties": {
        "osm_kind": "road",
        "name": "улица Кызыл Татарстан",
        "source": "OpenStreetMap",
        "download_window_id": "kazan_kaban_-1_-2_b2a9f243",
        "download_city": "Казань Кабан",
        "osm_tags": {
          "highway": "unclassified",
          "name": "улица Кызыл Татарстан"
        },
        "osm_id": 38246336,
        "osm_type": "way"
      },
      "geometry": {
        "type": "LineString",
        "coordinates": [
          [
            49.1011756,
            55.7657274
          ],
          [
            49.1014999,
            55.765762
          ],
          [
            49.1016865,
            55.7657784
          ],
          [
            49.1032434,
            55.7659796
          ],
          [
            49.1038288,
            55.7660553
          ],
          [
            49.1041751,
            55.7660976
          ],
          [
            49.104387,
            55.7661235
          ],
          [
            49.1045305,
            55.766141
          ],
          [
            49.1048801,
            55.7661837
          ],
          [
            49.1052176,
            55.7662249
          ]
        ]
      }
    },
    {
      "type": "Feature",
      "properties": {
        "osm_kind": "building",
        "name": "",
        "source": "OpenStreetMap",
        "download_window_id": "kazan_kaban_-1_-2_b2a9f243",
        "download_city": "Казань Кабан",
        "osm_tags": {
          "building": "yes"
        },
        "osm_id": 63205414,
        "osm_type": "way"
      },
      "geometry": {
        "type": "Polygon",
        "coordinates": [
          [
            [
              49.1010708,
              55.7677461
            ],
            [
              49.1009941,
              55.7680925
            ],
            [
              49.1008986,
              55.7685237
            ],
            [
              49.1020367,
              55.7686034
            ],
            [
              49.1031747,
              55.7686832
            ],
            [
              49.1032702,
              55.768252
            ],
            [
              49.1033469,
              55.7679056
            ],
            [
              49.1010708,
              55.7677461
            ]
          ]
        ]
      }
    },
    {
      "type": "Feature",
      "properties": {
        "osm_kind": "building",
        "name": "",
        "source": "OpenStreetMap",
        "download_window_id": "kazan_kaban_-1_-2_b2a9f243",
        "download_city": "Казань Кабан",
        "osm_tags": {
          "building": "yes"
        },
        "osm_id": 81652724,
        "osm_type": "way"
      },
      "geometry": {
        "type": "Polygon",
        "coordinates": [
          [
            [
              49.1037571,
              55.7685121
            ],
            [
              49.104038,
              55.7679995
            ],
            [
              49.1038396,
              55.7679651
            ],
            [
              49.1035587,
              55.7684777
            ],
            [
              49.1037571,
              55.7685121
            ]
          ]
        ]
      }
    },
    {
      "type": "Feature",
      "properties": {
        "osm_kind": "road",
        "name": "улица Эш Урам",
        "source": "OpenStreetMap",
        "download_window_id": "kazan_kaban_-1_-2_b2a9f243",
        "download_city": "Казань Кабан",
        "osm_tags": {
          "highway": "residential",
          "name": "улица Эш Урам"
        },
        "osm_id": 81652742,
        "osm_type": "way"
      },
      "geometry": {
        "type": "LineString",
        "coordinates": [
          [
            49.1043907,
            55.7680143
          ],
          [
            49.1050248,
            55.7681149
          ],
          [
            49.1066357,
            55.7683163
          ]
        ]
      }
    },
    {
      "type": "Feature",
      "properties": {
        "osm_kind": "building",
        "name": "",
        "source": "OpenStreetMap",
        "download_window_id": "kazan_kaban_-1_-2_b2a9f243",
        "download_city": "Казань Кабан",
        "osm_tags": {
          "building": "yes"
        },
        "osm_id": 96705014,
        "osm_type": "way"
      },
      "geometry": {
        "type": "Polygon",
        "coordinates": [
          [
            [
              49.1039958,
              55.7675034
            ],
            [
              49.10416,
              55.7675367
            ],
            [
              49.1042445,
              55.7673958
            ],
            [
              49.1043005,
              55.7674064
            ],
            [
              49.1045005,
              55.7670729
            ],
            [
              49.1040857,
              55.7669942
            ],
            [
              49.1040041,
              55.7671303
            ],
            [
              49.1042031,
              55.7671681
            ],
            [
              49.1041461,
              55.7672527
            ],
            [
              49.1036429,
              55.767159
            ],
            [
              49.103602,
              55.7672285
            ],
            [
              49.1025449,
              55.7670316
            ],
            [
              49.1028209,
              55.7665625
            ],
            [
              49.1024395,
              55.7664961
            ],
            [
              49.1020719,
              55.7671629
            ],
            [
              49.1025782,
              55.7672573
            ],
            [
              49.1025892,
              55.7672387
            ],
            [
              49.1032331,
              55.7673599
            ],
            [
              49.1032128,
              55.767394
            ],
            [
              49.1035824,
              55.7674639
            ],
            [
              49.1036033,
              55.767429
            ],
            [
              49.1039958,
              55.7675034
            ]
          ]
        ]
      }
    },
    {
      "type": "Feature",
      "properties": {
        "osm_kind": "building",
        "name": "",
        "source": "OpenStreetMap",
        "download_window_id": "kazan_kaban_-1_-2_b2a9f243",
        "download_city": "Казань Кабан",
        "osm_tags": {
          "building": "yes"
        },
        "osm_id": 96705037,
        "osm_type": "way"
      },
      "geometry": {
        "type": "Polygon",
        "coordinates": [
          [
            [
              49.1018601,
              55.7663598
            ],
            [
              49.1020798,
              55.7663883
            ],
            [
              49.102232,
              55.7661673
            ],
            [
              49.102455,
              55.7661962
            ],
            [
              49.102487,
              55.7661181
            ],
            [
              49.1029532,
              55.7661786
            ],
            [
              49.1030081,
              55.7660487
            ],
            [
              49.1021179,
              55.7659549
            ],
            [
              49.1018601,
              55.7663598
            ]
          ]
        ]
      }
    },
    {
      "type": "Feature",
      "properties": {
        "osm_kind": "building",
        "name": "",
        "source": "OpenStreetMap",
        "download_window_id": "kazan_kaban_-1_-2_b2a9f243",
        "download_city": "Казань Кабан",
        "osm_tags": {
          "building": "yes"
        },
        "osm_id": 96705078,
        "osm_type": "way"
      },
      "geometry": {
        "type": "Polygon",
        "coordinates": [
          [
            [
              49.1033453,
              55.7667384
            ],
            [
              49.1038824,
              55.7668444
            ],
            [
              49.1040075,
              55.7666438
            ],
            [
              49.1034703,
              55.7665378
            ],
            [
              49.1033453,
              55.7667384
            ]
          ]
        ]
      }
    },
    {
      "type": "Feature",
      "properties": {
        "osm_kind": "building",
        "name": "",
        "source": "OpenStreetMap",
        "download_window_id": "kazan_kaban_-1_-2_b2a9f243",
        "download_city": "Казань Кабан",
        "osm_tags": {
          "building": "yes"
        },
        "osm_id": 96705083,
        "osm_type": "way"
      },
      "geometry": {
        "type": "Polygon",
        "coordinates": [
          [
            [
              49.1015065,
              55.7668303
            ],
            [
              49.101626,
              55.7663084
            ],
            [
              49.1012946,
              55.7662844
            ],
            [
              49.1011751,
              55.7668063
            ],
            [
              49.1015065,
              55.7668303
            ]
          ]
        ]
      }
    },
    {
      "type": "Feature",
      "properties": {
        "osm_kind": "building",
        "name": "",
        "source": "OpenStreetMap",
        "download_window_id": "kazan_kaban_-1_-2_b2a9f243",
        "download_city": "Казань Кабан",
        "osm_tags": {
          "building": "yes"
        },
        "osm_id": 96705094,
        "osm_type": "way"
      },
      "geometry": {
        "type": "Polygon",
        "coordinates": [
          [
            [
              49.1048455,
              55.7686683
            ],
            [
              49.1049699,
              55.7686873
            ],
            [
              49.105047,
              55.768527
            ],
            [
              49.1049226,
              55.7685081
            ],
            [
              49.1048455,
              55.7686683
            ]
          ]
        ]
      }
    },
    {
      "type": "Feature",
      "properties": {
        "osm_kind": "building",
        "name": "",
        "source": "OpenStreetMap",
        "download_window_id": "kazan_kaban_-1_-2_b2a9f243",
        "download_city": "Казань Кабан",
        "osm_tags": {
          "building": "yes"
        },
        "osm_id": 96705166,
        "osm_type": "way"
      },
      "geometry": {
        "type": "Polygon",
        "coordinates": [
          [
            [
              49.1045485,
              55.7664241
            ],
            [
              49.1048608,
              55.7664602
            ],
            [
              49.1049026,
              55.7663461
            ],
            [
              49.1045903,
              55.7663099
            ],
            [
              49.1045485,
              55.7664241
            ]
          ]
        ]
      }
    },
    {
      "type": "Feature",
      "properties": {
        "osm_kind": "building",
        "name": "",
        "source": "OpenStreetMap",
        "download_window_id": "kazan_kaban_-1_-2_b2a9f243",
        "download_city": "Казань Кабан",
        "osm_tags": {
          "building": "yes"
        },
        "osm_id": 96705219,
        "osm_type": "way"
      },
      "geometry": {
        "type": "Polygon",
        "coordinates": [
          [
            [
              49.1050575,
              55.7682958
            ],
            [
              49.1051282,
              55.7683071
            ],
            [
              49.1050541,
              55.7684532
            ],
            [
              49.1054691,
              55.7685198
            ],
            [
              49.105585,
              55.7682914
            ],
            [
              49.1050993,
              55.7682134
            ],
            [
              49.1050575,
              55.7682958
            ]
          ]
        ]
      }
    },
    {
      "type": "Feature",
      "properties": {
        "osm_kind": "road",
        "name": "",
        "source": "OpenStreetMap",
        "download_window_id": "kazan_kaban_-1_-2_b2a9f243",
        "download_city": "Казань Кабан",
        "osm_tags": {
          "highway": "service"
        },
        "osm_id": 126134757,
        "osm_type": "way"
      },
      "geometry": {
        "type": "LineString",
        "coordinates": [
          [
            49.1052176,
            55.7662249
          ],
          [
            49.1053828,
            55.7661602
          ],
          [
            49.1059698,
            55.7650736
          ]
        ]
      }
    },
    {
      "type": "Feature",
      "properties": {
        "osm_kind": "building",
        "name": "Белая мечеть",
        "source": "OpenStreetMap",
        "download_window_id": "kazan_kaban_-1_-2_b2a9f243",
        "download_city": "Казань Кабан",
        "osm_tags": {
          "building": "mosque",
          "name": "Белая мечеть"
        },
        "osm_id": 126134762,
        "osm_type": "way"
      },
      "geometry": {
        "type": "Polygon",
        "coordinates": [
          [
            [
              49.1017242,
              55.766029
            ],
            [
              49.1016721,
              55.7659372
            ],
            [
              49.1015953,
              55.765951
            ],
            [
              49.1015589,
              55.7658867
            ],
            [
              49.1014864,
              55.7658998
            ],
            [
              49.1014756,
              55.7658808
            ],
            [
              49.1014032,
              55.7658939
            ],
            [
              49.1014098,
              55.7659055
            ],
            [
              49.1013736,
              55.765912
            ],
            [
              49.1013777,
              55.7659193
            ],
            [
              49.1013414,
              55.7659258
            ],
            [
              49.1014861,
              55.7661805
            ],
            [
              49.1018538,
              55.7661144
            ],
            [
              49.1017977,
              55.7660158
            ],
            [
              49.1017242,
              55.766029
            ]
          ]
        ]
      }
    },
    {
      "type": "Feature",
      "properties": {
        "osm_kind": "building",
        "name": "",
        "source": "OpenStreetMap",
        "download_window_id": "kazan_kaban_-1_-2_b2a9f243",
        "download_city": "Казань Кабан",
        "osm_tags": {
          "building": "yes"
        },
        "osm_id": 158473506,
        "osm_type": "way"
      },
      "geometry": {
        "type": "Polygon",
        "coordinates": [
          [
            [
              49.1007454,
              55.7670853
            ],
            [
              49.1008068,
              55.7666791
            ],
            [
              49.1004699,
              55.766663
            ],
            [
              49.1004085,
              55.7670692
            ],
            [
              49.1007454,
              55.7670853
            ]
          ]
        ]
      }
    },
    {
      "type": "Feature",
      "properties": {
        "osm_kind": "building",
        "name": "",
        "source": "OpenStreetMap",
        "download_window_id": "kazan_kaban_-1_-2_b2a9f243",
        "download_city": "Казань Кабан",
        "osm_tags": {
          "building": "yes"
        },
        "osm_id": 158473515,
        "osm_type": "way"
      },
      "geometry": {
        "type": "Polygon",
        "coordinates": [
          [
            [
              49.1001292,
              55.76791
            ],
            [
              49.1001933,
              55.7676271
            ],
            [
              49.1004756,
              55.7676474
            ],
            [
              49.1004366,
              55.7678196
            ],
            [
              49.1004861,
              55.7678232
            ],
            [
              49.1004667,
              55.7679089
            ],
            [
              49.1003924,
              55.7679036
            ],
            [
              49.1003874,
              55.7679256
            ],
            [
              49.1001292,
              55.76791
            ]
          ]
        ]
      }
    },
    {
      "type": "Feature",
      "properties": {
        "osm_kind": "road",
        "name": "",
        "source": "OpenStreetMap",
        "download_window_id": "kazan_kaban_-1_-2_b2a9f243",
        "download_city": "Казань Кабан",
        "osm_tags": {
          "highway": "service"
        },
        "osm_id": 204099701,
        "osm_type": "way"
      },
      "geometry": {
        "type": "LineString",
        "coordinates": [
          [
            49.100545,
            55.7690292
          ],
          [
            49.1012122,
            55.7690796
          ],
          [
            49.1013163,
            55.768644
          ],
          [
            49.1025878,
            55.7687334
          ],
          [
            49.1024835,
            55.7691702
          ],
          [
            49.1027382,
            55.7691894
          ],
          [
            49.1027938,
            55.7691775
          ],
          [
            49.1028454,
            55.7691495
          ],
          [
            49.102946,
            55.7687287
          ],
          [
            49.1032753,
            55.7687482
          ],
          [
            49.1034242,
            55.7686984
          ],
          [
            49.1038278,
            55.7687261
          ],
          [
            49.1040306,
            55.76874
          ]
        ]
      }
    },
    {
      "type": "Feature",
      "properties": {
        "osm_kind": "building",
        "name": "",
        "source": "OpenStreetMap",
        "download_window_id": "kazan_kaban_-1_-2_b2a9f243",
        "download_city": "Казань Кабан",
        "osm_tags": {
          "building": "yes"
        },
        "osm_id": 228481603,
        "osm_type": "way"
      },
      "geometry": {
        "type": "Polygon",
        "coordinates": [
          [
            [
              49.1026929,
              55.767628
            ],
            [
              49.1027463,
              55.7675228
            ],
            [
              49.1027565,
              55.7675034
            ],
            [
              49.1035724,
              55.7676381
            ],
            [
              49.1035083,
              55.7677635
            ],
            [
              49.1026929,
              55.767628
            ]
          ]
        ]
      }
    },
    {
      "type": "Feature",
      "properties": {
        "osm_kind": "building",
        "name": "",
        "source": "OpenStreetMap",
        "download_window_id": "kazan_kaban_-1_-2_b2a9f243",
        "download_city": "Казань Кабан",
        "osm_tags": {
          "building": "yes"
        },
        "osm_id": 228481604,
        "osm_type": "way"
      },
      "geometry": {
        "type": "Polygon",
        "coordinates": [
          [
            [
              49.1035083,
              55.7677635
            ],
            [
              49.1035724,
              55.7676381
            ],
            [
              49.1037979,
              55.7676746
            ],
            [
              49.1037338,
              55.7678
            ],
            [
              49.1035083,
              55.7677635
            ]
          ]
        ]
      }
    },
    {
      "type": "Feature",
      "properties": {
        "osm_kind": "building",
        "name": "",
        "source": "OpenStreetMap",
        "download_window_id": "kazan_kaban_-1_-2_b2a9f243",
        "download_city": "Казань Кабан",
        "osm_tags": {
          "building": "yes"
        },
        "osm_id": 228481607,
        "osm_type": "way"
      },
      "geometry": {
        "type": "Polygon",
        "coordinates": [
          [
            [
              49.1022196,
              55.7675519
            ],
            [
              49.1026929,
              55.767628
            ],
            [
              49.1027463,
              55.7675228
            ],
            [
              49.1024773,
              55.7674793
            ],
            [
              49.1025505,
              55.7673344
            ],
            [
              49.1023459,
              55.7673017
            ],
            [
              49.1022196,
              55.7675519
            ]
          ]
        ]
      }
    },
    {
      "type": "Feature",
      "properties": {
        "osm_kind": "building",
        "name": "",
        "source": "OpenStreetMap",
        "download_window_id": "kazan_kaban_-1_-2_b2a9f243",
        "download_city": "Казань Кабан",
        "osm_tags": {
          "building": "yes"
        },
        "osm_id": 323440908,
        "osm_type": "way"
      },
      "geometry": {
        "type": "Polygon",
        "coordinates": [
          [
            [
              49.1010943,
              55.7674069
            ],
            [
              49.1011901,
              55.7669983
            ],
            [
              49.1014017,
              55.767014
            ],
            [
              49.101306,
              55.7674225
            ],
            [
              49.1010943,
              55.7674069
            ]
          ]
        ]
      }
    },
    {
      "type": "Feature",
      "properties": {
        "osm_kind": "building",
        "name": "",
        "source": "OpenStreetMap",
        "download_window_id": "kazan_kaban_-1_-2_b2a9f243",
        "download_city": "Казань Кабан",
        "osm_tags": {
          "building": "apartments"
        },
        "osm_id": 430690498,
        "osm_type": "way"
      },
      "geometry": {
        "type": "Polygon",
        "coordinates": [
          [
            [
              49.1052247,
              55.7670996
            ],
            [
              49.1054126,
              55.7671298
            ],
            [
              49.1053281,
              55.7672964
            ],
            [
              49.105242,
              55.767466
            ],
            [
              49.1050541,
              55.7674359
            ],
            [
              49.1052247,
              55.7670996
            ]
          ]
        ]
      }
    },
    {
      "type": "Feature",
      "properties": {
        "osm_kind": "building",
        "name": "",
        "source": "OpenStreetMap",
        "download_window_id": "kazan_kaban_-1_-2_b2a9f243",
        "download_city": "Казань Кабан",
        "osm_tags": {
          "building": "apartments"
        },
        "osm_id": 430690499,
        "osm_type": "way"
      },
      "geometry": {
        "type": "Polygon",
        "coordinates": [
          [
            [
              49.1049723,
              55.7675972
            ],
            [
              49.1051601,
              55.7676273
            ],
            [
              49.1050798,
              55.7677857
            ],
            [
              49.1049924,
              55.767958
            ],
            [
              49.1048045,
              55.7679278
            ],
            [
              49.1049723,
              55.7675972
            ]
          ]
        ]
      }
    },
    {
      "type": "Feature",
      "properties": {
        "osm_kind": "major_road",
        "name": "улица Меховщиков",
        "source": "OpenStreetMap",
        "download_window_id": "kazan_kaban_-1_-2_b2a9f243",
        "download_city": "Казань Кабан",
        "osm_tags": {
          "highway": "secondary",
          "name": "улица Меховщиков"
        },
        "osm_id": 440981517,
        "osm_type": "way"
      },
      "geometry": {
        "type": "LineString",
        "coordinates": [
          [
            49.1004412,
            55.7694936
          ],
          [
            49.100545,
            55.7690292
          ],
          [
            49.100587,
            55.768844
          ],
          [
            49.1006124,
            55.7687318
          ],
          [
            49.1006341,
            55.7686358
          ],
          [
            49.1008802,
            55.7674345
          ],
          [
            49.1011756,
            55.7657274
          ]
        ]
      }
    },
    {
      "type": "Feature",
      "properties": {
        "osm_kind": "road",
        "name": "",
        "source": "OpenStreetMap",
        "download_window_id": "kazan_kaban_-1_-2_b2a9f243",
        "download_city": "Казань Кабан",
        "osm_tags": {
          "highway": "service"
        },
        "osm_id": 603494372,
        "osm_type": "way"
      },
      "geometry": {
        "type": "LineString",
        "coordinates": [
          [
            49.1006341,
            55.7686358
          ],
          [
            49.0989314,
            55.7684822
          ]
        ]
      }
    },
    {
      "type": "Feature",
      "properties": {
        "osm_kind": "road",
        "name": "",
        "source": "OpenStreetMap",
        "download_window_id": "kazan_kaban_-1_-2_b2a9f243",
        "download_city": "Казань Кабан",
        "osm_tags": {
          "highway": "service"
        },
        "osm_id": 955952193,
        "osm_type": "way"
      },
      "geometry": {
        "type": "LineString",
        "coordinates": [
          [
            49.1038288,
            55.7660553
          ],
          [
            49.103925,
            55.7657574
          ],
          [
            49.1022299,
            55.7655733
          ]
        ]
      }
    },
    {
      "type": "Feature",
      "properties": {
        "osm_kind": "road",
        "name": "",
        "source": "OpenStreetMap",
        "download_window_id": "kazan_kaban_-1_-2_b2a9f243",
        "download_city": "Казань Кабан",
        "osm_tags": {
          "highway": "footway"
        },
        "osm_id": 978651906,
        "osm_type": "way"
      },
      "geometry": {
        "type": "LineString",
        "coordinates": [
          [
            49.1050298,
            55.7663499
          ],
          [
            49.104208,
            55.7679325
          ],
          [
            49.1041865,
            55.7679775
          ],
          [
            49.1038278,
            55.7687261
          ],
          [
            49.1035728,
            55.7697206
          ],
          [
            49.1035643,
            55.7697449
          ],
          [
            49.1035214,
            55.7698683
          ],
          [
            49.1034201,
            55.7701599
          ],
          [
            49.103111,
            55.7710226
          ],
          [
            49.1030278,
            55.7710603
          ],
          [
            49.1028723,
            55.7710452
          ]
        ]
      }
    },
    {
      "type": "Feature",
      "properties": {
        "osm_kind": "road",
        "name": "",
        "source": "OpenStreetMap",
        "download_window_id": "kazan_kaban_-1_-2_b2a9f243",
        "download_city": "Казань Кабан",
        "osm_tags": {
          "highway": "footway"
        },
        "osm_id": 978651914,
        "osm_type": "way"
      },
      "geometry": {
        "type": "LineString",
        "coordinates": [
          [
            49.1053286,
            55.7663914
          ],
          [
            49.1051684,
            55.7663774
          ],
          [
            49.1050298,
            55.7663499
          ]
        ]
      }
    },
    {
      "type": "Feature",
      "properties": {
        "osm_kind": "road",
        "name": "",
        "source": "OpenStreetMap",
        "download_window_id": "kazan_kaban_-1_-2_b2a9f243",
        "download_city": "Казань Кабан",
        "osm_tags": {
          "highway": "service"
        },
        "osm_id": 978651916,
        "osm_type": "way"
      },
      "geometry": {
        "type": "LineString",
        "coordinates": [
          [
            49.1044364,
            55.7660087
          ],
          [
            49.104387,
            55.7661235
          ]
        ]
      }
    },
    {
      "type": "Feature",
      "properties": {
        "osm_kind": "road",
        "name": "",
        "source": "OpenStreetMap",
        "download_window_id": "kazan_kaban_-1_-2_b2a9f243",
        "download_city": "Казань Кабан",
        "osm_tags": {
          "highway": "service"
        },
        "osm_id": 978651917,
        "osm_type": "way"
      },
      "geometry": {
        "type": "LineString",
        "coordinates": [
          [
            49.1042246,
            55.765988
          ],
          [
            49.1041751,
            55.7660976
          ]
        ]
      }
    },
    {
      "type": "Feature",
      "properties": {
        "osm_kind": "road",
        "name": "",
        "source": "OpenStreetMap",
        "download_window_id": "kazan_kaban_-1_-2_b2a9f243",
        "download_city": "Казань Кабан",
        "osm_tags": {
          "highway": "service"
        },
        "osm_id": 978651919,
        "osm_type": "way"
      },
      "geometry": {
        "type": "LineString",
        "coordinates": [
          [
            49.1032008,
            55.7660826
          ],
          [
            49.1032434,
            55.7659796
          ]
        ]
      }
    },
    {
      "type": "Feature",
      "properties": {
        "osm_kind": "road",
        "name": "",
        "source": "OpenStreetMap",
        "download_window_id": "kazan_kaban_-1_-2_b2a9f243",
        "download_city": "Казань Кабан",
        "osm_tags": {
          "highway": "service"
        },
        "osm_id": 1093580655,
        "osm_type": "way"
      },
      "geometry": {
        "type": "LineString",
        "coordinates": [
          [
            49.1048769,
            55.7669652
          ],
          [
            49.1055599,
            55.7670803
          ],
          [
            49.1050248,
            55.7681149
          ]
        ]
      }
    },
    {
      "type": "Feature",
      "properties": {
        "osm_kind": "road",
        "name": "",
        "source": "OpenStreetMap",
        "download_window_id": "kazan_kaban_-1_-2_b2a9f243",
        "download_city": "Казань Кабан",
        "osm_tags": {
          "highway": "service"
        },
        "osm_id": 1274986734,
        "osm_type": "way"
      },
      "geometry": {
        "type": "LineString",
        "coordinates": [
          [
            49.1043907,
            55.7680143
          ],
          [
            49.1041865,
            55.7679775
          ],
          [
            49.1029568,
            55.7677556
          ],
          [
            49.1018568,
            55.7676308
          ],
          [
            49.1008802,
            55.7674345
          ]
        ]
      }
    },
    {
      "type": "Feature",
      "properties": {
        "osm_kind": "road",
        "name": "",
        "source": "OpenStreetMap",
        "download_window_id": "kazan_kaban_-1_-2_b2a9f243",
        "download_city": "Казань Кабан",
        "osm_tags": {
          "highway": "unclassified"
        },
        "osm_id": 1512423436,
        "osm_type": "way"
      },
      "geometry": {
        "type": "LineString",
        "coordinates": [
          [
            49.1052176,
            55.7662249
          ],
          [
            49.1054308,
            55.7662471
          ],
          [
            49.1054929,
            55.7662543
          ],
          [
            49.106612,
            55.7664181
          ],
          [
            49.1070005,
            55.766475
          ],
          [
            49.1071957,
            55.7664812
          ]
        ]
      }
    }
  ]
}