{
  "type": "FeatureCollection",
  "name": "nizhny_novgorod_-3_-1_674221e6",
  "metadata": {
    "category": "shared_pipe",
    "rank": 79,
    "city": "Нижний Новгород",
    "seed": "nizhny_novgorod",
    "center": [
      43.9921285,
      56.3039931
    ],
    "bbox_south_west_north_east": [
      56.3026456,
      43.9896997,
      56.3053405,
      43.9945573
    ],
    "source": "OpenStreetMap via Overpass API",
    "note": "Real OSM geometry only. Category is a heuristic research bucket, not heat-network ground truth.",
    "metrics": {
      "counts": {
        "building": 52,
        "road": 24,
        "major_road": 0,
        "railway": 2,
        "water": 0,
        "green": 0
      },
      "lengths_m": {
        "road": 3347.49,
        "major_road": 0.0,
        "railway": 1600.49,
        "water": 0.0
      },
      "building_centers": 52,
      "building_spread": 0.25,
      "barrier_score": 4.0007,
      "road_score": 3.5937,
      "category_scores": {
        "shared_pipe": 0.3246,
        "separate_pipes": 1.7371,
        "fifty_fifty": 2.3997,
        "refusal": 10.9768
      }
    }
  },
  "features": [
    {
      "type": "Feature",
      "properties": {
        "osm_kind": "railway",
        "name": "",
        "source": "OpenStreetMap",
        "download_window_id": "nizhny_novgorod_-3_-1_674221e6",
        "download_city": "Нижний Новгород",
        "osm_tags": {
          "railway": "tram"
        },
        "osm_id": 100277992,
        "osm_type": "way"
      },
      "geometry": {
        "type": "LineString",
        "coordinates": [
          [
            43.9957793,
            56.2910041
          ],
          [
            43.995696,
            56.2914622
          ],
          [
            43.9955236,
            56.2918359
          ],
          [
            43.9954662,
            56.2919604
          ],
          [
            43.9952629,
            56.2923936
          ],
          [
            43.994867,
            56.2932372
          ],
          [
            43.9948536,
            56.2932657
          ],
          [
            43.9944763,
            56.2941476
          ],
          [
            43.9944267,
            56.2942634
          ],
          [
            43.9944113,
            56.2942994
          ],
          [
            43.9943289,
            56.2945286
          ],
          [
            43.9942137,
            56.2947614
          ],
          [
            43.9941162,
            56.294922
          ],
          [
            43.9940013,
            56.2950972
          ],
          [
            43.9938786,
            56.2952159
          ],
          [
            43.9937372,
            56.2953366
          ],
          [
            43.9934916,
            56.2955036
          ],
          [
            43.9933911,
            56.2955602
          ],
          [
            43.9932814,
            56.2956151
          ],
          [
            43.9931849,
            56.2956564
          ],
          [
            43.9929642,
            56.295751
          ],
          [
            43.9927864,
            56.2958238
          ],
          [
            43.9926791,
            56.2958666
          ],
          [
            43.9926347,
            56.2958871
          ],
          [
            43.9925151,
            56.2959422
          ],
          [
            43.9924387,
            56.2959979
          ],
          [
            43.9923981,
            56.2960526
          ],
          [
            43.9923877,
            56.2960952
          ],
          [
            43.9923739,
            56.2961513
          ],
          [
            43.9922487,
            56.2967674
          ],
          [
            43.9920264,
            56.2978835
          ],
          [
            43.9919571,
            56.2981407
          ],
          [
            43.9918447,
            56.2984557
          ],
          [
            43.9915881,
            56.2997811
          ],
          [
            43.9914952,
            56.3002607
          ],
          [
            43.9912688,
            56.3014476
          ],
          [
            43.9912154,
            56.3016874
          ],
          [
            43.991168,
            56.3018112
          ],
          [
            43.9910809,
            56.3019285
          ],
          [
            43.990964,
            56.3020399
          ],
          [
            43.9909325,
            56.30207
          ],
          [
            43.9902317,
            56.3025378
          ],
          [
            43.9897141,
            56.3028833
          ],
          [
            43.9892928,
            56.3031708
          ],
          [
            43.9891842,
            56.3032947
          ],
          [
            43.9891884,
            56.3033425
          ]
        ]
      }
    },
    {
      "type": "Feature",
      "properties": {
        "osm_kind": "road",
        "name": "улица Пушкина",
        "source": "OpenStreetMap",
        "download_window_id": "nizhny_novgorod_-3_-1_674221e6",
        "download_city": "Нижний Новгород",
        "osm_tags": {
          "highway": "residential",
          "name": "улица Пушкина"
        },
        "osm_id": 100277993,
        "osm_type": "way"
      },
      "geometry": {
        "type": "LineString",
        "coordinates": [
          [
            43.9891884,
            56.3033425
          ],
          [
            43.9892151,
            56.3032999
          ],
          [
            43.9893476,
            56.3031876
          ],
          [
            43.9898022,
            56.3028904
          ],
          [
            43.9902967,
            56.3025672
          ],
          [
            43.9904865,
            56.3024431
          ],
          [
            43.9910916,
            56.3020475
          ]
        ]
      }
    },
    {
      "type": "Feature",
      "properties": {
        "osm_kind": "road",
        "name": "Охотский переулок",
        "source": "OpenStreetMap",
        "download_window_id": "nizhny_novgorod_-3_-1_674221e6",
        "download_city": "Нижний Новгород",
        "osm_tags": {
          "highway": "residential",
          "name": "Охотский переулок"
        },
        "osm_id": 148882543,
        "osm_type": "way"
      },
      "geometry": {
        "type": "LineString",
        "coordinates": [
          [
            43.9911707,
            56.304029
          ],
          [
            43.991218,
            56.3039393
          ],
          [
            43.9911817,
            56.3038698
          ],
          [
            43.9912314,
            56.3037504
          ],
          [
            43.9912857,
            56.3037044
          ]
        ]
      }
    },
    {
      "type": "Feature",
      "properties": {
        "osm_kind": "road",
        "name": "",
        "source": "OpenStreetMap",
        "download_window_id": "nizhny_novgorod_-3_-1_674221e6",
        "download_city": "Нижний Новгород",
        "osm_tags": {
          "highway": "service"
        },
        "osm_id": 148882551,
        "osm_type": "way"
      },
      "geometry": {
        "type": "LineString",
        "coordinates": [
          [
            43.9936089,
            56.3049253
          ],
          [
            43.9937836,
            56.3046896
          ]
        ]
      }
    },
    {
      "type": "Feature",
      "properties": {
        "osm_kind": "road",
        "name": "",
        "source": "OpenStreetMap",
        "download_window_id": "nizhny_novgorod_-3_-1_674221e6",
        "download_city": "Нижний Новгород",
        "osm_tags": {
          "highway": "service"
        },
        "osm_id": 148882553,
        "osm_type": "way"
      },
      "geometry": {
        "type": "LineString",
        "coordinates": [
          [
            43.9939185,
            56.3062528
          ],
          [
            43.9939284,
            56.3061198
          ],
          [
            43.9939482,
            56.3058542
          ],
          [
            43.9939583,
            56.3057405
          ],
          [
            43.9943779,
            56.3050142
          ],
          [
            43.9944284,
            56.304644
          ],
          [
            43.9949137,
            56.3039457
          ],
          [
            43.9950653,
            56.3034801
          ]
        ]
      }
    },
    {
      "type": "Feature",
      "properties": {
        "osm_kind": "road",
        "name": "",
        "source": "OpenStreetMap",
        "download_window_id": "nizhny_novgorod_-3_-1_674221e6",
        "download_city": "Нижний Новгород",
        "osm_tags": {
          "highway": "service"
        },
        "osm_id": 148882555,
        "osm_type": "way"
      },
      "geometry": {
        "type": "LineString",
        "coordinates": [
          [
            43.9925124,
            56.3045312
          ],
          [
            43.9931705,
            56.3039901
          ]
        ]
      }
    },
    {
      "type": "Feature",
      "properties": {
        "osm_kind": "road",
        "name": "",
        "source": "OpenStreetMap",
        "download_window_id": "nizhny_novgorod_-3_-1_674221e6",
        "download_city": "Нижний Новгород",
        "osm_tags": {
          "highway": "residential"
        },
        "osm_id": 148882557,
        "osm_type": "way"
      },
      "geometry": {
        "type": "LineString",
        "coordinates": [
          [
            43.9905233,
            56.304426
          ],
          [
            43.9907309,
            56.3043766
          ],
          [
            43.9908625,
            56.3043375
          ],
          [
            43.9909627,
            56.3042742
          ],
          [
            43.9910172,
            56.3041476
          ],
          [
            43.9911707,
            56.304029
          ]
        ]
      }
    },
    {
      "type": "Feature",
      "properties": {
        "osm_kind": "road",
        "name": "улица Серафимовича",
        "source": "OpenStreetMap",
        "download_window_id": "nizhny_novgorod_-3_-1_674221e6",
        "download_city": "Нижний Новгород",
        "osm_tags": {
          "highway": "residential",
          "name": "улица Серафимовича"
        },
        "osm_id": 148882561,
        "osm_type": "way"
      },
      "geometry": {
        "type": "LineString",
        "coordinates": [
          [
            43.9911707,
            56.304029
          ],
          [
            43.9925124,
            56.3045312
          ],
          [
            43.9929087,
            56.304683
          ],
          [
            43.9936089,
            56.3049253
          ]
        ]
      }
    },
    {
      "type": "Feature",
      "properties": {
        "osm_kind": "road",
        "name": "1-я Оранжерейная улица",
        "source": "OpenStreetMap",
        "download_window_id": "nizhny_novgorod_-3_-1_674221e6",
        "download_city": "Нижний Новгород",
        "osm_tags": {
          "highway": "residential",
          "name": "1-я Оранжерейная улица"
        },
        "osm_id": 148882564,
        "osm_type": "way"
      },
      "geometry": {
        "type": "LineString",
        "coordinates": [
          [
            43.9915377,
            56.3049364
          ],
          [
            43.9922159,
            56.3052207
          ],
          [
            43.9928931,
            56.3055046
          ],
          [
            43.9934289,
            56.3057292
          ],
          [
            43.9935965,
            56.3057995
          ],
          [
            43.9936509,
            56.3058407
          ],
          [
            43.9939482,
            56.3058542
          ],
          [
            43.994094,
            56.3058536
          ],
          [
            43.9946331,
            56.3058515
          ],
          [
            43.9950704,
            56.3058849
          ],
          [
            43.996389,
            56.3059858
          ],
          [
            43.9968384,
            56.3060499
          ],
          [
            43.9969632,
            56.3060638
          ],
          [
            43.9971015,
            56.3060792
          ],
          [
            43.9972473,
            56.3060749
          ],
          [
            43.9977126,
            56.3061124
          ],
          [
            43.9980514,
            56.3061543
          ],
          [
            43.9988726,
            56.306253
          ],
          [
            43.9997474,
            56.3063122
          ]
        ]
      }
    },
    {
      "type": "Feature",
      "properties": {
        "osm_kind": "building",
        "name": "",
        "source": "OpenStreetMap",
        "download_window_id": "nizhny_novgorod_-3_-1_674221e6",
        "download_city": "Нижний Новгород",
        "osm_tags": {
          "building": "yes"
        },
        "osm_id": 155408683,
        "osm_type": "way"
      },
      "geometry": {
        "type": "Polygon",
        "coordinates": [
          [
            [
              43.9915074,
              56.3040337
            ],
            [
              43.991629,
              56.3040726
            ],
            [
              43.9917311,
              56.3039744
            ],
            [
              43.9916096,
              56.3039355
            ],
            [
              43.9915074,
              56.3040337
            ]
          ]
        ]
      }
    },
    {
      "type": "Feature",
      "properties": {
        "osm_kind": "building",
        "name": "",
        "source": "OpenStreetMap",
        "download_window_id": "nizhny_novgorod_-3_-1_674221e6",
        "download_city": "Нижний Новгород",
        "osm_tags": {
          "building": "yes"
        },
        "osm_id": 155408685,
        "osm_type": "way"
      },
      "geometry": {
        "type": "Polygon",
        "coordinates": [
          [
            [
              43.9921305,
              56.3039128
            ],
            [
              43.9922326,
              56.3038429
            ],
            [
              43.9920374,
              56.3037551
            ],
            [
              43.9919671,
              56.3038033
            ],
            [
              43.9920793,
              56.3038538
            ],
            [
              43.9920475,
              56.3038755
            ],
            [
              43.9921305,
              56.3039128
            ]
          ]
        ]
      }
    },
    {
      "type": "Feature",
      "properties": {
        "osm_kind": "building",
        "name": "",
        "source": "OpenStreetMap",
        "download_window_id": "nizhny_novgorod_-3_-1_674221e6",
        "download_city": "Нижний Новгород",
        "osm_tags": {
          "building": "yes"
        },
        "osm_id": 155408686,
        "osm_type": "way"
      },
      "geometry": {
        "type": "Polygon",
        "coordinates": [
          [
            [
              43.9920147,
              56.3042434
            ],
            [
              43.9922156,
              56.3043095
            ],
            [
              43.9923131,
              56.3042184
            ],
            [
              43.9921122,
              56.3041522
            ],
            [
              43.9920147,
              56.3042434
            ]
          ]
        ]
      }
    },
    {
      "type": "Feature",
      "properties": {
        "osm_kind": "building",
        "name": "",
        "source": "OpenStreetMap",
        "download_window_id": "nizhny_novgorod_-3_-1_674221e6",
        "download_city": "Нижний Новгород",
        "osm_tags": {
          "building": "yes"
        },
        "osm_id": 155408688,
        "osm_type": "way"
      },
      "geometry": {
        "type": "Polygon",
        "coordinates": [
          [
            [
              43.990842,
              56.3049945
            ],
            [
              43.9909577,
              56.3048963
            ],
            [
              43.9908423,
              56.3048544
            ],
            [
              43.9907266,
              56.3049526
            ],
            [
              43.990842,
              56.3049945
            ]
          ]
        ]
      }
    },
    {
      "type": "Feature",
      "properties": {
        "osm_kind": "building",
        "name": "",
        "source": "OpenStreetMap",
        "download_window_id": "nizhny_novgorod_-3_-1_674221e6",
        "download_city": "Нижний Новгород",
        "osm_tags": {
          "building": "yes"
        },
        "osm_id": 155408694,
        "osm_type": "way"
      },
      "geometry": {
        "type": "Polygon",
        "coordinates": [
          [
            [
              43.9916633,
              56.3045397
            ],
            [
              43.9918517,
              56.304608
            ],
            [
              43.9919606,
              56.3045154
            ],
            [
              43.9917723,
              56.3044472
            ],
            [
              43.9916633,
              56.3045397
            ]
          ]
        ]
      }
    },
    {
      "type": "Feature",
      "properties": {
        "osm_kind": "building",
        "name": "",
        "source": "OpenStreetMap",
        "download_window_id": "nizhny_novgorod_-3_-1_674221e6",
        "download_city": "Нижний Новгород",
        "osm_tags": {
          "building": "apartments"
        },
        "osm_id": 155408698,
        "osm_type": "way"
      },
      "geometry": {
        "type": "Polygon",
        "coordinates": [
          [
            [
              43.9902,
              56.3051412
            ],
            [
              43.9903954,
              56.3051242
            ],
            [
              43.9902218,
              56.3045085
            ],
            [
              43.9900264,
              56.3045254
            ],
            [
              43.9902,
              56.3051412
            ]
          ]
        ]
      }
    },
    {
      "type": "Feature",
      "properties": {
        "osm_kind": "building",
        "name": "",
        "source": "OpenStreetMap",
        "download_window_id": "nizhny_novgorod_-3_-1_674221e6",
        "download_city": "Нижний Новгород",
        "osm_tags": {
          "building": "yes"
        },
        "osm_id": 155408700,
        "osm_type": "way"
      },
      "geometry": {
        "type": "Polygon",
        "coordinates": [
          [
            [
              43.9910905,
              56.3052457
            ],
            [
              43.9913544,
              56.305037
            ],
            [
              43.9911458,
              56.3049558
            ],
            [
              43.9908819,
              56.3051645
            ],
            [
              43.9910905,
              56.3052457
            ]
          ]
        ]
      }
    },
    {
      "type": "Feature",
      "properties": {
        "osm_kind": "building",
        "name": "",
        "source": "OpenStreetMap",
        "download_window_id": "nizhny_novgorod_-3_-1_674221e6",
        "download_city": "Нижний Новгород",
        "osm_tags": {
          "building": "yes"
        },
        "osm_id": 155408703,
        "osm_type": "way"
      },
      "geometry": {
        "type": "Polygon",
        "coordinates": [
          [
            [
              43.9922599,
              56.3046835
            ],
            [
              43.9923798,
              56.3045917
            ],
            [
              43.9921823,
              56.3045123
            ],
            [
              43.9920624,
              56.3046042
            ],
            [
              43.9922599,
              56.3046835
            ]
          ]
        ]
      }
    },
    {
      "type": "Feature",
      "properties": {
        "osm_kind": "building",
        "name": "",
        "source": "OpenStreetMap",
        "download_window_id": "nizhny_novgorod_-3_-1_674221e6",
        "download_city": "Нижний Новгород",
        "osm_tags": {
          "building": "yes"
        },
        "osm_id": 155408705,
        "osm_type": "way"
      },
      "geometry": {
        "type": "Polygon",
        "coordinates": [
          [
            [
              43.9926548,
              56.304336
            ],
            [
              43.992756,
              56.3042566
            ],
            [
              43.9926164,
              56.3042018
            ],
            [
              43.9925152,
              56.3042812
            ],
            [
              43.9926548,
              56.304336
            ]
          ]
        ]
      }
    },
    {
      "type": "Feature",
      "properties": {
        "osm_kind": "building",
        "name": "",
        "source": "OpenStreetMap",
        "download_window_id": "nizhny_novgorod_-3_-1_674221e6",
        "download_city": "Нижний Новгород",
        "osm_tags": {
          "building": "yes"
        },
        "osm_id": 155408706,
        "osm_type": "way"
      },
      "geometry": {
        "type": "Polygon",
        "coordinates": [
          [
            [
              43.9916062,
              56.3052426
            ],
            [
              43.991703,
              56.3052746
            ],
            [
              43.9917779,
              56.3052047
            ],
            [
              43.9916811,
              56.3051727
            ],
            [
              43.9916062,
              56.3052426
            ]
          ]
        ]
      }
    },
    {
      "type": "Feature",
      "properties": {
        "osm_kind": "building",
        "name": "",
        "source": "OpenStreetMap",
        "download_window_id": "nizhny_novgorod_-3_-1_674221e6",
        "download_city": "Нижний Новгород",
        "osm_tags": {
          "building": "yes"
        },
        "osm_id": 155408709,
        "osm_type": "way"
      },
      "geometry": {
        "type": "Polygon",
        "coordinates": [
          [
            [
              43.9915381,
              56.3047137
            ],
            [
              43.9914461,
              56.3048006
            ],
            [
              43.9915947,
              56.304849
            ],
            [
              43.9916866,
              56.3047621
            ],
            [
              43.9915381,
              56.3047137
            ]
          ]
        ]
      }
    },
    {
      "type": "Feature",
      "properties": {
        "osm_kind": "building",
        "name": "",
        "source": "OpenStreetMap",
        "download_window_id": "nizhny_novgorod_-3_-1_674221e6",
        "download_city": "Нижний Новгород",
        "osm_tags": {
          "building": "yes"
        },
        "osm_id": 155408710,
        "osm_type": "way"
      },
      "geometry": {
        "type": "Polygon",
        "coordinates": [
          [
            [
              43.9928012,
              56.304081
            ],
            [
              43.9928989,
              56.3041135
            ],
            [
              43.993001,
              56.304019
            ],
            [
              43.9929034,
              56.3039865
            ],
            [
              43.9928012,
              56.304081
            ]
          ]
        ]
      }
    },
    {
      "type": "Feature",
      "properties": {
        "osm_kind": "building",
        "name": "",
        "source": "OpenStreetMap",
        "download_window_id": "nizhny_novgorod_-3_-1_674221e6",
        "download_city": "Нижний Новгород",
        "osm_tags": {
          "building": "office"
        },
        "osm_id": 155408712,
        "osm_type": "way"
      },
      "geometry": {
        "type": "Polygon",
        "coordinates": [
          [
            [
              43.9899276,
              56.3042018
            ],
            [
              43.9901877,
              56.3041803
            ],
            [
              43.989997,
              56.3034719
            ],
            [
              43.9897369,
              56.3034935
            ],
            [
              43.9899276,
              56.3042018
            ]
          ]
        ]
      }
    },
    {
      "type": "Feature",
      "properties": {
        "osm_kind": "building",
        "name": "",
        "source": "OpenStreetMap",
        "download_window_id": "nizhny_novgorod_-3_-1_674221e6",
        "download_city": "Нижний Новгород",
        "osm_tags": {
          "building": "yes"
        },
        "osm_id": 155408713,
        "osm_type": "way"
      },
      "geometry": {
        "type": "Polygon",
        "coordinates": [
          [
            [
              43.9929613,
              56.3038599
            ],
            [
              43.9931621,
              56.3039544
            ],
            [
              43.9932964,
              56.3038665
            ],
            [
              43.9930956,
              56.303772
            ],
            [
              43.9929613,
              56.3038599
            ]
          ]
        ]
      }
    },
    {
      "type": "Feature",
      "properties": {
        "osm_kind": "building",
        "name": "",
        "source": "OpenStreetMap",
        "download_window_id": "nizhny_novgorod_-3_-1_674221e6",
        "download_city": "Нижний Новгород",
        "osm_tags": {
          "building": "yes"
        },
        "osm_id": 155408717,
        "osm_type": "way"
      },
      "geometry": {
        "type": "Polygon",
        "coordinates": [
          [
            [
              43.9904278,
              56.303265
            ],
            [
              43.9914053,
              56.3031808
            ],
            [
              43.9914073,
              56.3031906
            ],
            [
              43.9914788,
              56.3031962
            ],
            [
              43.9915009,
              56.3031868
            ],
            [
              43.9915043,
              56.3031774
            ],
            [
              43.9915418,
              56.3031783
            ],
            [
              43.9916609,
              56.3030914
            ],
            [
              43.9914566,
              56.3030074
            ],
            [
              43.9913715,
              56.303064
            ],
            [
              43.9905629,
              56.3031358
            ],
            [
              43.9904965,
              56.3031094
            ],
            [
              43.9903875,
              56.3031811
            ],
            [
              43.9903807,
              56.3031972
            ],
            [
              43.9903909,
              56.3032057
            ],
            [
              43.9904165,
              56.3032076
            ],
            [
              43.9904278,
              56.303265
            ]
          ]
        ]
      }
    },
    {
      "type": "Feature",
      "properties": {
        "osm_kind": "building",
        "name": "",
        "source": "OpenStreetMap",
        "download_window_id": "nizhny_novgorod_-3_-1_674221e6",
        "download_city": "Нижний Новгород",
        "osm_tags": {
          "building": "yes"
        },
        "osm_id": 155408718,
        "osm_type": "way"
      },
      "geometry": {
        "type": "Polygon",
        "coordinates": [
          [
            [
              43.9933562,
              56.3040092
            ],
            [
              43.9932268,
              56.304098
            ],
            [
              43.9933317,
              56.304145
            ],
            [
              43.9934611,
              56.3040562
            ],
            [
              43.9933562,
              56.3040092
            ]
          ]
        ]
      }
    },
    {
      "type": "Feature",
      "properties": {
        "osm_kind": "building",
        "name": "",
        "source": "OpenStreetMap",
        "download_window_id": "nizhny_novgorod_-3_-1_674221e6",
        "download_city": "Нижний Новгород",
        "osm_tags": {
          "building": "yes"
        },
        "osm_id": 155408720,
        "osm_type": "way"
      },
      "geometry": {
        "type": "Polygon",
        "coordinates": [
          [
            [
              43.993043,
              56.3043851
            ],
            [
              43.9932064,
              56.3042472
            ],
            [
              43.9930588,
              56.3041933
            ],
            [
              43.9928954,
              56.3043312
            ],
            [
              43.993043,
              56.3043851
            ]
          ]
        ]
      }
    },
    {
      "type": "Feature",
      "properties": {
        "osm_kind": "building",
        "name": "",
        "source": "OpenStreetMap",
        "download_window_id": "nizhny_novgorod_-3_-1_674221e6",
        "download_city": "Нижний Новгород",
        "osm_tags": {
          "building": "yes"
        },
        "osm_id": 155408722,
        "osm_type": "way"
      },
      "geometry": {
        "type": "Polygon",
        "coordinates": [
          [
            [
              43.9926582,
              56.304489
            ],
            [
              43.9927993,
              56.3045477
            ],
            [
              43.9929117,
              56.3044646
            ],
            [
              43.9927706,
              56.3044058
            ],
            [
              43.9926582,
              56.304489
            ]
          ]
        ]
      }
    },
    {
      "type": "Feature",
      "properties": {
        "osm_kind": "road",
        "name": "",
        "source": "OpenStreetMap",
        "download_window_id": "nizhny_novgorod_-3_-1_674221e6",
        "download_city": "Нижний Новгород",
        "osm_tags": {
          "highway": "service"
        },
        "osm_id": 155408723,
        "osm_type": "way"
      },
      "geometry": {
        "type": "LineString",
        "coordinates": [
          [
            43.9928931,
            56.3055046
          ],
          [
            43.9936089,
            56.3049253
          ],
          [
            43.9940456,
            56.3050019
          ],
          [
            43.9939436,
            56.3052653
          ],
          [
            43.9934289,
            56.3057292
          ]
        ]
      }
    },
    {
      "type": "Feature",
      "properties": {
        "osm_kind": "building",
        "name": "",
        "source": "OpenStreetMap",
        "download_window_id": "nizhny_novgorod_-3_-1_674221e6",
        "download_city": "Нижний Новгород",
        "osm_tags": {
          "building": "yes"
        },
        "osm_id": 155408727,
        "osm_type": "way"
      },
      "geometry": {
        "type": "Polygon",
        "coordinates": [
          [
            [
              43.9935137,
              56.3048435
            ],
            [
              43.9936246,
              56.3047546
            ],
            [
              43.9934475,
              56.3046866
            ],
            [
              43.9934233,
              56.304706
            ],
            [
              43.9933366,
              56.3047755
            ],
            [
              43.9935137,
              56.3048435
            ]
          ]
        ]
      }
    },
    {
      "type": "Feature",
      "properties": {
        "osm_kind": "road",
        "name": "",
        "source": "OpenStreetMap",
        "download_window_id": "nizhny_novgorod_-3_-1_674221e6",
        "download_city": "Нижний Новгород",
        "osm_tags": {
          "highway": "service"
        },
        "osm_id": 155408728,
        "osm_type": "way"
      },
      "geometry": {
        "type": "LineString",
        "coordinates": [
          [
            43.9940456,
            56.3050019
          ],
          [
            43.9940295,
            56.3047311
          ]
        ]
      }
    },
    {
      "type": "Feature",
      "properties": {
        "osm_kind": "building",
        "name": "",
        "source": "OpenStreetMap",
        "download_window_id": "nizhny_novgorod_-3_-1_674221e6",
        "download_city": "Нижний Новгород",
        "osm_tags": {
          "building": "yes"
        },
        "osm_id": 155408735,
        "osm_type": "way"
      },
      "geometry": {
        "type": "Polygon",
        "coordinates": [
          [
            [
              43.9923282,
              56.3028491
            ],
            [
              43.9925862,
              56.3028658
            ],
            [
              43.9926577,
              56.3025247
            ],
            [
              43.9923997,
              56.302508
            ],
            [
              43.9923282,
              56.3028491
            ]
          ]
        ]
      }
    },
    {
      "type": "Feature",
      "properties": {
        "osm_kind": "building",
        "name": "",
        "source": "OpenStreetMap",
        "download_window_id": "nizhny_novgorod_-3_-1_674221e6",
        "download_city": "Нижний Новгород",
        "osm_tags": {
          "building": "yes"
        },
        "osm_id": 155408736,
        "osm_type": "way"
      },
      "geometry": {
        "type": "Polygon",
        "coordinates": [
          [
            [
              43.9913709,
              56.3034976
            ],
            [
              43.991442,
              56.3034353
            ],
            [
              43.9913065,
              56.3033877
            ],
            [
              43.9912363,
              56.3034493
            ],
            [
              43.9911227,
              56.3034085
            ],
            [
              43.9909996,
              56.303514
            ],
            [
              43.991289,
              56.3036179
            ],
            [
              43.9914121,
              56.3035124
            ],
            [
              43.9913709,
              56.3034976
            ]
          ]
        ]
      }
    },
    {
      "type": "Feature",
      "properties": {
        "osm_kind": "building",
        "name": "",
        "source": "OpenStreetMap",
        "download_window_id": "nizhny_novgorod_-3_-1_674221e6",
        "download_city": "Нижний Новгород",
        "osm_tags": {
          "building": "yes"
        },
        "osm_id": 155408748,
        "osm_type": "way"
      },
      "geometry": {
        "type": "Polygon",
        "coordinates": [
          [
            [
              43.9928822,
              56.30298
            ],
            [
              43.9936329,
              56.302861
            ],
            [
              43.9935552,
              56.3027102
            ],
            [
              43.9928045,
              56.3028291
            ],
            [
              43.9928822,
              56.30298
            ]
          ]
        ]
      }
    },
    {
      "type": "Feature",
      "properties": {
        "osm_kind": "building",
        "name": "",
        "source": "OpenStreetMap",
        "download_window_id": "nizhny_novgorod_-3_-1_674221e6",
        "download_city": "Нижний Новгород",
        "osm_tags": {
          "building": "yes"
        },
        "osm_id": 155408757,
        "osm_type": "way"
      },
      "geometry": {
        "type": "Polygon",
        "coordinates": [
          [
            [
              43.9904485,
              56.3035747
            ],
            [
              43.9906528,
              56.3036692
            ],
            [
              43.9907594,
              56.3035982
            ],
            [
              43.9905551,
              56.3035037
            ],
            [
              43.9904485,
              56.3035747
            ]
          ]
        ]
      }
    },
    {
      "type": "Feature",
      "properties": {
        "osm_kind": "building",
        "name": "",
        "source": "OpenStreetMap",
        "download_window_id": "nizhny_novgorod_-3_-1_674221e6",
        "download_city": "Нижний Новгород",
        "osm_tags": {
          "building": "yes"
        },
        "osm_id": 155408762,
        "osm_type": "way"
      },
      "geometry": {
        "type": "Polygon",
        "coordinates": [
          [
            [
              43.991058,
              56.3038429
            ],
            [
              43.9911674,
              56.3037564
            ],
            [
              43.9909733,
              56.3036809
            ],
            [
              43.9908639,
              56.3037674
            ],
            [
              43.991058,
              56.3038429
            ]
          ]
        ]
      }
    },
    {
      "type": "Feature",
      "properties": {
        "osm_kind": "road",
        "name": "",
        "source": "OpenStreetMap",
        "download_window_id": "nizhny_novgorod_-3_-1_674221e6",
        "download_city": "Нижний Новгород",
        "osm_tags": {
          "highway": "service"
        },
        "osm_id": 155408770,
        "osm_type": "way"
      },
      "geometry": {
        "type": "LineString",
        "coordinates": [
          [
            43.9928055,
            56.3021712
          ],
          [
            43.9927836,
            56.3022724
          ],
          [
            43.9927365,
            56.3024577
          ],
          [
            43.9926322,
            56.3028909
          ],
          [
            43.9925678,
            56.3029008
          ],
          [
            43.9922533,
            56.302883
          ],
          [
            43.9922747,
            56.3026986
          ],
          [
            43.9922175,
            56.3026609
          ],
          [
            43.992289,
            56.3024408
          ],
          [
            43.9923748,
            56.3024348
          ],
          [
            43.9927365,
            56.3024577
          ]
        ]
      }
    },
    {
      "type": "Feature",
      "properties": {
        "osm_kind": "road",
        "name": "",
        "source": "OpenStreetMap",
        "download_window_id": "nizhny_novgorod_-3_-1_674221e6",
        "download_city": "Нижний Новгород",
        "osm_tags": {
          "highway": "service"
        },
        "osm_id": 155408771,
        "osm_type": "way"
      },
      "geometry": {
        "type": "LineString",
        "coordinates": [
          [
            43.9914196,
            56.3032567
          ],
          [
            43.9916349,
            56.3031943
          ],
          [
            43.9917386,
            56.3031309
          ],
          [
            43.9917707,
            56.3030753
          ],
          [
            43.9917207,
            56.3030178
          ],
          [
            43.9914455,
            56.3029345
          ],
          [
            43.9911702,
            56.3029345
          ],
          [
            43.9908593,
            56.3029564
          ],
          [
            43.9906202,
            56.3029797
          ]
        ]
      }
    },
    {
      "type": "Feature",
      "properties": {
        "osm_kind": "road",
        "name": "",
        "source": "OpenStreetMap",
        "download_window_id": "nizhny_novgorod_-3_-1_674221e6",
        "download_city": "Нижний Новгород",
        "osm_tags": {
          "highway": "service"
        },
        "osm_id": 155408776,
        "osm_type": "way"
      },
      "geometry": {
        "type": "LineString",
        "coordinates": [
          [
            43.9929087,
            56.304683
          ],
          [
            43.9922159,
            56.3052207
          ],
          [
            43.9920044,
            56.3053962
          ],
          [
            43.9917992,
            56.3055938
          ],
          [
            43.9916375,
            56.3057733
          ],
          [
            43.9916374,
            56.306121
          ],
          [
            43.9916374,
            56.3061834
          ]
        ]
      }
    },
    {
      "type": "Feature",
      "properties": {
        "osm_kind": "road",
        "name": "",
        "source": "OpenStreetMap",
        "download_window_id": "nizhny_novgorod_-3_-1_674221e6",
        "download_city": "Нижний Новгород",
        "osm_tags": {
          "highway": "service"
        },
        "osm_id": 155408778,
        "osm_type": "way"
      },
      "geometry": {
        "type": "LineString",
        "coordinates": [
          [
            43.991218,
            56.3039393
          ],
          [
            43.9915687,
            56.3037976
          ]
        ]
      }
    },
    {
      "type": "Feature",
      "properties": {
        "osm_kind": "road",
        "name": "",
        "source": "OpenStreetMap",
        "download_window_id": "nizhny_novgorod_-3_-1_674221e6",
        "download_city": "Нижний Новгород",
        "osm_tags": {
          "highway": "service"
        },
        "osm_id": 155408783,
        "osm_type": "way"
      },
      "geometry": {
        "type": "LineString",
        "coordinates": [
          [
            43.9904875,
            56.3037397
          ],
          [
            43.9903803,
            56.3038547
          ],
          [
            43.990416,
            56.3039955
          ]
        ]
      }
    },
    {
      "type": "Feature",
      "properties": {
        "osm_kind": "road",
        "name": "",
        "source": "OpenStreetMap",
        "download_window_id": "nizhny_novgorod_-3_-1_674221e6",
        "download_city": "Нижний Новгород",
        "osm_tags": {
          "highway": "service"
        },
        "osm_id": 155408791,
        "osm_type": "way"
      },
      "geometry": {
        "type": "LineString",
        "coordinates": [
          [
            43.9896847,
            56.3052432
          ],
          [
            43.9897139,
            56.3052414
          ],
          [
            43.9898158,
            56.305235
          ],
          [
            43.9904239,
            56.3051965
          ],
          [
            43.9905759,
            56.3051872
          ],
          [
            43.9906518,
            56.3051423
          ],
          [
            43.9917992,
            56.3055938
          ]
        ]
      }
    },
    {
      "type": "Feature",
      "properties": {
        "osm_kind": "road",
        "name": "",
        "source": "OpenStreetMap",
        "download_window_id": "nizhny_novgorod_-3_-1_674221e6",
        "download_city": "Нижний Новгород",
        "osm_tags": {
          "highway": "service"
        },
        "osm_id": 155408794,
        "osm_type": "way"
      },
      "geometry": {
        "type": "LineString",
        "coordinates": [
          [
            43.9930475,
            56.302188
          ],
          [
            43.9930592,
            56.3022921
          ],
          [
            43.9931076,
            56.3025478
          ],
          [
            43.9935901,
            56.3025677
          ],
          [
            43.9937402,
            56.302762
          ],
          [
            43.9937796,
            56.3028711
          ],
          [
            43.9937116,
            56.3029088
          ],
          [
            43.9931433,
            56.3029901
          ]
        ]
      }
    },
    {
      "type": "Feature",
      "properties": {
        "osm_kind": "road",
        "name": "",
        "source": "OpenStreetMap",
        "download_window_id": "nizhny_novgorod_-3_-1_674221e6",
        "download_city": "Нижний Новгород",
        "osm_tags": {
          "highway": "service"
        },
        "osm_id": 155408795,
        "osm_type": "way"
      },
      "geometry": {
        "type": "LineString",
        "coordinates": [
          [
            43.9938242,
            56.3022354
          ],
          [
            43.9937724,
            56.3023416
          ],
          [
            43.9937688,
            56.3026212
          ],
          [
            43.9939118,
            56.3027898
          ],
          [
            43.9954631,
            56.3029048
          ],
          [
            43.995649,
            56.302885
          ],
          [
            43.9962781,
            56.302879
          ]
        ]
      }
    },
    {
      "type": "Feature",
      "properties": {
        "osm_kind": "road",
        "name": "",
        "source": "OpenStreetMap",
        "download_window_id": "nizhny_novgorod_-3_-1_674221e6",
        "download_city": "Нижний Новгород",
        "osm_tags": {
          "highway": "service"
        },
        "osm_id": 155408797,
        "osm_type": "way"
      },
      "geometry": {
        "type": "LineString",
        "coordinates": [
          [
            43.9910172,
            56.3041476
          ],
          [
            43.9909415,
            56.3040292
          ],
          [
            43.9908485,
            56.3039162
          ],
          [
            43.9907377,
            56.3038487
          ],
          [
            43.9904875,
            56.3037397
          ],
          [
            43.9903303,
            56.3036762
          ],
          [
            43.990223,
            56.3035751
          ],
          [
            43.9899722,
            56.3033798
          ]
        ]
      }
    },
    {
      "type": "Feature",
      "properties": {
        "osm_kind": "road",
        "name": "переулок Чигорина",
        "source": "OpenStreetMap",
        "download_window_id": "nizhny_novgorod_-3_-1_674221e6",
        "download_city": "Нижний Новгород",
        "osm_tags": {
          "highway": "residential",
          "name": "переулок Чигорина"
        },
        "osm_id": 155408810,
        "osm_type": "way"
      },
      "geometry": {
        "type": "LineString",
        "coordinates": [
          [
            43.9891884,
            56.3033425
          ],
          [
            43.9892949,
            56.3033609
          ],
          [
            43.9895582,
            56.3034065
          ],
          [
            43.9899722,
            56.3033798
          ],
          [
            43.9901122,
            56.3033708
          ],
          [
            43.9914196,
            56.3032567
          ]
        ]
      }
    },
    {
      "type": "Feature",
      "properties": {
        "osm_kind": "building",
        "name": "",
        "source": "OpenStreetMap",
        "download_window_id": "nizhny_novgorod_-3_-1_674221e6",
        "download_city": "Нижний Новгород",
        "osm_tags": {
          "building": "yes"
        },
        "osm_id": 155408813,
        "osm_type": "way"
      },
      "geometry": {
        "type": "Polygon",
        "coordinates": [
          [
            [
              43.9907572,
              56.3040081
            ],
            [
              43.9907239,
              56.3039521
            ],
            [
              43.9906734,
              56.3038987
            ],
            [
              43.9906132,
              56.3038573
            ],
            [
              43.9905337,
              56.3038185
            ],
            [
              43.9904399,
              56.3038813
            ],
            [
              43.9905024,
              56.303916
            ],
            [
              43.9905337,
              56.3039427
            ],
            [
              43.990565,
              56.3039815
            ],
            [
              43.9905778,
              56.3040216
            ],
            [
              43.9907572,
              56.3040081
            ]
          ]
        ]
      }
    },
    {
      "type": "Feature",
      "properties": {
        "osm_kind": "building",
        "name": "",
        "source": "OpenStreetMap",
        "download_window_id": "nizhny_novgorod_-3_-1_674221e6",
        "download_city": "Нижний Новгород",
        "osm_tags": {
          "building": "yes"
        },
        "osm_id": 155408825,
        "osm_type": "way"
      },
      "geometry": {
        "type": "Polygon",
        "coordinates": [
          [
            [
              43.9931143,
              56.3031234
            ],
            [
              43.993145,
              56.3030508
            ],
            [
              43.9930758,
              56.3030418
            ],
            [
              43.9930451,
              56.3031143
            ],
            [
              43.9931143,
              56.3031234
            ]
          ]
        ]
      }
    },
    {
      "type": "Feature",
      "properties": {
        "osm_kind": "building",
        "name": "",
        "source": "OpenStreetMap",
        "download_window_id": "nizhny_novgorod_-3_-1_674221e6",
        "download_city": "Нижний Новгород",
        "osm_tags": {
          "building": "yes"
        },
        "osm_id": 155408826,
        "osm_type": "way"
      },
      "geometry": {
        "type": "Polygon",
        "coordinates": [
          [
            [
              43.9933366,
              56.3047755
            ],
            [
              43.9934233,
              56.304706
            ],
            [
              43.9932549,
              56.3046413
            ],
            [
              43.9931682,
              56.3047108
            ],
            [
              43.9933366,
              56.3047755
            ]
          ]
        ]
      }
    },
    {
      "type": "Feature",
      "properties": {
        "osm_kind": "building",
        "name": "",
        "source": "OpenStreetMap",
        "download_window_id": "nizhny_novgorod_-3_-1_674221e6",
        "download_city": "Нижний Новгород",
        "osm_tags": {
          "building": "yes"
        },
        "osm_id": 155408827,
        "osm_type": "way"
      },
      "geometry": {
        "type": "Polygon",
        "coordinates": [
          [
            [
              43.9929762,
              56.3026763
            ],
            [
              43.9930457,
              56.3024437
            ],
            [
              43.9928393,
              56.3024247
            ],
            [
              43.9927696,
              56.3026584
            ],
            [
              43.9929762,
              56.3026763
            ]
          ]
        ]
      }
    },
    {
      "type": "Feature",
      "properties": {
        "osm_kind": "building",
        "name": "",
        "source": "OpenStreetMap",
        "download_window_id": "nizhny_novgorod_-3_-1_674221e6",
        "download_city": "Нижний Новгород",
        "osm_tags": {
          "building": "yes"
        },
        "osm_id": 155408829,
        "osm_type": "way"
      },
      "geometry": {
        "type": "Polygon",
        "coordinates": [
          [
            [
              43.9942983,
              56.3031063
            ],
            [
              43.9943764,
              56.3031109
            ],
            [
              43.9943879,
              56.3030512
            ],
            [
              43.9943099,
              56.3030466
            ],
            [
              43.9942983,
              56.3031063
            ]
          ]
        ]
      }
    },
    {
      "type": "Feature",
      "properties": {
        "osm_kind": "building",
        "name": "",
        "source": "OpenStreetMap",
        "download_window_id": "nizhny_novgorod_-3_-1_674221e6",
        "download_city": "Нижний Новгород",
        "osm_tags": {
          "building": "yes"
        },
        "osm_id": 155408831,
        "osm_type": "way"
      },
      "geometry": {
        "type": "Polygon",
        "coordinates": [
          [
            [
              43.9926991,
              56.3032854
            ],
            [
              43.9927222,
              56.3032364
            ],
            [
              43.9926572,
              56.303227
            ],
            [
              43.9926341,
              56.303276
            ],
            [
              43.9926991,
              56.3032854
            ]
          ]
        ]
      }
    },
    {
      "type": "Feature",
      "properties": {
        "osm_kind": "building",
        "name": "",
        "source": "OpenStreetMap",
        "download_window_id": "nizhny_novgorod_-3_-1_674221e6",
        "download_city": "Нижний Новгород",
        "osm_tags": {
          "building": "yes"
        },
        "osm_id": 155408835,
        "osm_type": "way"
      },
      "geometry": {
        "type": "Polygon",
        "coordinates": [
          [
            [
              43.9927178,
              56.302984
            ],
            [
              43.9926884,
              56.303073
            ],
            [
              43.9929029,
              56.3030948
            ],
            [
              43.9929323,
              56.3030058
            ],
            [
              43.9927178,
              56.302984
            ]
          ]
        ]
      }
    },
    {
      "type": "Feature",
      "properties": {
        "osm_kind": "building",
        "name": "",
        "source": "OpenStreetMap",
        "download_window_id": "nizhny_novgorod_-3_-1_674221e6",
        "download_city": "Нижний Новгород",
        "osm_tags": {
          "building": "yes"
        },
        "osm_id": 155408838,
        "osm_type": "way"
      },
      "geometry": {
        "type": "Polygon",
        "coordinates": [
          [
            [
              43.9939295,
              56.3028531
            ],
            [
              43.9939183,
              56.3029175
            ],
            [
              43.9942334,
              56.3029344
            ],
            [
              43.9942446,
              56.30287
            ],
            [
              43.9939295,
              56.3028531
            ]
          ]
        ]
      }
    },
    {
      "type": "Feature",
      "properties": {
        "osm_kind": "building",
        "name": "",
        "source": "OpenStreetMap",
        "download_window_id": "nizhny_novgorod_-3_-1_674221e6",
        "download_city": "Нижний Новгород",
        "osm_tags": {
          "building": "yes"
        },
        "osm_id": 155408839,
        "osm_type": "way"
      },
      "geometry": {
        "type": "Polygon",
        "coordinates": [
          [
            [
              43.9928606,
              56.3032684
            ],
            [
              43.9928329,
              56.3033166
            ],
            [
              43.9929175,
              56.3033316
            ],
            [
              43.9929451,
              56.3032833
            ],
            [
              43.9928606,
              56.3032684
            ]
          ]
        ]
      }
    },
    {
      "type": "Feature",
      "properties": {
        "osm_kind": "building",
        "name": "",
        "source": "OpenStreetMap",
        "download_window_id": "nizhny_novgorod_-3_-1_674221e6",
        "download_city": "Нижний Новгород",
        "osm_tags": {
          "building": "yes"
        },
        "osm_id": 155408841,
        "osm_type": "way"
      },
      "geometry": {
        "type": "Polygon",
        "coordinates": [
          [
            [
              43.9918743,
              56.3025536
            ],
            [
              43.9916169,
              56.3024624
            ],
            [
              43.9914992,
              56.3025646
            ],
            [
              43.9917566,
              56.3026558
            ],
            [
              43.9918743,
              56.3025536
            ]
          ]
        ]
      }
    },
    {
      "type": "Feature",
      "properties": {
        "osm_kind": "building",
        "name": "",
        "source": "OpenStreetMap",
        "download_window_id": "nizhny_novgorod_-3_-1_674221e6",
        "download_city": "Нижний Новгород",
        "osm_tags": {
          "building": "yes"
        },
        "osm_id": 155408843,
        "osm_type": "way"
      },
      "geometry": {
        "type": "Polygon",
        "coordinates": [
          [
            [
              43.9945098,
              56.303006
            ],
            [
              43.9945367,
              56.3028759
            ],
            [
              43.9944418,
              56.3028699
            ],
            [
              43.9944149,
              56.303
            ],
            [
              43.9945098,
              56.303006
            ]
          ]
        ]
      }
    },
    {
      "type": "Feature",
      "properties": {
        "osm_kind": "building",
        "name": "",
        "source": "OpenStreetMap",
        "download_window_id": "nizhny_novgorod_-3_-1_674221e6",
        "download_city": "Нижний Новгород",
        "osm_tags": {
          "building": "yes"
        },
        "osm_id": 155408844,
        "osm_type": "way"
      },
      "geometry": {
        "type": "Polygon",
        "coordinates": [
          [
            [
              43.9921532,
              56.3035457
            ],
            [
              43.9922378,
              56.3035073
            ],
            [
              43.9921833,
              56.3034703
            ],
            [
              43.9920987,
              56.3035087
            ],
            [
              43.9921532,
              56.3035457
            ]
          ]
        ]
      }
    },
    {
      "type": "Feature",
      "properties": {
        "osm_kind": "building",
        "name": "",
        "source": "OpenStreetMap",
        "download_window_id": "nizhny_novgorod_-3_-1_674221e6",
        "download_city": "Нижний Новгород",
        "osm_tags": {
          "building": "yes"
        },
        "osm_id": 155408845,
        "osm_type": "way"
      },
      "geometry": {
        "type": "Polygon",
        "coordinates": [
          [
            [
              43.9924915,
              56.3032321
            ],
            [
              43.9925722,
              56.3032087
            ],
            [
              43.992541,
              56.3031756
            ],
            [
              43.9924603,
              56.3031991
            ],
            [
              43.9924915,
              56.3032321
            ]
          ]
        ]
      }
    },
    {
      "type": "Feature",
      "properties": {
        "osm_kind": "building",
        "name": "",
        "source": "OpenStreetMap",
        "download_window_id": "nizhny_novgorod_-3_-1_674221e6",
        "download_city": "Нижний Новгород",
        "osm_tags": {
          "building": "yes"
        },
        "osm_id": 155408848,
        "osm_type": "way"
      },
      "geometry": {
        "type": "Polygon",
        "coordinates": [
          [
            [
              43.9932258,
              56.3030786
            ],
            [
              43.9933143,
              56.3030867
            ],
            [
              43.9933258,
              56.3030484
            ],
            [
              43.9932373,
              56.3030402
            ],
            [
              43.9932258,
              56.3030786
            ]
          ]
        ]
      }
    },
    {
      "type": "Feature",
      "properties": {
        "osm_kind": "building",
        "name": "",
        "source": "OpenStreetMap",
        "download_window_id": "nizhny_novgorod_-3_-1_674221e6",
        "download_city": "Нижний Новгород",
        "osm_tags": {
          "building": "yes"
        },
        "osm_id": 155408850,
        "osm_type": "way"
      },
      "geometry": {
        "type": "Polygon",
        "coordinates": [
          [
            [
              43.9902472,
              56.3037865
            ],
            [
              43.9904134,
              56.3037758
            ],
            [
              43.990402,
              56.3037214
            ],
            [
              43.9902359,
              56.3037321
            ],
            [
              43.9902472,
              56.3037865
            ]
          ]
        ]
      }
    },
    {
      "type": "Feature",
      "properties": {
        "osm_kind": "building",
        "name": "",
        "source": "OpenStreetMap",
        "download_window_id": "nizhny_novgorod_-3_-1_674221e6",
        "download_city": "Нижний Новгород",
        "osm_tags": {
          "building": "yes"
        },
        "osm_id": 155408851,
        "osm_type": "way"
      },
      "geometry": {
        "type": "Polygon",
        "coordinates": [
          [
            [
              43.993787,
              56.3035414
            ],
            [
              43.9937692,
              56.3035736
            ],
            [
              43.9938691,
              56.3035907
            ],
            [
              43.993887,
              56.3035584
            ],
            [
              43.993787,
              56.3035414
            ]
          ]
        ]
      }
    },
    {
      "type": "Feature",
      "properties": {
        "osm_kind": "building",
        "name": "",
        "source": "OpenStreetMap",
        "download_window_id": "nizhny_novgorod_-3_-1_674221e6",
        "download_city": "Нижний Новгород",
        "osm_tags": {
          "building": "yes"
        },
        "osm_id": 155408857,
        "osm_type": "way"
      },
      "geometry": {
        "type": "Polygon",
        "coordinates": [
          [
            [
              43.9927696,
              56.3026584
            ],
            [
              43.9927393,
              56.3027599
            ],
            [
              43.9929456,
              56.3027789
            ],
            [
              43.9929762,
              56.3026763
            ],
            [
              43.9927696,
              56.3026584
            ]
          ]
        ]
      }
    },
    {
      "type": "Feature",
      "properties": {
        "osm_kind": "building",
        "name": "",
        "source": "OpenStreetMap",
        "download_window_id": "nizhny_novgorod_-3_-1_674221e6",
        "download_city": "Нижний Новгород",
        "osm_tags": {
          "building": "yes"
        },
        "osm_id": 155408858,
        "osm_type": "way"
      },
      "geometry": {
        "type": "Polygon",
        "coordinates": [
          [
            [
              43.9928644,
              56.3034731
            ],
            [
              43.9927683,
              56.3034092
            ],
            [
              43.9927138,
              56.3034343
            ],
            [
              43.9928099,
              56.3034983
            ],
            [
              43.9928644,
              56.3034731
            ]
          ]
        ]
      }
    },
    {
      "type": "Feature",
      "properties": {
        "osm_kind": "building",
        "name": "",
        "source": "OpenStreetMap",
        "download_window_id": "nizhny_novgorod_-3_-1_674221e6",
        "download_city": "Нижний Новгород",
        "osm_tags": {
          "building": "yes"
        },
        "osm_id": 155408862,
        "osm_type": "way"
      },
      "geometry": {
        "type": "Polygon",
        "coordinates": [
          [
            [
              43.9907864,
              56.3041268
            ],
            [
              43.9907572,
              56.3040081
            ],
            [
              43.9905778,
              56.3040216
            ],
            [
              43.9904179,
              56.3040337
            ],
            [
              43.9904471,
              56.3041525
            ],
            [
              43.9907864,
              56.3041268
            ]
          ]
        ]
      }
    },
    {
      "type": "Feature",
      "properties": {
        "osm_kind": "building",
        "name": "",
        "source": "OpenStreetMap",
        "download_window_id": "nizhny_novgorod_-3_-1_674221e6",
        "download_city": "Нижний Новгород",
        "osm_tags": {
          "building": "yes"
        },
        "osm_id": 155408864,
        "osm_type": "way"
      },
      "geometry": {
        "type": "Polygon",
        "coordinates": [
          [
            [
              43.9908423,
              56.3048544
            ],
            [
              43.9907379,
              56.3048165
            ],
            [
              43.9905015,
              56.3050171
            ],
            [
              43.9906059,
              56.305055
            ],
            [
              43.9907266,
              56.3049526
            ],
            [
              43.9908423,
              56.3048544
            ]
          ]
        ]
      }
    },
    {
      "type": "Feature",
      "properties": {
        "osm_kind": "building",
        "name": "",
        "source": "OpenStreetMap",
        "download_window_id": "nizhny_novgorod_-3_-1_674221e6",
        "download_city": "Нижний Новгород",
        "osm_tags": {
          "building": "yes"
        },
        "osm_id": 155408869,
        "osm_type": "way"
      },
      "geometry": {
        "type": "Polygon",
        "coordinates": [
          [
            [
              43.9930595,
              56.3027014
            ],
            [
              43.9935636,
              56.3026587
            ],
            [
              43.9935716,
              56.3026219
            ],
            [
              43.9930625,
              56.3026604
            ],
            [
              43.9930595,
              56.3026749
            ],
            [
              43.9930595,
              56.3027014
            ]
          ]
        ]
      }
    },
    {
      "type": "Feature",
      "properties": {
        "osm_kind": "building",
        "name": "",
        "source": "OpenStreetMap",
        "download_window_id": "nizhny_novgorod_-3_-1_674221e6",
        "download_city": "Нижний Новгород",
        "osm_tags": {
          "building": "yes"
        },
        "osm_id": 155408874,
        "osm_type": "way"
      },
      "geometry": {
        "type": "Polygon",
        "coordinates": [
          [
            [
              43.9903804,
              56.3043378
            ],
            [
              43.9908299,
              56.3043038
            ],
            [
              43.9907864,
              56.3041268
            ],
            [
              43.9904471,
              56.3041525
            ],
            [
              43.9903369,
              56.3041608
            ],
            [
              43.9903804,
              56.3043378
            ]
          ]
        ]
      }
    },
    {
      "type": "Feature",
      "properties": {
        "osm_kind": "building",
        "name": "",
        "source": "OpenStreetMap",
        "download_window_id": "nizhny_novgorod_-3_-1_674221e6",
        "download_city": "Нижний Новгород",
        "osm_tags": {
          "building": "yes"
        },
        "osm_id": 155408875,
        "osm_type": "way"
      },
      "geometry": {
        "type": "Polygon",
        "coordinates": [
          [
            [
              43.9918671,
              56.3027857
            ],
            [
              43.9920455,
              56.3028007
            ],
            [
              43.992069,
              56.3027139
            ],
            [
              43.992142,
              56.3024477
            ],
            [
              43.9919636,
              56.3024327
            ],
            [
              43.9918671,
              56.3027857
            ]
          ]
        ]
      }
    },
    {
      "type": "Feature",
      "properties": {
        "osm_kind": "building",
        "name": "",
        "source": "OpenStreetMap",
        "download_window_id": "nizhny_novgorod_-3_-1_674221e6",
        "download_city": "Нижний Новгород",
        "osm_tags": {
          "building": "yes"
        },
        "osm_id": 155408878,
        "osm_type": "way"
      },
      "geometry": {
        "type": "Polygon",
        "coordinates": [
          [
            [
              43.9937901,
              56.3029741
            ],
            [
              43.9937508,
              56.303103
            ],
            [
              43.9939959,
              56.303126
            ],
            [
              43.9940046,
              56.3030975
            ],
            [
              43.9941261,
              56.3031089
            ],
            [
              43.9941568,
              56.3030085
            ],
            [
              43.9937901,
              56.3029741
            ]
          ]
        ]
      }
    },
    {
      "type": "Feature",
      "properties": {
        "osm_kind": "building",
        "name": "",
        "source": "OpenStreetMap",
        "download_window_id": "nizhny_novgorod_-3_-1_674221e6",
        "download_city": "Нижний Новгород",
        "osm_tags": {
          "building": "yes"
        },
        "osm_id": 155408882,
        "osm_type": "way"
      },
      "geometry": {
        "type": "Polygon",
        "coordinates": [
          [
            [
              43.9922353,
              56.3027262
            ],
            [
              43.992069,
              56.3027139
            ],
            [
              43.9920455,
              56.3028007
            ],
            [
              43.991994,
              56.3030272
            ],
            [
              43.9926216,
              56.3030718
            ],
            [
              43.9926453,
              56.3029676
            ],
            [
              43.9921839,
              56.3029352
            ],
            [
              43.9922353,
              56.3027262
            ]
          ]
        ]
      }
    },
    {
      "type": "Feature",
      "properties": {
        "osm_kind": "building",
        "name": "",
        "source": "OpenStreetMap",
        "download_window_id": "nizhny_novgorod_-3_-1_674221e6",
        "download_city": "Нижний Новгород",
        "osm_tags": {
          "building": "garages"
        },
        "osm_id": 155408888,
        "osm_type": "way"
      },
      "geometry": {
        "type": "Polygon",
        "coordinates": [
          [
            [
              43.9938571,
              56.3057912
            ],
            [
              43.9943432,
              56.3049722
            ],
            [
              43.994379,
              56.304645
            ],
            [
              43.994765,
              56.3040858
            ],
            [
              43.9946722,
              56.3040637
            ],
            [
              43.9942825,
              56.3046292
            ],
            [
              43.9942575,
              56.3049762
            ],
            [
              43.9937535,
              56.3057753
            ],
            [
              43.9938571,
              56.3057912
            ]
          ]
        ]
      }
    },
    {
      "type": "Feature",
      "properties": {
        "osm_kind": "road",
        "name": "",
        "source": "OpenStreetMap",
        "download_window_id": "nizhny_novgorod_-3_-1_674221e6",
        "download_city": "Нижний Новгород",
        "osm_tags": {
          "highway": "service"
        },
        "osm_id": 288879177,
        "osm_type": "way"
      },
      "geometry": {
        "type": "LineString",
        "coordinates": [
          [
            43.9914455,
            56.3029345
          ],
          [
            43.9911178,
            56.3027482
          ],
          [
            43.9906156,
            56.3025096
          ],
          [
            43.9905343,
            56.3024677
          ],
          [
            43.9904865,
            56.3024431
          ]
        ]
      }
    },
    {
      "type": "Feature",
      "properties": {
        "osm_kind": "building",
        "name": "",
        "source": "OpenStreetMap",
        "download_window_id": "nizhny_novgorod_-3_-1_674221e6",
        "download_city": "Нижний Новгород",
        "osm_tags": {
          "building": "apartments"
        },
        "osm_id": 388183034,
        "osm_type": "way"
      },
      "geometry": {
        "type": "Polygon",
        "coordinates": [
          [
            [
              43.9900393,
              56.3030001
            ],
            [
              43.9905182,
              56.3026753
            ],
            [
              43.9907739,
              56.3027913
            ],
            [
              43.9906517,
              56.3028742
            ],
            [
              43.9905675,
              56.302836
            ],
            [
              43.9902108,
              56.3030779
            ],
            [
              43.9900393,
              56.3030001
            ]
          ]
        ]
      }
    },
    {
      "type": "Feature",
      "properties": {
        "osm_kind": "railway",
        "name": "",
        "source": "OpenStreetMap",
        "download_window_id": "nizhny_novgorod_-3_-1_674221e6",
        "download_city": "Нижний Новгород",
        "osm_tags": {
          "railway": "tram"
        },
        "osm_id": 694497716,
        "osm_type": "way"
      },
      "geometry": {
        "type": "LineString",
        "coordinates": [
          [
            43.9895923,
            56.3047907
          ],
          [
            43.9897139,
            56.3052414
          ],
          [
            43.9898778,
            56.3058413
          ],
          [
            43.989876,
            56.3059267
          ]
        ]
      }
    },
    {
      "type": "Feature",
      "properties": {
        "osm_kind": "road",
        "name": "",
        "source": "OpenStreetMap",
        "download_window_id": "nizhny_novgorod_-3_-1_674221e6",
        "download_city": "Нижний Новгород",
        "osm_tags": {
          "highway": "service"
        },
        "osm_id": 924775746,
        "osm_type": "way"
      },
      "geometry": {
        "type": "LineString",
        "coordinates": [
          [
            43.9906743,
            56.3057052
          ],
          [
            43.9905911,
            56.3054199
          ],
          [
            43.9904951,
            56.3053582
          ],
          [
            43.9904239,
            56.3051965
          ]
        ]
      }
    },
    {
      "type": "Feature",
      "properties": {
        "osm_kind": "road",
        "name": "",
        "source": "OpenStreetMap",
        "download_window_id": "nizhny_novgorod_-3_-1_674221e6",
        "download_city": "Нижний Новгород",
        "osm_tags": {
          "highway": "footway"
        },
        "osm_id": 976502545,
        "osm_type": "way"
      },
      "geometry": {
        "type": "LineString",
        "coordinates": [
          [
            43.9898158,
            56.305235
          ],
          [
            43.989868,
            56.3054349
          ],
          [
            43.9900235,
            56.3060304
          ],
          [
            43.9900453,
            56.3061139
          ]
        ]
      }
    },
    {
      "type": "Feature",
      "properties": {
        "osm_kind": "road",
        "name": "1-я Оранжерейная улица",
        "source": "OpenStreetMap",
        "download_window_id": "nizhny_novgorod_-3_-1_674221e6",
        "download_city": "Нижний Новгород",
        "osm_tags": {
          "highway": "residential",
          "name": "1-я Оранжерейная улица"
        },
        "osm_id": 1096303073,
        "osm_type": "way"
      },
      "geometry": {
        "type": "LineString",
        "coordinates": [
          [
            43.9894851,
            56.3045236
          ],
          [
            43.9895217,
            56.3045202
          ],
          [
            43.9905233,
            56.304426
          ],
          [
            43.9905865,
            56.3045384
          ],
          [
            43.9908225,
            56.3046368
          ],
          [
            43.9915377,
            56.3049364
          ]
        ]
      }
    },
    {
      "type": "Feature",
      "properties": {
        "osm_kind": "building",
        "name": "",
        "source": "OpenStreetMap",
        "download_window_id": "nizhny_novgorod_-3_-1_674221e6",
        "download_city": "Нижний Новгород",
        "osm_tags": {
          "building": "construction"
        },
        "osm_id": 1429989447,
        "osm_type": "way"
      },
      "geometry": {
        "type": "Polygon",
        "coordinates": [
          [
            [
              43.9908002,
              56.3045719
            ],
            [
              43.9910732,
              56.3046817
            ],
            [
              43.991653,
              56.3042379
            ],
            [
              43.9913802,
              56.3041282
            ],
            [
              43.9908002,
              56.3045719
            ]
          ]
        ]
      }
    }
  ]
}