{
  "type": "FeatureCollection",
  "name": "nizhny_novgorod_-1_-1_2e6411a5",
  "metadata": {
    "category": "shared_pipe",
    "rank": 90,
    "city": "Нижний Новгород",
    "seed": "nizhny_novgorod",
    "center": [
      43.9921285,
      56.3192644
    ],
    "bbox_south_west_north_east": [
      56.3179169,
      43.9896988,
      56.3206118,
      43.9945583
    ],
    "source": "OpenStreetMap via Overpass API",
    "note": "Real OSM geometry only. Category is a heuristic research bucket, not heat-network ground truth.",
    "metrics": {
      "counts": {
        "building": 19,
        "road": 28,
        "major_road": 0,
        "railway": 1,
        "water": 0,
        "green": 0
      },
      "lengths_m": {
        "road": 3393.93,
        "major_road": 0.0,
        "railway": 1606.24,
        "water": 0.0
      },
      "building_centers": 19,
      "building_spread": 0.3279,
      "barrier_score": 3.2094,
      "road_score": 3.937,
      "category_scores": {
        "shared_pipe": -0.3086,
        "separate_pipes": 1.553,
        "fifty_fifty": 1.9284,
        "refusal": 8.3797
      }
    }
  },
  "features": [
    {
      "type": "Feature",
      "properties": {
        "osm_kind": "road",
        "name": "Грузинская улица",
        "source": "OpenStreetMap",
        "download_window_id": "nizhny_novgorod_-1_-1_2e6411a5",
        "download_city": "Нижний Новгород",
        "osm_tags": {
          "highway": "residential",
          "name": "Грузинская улица"
        },
        "osm_id": 29398345,
        "osm_type": "way"
      },
      "geometry": {
        "type": "LineString",
        "coordinates": [
          [
            43.9932497,
            56.3198844
          ],
          [
            43.9932915,
            56.3199233
          ],
          [
            43.9935496,
            56.3201637
          ],
          [
            43.9935659,
            56.3201982
          ],
          [
            43.9936309,
            56.3203363
          ],
          [
            43.9936893,
            56.3203756
          ],
          [
            43.9938823,
            56.3205056
          ],
          [
            43.9939253,
            56.3205345
          ]
        ]
      }
    },
    {
      "type": "Feature",
      "properties": {
        "osm_kind": "road",
        "name": "",
        "source": "OpenStreetMap",
        "download_window_id": "nizhny_novgorod_-1_-1_2e6411a5",
        "download_city": "Нижний Новгород",
        "osm_tags": {
          "highway": "service"
        },
        "osm_id": 32084475,
        "osm_type": "way"
      },
      "geometry": {
        "type": "LineString",
        "coordinates": [
          [
            43.990295,
            56.3176923
          ],
          [
            43.9904452,
            56.3177246
          ],
          [
            43.9905567,
            56.3177112
          ],
          [
            43.9907884,
            56.3177189
          ],
          [
            43.9909701,
            56.3177793
          ],
          [
            43.9912428,
            56.3179809
          ],
          [
            43.9914739,
            56.3181518
          ],
          [
            43.9914939,
            56.3181667
          ],
          [
            43.991596,
            56.318223
          ],
          [
            43.991746,
            56.3181776
          ],
          [
            43.9922843,
            56.3187324
          ],
          [
            43.9924547,
            56.3188192
          ],
          [
            43.992687,
            56.3190316
          ],
          [
            43.9928238,
            56.3191047
          ],
          [
            43.9931176,
            56.3191944
          ],
          [
            43.9934367,
            56.3192083
          ],
          [
            43.9936916,
            56.3191676
          ],
          [
            43.9939381,
            56.3191008
          ],
          [
            43.9941189,
            56.3189895
          ],
          [
            43.9942304,
            56.3188292
          ],
          [
            43.9942048,
            56.3186403
          ]
        ]
      }
    },
    {
      "type": "Feature",
      "properties": {
        "osm_kind": "road",
        "name": "",
        "source": "OpenStreetMap",
        "download_window_id": "nizhny_novgorod_-1_-1_2e6411a5",
        "download_city": "Нижний Новгород",
        "osm_tags": {
          "highway": "footway"
        },
        "osm_id": 32110352,
        "osm_type": "way"
      },
      "geometry": {
        "type": "LineString",
        "coordinates": [
          [
            43.991633,
            56.320419
          ],
          [
            43.9918051,
            56.3204886
          ],
          [
            43.9922109,
            56.3207865
          ],
          [
            43.9923844,
            56.321096
          ],
          [
            43.99254,
            56.3212529
          ],
          [
            43.9927097,
            56.3213078
          ],
          [
            43.9928275,
            56.3215207
          ],
          [
            43.9928069,
            56.3215886
          ],
          [
            43.9927912,
            56.3216403
          ]
        ]
      }
    },
    {
      "type": "Feature",
      "properties": {
        "osm_kind": "road",
        "name": "Грузинская улица",
        "source": "OpenStreetMap",
        "download_window_id": "nizhny_novgorod_-1_-1_2e6411a5",
        "download_city": "Нижний Новгород",
        "osm_tags": {
          "highway": "residential",
          "name": "Грузинская улица"
        },
        "osm_id": 40877463,
        "osm_type": "way"
      },
      "geometry": {
        "type": "LineString",
        "coordinates": [
          [
            43.9982282,
            56.3205369
          ],
          [
            43.9981941,
            56.3205363
          ],
          [
            43.9977841,
            56.320529
          ],
          [
            43.9977484,
            56.3205284
          ],
          [
            43.9976,
            56.3205254
          ],
          [
            43.9974023,
            56.3205274
          ],
          [
            43.9970932,
            56.320528
          ],
          [
            43.9967971,
            56.3205287
          ],
          [
            43.9967239,
            56.3205288
          ],
          [
            43.9962819,
            56.3205265
          ],
          [
            43.9956143,
            56.3205302
          ],
          [
            43.9951188,
            56.3205381
          ],
          [
            43.9947804,
            56.3205426
          ],
          [
            43.9945176,
            56.320546
          ],
          [
            43.9942934,
            56.3205494
          ],
          [
            43.9939253,
            56.3205345
          ]
        ]
      }
    },
    {
      "type": "Feature",
      "properties": {
        "osm_kind": "railway",
        "name": "",
        "source": "OpenStreetMap",
        "download_window_id": "nizhny_novgorod_-1_-1_2e6411a5",
        "download_city": "Нижний Новгород",
        "osm_tags": {
          "railway": "tram"
        },
        "osm_id": 69878540,
        "osm_type": "way"
      },
      "geometry": {
        "type": "LineString",
        "coordinates": [
          [
            43.9978902,
            56.3224706
          ],
          [
            43.9978244,
            56.3225056
          ],
          [
            43.9978021,
            56.3225175
          ],
          [
            43.9976075,
            56.3226799
          ],
          [
            43.9975626,
            56.3227074
          ],
          [
            43.9972337,
            56.3229056
          ],
          [
            43.9969548,
            56.3230763
          ],
          [
            43.996836,
            56.323149
          ],
          [
            43.9967436,
            56.3232021
          ],
          [
            43.996461,
            56.3233631
          ],
          [
            43.9960828,
            56.323592
          ],
          [
            43.995797,
            56.3237463
          ],
          [
            43.9952936,
            56.3239626
          ],
          [
            43.9944884,
            56.324296
          ],
          [
            43.994433,
            56.3243231
          ],
          [
            43.9942025,
            56.3244356
          ],
          [
            43.9939141,
            56.3245315
          ],
          [
            43.9936574,
            56.3246172
          ],
          [
            43.9933284,
            56.3247044
          ],
          [
            43.9931605,
            56.3247488
          ],
          [
            43.9923968,
            56.3249489
          ],
          [
            43.9921758,
            56.3249834
          ],
          [
            43.9921078,
            56.3249846
          ],
          [
            43.9920768,
            56.3249852
          ],
          [
            43.991991,
            56.3249673
          ],
          [
            43.9919522,
            56.3249525
          ],
          [
            43.9919223,
            56.3249411
          ],
          [
            43.991883,
            56.3249156
          ],
          [
            43.9918488,
            56.3248825
          ],
          [
            43.9918287,
            56.3248491
          ],
          [
            43.9918171,
            56.3248122
          ],
          [
            43.9918086,
            56.3247531
          ],
          [
            43.9917938,
            56.3246959
          ],
          [
            43.9914284,
            56.3239491
          ],
          [
            43.9913183,
            56.3237241
          ],
          [
            43.9912271,
            56.3235378
          ],
          [
            43.9911721,
            56.3234254
          ],
          [
            43.991064,
            56.3232062
          ],
          [
            43.9910441,
            56.3231659
          ],
          [
            43.9908338,
            56.32274
          ],
          [
            43.9907414,
            56.3225528
          ],
          [
            43.9902169,
            56.3214902
          ],
          [
            43.9901394,
            56.321333
          ],
          [
            43.9900899,
            56.3212417
          ],
          [
            43.9899235,
            56.3209383
          ],
          [
            43.9897202,
            56.3205779
          ],
          [
            43.9894555,
            56.3201089
          ],
          [
            43.9891755,
            56.3196125
          ],
          [
            43.9890816,
            56.3194461
          ],
          [
            43.9879369,
            56.3174172
          ],
          [
            43.9876728,
            56.316949
          ],
          [
            43.9876367,
            56.3168851
          ],
          [
            43.9875998,
            56.3168197
          ],
          [
            43.9874348,
            56.3165273
          ],
          [
            43.9873409,
            56.3163607
          ],
          [
            43.9872338,
            56.316171
          ],
          [
            43.9869299,
            56.3156322
          ],
          [
            43.9868525,
            56.3154951
          ],
          [
            43.9868207,
            56.3154387
          ],
          [
            43.9867403,
            56.3152948
          ],
          [
            43.9867148,
            56.3152417
          ],
          [
            43.9866812,
            56.3151819
          ]
        ]
      }
    },
    {
      "type": "Feature",
      "properties": {
        "osm_kind": "building",
        "name": "Нижегородская православная гимназия имени преподобного Сергия Радонежского",
        "source": "OpenStreetMap",
        "download_window_id": "nizhny_novgorod_-1_-1_2e6411a5",
        "download_city": "Нижний Новгород",
        "osm_tags": {
          "building": "school",
          "name": "Нижегородская православная гимназия имени преподобного Сергия Радонежского"
        },
        "osm_id": 93980265,
        "osm_type": "way"
      },
      "geometry": {
        "type": "Polygon",
        "coordinates": [
          [
            [
              43.9935789,
              56.3198192
            ],
            [
              43.9938286,
              56.3197327
            ],
            [
              43.9940479,
              56.3199272
            ],
            [
              43.9937982,
              56.3200138
            ],
            [
              43.9935789,
              56.3198192
            ]
          ]
        ]
      }
    },
    {
      "type": "Feature",
      "properties": {
        "osm_kind": "building",
        "name": "",
        "source": "OpenStreetMap",
        "download_window_id": "nizhny_novgorod_-1_-1_2e6411a5",
        "download_city": "Нижний Новгород",
        "osm_tags": {
          "building": "apartments"
        },
        "osm_id": 93980288,
        "osm_type": "way"
      },
      "geometry": {
        "type": "Polygon",
        "coordinates": [
          [
            [
              43.9930062,
              56.3200481
            ],
            [
              43.9931526,
              56.3201733
            ],
            [
              43.9932317,
              56.3201449
            ],
            [
              43.9932865,
              56.3201917
            ],
            [
              43.9933837,
              56.3201568
            ],
            [
              43.9933289,
              56.3201099
            ],
            [
              43.9934039,
              56.320083
            ],
            [
              43.9932575,
              56.3199578
            ],
            [
              43.9930062,
              56.3200481
            ]
          ]
        ]
      }
    },
    {
      "type": "Feature",
      "properties": {
        "osm_kind": "road",
        "name": "Ильинская улица",
        "source": "OpenStreetMap",
        "download_window_id": "nizhny_novgorod_-1_-1_2e6411a5",
        "download_city": "Нижний Новгород",
        "osm_tags": {
          "highway": "tertiary",
          "name": "Ильинская улица"
        },
        "osm_id": 108772672,
        "osm_type": "way"
      },
      "geometry": {
        "type": "LineString",
        "coordinates": [
          [
            43.9901724,
            56.3213281
          ],
          [
            43.990121,
            56.3212364
          ],
          [
            43.9900218,
            56.3210555
          ],
          [
            43.9899508,
            56.3209341
          ],
          [
            43.9898537,
            56.3207554
          ],
          [
            43.9897532,
            56.3205717
          ],
          [
            43.9894848,
            56.3201031
          ],
          [
            43.9892004,
            56.3196076
          ],
          [
            43.9891065,
            56.3194413
          ],
          [
            43.9890643,
            56.319366
          ],
          [
            43.9887189,
            56.3187501
          ],
          [
            43.9884403,
            56.3182601
          ],
          [
            43.9883414,
            56.3180861
          ],
          [
            43.9882775,
            56.3179724
          ],
          [
            43.9881839,
            56.3178059
          ],
          [
            43.9879841,
            56.3174507
          ],
          [
            43.9879627,
            56.3174127
          ],
          [
            43.9878973,
            56.3172967
          ],
          [
            43.9876985,
            56.3169436
          ],
          [
            43.9876593,
            56.3168806
          ]
        ]
      }
    },
    {
      "type": "Feature",
      "properties": {
        "osm_kind": "road",
        "name": "",
        "source": "OpenStreetMap",
        "download_window_id": "nizhny_novgorod_-1_-1_2e6411a5",
        "download_city": "Нижний Новгород",
        "osm_tags": {
          "highway": "footway"
        },
        "osm_id": 134658912,
        "osm_type": "way"
      },
      "geometry": {
        "type": "LineString",
        "coordinates": [
          [
            43.9933229,
            56.317319
          ],
          [
            43.9931691,
            56.3173674
          ],
          [
            43.9930017,
            56.3174201
          ],
          [
            43.9929138,
            56.3174441
          ],
          [
            43.9931029,
            56.3175353
          ],
          [
            43.9931974,
            56.3176035
          ],
          [
            43.9942048,
            56.3186403
          ]
        ]
      }
    },
    {
      "type": "Feature",
      "properties": {
        "osm_kind": "building",
        "name": "Дом купцов Я.А. Котельникова и П.Д. Яргомского",
        "source": "OpenStreetMap",
        "download_window_id": "nizhny_novgorod_-1_-1_2e6411a5",
        "download_city": "Нижний Новгород",
        "osm_tags": {
          "building": "yes",
          "name": "Дом купцов Я.А. Котельникова и П.Д. Яргомского"
        },
        "osm_id": 146658412,
        "osm_type": "way"
      },
      "geometry": {
        "type": "Polygon",
        "coordinates": [
          [
            [
              43.9900554,
              56.3204016
            ],
            [
              43.9901602,
              56.3203848
            ],
            [
              43.990132,
              56.3203308
            ],
            [
              43.9900272,
              56.3203477
            ],
            [
              43.9900074,
              56.3203098
            ],
            [
              43.9899371,
              56.3203211
            ],
            [
              43.9899008,
              56.3202516
            ],
            [
              43.9898392,
              56.3202615
            ],
            [
              43.9898756,
              56.320331
            ],
            [
              43.9897894,
              56.3203448
            ],
            [
              43.9898546,
              56.3204695
            ],
            [
              43.9900726,
              56.3204345
            ],
            [
              43.9900554,
              56.3204016
            ]
          ]
        ]
      }
    },
    {
      "type": "Feature",
      "properties": {
        "osm_kind": "building",
        "name": "",
        "source": "OpenStreetMap",
        "download_window_id": "nizhny_novgorod_-1_-1_2e6411a5",
        "download_city": "Нижний Новгород",
        "osm_tags": {
          "building": "yes"
        },
        "osm_id": 146658456,
        "osm_type": "way"
      },
      "geometry": {
        "type": "Polygon",
        "coordinates": [
          [
            [
              43.9899481,
              56.3206484
            ],
            [
              43.9900612,
              56.320628
            ],
            [
              43.9900108,
              56.3205418
            ],
            [
              43.9898976,
              56.3205621
            ],
            [
              43.9899481,
              56.3206484
            ]
          ]
        ]
      }
    },
    {
      "type": "Feature",
      "properties": {
        "osm_kind": "building",
        "name": "Дом Т.А. Войткевич",
        "source": "OpenStreetMap",
        "download_window_id": "nizhny_novgorod_-1_-1_2e6411a5",
        "download_city": "Нижний Новгород",
        "osm_tags": {
          "building": "yes",
          "name": "Дом Т.А. Войткевич"
        },
        "osm_id": 146658536,
        "osm_type": "way"
      },
      "geometry": {
        "type": "Polygon",
        "coordinates": [
          [
            [
              43.9898837,
              56.3199297
            ],
            [
              43.9898543,
              56.3198721
            ],
            [
              43.9897751,
              56.3198845
            ],
            [
              43.9897384,
              56.3198126
            ],
            [
              43.9894839,
              56.3198525
            ],
            [
              43.98955,
              56.319982
            ],
            [
              43.9898837,
              56.3199297
            ]
          ]
        ]
      }
    },
    {
      "type": "Feature",
      "properties": {
        "osm_kind": "building",
        "name": "",
        "source": "OpenStreetMap",
        "download_window_id": "nizhny_novgorod_-1_-1_2e6411a5",
        "download_city": "Нижний Новгород",
        "osm_tags": {
          "building": "yes"
        },
        "osm_id": 146725648,
        "osm_type": "way"
      },
      "geometry": {
        "type": "Polygon",
        "coordinates": [
          [
            [
              43.9906182,
              56.3204178
            ],
            [
              43.9905408,
              56.3202509
            ],
            [
              43.9903752,
              56.3202745
            ],
            [
              43.9904526,
              56.3204414
            ],
            [
              43.9906182,
              56.3204178
            ]
          ]
        ]
      }
    },
    {
      "type": "Feature",
      "properties": {
        "osm_kind": "building",
        "name": "",
        "source": "OpenStreetMap",
        "download_window_id": "nizhny_novgorod_-1_-1_2e6411a5",
        "download_city": "Нижний Новгород",
        "osm_tags": {
          "building": "yes"
        },
        "osm_id": 146823414,
        "osm_type": "way"
      },
      "geometry": {
        "type": "Polygon",
        "coordinates": [
          [
            [
              43.9897194,
              56.3191929
            ],
            [
              43.9896231,
              56.3189913
            ],
            [
              43.9897579,
              56.3189393
            ],
            [
              43.9898012,
              56.3190033
            ],
            [
              43.9898711,
              56.3189953
            ],
            [
              43.9899385,
              56.3191742
            ],
            [
              43.9897194,
              56.3191929
            ]
          ]
        ]
      }
    },
    {
      "type": "Feature",
      "properties": {
        "osm_kind": "building",
        "name": "",
        "source": "OpenStreetMap",
        "download_window_id": "nizhny_novgorod_-1_-1_2e6411a5",
        "download_city": "Нижний Новгород",
        "osm_tags": {
          "building": "yes"
        },
        "osm_id": 146823415,
        "osm_type": "way"
      },
      "geometry": {
        "type": "Polygon",
        "coordinates": [
          [
            [
              43.9899269,
              56.3188658
            ],
            [
              43.9898523,
              56.3187683
            ],
            [
              43.9897083,
              56.3188022
            ],
            [
              43.9897829,
              56.3188997
            ],
            [
              43.9899269,
              56.3188658
            ]
          ]
        ]
      }
    },
    {
      "type": "Feature",
      "properties": {
        "osm_kind": "road",
        "name": "",
        "source": "OpenStreetMap",
        "download_window_id": "nizhny_novgorod_-1_-1_2e6411a5",
        "download_city": "Нижний Новгород",
        "osm_tags": {
          "highway": "service"
        },
        "osm_id": 146823448,
        "osm_type": "way"
      },
      "geometry": {
        "type": "LineString",
        "coordinates": [
          [
            43.9928238,
            56.3191047
          ],
          [
            43.9926749,
            56.3193581
          ]
        ]
      }
    },
    {
      "type": "Feature",
      "properties": {
        "osm_kind": "road",
        "name": "",
        "source": "OpenStreetMap",
        "download_window_id": "nizhny_novgorod_-1_-1_2e6411a5",
        "download_city": "Нижний Новгород",
        "osm_tags": {
          "highway": "service"
        },
        "osm_id": 146823450,
        "osm_type": "way"
      },
      "geometry": {
        "type": "LineString",
        "coordinates": [
          [
            43.9887189,
            56.3187501
          ],
          [
            43.9887501,
            56.3187449
          ],
          [
            43.988819,
            56.3187335
          ],
          [
            43.989353,
            56.3186618
          ],
          [
            43.9899524,
            56.3185136
          ]
        ]
      }
    },
    {
      "type": "Feature",
      "properties": {
        "osm_kind": "building",
        "name": "",
        "source": "OpenStreetMap",
        "download_window_id": "nizhny_novgorod_-1_-1_2e6411a5",
        "download_city": "Нижний Новгород",
        "osm_tags": {
          "building": "yes"
        },
        "osm_id": 146823484,
        "osm_type": "way"
      },
      "geometry": {
        "type": "Polygon",
        "coordinates": [
          [
            [
              43.990116,
              56.3188662
            ],
            [
              43.9902183,
              56.3188464
            ],
            [
              43.9901822,
              56.318789
            ],
            [
              43.9900799,
              56.3188088
            ],
            [
              43.990116,
              56.3188662
            ]
          ]
        ]
      }
    },
    {
      "type": "Feature",
      "properties": {
        "osm_kind": "road",
        "name": "",
        "source": "OpenStreetMap",
        "download_window_id": "nizhny_novgorod_-1_-1_2e6411a5",
        "download_city": "Нижний Новгород",
        "osm_tags": {
          "highway": "path"
        },
        "osm_id": 162459765,
        "osm_type": "way"
      },
      "geometry": {
        "type": "LineString",
        "coordinates": [
          [
            43.9914101,
            56.3182715
          ],
          [
            43.9913539,
            56.3182162
          ],
          [
            43.9913821,
            56.3181886
          ],
          [
            43.9914739,
            56.3181518
          ]
        ]
      }
    },
    {
      "type": "Feature",
      "properties": {
        "osm_kind": "road",
        "name": "",
        "source": "OpenStreetMap",
        "download_window_id": "nizhny_novgorod_-1_-1_2e6411a5",
        "download_city": "Нижний Новгород",
        "osm_tags": {
          "highway": "service"
        },
        "osm_id": 180422144,
        "osm_type": "way"
      },
      "geometry": {
        "type": "LineString",
        "coordinates": [
          [
            43.991056,
            56.3208799
          ],
          [
            43.9913151,
            56.3208088
          ],
          [
            43.9913692,
            56.3207669
          ],
          [
            43.9915371,
            56.3205117
          ],
          [
            43.9915924,
            56.3204371
          ],
          [
            43.991633,
            56.320419
          ]
        ]
      }
    },
    {
      "type": "Feature",
      "properties": {
        "osm_kind": "road",
        "name": "",
        "source": "OpenStreetMap",
        "download_window_id": "nizhny_novgorod_-1_-1_2e6411a5",
        "download_city": "Нижний Новгород",
        "osm_tags": {
          "highway": "service"
        },
        "osm_id": 186150598,
        "osm_type": "way"
      },
      "geometry": {
        "type": "LineString",
        "coordinates": [
          [
            43.9935496,
            56.3201637
          ],
          [
            43.9938571,
            56.3200775
          ],
          [
            43.9945663,
            56.3197889
          ]
        ]
      }
    },
    {
      "type": "Feature",
      "properties": {
        "osm_kind": "road",
        "name": "",
        "source": "OpenStreetMap",
        "download_window_id": "nizhny_novgorod_-1_-1_2e6411a5",
        "download_city": "Нижний Новгород",
        "osm_tags": {
          "highway": "footway"
        },
        "osm_id": 259550129,
        "osm_type": "way"
      },
      "geometry": {
        "type": "LineString",
        "coordinates": [
          [
            43.9982401,
            56.3205871
          ],
          [
            43.9977841,
            56.3205911
          ],
          [
            43.997404,
            56.3205958
          ],
          [
            43.9970902,
            56.3205969
          ],
          [
            43.9967233,
            56.3205981
          ],
          [
            43.9956174,
            56.3206019
          ],
          [
            43.9951201,
            56.3206017
          ],
          [
            43.994519,
            56.320613
          ],
          [
            43.9944158,
            56.320615
          ],
          [
            43.9942934,
            56.3205494
          ]
        ]
      }
    },
    {
      "type": "Feature",
      "properties": {
        "osm_kind": "road",
        "name": "",
        "source": "OpenStreetMap",
        "download_window_id": "nizhny_novgorod_-1_-1_2e6411a5",
        "download_city": "Нижний Новгород",
        "osm_tags": {
          "highway": "service"
        },
        "osm_id": 259550185,
        "osm_type": "way"
      },
      "geometry": {
        "type": "LineString",
        "coordinates": [
          [
            43.9945176,
            56.320546
          ],
          [
            43.994519,
            56.320613
          ],
          [
            43.9945227,
            56.3207903
          ],
          [
            43.9945957,
            56.3208841
          ]
        ]
      }
    },
    {
      "type": "Feature",
      "properties": {
        "osm_kind": "road",
        "name": "",
        "source": "OpenStreetMap",
        "download_window_id": "nizhny_novgorod_-1_-1_2e6411a5",
        "download_city": "Нижний Новгород",
        "osm_tags": {
          "highway": "service"
        },
        "osm_id": 265249273,
        "osm_type": "way"
      },
      "geometry": {
        "type": "LineString",
        "coordinates": [
          [
            43.9946843,
            56.3202567
          ],
          [
            43.9945046,
            56.3201327
          ]
        ]
      }
    },
    {
      "type": "Feature",
      "properties": {
        "osm_kind": "road",
        "name": "",
        "source": "OpenStreetMap",
        "download_window_id": "nizhny_novgorod_-1_-1_2e6411a5",
        "download_city": "Нижний Новгород",
        "osm_tags": {
          "highway": "service"
        },
        "osm_id": 265249287,
        "osm_type": "way"
      },
      "geometry": {
        "type": "LineString",
        "coordinates": [
          [
            43.9938931,
            56.3202426
          ],
          [
            43.9940411,
            56.3203509
          ],
          [
            43.9939253,
            56.3205345
          ]
        ]
      }
    },
    {
      "type": "Feature",
      "properties": {
        "osm_kind": "road",
        "name": "",
        "source": "OpenStreetMap",
        "download_window_id": "nizhny_novgorod_-1_-1_2e6411a5",
        "download_city": "Нижний Новгород",
        "osm_tags": {
          "highway": "footway"
        },
        "osm_id": 265249297,
        "osm_type": "way"
      },
      "geometry": {
        "type": "LineString",
        "coordinates": [
          [
            43.9966786,
            56.3186749
          ],
          [
            43.9954427,
            56.3191237
          ],
          [
            43.9947682,
            56.3193685
          ],
          [
            43.9941431,
            56.3196095
          ],
          [
            43.9935627,
            56.3198117
          ],
          [
            43.9932915,
            56.3199233
          ],
          [
            43.9928787,
            56.3200788
          ]
        ]
      }
    },
    {
      "type": "Feature",
      "properties": {
        "osm_kind": "road",
        "name": "",
        "source": "OpenStreetMap",
        "download_window_id": "nizhny_novgorod_-1_-1_2e6411a5",
        "download_city": "Нижний Новгород",
        "osm_tags": {
          "highway": "service"
        },
        "osm_id": 324500421,
        "osm_type": "way"
      },
      "geometry": {
        "type": "LineString",
        "coordinates": [
          [
            43.9947487,
            56.3179743
          ],
          [
            43.9942761,
            56.3181214
          ],
          [
            43.9938253,
            56.3176684
          ]
        ]
      }
    },
    {
      "type": "Feature",
      "properties": {
        "osm_kind": "road",
        "name": "",
        "source": "OpenStreetMap",
        "download_window_id": "nizhny_novgorod_-1_-1_2e6411a5",
        "download_city": "Нижний Новгород",
        "osm_tags": {
          "highway": "service"
        },
        "osm_id": 324500422,
        "osm_type": "way"
      },
      "geometry": {
        "type": "LineString",
        "coordinates": [
          [
            43.991596,
            56.318223
          ],
          [
            43.9920953,
            56.3187593
          ],
          [
            43.9922843,
            56.3187324
          ]
        ]
      }
    },
    {
      "type": "Feature",
      "properties": {
        "osm_kind": "road",
        "name": "",
        "source": "OpenStreetMap",
        "download_window_id": "nizhny_novgorod_-1_-1_2e6411a5",
        "download_city": "Нижний Новгород",
        "osm_tags": {
          "highway": "service"
        },
        "osm_id": 324500423,
        "osm_type": "way"
      },
      "geometry": {
        "type": "LineString",
        "coordinates": [
          [
            43.9926768,
            56.3195955
          ],
          [
            43.9925637,
            56.3194016
          ],
          [
            43.9926749,
            56.3193581
          ]
        ]
      }
    },
    {
      "type": "Feature",
      "properties": {
        "osm_kind": "building",
        "name": "",
        "source": "OpenStreetMap",
        "download_window_id": "nizhny_novgorod_-1_-1_2e6411a5",
        "download_city": "Нижний Новгород",
        "osm_tags": {
          "building": "garages"
        },
        "osm_id": 324500439,
        "osm_type": "way"
      },
      "geometry": {
        "type": "Polygon",
        "coordinates": [
          [
            [
              43.9947106,
              56.3180788
            ],
            [
              43.9944343,
              56.3181648
            ],
            [
              43.9944771,
              56.3182071
            ],
            [
              43.9947534,
              56.3181211
            ],
            [
              43.9947106,
              56.3180788
            ]
          ]
        ]
      }
    },
    {
      "type": "Feature",
      "properties": {
        "osm_kind": "building",
        "name": "",
        "source": "OpenStreetMap",
        "download_window_id": "nizhny_novgorod_-1_-1_2e6411a5",
        "download_city": "Нижний Новгород",
        "osm_tags": {
          "building": "garages"
        },
        "osm_id": 324500441,
        "osm_type": "way"
      },
      "geometry": {
        "type": "Polygon",
        "coordinates": [
          [
            [
              43.9949263,
              56.3182845
            ],
            [
              43.9948373,
              56.3181982
            ],
            [
              43.9945028,
              56.3183044
            ],
            [
              43.9945918,
              56.3183906
            ],
            [
              43.9949263,
              56.3182845
            ]
          ]
        ]
      }
    },
    {
      "type": "Feature",
      "properties": {
        "osm_kind": "building",
        "name": "",
        "source": "OpenStreetMap",
        "download_window_id": "nizhny_novgorod_-1_-1_2e6411a5",
        "download_city": "Нижний Новгород",
        "osm_tags": {
          "building": "garages"
        },
        "osm_id": 324500443,
        "osm_type": "way"
      },
      "geometry": {
        "type": "Polygon",
        "coordinates": [
          [
            [
              43.9943713,
              56.3181783
            ],
            [
              43.9943109,
              56.3181986
            ],
            [
              43.9944272,
              56.3183048
            ],
            [
              43.9944876,
              56.3182845
            ],
            [
              43.9943713,
              56.3181783
            ]
          ]
        ]
      }
    },
    {
      "type": "Feature",
      "properties": {
        "osm_kind": "building",
        "name": "",
        "source": "OpenStreetMap",
        "download_window_id": "nizhny_novgorod_-1_-1_2e6411a5",
        "download_city": "Нижний Новгород",
        "osm_tags": {
          "building": "apartments"
        },
        "osm_id": 422593320,
        "osm_type": "way"
      },
      "geometry": {
        "type": "Polygon",
        "coordinates": [
          [
            [
              43.989835,
              56.3192726
            ],
            [
              43.9902301,
              56.3199693
            ],
            [
              43.9904647,
              56.3199285
            ],
            [
              43.9900698,
              56.3192316
            ],
            [
              43.989835,
              56.3192726
            ]
          ]
        ]
      }
    },
    {
      "type": "Feature",
      "properties": {
        "osm_kind": "road",
        "name": "",
        "source": "OpenStreetMap",
        "download_window_id": "nizhny_novgorod_-1_-1_2e6411a5",
        "download_city": "Нижний Новгород",
        "osm_tags": {
          "highway": "footway"
        },
        "osm_id": 512384203,
        "osm_type": "way"
      },
      "geometry": {
        "type": "LineString",
        "coordinates": [
          [
            43.991729,
            56.3207004
          ],
          [
            43.9915371,
            56.3205117
          ]
        ]
      }
    },
    {
      "type": "Feature",
      "properties": {
        "osm_kind": "road",
        "name": "",
        "source": "OpenStreetMap",
        "download_window_id": "nizhny_novgorod_-1_-1_2e6411a5",
        "download_city": "Нижний Новгород",
        "osm_tags": {
          "highway": "path"
        },
        "osm_id": 512384214,
        "osm_type": "way"
      },
      "geometry": {
        "type": "LineString",
        "coordinates": [
          [
            43.9913821,
            56.3181886
          ],
          [
            43.9913593,
            56.3181656
          ]
        ]
      }
    },
    {
      "type": "Feature",
      "properties": {
        "osm_kind": "road",
        "name": "",
        "source": "OpenStreetMap",
        "download_window_id": "nizhny_novgorod_-1_-1_2e6411a5",
        "download_city": "Нижний Новгород",
        "osm_tags": {
          "highway": "service"
        },
        "osm_id": 512384216,
        "osm_type": "way"
      },
      "geometry": {
        "type": "LineString",
        "coordinates": [
          [
            43.9909999,
            56.3178993
          ],
          [
            43.9911582,
            56.3180161
          ],
          [
            43.9913593,
            56.3181656
          ]
        ]
      }
    },
    {
      "type": "Feature",
      "properties": {
        "osm_kind": "road",
        "name": "",
        "source": "OpenStreetMap",
        "download_window_id": "nizhny_novgorod_-1_-1_2e6411a5",
        "download_city": "Нижний Новгород",
        "osm_tags": {
          "highway": "service"
        },
        "osm_id": 512384218,
        "osm_type": "way"
      },
      "geometry": {
        "type": "LineString",
        "coordinates": [
          [
            43.9912428,
            56.3179809
          ],
          [
            43.9911904,
            56.3180034
          ],
          [
            43.9911582,
            56.3180161
          ]
        ]
      }
    },
    {
      "type": "Feature",
      "properties": {
        "osm_kind": "building",
        "name": "",
        "source": "OpenStreetMap",
        "download_window_id": "nizhny_novgorod_-1_-1_2e6411a5",
        "download_city": "Нижний Новгород",
        "osm_tags": {
          "building": "yes"
        },
        "osm_id": 681370360,
        "osm_type": "way"
      },
      "geometry": {
        "type": "Polygon",
        "coordinates": [
          [
            [
              43.9905535,
              56.3205703
            ],
            [
              43.9907335,
              56.320522
            ],
            [
              43.9908596,
              56.3206579
            ],
            [
              43.9907473,
              56.3206886
            ],
            [
              43.9906815,
              56.3207066
            ],
            [
              43.9905535,
              56.3205703
            ]
          ]
        ]
      }
    },
    {
      "type": "Feature",
      "properties": {
        "osm_kind": "building",
        "name": "",
        "source": "OpenStreetMap",
        "download_window_id": "nizhny_novgorod_-1_-1_2e6411a5",
        "download_city": "Нижний Новгород",
        "osm_tags": {
          "building": "yes"
        },
        "osm_id": 681370361,
        "osm_type": "way"
      },
      "geometry": {
        "type": "Polygon",
        "coordinates": [
          [
            [
              43.9907473,
              56.3206886
            ],
            [
              43.9908864,
              56.3208987
            ],
            [
              43.9910437,
              56.3208704
            ],
            [
              43.9909898,
              56.3207834
            ],
            [
              43.9910795,
              56.3207642
            ],
            [
              43.9908035,
              56.3203675
            ],
            [
              43.9906374,
              56.3204181
            ],
            [
              43.9906522,
              56.3204338
            ],
            [
              43.9907335,
              56.320522
            ],
            [
              43.9908596,
              56.3206579
            ],
            [
              43.9907473,
              56.3206886
            ]
          ]
        ]
      }
    },
    {
      "type": "Feature",
      "properties": {
        "osm_kind": "building",
        "name": "",
        "source": "OpenStreetMap",
        "download_window_id": "nizhny_novgorod_-1_-1_2e6411a5",
        "download_city": "Нижний Новгород",
        "osm_tags": {
          "building": "detached"
        },
        "osm_id": 681370362,
        "osm_type": "way"
      },
      "geometry": {
        "type": "Polygon",
        "coordinates": [
          [
            [
              43.9901574,
              56.3205264
            ],
            [
              43.9902866,
              56.3204972
            ],
            [
              43.990252,
              56.3204335
            ],
            [
              43.9901909,
              56.320444
            ],
            [
              43.9901987,
              56.3204594
            ],
            [
              43.9901276,
              56.3204723
            ],
            [
              43.9901574,
              56.3205264
            ]
          ]
        ]
      }
    },
    {
      "type": "Feature",
      "properties": {
        "osm_kind": "building",
        "name": "",
        "source": "OpenStreetMap",
        "download_window_id": "nizhny_novgorod_-1_-1_2e6411a5",
        "download_city": "Нижний Новгород",
        "osm_tags": {
          "building": "detached"
        },
        "osm_id": 681370363,
        "osm_type": "way"
      },
      "geometry": {
        "type": "Polygon",
        "coordinates": [
          [
            [
              43.9902866,
              56.3204972
            ],
            [
              43.990252,
              56.3204335
            ],
            [
              43.9904048,
              56.3204074
            ],
            [
              43.9904354,
              56.3204637
            ],
            [
              43.9902866,
              56.3204972
            ]
          ]
        ]
      }
    },
    {
      "type": "Feature",
      "properties": {
        "osm_kind": "road",
        "name": "Университетский переулок",
        "source": "OpenStreetMap",
        "download_window_id": "nizhny_novgorod_-1_-1_2e6411a5",
        "download_city": "Нижний Новгород",
        "osm_tags": {
          "highway": "residential",
          "name": "Университетский переулок"
        },
        "osm_id": 763939011,
        "osm_type": "way"
      },
      "geometry": {
        "type": "LineString",
        "coordinates": [
          [
            43.9965002,
            56.3186922
          ],
          [
            43.9957395,
            56.3189827
          ],
          [
            43.9954191,
            56.319105
          ],
          [
            43.9947494,
            56.3193522
          ],
          [
            43.9943743,
            56.3194865
          ],
          [
            43.9932497,
            56.3198844
          ],
          [
            43.9928268,
            56.3200354
          ]
        ]
      }
    },
    {
      "type": "Feature",
      "properties": {
        "osm_kind": "building",
        "name": "Дом купца Н.С. Чеснокова",
        "source": "OpenStreetMap",
        "download_window_id": "nizhny_novgorod_-1_-1_2e6411a5",
        "download_city": "Нижний Новгород",
        "osm_tags": {
          "building": "yes",
          "name": "Дом купца Н.С. Чеснокова"
        },
        "osm_id": 1178277534,
        "osm_type": "way"
      },
      "geometry": {
        "type": "Polygon",
        "coordinates": [
          [
            [
              43.9897452,
              56.3202501
            ],
            [
              43.9901489,
              56.3201853
            ],
            [
              43.990116,
              56.3201222
            ],
            [
              43.9900421,
              56.3201341
            ],
            [
              43.9900124,
              56.3200772
            ],
            [
              43.9896826,
              56.3201301
            ],
            [
              43.9897452,
              56.3202501
            ]
          ]
        ]
      }
    },
    {
      "type": "Feature",
      "properties": {
        "osm_kind": "road",
        "name": "",
        "source": "OpenStreetMap",
        "download_window_id": "nizhny_novgorod_-1_-1_2e6411a5",
        "download_city": "Нижний Новгород",
        "osm_tags": {
          "highway": "service"
        },
        "osm_id": 1178277537,
        "osm_type": "way"
      },
      "geometry": {
        "type": "LineString",
        "coordinates": [
          [
            43.9890643,
            56.319366
          ],
          [
            43.9890989,
            56.3193605
          ],
          [
            43.9891692,
            56.3193494
          ],
          [
            43.9896624,
            56.3192714
          ],
          [
            43.990247,
            56.3191692
          ],
          [
            43.9907387,
            56.3200413
          ],
          [
            43.9901876,
            56.3201312
          ],
          [
            43.9896624,
            56.3192714
          ]
        ]
      }
    },
    {
      "type": "Feature",
      "properties": {
        "osm_kind": "road",
        "name": "",
        "source": "OpenStreetMap",
        "download_window_id": "nizhny_novgorod_-1_-1_2e6411a5",
        "download_city": "Нижний Новгород",
        "osm_tags": {
          "highway": "footway"
        },
        "osm_id": 1247499754,
        "osm_type": "way"
      },
      "geometry": {
        "type": "LineString",
        "coordinates": [
          [
            43.9928268,
            56.3200354
          ],
          [
            43.9927769,
            56.3199956
          ]
        ]
      }
    },
    {
      "type": "Feature",
      "properties": {
        "osm_kind": "building",
        "name": "",
        "source": "OpenStreetMap",
        "download_window_id": "nizhny_novgorod_-1_-1_2e6411a5",
        "download_city": "Нижний Новгород",
        "osm_tags": {
          "building": "yes"
        },
        "osm_id": 1301898187,
        "osm_type": "way"
      },
      "geometry": {
        "type": "Polygon",
        "coordinates": [
          [
            [
              43.99373,
              56.3203717
            ],
            [
              43.9940194,
              56.3202618
            ],
            [
              43.9939025,
              56.320166
            ],
            [
              43.9936235,
              56.3202731
            ],
            [
              43.99373,
              56.3203717
            ]
          ]
        ]
      }
    },
    {
      "type": "Feature",
      "properties": {
        "osm_kind": "road",
        "name": "",
        "source": "OpenStreetMap",
        "download_window_id": "nizhny_novgorod_-1_-1_2e6411a5",
        "download_city": "Нижний Новгород",
        "osm_tags": {
          "highway": "service"
        },
        "osm_id": 1390283125,
        "osm_type": "way"
      },
      "geometry": {
        "type": "LineString",
        "coordinates": [
          [
            43.9894841,
            56.3206373
          ],
          [
            43.9896201,
            56.3205958
          ],
          [
            43.9897202,
            56.3205779
          ],
          [
            43.9897532,
            56.3205717
          ]
        ]
      }
    },
    {
      "type": "Feature",
      "properties": {
        "osm_kind": "road",
        "name": "",
        "source": "OpenStreetMap",
        "download_window_id": "nizhny_novgorod_-1_-1_2e6411a5",
        "download_city": "Нижний Новгород",
        "osm_tags": {
          "highway": "service"
        },
        "osm_id": 1421377973,
        "osm_type": "way"
      },
      "geometry": {
        "type": "LineString",
        "coordinates": [
          [
            43.9913151,
            56.3208088
          ],
          [
            43.9912617,
            56.3207827
          ],
          [
            43.9911939,
            56.3207108
          ],
          [
            43.9911919,
            56.3204981
          ]
        ]
      }
    }
  ]
}