{
  "type": "FeatureCollection",
  "name": "nizhny_novgorod_+0_+3_46a69110",
  "metadata": {
    "category": "shared_pipe",
    "rank": 98,
    "city": "Нижний Новгород",
    "seed": "nizhny_novgorod",
    "center": [
      44.0472144,
      56.3269
    ],
    "bbox_south_west_north_east": [
      56.3255525,
      44.0447842,
      56.3282475,
      44.0496447
    ],
    "source": "OpenStreetMap via Overpass API",
    "note": "Real OSM geometry only. Category is a heuristic research bucket, not heat-network ground truth.",
    "metrics": {
      "counts": {
        "building": 1,
        "road": 24,
        "major_road": 0,
        "railway": 0,
        "water": 0,
        "green": 0
      },
      "lengths_m": {
        "road": 8027.36,
        "major_road": 0.0,
        "railway": 0.0,
        "water": 0.0
      },
      "building_centers": 1,
      "building_spread": 0.0,
      "barrier_score": 0.0,
      "road_score": 5.9337,
      "category_scores": {
        "shared_pipe": 2.0312,
        "separate_pipes": 2.3985,
        "fifty_fifty": 0.625,
        "refusal": 0.0188
      }
    }
  },
  "features": [
    {
      "type": "Feature",
      "properties": {
        "osm_kind": "road",
        "name": "набережная Гребного канала",
        "source": "OpenStreetMap",
        "download_window_id": "nizhny_novgorod_+0_+3_46a69110",
        "download_city": "Нижний Новгород",
        "osm_tags": {
          "highway": "tertiary",
          "name": "набережная Гребного канала"
        },
        "osm_id": 24216381,
        "osm_type": "way"
      },
      "geometry": {
        "type": "LineString",
        "coordinates": [
          [
            44.0424722,
            56.3269991
          ],
          [
            44.0426608,
            56.3269526
          ],
          [
            44.0456813,
            56.3262415
          ],
          [
            44.046886,
            56.325956
          ]
        ]
      }
    },
    {
      "type": "Feature",
      "properties": {
        "osm_kind": "road",
        "name": "",
        "source": "OpenStreetMap",
        "download_window_id": "nizhny_novgorod_+0_+3_46a69110",
        "download_city": "Нижний Новгород",
        "osm_tags": {
          "highway": "cycleway"
        },
        "osm_id": 40868859,
        "osm_type": "way"
      },
      "geometry": {
        "type": "LineString",
        "coordinates": [
          [
            44.0969666,
            56.3060446
          ],
          [
            44.096875,
            56.3061697
          ],
          [
            44.0951155,
            56.3075626
          ],
          [
            44.0939751,
            56.3084722
          ],
          [
            44.0928174,
            56.3094128
          ],
          [
            44.0918866,
            56.3101064
          ],
          [
            44.0918242,
            56.3101483
          ],
          [
            44.0917783,
            56.3101852
          ],
          [
            44.091707,
            56.3102364
          ],
          [
            44.09134,
            56.3105845
          ],
          [
            44.0911227,
            56.3107378
          ],
          [
            44.0907086,
            56.310986
          ],
          [
            44.0906435,
            56.3110579
          ],
          [
            44.090611,
            56.3110937
          ],
          [
            44.0905495,
            56.3111416
          ],
          [
            44.0872076,
            56.3135443
          ],
          [
            44.0871493,
            56.3135672
          ],
          [
            44.0870782,
            56.313595
          ],
          [
            44.0866286,
            56.3139744
          ],
          [
            44.0863839,
            56.3141248
          ],
          [
            44.0857956,
            56.3143889
          ],
          [
            44.0857751,
            56.3144196
          ],
          [
            44.0857504,
            56.3144527
          ],
          [
            44.0827786,
            56.3159594
          ],
          [
            44.0809371,
            56.3168945
          ],
          [
            44.0808855,
            56.3169088
          ],
          [
            44.0808177,
            56.3169294
          ],
          [
            44.0802675,
            56.3172487
          ],
          [
            44.0799982,
            56.3173621
          ],
          [
            44.0792673,
            56.3176109
          ],
          [
            44.0792155,
            56.3176459
          ],
          [
            44.0791762,
            56.3176725
          ],
          [
            44.0777607,
            56.3182504
          ],
          [
            44.0767978,
            56.3186258
          ],
          [
            44.0767216,
            56.3186555
          ],
          [
            44.0766479,
            56.3186842
          ],
          [
            44.0757117,
            56.3190516
          ],
          [
            44.0755729,
            56.3191067
          ],
          [
            44.0739318,
            56.3197583
          ],
          [
            44.0736758,
            56.3198475
          ],
          [
            44.0732397,
            56.319971
          ],
          [
            44.0726467,
            56.3201056
          ],
          [
            44.0721494,
            56.3201922
          ],
          [
            44.0717891,
            56.3202754
          ],
          [
            44.0714807,
            56.3203514
          ],
          [
            44.0710485,
            56.320476
          ],
          [
            44.0685207,
            56.321081
          ],
          [
            44.0683614,
            56.3210949
          ],
          [
            44.0682185,
            56.3211279
          ],
          [
            44.0680801,
            56.3211602
          ],
          [
            44.067943,
            56.3211923
          ],
          [
            44.0678149,
            56.3212262
          ],
          [
            44.0676704,
            56.3212793
          ],
          [
            44.0675114,
            56.3213245
          ],
          [
            44.0653381,
            56.3218369
          ],
          [
            44.0644724,
            56.3220023
          ],
          [
            44.0643615,
            56.3220301
          ],
          [
            44.0639326,
            56.3221418
          ],
          [
            44.0634853,
            56.3222706
          ],
          [
            44.0612261,
            56.322808
          ],
          [
            44.0609643,
            56.3228657
          ],
          [
            44.0607996,
            56.3228839
          ],
          [
            44.0606507,
            56.3229202
          ],
          [
            44.0605202,
            56.3229521
          ],
          [
            44.0603317,
            56.3230129
          ],
          [
            44.0577961,
            56.3236143
          ],
          [
            44.0570614,
            56.3237514
          ],
          [
            44.056822,
            56.3238068
          ],
          [
            44.0567756,
            56.3238194
          ],
          [
            44.0560722,
            56.3240237
          ],
          [
            44.0537759,
            56.3245678
          ],
          [
            44.0536199,
            56.3246002
          ],
          [
            44.0533717,
            56.3246459
          ],
          [
            44.0532414,
            56.3246766
          ],
          [
            44.0531158,
            56.3247062
          ],
          [
            44.05288,
            56.324774
          ],
          [
            44.0505975,
            56.325312
          ],
          [
            44.050253,
            56.3253874
          ],
          [
            44.0496285,
            56.3255071
          ],
          [
            44.0494738,
            56.3255419
          ],
          [
            44.049332,
            56.3255751
          ],
          [
            44.0485764,
            56.3257907
          ],
          [
            44.046031,
            56.3263833
          ],
          [
            44.0459307,
            56.3263909
          ],
          [
            44.0458138,
            56.3264194
          ],
          [
            44.0456227,
            56.3264659
          ],
          [
            44.0455441,
            56.3265012
          ],
          [
            44.0445862,
            56.3267263
          ],
          [
            44.0433647,
            56.327014
          ],
          [
            44.0428145,
            56.3271468
          ],
          [
            44.0419461,
            56.327347
          ],
          [
            44.0417522,
            56.3273479
          ],
          [
            44.0413455,
            56.3274501
          ],
          [
            44.0409739,
            56.3275811
          ],
          [
            44.038023,
            56.3282821
          ],
          [
            44.0366899,
            56.3285245
          ],
          [
            44.0358706,
            56.3286734
          ],
          [
            44.0347989,
            56.3288807
          ],
          [
            44.0345812,
            56.3289211
          ],
          [
            44.033855,
            56.3290557
          ],
          [
            44.0328825,
            56.3292294
          ]
        ]
      }
    },
    {
      "type": "Feature",
      "properties": {
        "osm_kind": "road",
        "name": "",
        "source": "OpenStreetMap",
        "download_window_id": "nizhny_novgorod_+0_+3_46a69110",
        "download_city": "Нижний Новгород",
        "osm_tags": {
          "highway": "footway"
        },
        "osm_id": 62117792,
        "osm_type": "way"
      },
      "geometry": {
        "type": "LineString",
        "coordinates": [
          [
            44.0459268,
            56.3265643
          ],
          [
            44.0459069,
            56.3265388
          ]
        ]
      }
    },
    {
      "type": "Feature",
      "properties": {
        "osm_kind": "road",
        "name": "",
        "source": "OpenStreetMap",
        "download_window_id": "nizhny_novgorod_+0_+3_46a69110",
        "download_city": "Нижний Новгород",
        "osm_tags": {
          "highway": "footway"
        },
        "osm_id": 179860920,
        "osm_type": "way"
      },
      "geometry": {
        "type": "LineString",
        "coordinates": [
          [
            44.0547344,
            56.3240285
          ],
          [
            44.0536046,
            56.3242966
          ],
          [
            44.0497761,
            56.3251947
          ],
          [
            44.0468344,
            56.3258872
          ],
          [
            44.0457492,
            56.3261441
          ],
          [
            44.0426102,
            56.3268872
          ],
          [
            44.0420508,
            56.3270191
          ],
          [
            44.0420248,
            56.327026
          ],
          [
            44.0419935,
            56.3270333
          ],
          [
            44.0418355,
            56.3270689
          ],
          [
            44.0411967,
            56.3272077
          ],
          [
            44.0409485,
            56.3272624
          ],
          [
            44.0407516,
            56.3273145
          ],
          [
            44.0402928,
            56.3274304
          ],
          [
            44.0397848,
            56.3275534
          ],
          [
            44.0393687,
            56.3276378
          ],
          [
            44.0390014,
            56.3277242
          ],
          [
            44.0383371,
            56.3278846
          ],
          [
            44.0382386,
            56.327908
          ],
          [
            44.0380404,
            56.3279549
          ],
          [
            44.0357082,
            56.3284021
          ],
          [
            44.0336915,
            56.3287719
          ],
          [
            44.0336244,
            56.3287842
          ],
          [
            44.0334021,
            56.3288238
          ],
          [
            44.0325719,
            56.3289759
          ],
          [
            44.0325321,
            56.3289839
          ],
          [
            44.032495,
            56.3289913
          ],
          [
            44.0323896,
            56.3290078
          ],
          [
            44.0318843,
            56.3290568
          ],
          [
            44.03177,
            56.329071
          ],
          [
            44.0316209,
            56.3290803
          ]
        ]
      }
    },
    {
      "type": "Feature",
      "properties": {
        "osm_kind": "road",
        "name": "",
        "source": "OpenStreetMap",
        "download_window_id": "nizhny_novgorod_+0_+3_46a69110",
        "download_city": "Нижний Новгород",
        "osm_tags": {
          "highway": "footway"
        },
        "osm_id": 227589685,
        "osm_type": "way"
      },
      "geometry": {
        "type": "LineString",
        "coordinates": [
          [
            44.049457,
            56.3255189
          ],
          [
            44.0494738,
            56.3255419
          ],
          [
            44.0495016,
            56.3255801
          ]
        ]
      }
    },
    {
      "type": "Feature",
      "properties": {
        "osm_kind": "road",
        "name": "",
        "source": "OpenStreetMap",
        "download_window_id": "nizhny_novgorod_+0_+3_46a69110",
        "download_city": "Нижний Новгород",
        "osm_tags": {
          "highway": "service"
        },
        "osm_id": 227660160,
        "osm_type": "way"
      },
      "geometry": {
        "type": "LineString",
        "coordinates": [
          [
            44.0458138,
            56.3264194
          ],
          [
            44.0457958,
            56.3263954
          ],
          [
            44.0457221,
            56.3262966
          ],
          [
            44.0456813,
            56.3262415
          ]
        ]
      }
    },
    {
      "type": "Feature",
      "properties": {
        "osm_kind": "road",
        "name": "",
        "source": "OpenStreetMap",
        "download_window_id": "nizhny_novgorod_+0_+3_46a69110",
        "download_city": "Нижний Новгород",
        "osm_tags": {
          "highway": "footway"
        },
        "osm_id": 227660165,
        "osm_type": "way"
      },
      "geometry": {
        "type": "LineString",
        "coordinates": [
          [
            44.0496397,
            56.3255495
          ],
          [
            44.0495016,
            56.3255801
          ],
          [
            44.049368,
            56.3256115
          ]
        ]
      }
    },
    {
      "type": "Feature",
      "properties": {
        "osm_kind": "road",
        "name": "",
        "source": "OpenStreetMap",
        "download_window_id": "nizhny_novgorod_+0_+3_46a69110",
        "download_city": "Нижний Новгород",
        "osm_tags": {
          "highway": "footway"
        },
        "osm_id": 227660167,
        "osm_type": "way"
      },
      "geometry": {
        "type": "LineString",
        "coordinates": [
          [
            44.049368,
            56.3256115
          ],
          [
            44.0489273,
            56.3258091
          ],
          [
            44.0487744,
            56.3259029
          ]
        ]
      }
    },
    {
      "type": "Feature",
      "properties": {
        "osm_kind": "road",
        "name": "",
        "source": "OpenStreetMap",
        "download_window_id": "nizhny_novgorod_+0_+3_46a69110",
        "download_city": "Нижний Новгород",
        "osm_tags": {
          "highway": "track"
        },
        "osm_id": 227660169,
        "osm_type": "way"
      },
      "geometry": {
        "type": "LineString",
        "coordinates": [
          [
            44.0468229,
            56.3258714
          ],
          [
            44.0468344,
            56.3258872
          ],
          [
            44.0468415,
            56.3258976
          ],
          [
            44.046886,
            56.325956
          ]
        ]
      }
    },
    {
      "type": "Feature",
      "properties": {
        "osm_kind": "road",
        "name": "набережная Гребного канала",
        "source": "OpenStreetMap",
        "download_window_id": "nizhny_novgorod_+0_+3_46a69110",
        "download_city": "Нижний Новгород",
        "osm_tags": {
          "highway": "tertiary",
          "name": "набережная Гребного канала"
        },
        "osm_id": 227660177,
        "osm_type": "way"
      },
      "geometry": {
        "type": "LineString",
        "coordinates": [
          [
            44.046886,
            56.325956
          ],
          [
            44.0493479,
            56.3253689
          ],
          [
            44.0497193,
            56.3252832
          ],
          [
            44.04982,
            56.32526
          ],
          [
            44.049936,
            56.3252328
          ],
          [
            44.0517361,
            56.3248106
          ],
          [
            44.0531035,
            56.3244901
          ],
          [
            44.0536514,
            56.3243635
          ],
          [
            44.0548334,
            56.3240832
          ]
        ]
      }
    },
    {
      "type": "Feature",
      "properties": {
        "osm_kind": "building",
        "name": "",
        "source": "OpenStreetMap",
        "download_window_id": "nizhny_novgorod_+0_+3_46a69110",
        "download_city": "Нижний Новгород",
        "osm_tags": {
          "building": "roof"
        },
        "osm_id": 756071510,
        "osm_type": "way"
      },
      "geometry": {
        "type": "Polygon",
        "coordinates": [
          [
            [
              44.0488284,
              56.3284864
            ],
            [
              44.0487493,
              56.3283844
            ],
            [
              44.0494599,
              56.3282149
            ],
            [
              44.049539,
              56.3283168
            ],
            [
              44.0488284,
              56.3284864
            ]
          ]
        ]
      }
    },
    {
      "type": "Feature",
      "properties": {
        "osm_kind": "road",
        "name": "",
        "source": "OpenStreetMap",
        "download_window_id": "nizhny_novgorod_+0_+3_46a69110",
        "download_city": "Нижний Новгород",
        "osm_tags": {
          "highway": "footway"
        },
        "osm_id": 756071514,
        "osm_type": "way"
      },
      "geometry": {
        "type": "LineString",
        "coordinates": [
          [
            44.0465941,
            56.3288598
          ],
          [
            44.0469441,
            56.3287254
          ],
          [
            44.0471372,
            56.3286793
          ],
          [
            44.0474081,
            56.328657
          ],
          [
            44.0475717,
            56.3286272
          ],
          [
            44.0477112,
            56.3286168
          ],
          [
            44.0478553,
            56.3286089
          ],
          [
            44.0480947,
            56.3285514
          ],
          [
            44.0483093,
            56.3284592
          ],
          [
            44.0484568,
            56.3283908
          ],
          [
            44.0485793,
            56.3283539
          ],
          [
            44.048945,
            56.3282435
          ],
          [
            44.0492856,
            56.3281737
          ],
          [
            44.0497255,
            56.3281305
          ],
          [
            44.0501171,
            56.328074
          ],
          [
            44.050262,
            56.3280339
          ],
          [
            44.0508386,
            56.3278123
          ],
          [
            44.0510774,
            56.3277543
          ],
          [
            44.0512893,
            56.327726
          ],
          [
            44.0516111,
            56.3276993
          ]
        ]
      }
    },
    {
      "type": "Feature",
      "properties": {
        "osm_kind": "road",
        "name": "",
        "source": "OpenStreetMap",
        "download_window_id": "nizhny_novgorod_+0_+3_46a69110",
        "download_city": "Нижний Новгород",
        "osm_tags": {
          "highway": "footway"
        },
        "osm_id": 978577743,
        "osm_type": "way"
      },
      "geometry": {
        "type": "LineString",
        "coordinates": [
          [
            44.0458354,
            56.3264471
          ],
          [
            44.0458138,
            56.3264194
          ]
        ]
      }
    },
    {
      "type": "Feature",
      "properties": {
        "osm_kind": "road",
        "name": "",
        "source": "OpenStreetMap",
        "download_window_id": "nizhny_novgorod_+0_+3_46a69110",
        "download_city": "Нижний Новгород",
        "osm_tags": {
          "highway": "steps"
        },
        "osm_id": 978577744,
        "osm_type": "way"
      },
      "geometry": {
        "type": "LineString",
        "coordinates": [
          [
            44.0459069,
            56.3265388
          ],
          [
            44.0458354,
            56.3264471
          ]
        ]
      }
    },
    {
      "type": "Feature",
      "properties": {
        "osm_kind": "road",
        "name": "",
        "source": "OpenStreetMap",
        "download_window_id": "nizhny_novgorod_+0_+3_46a69110",
        "download_city": "Нижний Новгород",
        "osm_tags": {
          "highway": "footway"
        },
        "osm_id": 978577749,
        "osm_type": "way"
      },
      "geometry": {
        "type": "LineString",
        "coordinates": [
          [
            44.0461019,
            56.3265616
          ],
          [
            44.0460775,
            56.3265293
          ]
        ]
      }
    },
    {
      "type": "Feature",
      "properties": {
        "osm_kind": "road",
        "name": "",
        "source": "OpenStreetMap",
        "download_window_id": "nizhny_novgorod_+0_+3_46a69110",
        "download_city": "Нижний Новгород",
        "osm_tags": {
          "highway": "footway"
        },
        "osm_id": 978577750,
        "osm_type": "way"
      },
      "geometry": {
        "type": "LineString",
        "coordinates": [
          [
            44.0457994,
            56.3266332
          ],
          [
            44.0457741,
            56.326601
          ]
        ]
      }
    },
    {
      "type": "Feature",
      "properties": {
        "osm_kind": "road",
        "name": "",
        "source": "OpenStreetMap",
        "download_window_id": "nizhny_novgorod_+0_+3_46a69110",
        "download_city": "Нижний Новгород",
        "osm_tags": {
          "highway": "footway"
        },
        "osm_id": 978577751,
        "osm_type": "way"
      },
      "geometry": {
        "type": "LineString",
        "coordinates": [
          [
            44.045498,
            56.3267045
          ],
          [
            44.0454741,
            56.3266732
          ]
        ]
      }
    },
    {
      "type": "Feature",
      "properties": {
        "osm_kind": "road",
        "name": "",
        "source": "OpenStreetMap",
        "download_window_id": "nizhny_novgorod_+0_+3_46a69110",
        "download_city": "Нижний Новгород",
        "osm_tags": {
          "highway": "footway"
        },
        "osm_id": 978577752,
        "osm_type": "way"
      },
      "geometry": {
        "type": "LineString",
        "coordinates": [
          [
            44.0452073,
            56.3267733
          ],
          [
            44.0451834,
            56.3267431
          ]
        ]
      }
    },
    {
      "type": "Feature",
      "properties": {
        "osm_kind": "road",
        "name": "",
        "source": "OpenStreetMap",
        "download_window_id": "nizhny_novgorod_+0_+3_46a69110",
        "download_city": "Нижний Новгород",
        "osm_tags": {
          "highway": "footway"
        },
        "osm_id": 978577753,
        "osm_type": "way"
      },
      "geometry": {
        "type": "LineString",
        "coordinates": [
          [
            44.0449059,
            56.3268447
          ],
          [
            44.0448836,
            56.3268152
          ]
        ]
      }
    },
    {
      "type": "Feature",
      "properties": {
        "osm_kind": "road",
        "name": "",
        "source": "OpenStreetMap",
        "download_window_id": "nizhny_novgorod_+0_+3_46a69110",
        "download_city": "Нижний Новгород",
        "osm_tags": {
          "highway": "footway"
        },
        "osm_id": 978577768,
        "osm_type": "way"
      },
      "geometry": {
        "type": "LineString",
        "coordinates": [
          [
            44.0461641,
            56.3266419
          ],
          [
            44.0458619,
            56.3267139
          ],
          [
            44.0455609,
            56.3267856
          ],
          [
            44.0452704,
            56.3268548
          ],
          [
            44.0449693,
            56.3269265
          ],
          [
            44.0446727,
            56.3269972
          ],
          [
            44.0443718,
            56.3270689
          ],
          [
            44.0440661,
            56.3271417
          ],
          [
            44.0437722,
            56.3272117
          ],
          [
            44.0434694,
            56.3272838
          ],
          [
            44.0431747,
            56.3273541
          ],
          [
            44.0428942,
            56.3274209
          ],
          [
            44.0425904,
            56.3274932
          ],
          [
            44.0422984,
            56.3275628
          ],
          [
            44.0420012,
            56.3276336
          ]
        ]
      }
    },
    {
      "type": "Feature",
      "properties": {
        "osm_kind": "road",
        "name": "",
        "source": "OpenStreetMap",
        "download_window_id": "nizhny_novgorod_+0_+3_46a69110",
        "download_city": "Нижний Новгород",
        "osm_tags": {
          "highway": "steps"
        },
        "osm_id": 978577769,
        "osm_type": "way"
      },
      "geometry": {
        "type": "LineString",
        "coordinates": [
          [
            44.0461641,
            56.3266419
          ],
          [
            44.0461019,
            56.3265616
          ]
        ]
      }
    },
    {
      "type": "Feature",
      "properties": {
        "osm_kind": "road",
        "name": "",
        "source": "OpenStreetMap",
        "download_window_id": "nizhny_novgorod_+0_+3_46a69110",
        "download_city": "Нижний Новгород",
        "osm_tags": {
          "highway": "steps"
        },
        "osm_id": 978577770,
        "osm_type": "way"
      },
      "geometry": {
        "type": "LineString",
        "coordinates": [
          [
            44.0458619,
            56.3267139
          ],
          [
            44.0457994,
            56.3266332
          ]
        ]
      }
    },
    {
      "type": "Feature",
      "properties": {
        "osm_kind": "road",
        "name": "",
        "source": "OpenStreetMap",
        "download_window_id": "nizhny_novgorod_+0_+3_46a69110",
        "download_city": "Нижний Новгород",
        "osm_tags": {
          "highway": "steps"
        },
        "osm_id": 978577771,
        "osm_type": "way"
      },
      "geometry": {
        "type": "LineString",
        "coordinates": [
          [
            44.0455609,
            56.3267856
          ],
          [
            44.045498,
            56.3267045
          ]
        ]
      }
    },
    {
      "type": "Feature",
      "properties": {
        "osm_kind": "road",
        "name": "",
        "source": "OpenStreetMap",
        "download_window_id": "nizhny_novgorod_+0_+3_46a69110",
        "download_city": "Нижний Новгород",
        "osm_tags": {
          "highway": "steps"
        },
        "osm_id": 978577772,
        "osm_type": "way"
      },
      "geometry": {
        "type": "LineString",
        "coordinates": [
          [
            44.0452704,
            56.3268548
          ],
          [
            44.0452073,
            56.3267733
          ]
        ]
      }
    },
    {
      "type": "Feature",
      "properties": {
        "osm_kind": "road",
        "name": "",
        "source": "OpenStreetMap",
        "download_window_id": "nizhny_novgorod_+0_+3_46a69110",
        "download_city": "Нижний Новгород",
        "osm_tags": {
          "highway": "steps"
        },
        "osm_id": 978577773,
        "osm_type": "way"
      },
      "geometry": {
        "type": "LineString",
        "coordinates": [
          [
            44.0449693,
            56.3269265
          ],
          [
            44.0449059,
            56.3268447
          ]
        ]
      }
    }
  ]
}