{
  "type": "FeatureCollection",
  "name": "nizhny_novgorod_+1_-3_b03f941f",
  "metadata": {
    "category": "shared_pipe",
    "rank": 100,
    "city": "Нижний Новгород",
    "seed": "nizhny_novgorod",
    "center": [
      43.9645856,
      56.3345356
    ],
    "bbox_south_west_north_east": [
      56.3331882,
      43.9621548,
      56.3358831,
      43.9670163
    ],
    "source": "OpenStreetMap via Overpass API",
    "note": "Real OSM geometry only. Category is a heuristic research bucket, not heat-network ground truth.",
    "metrics": {
      "counts": {
        "building": 5,
        "road": 16,
        "major_road": 3,
        "railway": 0,
        "water": 0,
        "green": 0
      },
      "lengths_m": {
        "road": 2273.58,
        "major_road": 453.76,
        "railway": 0.0,
        "water": 0.0
      },
      "building_centers": 5,
      "building_spread": 0.1582,
      "barrier_score": 0.4538,
      "road_score": 2.8837,
      "category_scores": {
        "shared_pipe": 1.5222,
        "separate_pipes": 1.4766,
        "fifty_fifty": 1.1548,
        "refusal": 1.2281
      }
    }
  },
  "features": [
    {
      "type": "Feature",
      "properties": {
        "osm_kind": "major_road",
        "name": "Должанская улица",
        "source": "OpenStreetMap",
        "download_window_id": "nizhny_novgorod_+1_-3_b03f941f",
        "download_city": "Нижний Новгород",
        "osm_tags": {
          "highway": "secondary",
          "name": "Должанская улица"
        },
        "osm_id": 29909969,
        "osm_type": "way"
      },
      "geometry": {
        "type": "LineString",
        "coordinates": [
          [
            43.9630783,
            56.3334501
          ],
          [
            43.9628702,
            56.3333005
          ],
          [
            43.962481,
            56.3330052
          ],
          [
            43.9623757,
            56.3329272
          ],
          [
            43.961897,
            56.332571
          ]
        ]
      }
    },
    {
      "type": "Feature",
      "properties": {
        "osm_kind": "major_road",
        "name": "Самаркандская улица",
        "source": "OpenStreetMap",
        "download_window_id": "nizhny_novgorod_+1_-3_b03f941f",
        "download_city": "Нижний Новгород",
        "osm_tags": {
          "highway": "secondary",
          "name": "Самаркандская улица"
        },
        "osm_id": 39509240,
        "osm_type": "way"
      },
      "geometry": {
        "type": "LineString",
        "coordinates": [
          [
            43.9657617,
            56.3320848
          ],
          [
            43.9654066,
            56.3323075
          ],
          [
            43.9651209,
            56.3324955
          ],
          [
            43.9648473,
            56.3326686
          ],
          [
            43.9644742,
            56.3328533
          ],
          [
            43.9640905,
            56.3330215
          ],
          [
            43.9637611,
            56.3331614
          ],
          [
            43.9633314,
            56.3333445
          ],
          [
            43.9630783,
            56.3334501
          ]
        ]
      }
    },
    {
      "type": "Feature",
      "properties": {
        "osm_kind": "major_road",
        "name": "Самаркандская улица",
        "source": "OpenStreetMap",
        "download_window_id": "nizhny_novgorod_+1_-3_b03f941f",
        "download_city": "Нижний Новгород",
        "osm_tags": {
          "highway": "secondary",
          "name": "Самаркандская улица"
        },
        "osm_id": 40147323,
        "osm_type": "way"
      },
      "geometry": {
        "type": "LineString",
        "coordinates": [
          [
            43.9630783,
            56.3334501
          ],
          [
            43.9617283,
            56.3340461
          ]
        ]
      }
    },
    {
      "type": "Feature",
      "properties": {
        "osm_kind": "road",
        "name": "",
        "source": "OpenStreetMap",
        "download_window_id": "nizhny_novgorod_+1_-3_b03f941f",
        "download_city": "Нижний Новгород",
        "osm_tags": {
          "highway": "footway"
        },
        "osm_id": 159088320,
        "osm_type": "way"
      },
      "geometry": {
        "type": "LineString",
        "coordinates": [
          [
            43.9650198,
            56.3324069
          ],
          [
            43.9646628,
            56.3325574
          ],
          [
            43.9635519,
            56.3330122
          ],
          [
            43.9631114,
            56.3331927
          ],
          [
            43.9629438,
            56.3332614
          ]
        ]
      }
    },
    {
      "type": "Feature",
      "properties": {
        "osm_kind": "road",
        "name": "",
        "source": "OpenStreetMap",
        "download_window_id": "nizhny_novgorod_+1_-3_b03f941f",
        "download_city": "Нижний Новгород",
        "osm_tags": {
          "highway": "service"
        },
        "osm_id": 170361379,
        "osm_type": "way"
      },
      "geometry": {
        "type": "LineString",
        "coordinates": [
          [
            43.962226,
            56.3330876
          ],
          [
            43.9625304,
            56.3333256
          ]
        ]
      }
    },
    {
      "type": "Feature",
      "properties": {
        "osm_kind": "road",
        "name": "",
        "source": "OpenStreetMap",
        "download_window_id": "nizhny_novgorod_+1_-3_b03f941f",
        "download_city": "Нижний Новгород",
        "osm_tags": {
          "highway": "service"
        },
        "osm_id": 170361445,
        "osm_type": "way"
      },
      "geometry": {
        "type": "LineString",
        "coordinates": [
          [
            43.962481,
            56.3330052
          ],
          [
            43.9623615,
            56.3330437
          ],
          [
            43.962226,
            56.3330876
          ],
          [
            43.9617722,
            56.3332746
          ],
          [
            43.9620519,
            56.3335051
          ],
          [
            43.9625304,
            56.3333256
          ]
        ]
      }
    },
    {
      "type": "Feature",
      "properties": {
        "osm_kind": "road",
        "name": "",
        "source": "OpenStreetMap",
        "download_window_id": "nizhny_novgorod_+1_-3_b03f941f",
        "download_city": "Нижний Новгород",
        "osm_tags": {
          "highway": "footway"
        },
        "osm_id": 514308170,
        "osm_type": "way"
      },
      "geometry": {
        "type": "LineString",
        "coordinates": [
          [
            43.9629438,
            56.3332614
          ],
          [
            43.9628702,
            56.3333005
          ],
          [
            43.9627654,
            56.3333559
          ]
        ]
      }
    },
    {
      "type": "Feature",
      "properties": {
        "osm_kind": "road",
        "name": "",
        "source": "OpenStreetMap",
        "download_window_id": "nizhny_novgorod_+1_-3_b03f941f",
        "download_city": "Нижний Новгород",
        "osm_tags": {
          "highway": "footway"
        },
        "osm_id": 514308171,
        "osm_type": "way"
      },
      "geometry": {
        "type": "LineString",
        "coordinates": [
          [
            43.9627654,
            56.3333559
          ],
          [
            43.9621094,
            56.3336158
          ]
        ]
      }
    },
    {
      "type": "Feature",
      "properties": {
        "osm_kind": "road",
        "name": "",
        "source": "OpenStreetMap",
        "download_window_id": "nizhny_novgorod_+1_-3_b03f941f",
        "download_city": "Нижний Новгород",
        "osm_tags": {
          "highway": "footway"
        },
        "osm_id": 514308172,
        "osm_type": "way"
      },
      "geometry": {
        "type": "LineString",
        "coordinates": [
          [
            43.9631412,
            56.3335732
          ],
          [
            43.9634709,
            56.3338151
          ],
          [
            43.9637404,
            56.3339936
          ],
          [
            43.9647117,
            56.3347451
          ]
        ]
      }
    },
    {
      "type": "Feature",
      "properties": {
        "osm_kind": "road",
        "name": "",
        "source": "OpenStreetMap",
        "download_window_id": "nizhny_novgorod_+1_-3_b03f941f",
        "download_city": "Нижний Новгород",
        "osm_tags": {
          "highway": "footway"
        },
        "osm_id": 528470793,
        "osm_type": "way"
      },
      "geometry": {
        "type": "LineString",
        "coordinates": [
          [
            43.9648386,
            56.3346935
          ],
          [
            43.9647117,
            56.3347451
          ],
          [
            43.9645489,
            56.33482
          ],
          [
            43.9640982,
            56.3350044
          ],
          [
            43.9637554,
            56.334929
          ],
          [
            43.9631103,
            56.3344154
          ],
          [
            43.9625443,
            56.3346113
          ],
          [
            43.9611153,
            56.3351957
          ]
        ]
      }
    },
    {
      "type": "Feature",
      "properties": {
        "osm_kind": "road",
        "name": "",
        "source": "OpenStreetMap",
        "download_window_id": "nizhny_novgorod_+1_-3_b03f941f",
        "download_city": "Нижний Новгород",
        "osm_tags": {
          "highway": "footway"
        },
        "osm_id": 585153262,
        "osm_type": "way"
      },
      "geometry": {
        "type": "LineString",
        "coordinates": [
          [
            43.9655734,
            56.3361139
          ],
          [
            43.9640982,
            56.3350044
          ]
        ]
      }
    },
    {
      "type": "Feature",
      "properties": {
        "osm_kind": "road",
        "name": "",
        "source": "OpenStreetMap",
        "download_window_id": "nizhny_novgorod_+1_-3_b03f941f",
        "download_city": "Нижний Новгород",
        "osm_tags": {
          "highway": "footway"
        },
        "osm_id": 635556428,
        "osm_type": "way"
      },
      "geometry": {
        "type": "LineString",
        "coordinates": [
          [
            43.9656939,
            56.3322829
          ],
          [
            43.9656208,
            56.3323425
          ],
          [
            43.9652832,
            56.3325744
          ],
          [
            43.9648633,
            56.3328179
          ],
          [
            43.9645649,
            56.3329612
          ],
          [
            43.9642305,
            56.3331125
          ],
          [
            43.9634563,
            56.3334317
          ],
          [
            43.9632754,
            56.333514
          ],
          [
            43.9631412,
            56.3335732
          ],
          [
            43.9618616,
            56.3341454
          ],
          [
            43.9613944,
            56.33438
          ],
          [
            43.9611322,
            56.3345335
          ],
          [
            43.9608452,
            56.3346792
          ],
          [
            43.9605678,
            56.3348101
          ]
        ]
      }
    },
    {
      "type": "Feature",
      "properties": {
        "osm_kind": "road",
        "name": "",
        "source": "OpenStreetMap",
        "download_window_id": "nizhny_novgorod_+1_-3_b03f941f",
        "download_city": "Нижний Новгород",
        "osm_tags": {
          "highway": "footway"
        },
        "osm_id": 635556429,
        "osm_type": "way"
      },
      "geometry": {
        "type": "LineString",
        "coordinates": [
          [
            43.9618616,
            56.3341454
          ],
          [
            43.9622081,
            56.3344096
          ],
          [
            43.9623407,
            56.334489
          ]
        ]
      }
    },
    {
      "type": "Feature",
      "properties": {
        "osm_kind": "road",
        "name": "",
        "source": "OpenStreetMap",
        "download_window_id": "nizhny_novgorod_+1_-3_b03f941f",
        "download_city": "Нижний Новгород",
        "osm_tags": {
          "highway": "service"
        },
        "osm_id": 681985583,
        "osm_type": "way"
      },
      "geometry": {
        "type": "LineString",
        "coordinates": [
          [
            43.9636559,
            56.3338081
          ],
          [
            43.9642704,
            56.3342686
          ],
          [
            43.9645824,
            56.334506
          ],
          [
            43.9648386,
            56.3346935
          ],
          [
            43.965805,
            56.3354365
          ],
          [
            43.9662978,
            56.335815
          ],
          [
            43.9667561,
            56.3362188
          ],
          [
            43.9679074,
            56.3371235
          ]
        ]
      }
    },
    {
      "type": "Feature",
      "properties": {
        "osm_kind": "road",
        "name": "",
        "source": "OpenStreetMap",
        "download_window_id": "nizhny_novgorod_+1_-3_b03f941f",
        "download_city": "Нижний Новгород",
        "osm_tags": {
          "highway": "footway"
        },
        "osm_id": 681985584,
        "osm_type": "way"
      },
      "geometry": {
        "type": "LineString",
        "coordinates": [
          [
            43.9631114,
            56.3331927
          ],
          [
            43.9633314,
            56.3333445
          ],
          [
            43.9634563,
            56.3334317
          ]
        ]
      }
    },
    {
      "type": "Feature",
      "properties": {
        "osm_kind": "road",
        "name": "",
        "source": "OpenStreetMap",
        "download_window_id": "nizhny_novgorod_+1_-3_b03f941f",
        "download_city": "Нижний Новгород",
        "osm_tags": {
          "highway": "service"
        },
        "osm_id": 825980855,
        "osm_type": "way"
      },
      "geometry": {
        "type": "LineString",
        "coordinates": [
          [
            43.9599973,
            56.3353287
          ],
          [
            43.9608402,
            56.3349984
          ],
          [
            43.9622081,
            56.3344096
          ],
          [
            43.9633879,
            56.3338465
          ],
          [
            43.9634709,
            56.3338151
          ],
          [
            43.9636559,
            56.3338081
          ]
        ]
      }
    },
    {
      "type": "Feature",
      "properties": {
        "osm_kind": "building",
        "name": "",
        "source": "OpenStreetMap",
        "download_window_id": "nizhny_novgorod_+1_-3_b03f941f",
        "download_city": "Нижний Новгород",
        "osm_tags": {
          "building": "yes"
        },
        "osm_id": 827025448,
        "osm_type": "way"
      },
      "geometry": {
        "type": "Polygon",
        "coordinates": [
          [
            [
              43.9638976,
              56.3345487
            ],
            [
              43.9636404,
              56.3343579
            ],
            [
              43.9638487,
              56.3342716
            ],
            [
              43.964106,
              56.3344623
            ],
            [
              43.9638976,
              56.3345487
            ]
          ]
        ]
      }
    },
    {
      "type": "Feature",
      "properties": {
        "osm_kind": "building",
        "name": "",
        "source": "OpenStreetMap",
        "download_window_id": "nizhny_novgorod_+1_-3_b03f941f",
        "download_city": "Нижний Новгород",
        "osm_tags": {
          "building": "yes"
        },
        "osm_id": 827025449,
        "osm_type": "way"
      },
      "geometry": {
        "type": "Polygon",
        "coordinates": [
          [
            [
              43.9646348,
              56.3351361
            ],
            [
              43.9643775,
              56.3349454
            ],
            [
              43.9645859,
              56.334859
            ],
            [
              43.9648432,
              56.3350498
            ],
            [
              43.9646348,
              56.3351361
            ]
          ]
        ]
      }
    },
    {
      "type": "Feature",
      "properties": {
        "osm_kind": "building",
        "name": "",
        "source": "OpenStreetMap",
        "download_window_id": "nizhny_novgorod_+1_-3_b03f941f",
        "download_city": "Нижний Новгород",
        "osm_tags": {
          "building": "yes"
        },
        "osm_id": 827025457,
        "osm_type": "way"
      },
      "geometry": {
        "type": "Polygon",
        "coordinates": [
          [
            [
              43.9656975,
              56.3359241
            ],
            [
              43.9650217,
              56.3354195
            ],
            [
              43.9652152,
              56.3353399
            ],
            [
              43.9658908,
              56.3358446
            ],
            [
              43.9656975,
              56.3359241
            ]
          ]
        ]
      }
    },
    {
      "type": "Feature",
      "properties": {
        "osm_kind": "building",
        "name": "",
        "source": "OpenStreetMap",
        "download_window_id": "nizhny_novgorod_+1_-3_b03f941f",
        "download_city": "Нижний Новгород",
        "osm_tags": {
          "building": "yes"
        },
        "osm_id": 827025458,
        "osm_type": "way"
      },
      "geometry": {
        "type": "Polygon",
        "coordinates": [
          [
            [
              43.9647132,
              56.3353084
            ],
            [
              43.9648228,
              56.3352637
            ],
            [
              43.9647332,
              56.3351963
            ],
            [
              43.9646236,
              56.335241
            ],
            [
              43.9647132,
              56.3353084
            ]
          ]
        ]
      }
    },
    {
      "type": "Feature",
      "properties": {
        "osm_kind": "building",
        "name": "Волга Арена",
        "source": "OpenStreetMap",
        "download_window_id": "nizhny_novgorod_+1_-3_b03f941f",
        "download_city": "Нижний Новгород",
        "osm_tags": {
          "building": "stadium",
          "name": "Волга Арена"
        },
        "osm_id": 1223704345,
        "osm_type": "way"
      },
      "geometry": {
        "type": "Polygon",
        "coordinates": [
          [
            [
              43.9651195,
              56.3336663
            ],
            [
              43.9653121,
              56.3335903
            ],
            [
              43.9654528,
              56.3335472
            ],
            [
              43.9656973,
              56.3335021
            ],
            [
              43.9658528,
              56.3334938
            ],
            [
              43.9659898,
              56.3334959
            ],
            [
              43.9662046,
              56.3335144
            ],
            [
              43.9663935,
              56.3335595
            ],
            [
              43.9665231,
              56.3336006
            ],
            [
              43.9666046,
              56.3336396
            ],
            [
              43.9666935,
              56.3336807
            ],
            [
              43.9678007,
              56.3345306
            ],
            [
              43.9679044,
              56.334625
            ],
            [
              43.9679563,
              56.3347071
            ],
            [
              43.9679933,
              56.3347995
            ],
            [
              43.9680044,
              56.3348693
            ],
            [
              43.9680155,
              56.3349247
            ],
            [
              43.967997,
              56.3349966
            ],
            [
              43.9679526,
              56.3350766
            ],
            [
              43.9679044,
              56.3351526
            ],
            [
              43.9678193,
              56.3352388
            ],
            [
              43.9677119,
              56.3353045
            ],
            [
              43.9676341,
              56.3353579
            ],
            [
              43.9674452,
              56.3354154
            ],
            [
              43.967323,
              56.3354544
            ],
            [
              43.9672008,
              56.3354831
            ],
            [
              43.967023,
              56.3354995
            ],
            [
              43.9668194,
              56.3355016
            ],
            [
              43.9665527,
              56.335479
            ],
            [
              43.9663937,
              56.335447
            ],
            [
              43.9662831,
              56.335414
            ],
            [
              43.966198,
              56.3353775
            ],
            [
              43.966113,
              56.335335
            ],
            [
              43.9660343,
              56.335289
            ],
            [
              43.9649452,
              56.3344248
            ],
            [
              43.9648644,
              56.3343552
            ],
            [
              43.9648346,
              56.3343033
            ],
            [
              43.9648112,
              56.3342385
            ],
            [
              43.9647942,
              56.3341725
            ],
            [
              43.9648049,
              56.33411
            ],
            [
              43.9648219,
              56.3340486
            ],
            [
              43.9648346,
              56.3340038
            ],
            [
              43.9648602,
              56.333939
            ],
            [
              43.9648836,
              56.3338848
            ],
            [
              43.9649091,
              56.3338411
            ],
            [
              43.9649686,
              56.3337657
            ],
            [
              43.9651195,
              56.3336663
            ]
          ]
        ]
      }
    },
    {
      "type": "Feature",
      "properties": {
        "osm_kind": "road",
        "name": "",
        "source": "OpenStreetMap",
        "download_window_id": "nizhny_novgorod_+1_-3_b03f941f",
        "download_city": "Нижний Новгород",
        "osm_tags": {
          "highway": "footway"
        },
        "osm_id": 1272204723,
        "osm_type": "way"
      },
      "geometry": {
        "type": "LineString",
        "coordinates": [
          [
            43.9624454,
            56.3345551
          ],
          [
            43.9625443,
            56.3346113
          ]
        ]
      }
    },
    {
      "type": "Feature",
      "properties": {
        "osm_kind": "road",
        "name": "",
        "source": "OpenStreetMap",
        "download_window_id": "nizhny_novgorod_+1_-3_b03f941f",
        "download_city": "Нижний Новгород",
        "osm_tags": {
          "highway": "footway"
        },
        "osm_id": 1272204724,
        "osm_type": "way"
      },
      "geometry": {
        "type": "LineString",
        "coordinates": [
          [
            43.9623407,
            56.334489
          ],
          [
            43.9624454,
            56.3345551
          ]
        ]
      }
    },
    {
      "type": "Feature",
      "properties": {
        "osm_kind": "road",
        "name": "",
        "source": "OpenStreetMap",
        "download_window_id": "nizhny_novgorod_+1_-3_b03f941f",
        "download_city": "Нижний Новгород",
        "osm_tags": {
          "highway": "footway"
        },
        "osm_id": 1272204727,
        "osm_type": "way"
      },
      "geometry": {
        "type": "LineString",
        "coordinates": [
          [
            43.9662978,
            56.335815
          ],
          [
            43.9660367,
            56.3359217
          ]
        ]
      }
    }
  ]
}