{
  "type": "FeatureCollection",
  "name": "moscow_mitino_+0_+1_9d4c501f",
  "metadata": {
    "category": "separate_pipes",
    "rank": 51,
    "city": "Москва Митино",
    "seed": "moscow_mitino",
    "center": [
      37.3746006,
      55.846
    ],
    "bbox_south_west_north_east": [
      55.8446525,
      37.3722005,
      55.8473475,
      37.3770007
    ],
    "source": "OpenStreetMap via Overpass API",
    "note": "Real OSM geometry only. Category is a heuristic research bucket, not heat-network ground truth.",
    "metrics": {
      "counts": {
        "building": 19,
        "road": 60,
        "major_road": 3,
        "railway": 0,
        "water": 0,
        "green": 10
      },
      "lengths_m": {
        "road": 9569.68,
        "major_road": 1363.29,
        "railway": 0.0,
        "water": 0.0
      },
      "building_centers": 19,
      "building_spread": 0.3374,
      "barrier_score": 1.3633,
      "road_score": 10.5065,
      "category_scores": {
        "shared_pipe": 0.9647,
        "separate_pipes": 4.942,
        "fifty_fifty": 2.0906,
        "refusal": 3.7645
      }
    }
  },
  "features": [
    {
      "type": "Feature",
      "properties": {
        "osm_kind": "road",
        "name": "",
        "source": "OpenStreetMap",
        "download_window_id": "moscow_mitino_+0_+1_9d4c501f",
        "download_city": "Москва Митино",
        "osm_tags": {
          "highway": "footway"
        },
        "osm_id": 66666762,
        "osm_type": "way"
      },
      "geometry": {
        "type": "LineString",
        "coordinates": [
          [
            37.3683925,
            55.84941
          ],
          [
            37.3690272,
            55.8491025
          ],
          [
            37.3690903,
            55.8490861
          ],
          [
            37.3691553,
            55.8490817
          ],
          [
            37.369232,
            55.8490992
          ],
          [
            37.369552,
            55.8489412
          ],
          [
            37.3696219,
            55.8489035
          ],
          [
            37.369675,
            55.8488103
          ],
          [
            37.3696853,
            55.8487802
          ],
          [
            37.3697423,
            55.8487435
          ],
          [
            37.3704228,
            55.8484053
          ],
          [
            37.3730161,
            55.8471336
          ],
          [
            37.3738448,
            55.8467215
          ],
          [
            37.3775088,
            55.8449382
          ]
        ]
      }
    },
    {
      "type": "Feature",
      "properties": {
        "osm_kind": "building",
        "name": "",
        "source": "OpenStreetMap",
        "download_window_id": "moscow_mitino_+0_+1_9d4c501f",
        "download_city": "Москва Митино",
        "osm_tags": {
          "building": "service"
        },
        "osm_id": 83432529,
        "osm_type": "way"
      },
      "geometry": {
        "type": "Polygon",
        "coordinates": [
          [
            [
              37.3768078,
              55.8448859
            ],
            [
              37.3769557,
              55.8448137
            ],
            [
              37.376853,
              55.8447474
            ],
            [
              37.3767051,
              55.8448196
            ],
            [
              37.3768078,
              55.8448859
            ]
          ]
        ]
      }
    },
    {
      "type": "Feature",
      "properties": {
        "osm_kind": "building",
        "name": "",
        "source": "OpenStreetMap",
        "download_window_id": "moscow_mitino_+0_+1_9d4c501f",
        "download_city": "Москва Митино",
        "osm_tags": {
          "building": "yes"
        },
        "osm_id": 93821862,
        "osm_type": "way"
      },
      "geometry": {
        "type": "Polygon",
        "coordinates": [
          [
            [
              37.3749298,
              55.8447912
            ],
            [
              37.3751127,
              55.8447278
            ],
            [
              37.3749464,
              55.8445766
            ],
            [
              37.3747635,
              55.84464
            ],
            [
              37.3749298,
              55.8447912
            ]
          ]
        ]
      }
    },
    {
      "type": "Feature",
      "properties": {
        "osm_kind": "building",
        "name": "",
        "source": "OpenStreetMap",
        "download_window_id": "moscow_mitino_+0_+1_9d4c501f",
        "download_city": "Москва Митино",
        "osm_tags": {
          "building": "industrial"
        },
        "osm_id": 93821865,
        "osm_type": "way"
      },
      "geometry": {
        "type": "Polygon",
        "coordinates": [
          [
            [
              37.3750248,
              55.8449176
            ],
            [
              37.3752356,
              55.8451011
            ],
            [
              37.3764387,
              55.8446655
            ],
            [
              37.3762379,
              55.8444907
            ],
            [
              37.376455,
              55.8444121
            ],
            [
              37.3755709,
              55.8436424
            ],
            [
              37.374852,
              55.8439027
            ],
            [
              37.3756584,
              55.8446047
            ],
            [
              37.3756754,
              55.8446195
            ],
            [
              37.3757261,
              55.8446636
            ],
            [
              37.3750248,
              55.8449176
            ]
          ]
        ]
      }
    },
    {
      "type": "Feature",
      "properties": {
        "osm_kind": "building",
        "name": "",
        "source": "OpenStreetMap",
        "download_window_id": "moscow_mitino_+0_+1_9d4c501f",
        "download_city": "Москва Митино",
        "osm_tags": {
          "building": "yes"
        },
        "osm_id": 94218695,
        "osm_type": "way"
      },
      "geometry": {
        "type": "Polygon",
        "coordinates": [
          [
            [
              37.3771145,
              55.8469816
            ],
            [
              37.3769553,
              55.8470928
            ],
            [
              37.3773221,
              55.8472585
            ],
            [
              37.3774814,
              55.8471474
            ],
            [
              37.3771145,
              55.8469816
            ]
          ]
        ]
      }
    },
    {
      "type": "Feature",
      "properties": {
        "osm_kind": "green",
        "name": "",
        "source": "OpenStreetMap",
        "download_window_id": "moscow_mitino_+0_+1_9d4c501f",
        "download_city": "Москва Митино",
        "osm_tags": {
          "landuse": "grass"
        },
        "osm_id": 94218696,
        "osm_type": "way"
      },
      "geometry": {
        "type": "Polygon",
        "coordinates": [
          [
            [
              37.3731523,
              55.8472718
            ],
            [
              37.3729832,
              55.8471567
            ],
            [
              37.3705574,
              55.8483561
            ],
            [
              37.3704501,
              55.8485528
            ],
            [
              37.3704537,
              55.8485787
            ],
            [
              37.3704764,
              55.8485972
            ],
            [
              37.3731523,
              55.8472718
            ]
          ]
        ]
      }
    },
    {
      "type": "Feature",
      "properties": {
        "osm_kind": "green",
        "name": "",
        "source": "OpenStreetMap",
        "download_window_id": "moscow_mitino_+0_+1_9d4c501f",
        "download_city": "Москва Митино",
        "osm_tags": {
          "landuse": "grass"
        },
        "osm_id": 94218715,
        "osm_type": "way"
      },
      "geometry": {
        "type": "Polygon",
        "coordinates": [
          [
            [
              37.3738853,
              55.8467144
            ],
            [
              37.3738837,
              55.8468489
            ],
            [
              37.3738981,
              55.8468596
            ],
            [
              37.3739191,
              55.8468616
            ],
            [
              37.3740297,
              55.8468151
            ],
            [
              37.3740738,
              55.8468197
            ],
            [
              37.3741324,
              55.8467886
            ],
            [
              37.3747329,
              55.8465166
            ],
            [
              37.3775413,
              55.8451383
            ],
            [
              37.3776108,
              55.8450946
            ],
            [
              37.3776452,
              55.8450449
            ],
            [
              37.3776567,
              55.8450024
            ],
            [
              37.377655,
              55.844959
            ],
            [
              37.3776391,
              55.8449168
            ],
            [
              37.3775771,
              55.8448434
            ],
            [
              37.3775285,
              55.8448259
            ],
            [
              37.3774894,
              55.8448237
            ],
            [
              37.3774557,
              55.8448312
            ],
            [
              37.3775604,
              55.8449243
            ],
            [
              37.3738853,
              55.8467144
            ]
          ]
        ]
      }
    },
    {
      "type": "Feature",
      "properties": {
        "osm_kind": "building",
        "name": "",
        "source": "OpenStreetMap",
        "download_window_id": "moscow_mitino_+0_+1_9d4c501f",
        "download_city": "Москва Митино",
        "osm_tags": {
          "building": "yes"
        },
        "osm_id": 94218723,
        "osm_type": "way"
      },
      "geometry": {
        "type": "Polygon",
        "coordinates": [
          [
            [
              37.3761644,
              55.8466808
            ],
            [
              37.3763795,
              55.846782
            ],
            [
              37.3769921,
              55.8463718
            ],
            [
              37.376777,
              55.8462706
            ],
            [
              37.3761644,
              55.8466808
            ]
          ]
        ]
      }
    },
    {
      "type": "Feature",
      "properties": {
        "osm_kind": "building",
        "name": "",
        "source": "OpenStreetMap",
        "download_window_id": "moscow_mitino_+0_+1_9d4c501f",
        "download_city": "Москва Митино",
        "osm_tags": {
          "building": "yes"
        },
        "osm_id": 94218756,
        "osm_type": "way"
      },
      "geometry": {
        "type": "Polygon",
        "coordinates": [
          [
            [
              37.3765825,
              55.8466711
            ],
            [
              37.3763876,
              55.8468012
            ],
            [
              37.3767464,
              55.8469706
            ],
            [
              37.3769413,
              55.8468406
            ],
            [
              37.3765825,
              55.8466711
            ]
          ]
        ]
      }
    },
    {
      "type": "Feature",
      "properties": {
        "osm_kind": "major_road",
        "name": "Пятницкое шоссе",
        "source": "OpenStreetMap",
        "download_window_id": "moscow_mitino_+0_+1_9d4c501f",
        "download_city": "Москва Митино",
        "osm_tags": {
          "highway": "primary",
          "name": "Пятницкое шоссе"
        },
        "osm_id": 100267307,
        "osm_type": "way"
      },
      "geometry": {
        "type": "LineString",
        "coordinates": [
          [
            37.3702325,
            55.8488151
          ],
          [
            37.3732844,
            55.8473145
          ],
          [
            37.3739145,
            55.8470056
          ],
          [
            37.3755143,
            55.8462214
          ],
          [
            37.3756791,
            55.8461407
          ],
          [
            37.376387,
            55.8457939
          ]
        ]
      }
    },
    {
      "type": "Feature",
      "properties": {
        "osm_kind": "road",
        "name": "",
        "source": "OpenStreetMap",
        "download_window_id": "moscow_mitino_+0_+1_9d4c501f",
        "download_city": "Москва Митино",
        "osm_tags": {
          "highway": "footway"
        },
        "osm_id": 118353173,
        "osm_type": "way"
      },
      "geometry": {
        "type": "LineString",
        "coordinates": [
          [
            37.369367,
            55.8486382
          ],
          [
            37.3695064,
            55.8485687
          ],
          [
            37.3702884,
            55.8481777
          ],
          [
            37.37138,
            55.8476345
          ],
          [
            37.3714567,
            55.8475976
          ],
          [
            37.3719539,
            55.8473495
          ],
          [
            37.3720305,
            55.8473119
          ],
          [
            37.3721111,
            55.8472726
          ],
          [
            37.3724267,
            55.8471216
          ],
          [
            37.3725346,
            55.84707
          ],
          [
            37.3726646,
            55.8470065
          ],
          [
            37.3727592,
            55.8469599
          ],
          [
            37.3728458,
            55.8469165
          ],
          [
            37.3746589,
            55.846008
          ],
          [
            37.3747828,
            55.8459715
          ],
          [
            37.37528,
            55.8457339
          ],
          [
            37.3753983,
            55.8456748
          ],
          [
            37.3754704,
            55.8456388
          ],
          [
            37.3755445,
            55.8456029
          ],
          [
            37.3756699,
            55.8455421
          ],
          [
            37.3762258,
            55.8452737
          ],
          [
            37.3772891,
            55.844762
          ]
        ]
      }
    },
    {
      "type": "Feature",
      "properties": {
        "osm_kind": "road",
        "name": "Пятницкое шоссе (дублёр)",
        "source": "OpenStreetMap",
        "download_window_id": "moscow_mitino_+0_+1_9d4c501f",
        "download_city": "Москва Митино",
        "osm_tags": {
          "highway": "unclassified",
          "name": "Пятницкое шоссе (дублёр)"
        },
        "osm_id": 150316518,
        "osm_type": "way"
      },
      "geometry": {
        "type": "LineString",
        "coordinates": [
          [
            37.3705856,
            55.8481306
          ],
          [
            37.3714794,
            55.8476971
          ],
          [
            37.3721308,
            55.8473798
          ],
          [
            37.3726407,
            55.8471282
          ],
          [
            37.3727606,
            55.847069
          ],
          [
            37.3728535,
            55.8470236
          ],
          [
            37.3729415,
            55.8469795
          ],
          [
            37.3730445,
            55.8469293
          ],
          [
            37.3747744,
            55.8460861
          ],
          [
            37.3753712,
            55.8457883
          ],
          [
            37.3755581,
            55.8456952
          ],
          [
            37.3757527,
            55.8455993
          ],
          [
            37.3763028,
            55.8453262
          ],
          [
            37.377246,
            55.8448603
          ],
          [
            37.3773267,
            55.8448204
          ],
          [
            37.3773584,
            55.8448052
          ]
        ]
      }
    },
    {
      "type": "Feature",
      "properties": {
        "osm_kind": "road",
        "name": "",
        "source": "OpenStreetMap",
        "download_window_id": "moscow_mitino_+0_+1_9d4c501f",
        "download_city": "Москва Митино",
        "osm_tags": {
          "highway": "service"
        },
        "osm_id": 168683592,
        "osm_type": "way"
      },
      "geometry": {
        "type": "LineString",
        "coordinates": [
          [
            37.3750626,
            55.8430682
          ],
          [
            37.3747427,
            55.8431969
          ],
          [
            37.374976,
            55.8434108
          ],
          [
            37.3751208,
            55.8434371
          ],
          [
            37.3753864,
            55.8436329
          ],
          [
            37.3756013,
            55.843555
          ],
          [
            37.3764515,
            55.8442952
          ],
          [
            37.3765602,
            55.8444555
          ],
          [
            37.3767265,
            55.844597
          ],
          [
            37.3766692,
            55.8446679
          ],
          [
            37.3758559,
            55.8450213
          ],
          [
            37.3753285,
            55.8452403
          ]
        ]
      }
    },
    {
      "type": "Feature",
      "properties": {
        "osm_kind": "road",
        "name": "",
        "source": "OpenStreetMap",
        "download_window_id": "moscow_mitino_+0_+1_9d4c501f",
        "download_city": "Москва Митино",
        "osm_tags": {
          "highway": "footway"
        },
        "osm_id": 224240515,
        "osm_type": "way"
      },
      "geometry": {
        "type": "LineString",
        "coordinates": [
          [
            37.3583243,
            55.8549091
          ],
          [
            37.3585338,
            55.8548067
          ],
          [
            37.3599193,
            55.854131
          ],
          [
            37.3614241,
            55.8533893
          ],
          [
            37.3615007,
            55.8533525
          ],
          [
            37.3615539,
            55.853328
          ],
          [
            37.3618932,
            55.8531775
          ],
          [
            37.3619437,
            55.8531842
          ],
          [
            37.3620019,
            55.8531918
          ],
          [
            37.3622015,
            55.8530899
          ],
          [
            37.3622339,
            55.8530743
          ],
          [
            37.3625959,
            55.8528997
          ],
          [
            37.3625352,
            55.8528436
          ],
          [
            37.3629999,
            55.8526181
          ],
          [
            37.3633135,
            55.8524715
          ],
          [
            37.3639535,
            55.8521439
          ],
          [
            37.3646962,
            55.8517996
          ],
          [
            37.3669503,
            55.8506979
          ],
          [
            37.3672551,
            55.8505537
          ],
          [
            37.3675552,
            55.8504119
          ],
          [
            37.3676625,
            55.8503682
          ],
          [
            37.3685745,
            55.8499277
          ],
          [
            37.369594,
            55.8494312
          ],
          [
            37.3703027,
            55.8490781
          ],
          [
            37.3704792,
            55.8489947
          ],
          [
            37.3705881,
            55.8489581
          ],
          [
            37.3707021,
            55.8489307
          ],
          [
            37.3707992,
            55.8489195
          ],
          [
            37.3708717,
            55.8488878
          ],
          [
            37.3709368,
            55.8488488
          ],
          [
            37.3710313,
            55.8487505
          ],
          [
            37.3711169,
            55.8486931
          ],
          [
            37.3712725,
            55.8486146
          ],
          [
            37.372728,
            55.8478804
          ],
          [
            37.3733317,
            55.8475802
          ],
          [
            37.3735333,
            55.8474811
          ],
          [
            37.3736887,
            55.8474188
          ],
          [
            37.3758582,
            55.8463465
          ],
          [
            37.3770577,
            55.8457614
          ],
          [
            37.377371,
            55.8456086
          ],
          [
            37.3774785,
            55.8455612
          ],
          [
            37.3776727,
            55.8454372
          ],
          [
            37.3779926,
            55.845292
          ],
          [
            37.3780435,
            55.8452851
          ],
          [
            37.3780983,
            55.8452879
          ],
          [
            37.3781485,
            55.8452984
          ],
          [
            37.3781911,
            55.8453168
          ],
          [
            37.3795647,
            55.8460071
          ],
          [
            37.379889,
            55.8461701
          ]
        ]
      }
    },
    {
      "type": "Feature",
      "properties": {
        "osm_kind": "road",
        "name": "",
        "source": "OpenStreetMap",
        "download_window_id": "moscow_mitino_+0_+1_9d4c501f",
        "download_city": "Москва Митино",
        "osm_tags": {
          "highway": "footway"
        },
        "osm_id": 225720893,
        "osm_type": "way"
      },
      "geometry": {
        "type": "LineString",
        "coordinates": [
          [
            37.3723428,
            55.8466782
          ],
          [
            37.3727592,
            55.8469599
          ],
          [
            37.3728535,
            55.8470236
          ],
          [
            37.3730027,
            55.8471246
          ],
          [
            37.3730161,
            55.8471336
          ],
          [
            37.3731829,
            55.8472464
          ],
          [
            37.3731999,
            55.8472579
          ]
        ]
      }
    },
    {
      "type": "Feature",
      "properties": {
        "osm_kind": "major_road",
        "name": "Пятницкое шоссе",
        "source": "OpenStreetMap",
        "download_window_id": "moscow_mitino_+0_+1_9d4c501f",
        "download_city": "Москва Митино",
        "osm_tags": {
          "highway": "primary",
          "name": "Пятницкое шоссе"
        },
        "osm_id": 260318194,
        "osm_type": "way"
      },
      "geometry": {
        "type": "LineString",
        "coordinates": [
          [
            37.3781152,
            55.8451036
          ],
          [
            37.3769346,
            55.8456822
          ],
          [
            37.3759748,
            55.8461527
          ],
          [
            37.3745839,
            55.8468344
          ],
          [
            37.3734207,
            55.8474057
          ],
          [
            37.3732204,
            55.8475043
          ],
          [
            37.3729772,
            55.8476205
          ],
          [
            37.3700631,
            55.8490488
          ],
          [
            37.36952,
            55.849315
          ],
          [
            37.3694189,
            55.8493645
          ]
        ]
      }
    },
    {
      "type": "Feature",
      "properties": {
        "osm_kind": "building",
        "name": "",
        "source": "OpenStreetMap",
        "download_window_id": "moscow_mitino_+0_+1_9d4c501f",
        "download_city": "Москва Митино",
        "osm_tags": {
          "building": "yes"
        },
        "osm_id": 277978291,
        "osm_type": "way"
      },
      "geometry": {
        "type": "Polygon",
        "coordinates": [
          [
            [
              37.3745718,
              55.8456168
            ],
            [
              37.374563,
              55.8456665
            ],
            [
              37.3745881,
              55.8457033
            ],
            [
              37.3746288,
              55.8457281
            ],
            [
              37.3746785,
              55.8457429
            ],
            [
              37.3747379,
              55.8457479
            ],
            [
              37.3747682,
              55.845746
            ],
            [
              37.3748262,
              55.8457328
            ],
            [
              37.3748847,
              55.845698
            ],
            [
              37.3749046,
              55.8456649
            ],
            [
              37.3749028,
              55.8456312
            ],
            [
              37.374887,
              55.8456062
            ],
            [
              37.3748631,
              55.8455857
            ],
            [
              37.3748202,
              55.8455669
            ],
            [
              37.3747713,
              55.8455559
            ],
            [
              37.3747067,
              55.8455543
            ],
            [
              37.374969,
              55.8454269
            ],
            [
              37.3743718,
              55.8450197
            ],
            [
              37.3739253,
              55.8452359
            ],
            [
              37.3745227,
              55.8456385
            ],
            [
              37.3745718,
              55.8456168
            ]
          ]
        ]
      }
    },
    {
      "type": "Feature",
      "properties": {
        "osm_kind": "road",
        "name": "",
        "source": "OpenStreetMap",
        "download_window_id": "moscow_mitino_+0_+1_9d4c501f",
        "download_city": "Москва Митино",
        "osm_tags": {
          "highway": "service"
        },
        "osm_id": 285430070,
        "osm_type": "way"
      },
      "geometry": {
        "type": "LineString",
        "coordinates": [
          [
            37.3763028,
            55.8453262
          ],
          [
            37.3762258,
            55.8452737
          ],
          [
            37.3761918,
            55.8452505
          ],
          [
            37.3760129,
            55.8451381
          ]
        ]
      }
    },
    {
      "type": "Feature",
      "properties": {
        "osm_kind": "road",
        "name": "",
        "source": "OpenStreetMap",
        "download_window_id": "moscow_mitino_+0_+1_9d4c501f",
        "download_city": "Москва Митино",
        "osm_tags": {
          "highway": "service"
        },
        "osm_id": 285430092,
        "osm_type": "way"
      },
      "geometry": {
        "type": "LineString",
        "coordinates": [
          [
            37.3748631,
            55.8455857
          ],
          [
            37.3749662,
            55.8455737
          ]
        ]
      }
    },
    {
      "type": "Feature",
      "properties": {
        "osm_kind": "road",
        "name": "",
        "source": "OpenStreetMap",
        "download_window_id": "moscow_mitino_+0_+1_9d4c501f",
        "download_city": "Москва Митино",
        "osm_tags": {
          "highway": "service"
        },
        "osm_id": 285430103,
        "osm_type": "way"
      },
      "geometry": {
        "type": "LineString",
        "coordinates": [
          [
            37.3745951,
            55.8447804
          ],
          [
            37.3750841,
            55.8451691
          ],
          [
            37.3752026,
            55.8452457
          ],
          [
            37.3752916,
            55.8452795
          ],
          [
            37.3756699,
            55.8455421
          ],
          [
            37.3757527,
            55.8455993
          ]
        ]
      }
    },
    {
      "type": "Feature",
      "properties": {
        "osm_kind": "building",
        "name": "",
        "source": "OpenStreetMap",
        "download_window_id": "moscow_mitino_+0_+1_9d4c501f",
        "download_city": "Москва Митино",
        "osm_tags": {
          "building": "parking"
        },
        "osm_id": 321551670,
        "osm_type": "way"
      },
      "geometry": {
        "type": "Polygon",
        "coordinates": [
          [
            [
              37.3727783,
              55.8468256
            ],
            [
              37.3744122,
              55.8460114
            ],
            [
              37.3743213,
              55.8459539
            ],
            [
              37.3742666,
              55.8459193
            ],
            [
              37.3743214,
              55.845892
            ],
            [
              37.3742595,
              55.8458529
            ],
            [
              37.3742081,
              55.8458785
            ],
            [
              37.3741457,
              55.845839
            ],
            [
              37.3740884,
              55.8458028
            ],
            [
              37.3740605,
              55.8457851
            ],
            [
              37.3724237,
              55.8466008
            ],
            [
              37.3724555,
              55.8466209
            ],
            [
              37.3725588,
              55.8466862
            ],
            [
              37.372493,
              55.846719
            ],
            [
              37.3725571,
              55.8467595
            ],
            [
              37.3726223,
              55.846727
            ],
            [
              37.3727783,
              55.8468256
            ]
          ]
        ]
      }
    },
    {
      "type": "Feature",
      "properties": {
        "osm_kind": "road",
        "name": "",
        "source": "OpenStreetMap",
        "download_window_id": "moscow_mitino_+0_+1_9d4c501f",
        "download_city": "Москва Митино",
        "osm_tags": {
          "highway": "service"
        },
        "osm_id": 338613396,
        "osm_type": "way"
      },
      "geometry": {
        "type": "LineString",
        "coordinates": [
          [
            37.3735004,
            55.8476991
          ],
          [
            37.3736766,
            55.8476323
          ],
          [
            37.3736967,
            55.8476229
          ],
          [
            37.3755652,
            55.8467524
          ]
        ]
      }
    },
    {
      "type": "Feature",
      "properties": {
        "osm_kind": "building",
        "name": "",
        "source": "OpenStreetMap",
        "download_window_id": "moscow_mitino_+0_+1_9d4c501f",
        "download_city": "Москва Митино",
        "osm_tags": {
          "building": "garages"
        },
        "osm_id": 338613399,
        "osm_type": "way"
      },
      "geometry": {
        "type": "Polygon",
        "coordinates": [
          [
            [
              37.3737668,
              55.84769
            ],
            [
              37.3756071,
              55.8468326
            ],
            [
              37.3755419,
              55.8467885
            ],
            [
              37.3737016,
              55.8476459
            ],
            [
              37.3737668,
              55.84769
            ]
          ]
        ]
      }
    },
    {
      "type": "Feature",
      "properties": {
        "osm_kind": "building",
        "name": "",
        "source": "OpenStreetMap",
        "download_window_id": "moscow_mitino_+0_+1_9d4c501f",
        "download_city": "Москва Митино",
        "osm_tags": {
          "building": "garages"
        },
        "osm_id": 338613400,
        "osm_type": "way"
      },
      "geometry": {
        "type": "Polygon",
        "coordinates": [
          [
            [
              37.3736559,
              55.8476074
            ],
            [
              37.3754962,
              55.84675
            ],
            [
              37.3754311,
              55.8467059
            ],
            [
              37.3735907,
              55.8475633
            ],
            [
              37.3736559,
              55.8476074
            ]
          ]
        ]
      }
    },
    {
      "type": "Feature",
      "properties": {
        "osm_kind": "road",
        "name": "",
        "source": "OpenStreetMap",
        "download_window_id": "moscow_mitino_+0_+1_9d4c501f",
        "download_city": "Москва Митино",
        "osm_tags": {
          "highway": "footway"
        },
        "osm_id": 376257612,
        "osm_type": "way"
      },
      "geometry": {
        "type": "LineString",
        "coordinates": [
          [
            37.3731829,
            55.8472464
          ],
          [
            37.3738592,
            55.8469139
          ],
          [
            37.3738448,
            55.8467215
          ]
        ]
      }
    },
    {
      "type": "Feature",
      "properties": {
        "osm_kind": "road",
        "name": "",
        "source": "OpenStreetMap",
        "download_window_id": "moscow_mitino_+0_+1_9d4c501f",
        "download_city": "Москва Митино",
        "osm_tags": {
          "highway": "footway"
        },
        "osm_id": 376257615,
        "osm_type": "way"
      },
      "geometry": {
        "type": "LineString",
        "coordinates": [
          [
            37.3731999,
            55.8472579
          ],
          [
            37.3732844,
            55.8473145
          ],
          [
            37.3734207,
            55.8474057
          ],
          [
            37.3735333,
            55.8474811
          ]
        ]
      }
    },
    {
      "type": "Feature",
      "properties": {
        "osm_kind": "green",
        "name": "",
        "source": "OpenStreetMap",
        "download_window_id": "moscow_mitino_+0_+1_9d4c501f",
        "download_city": "Москва Митино",
        "osm_tags": {
          "landuse": "grass"
        },
        "osm_id": 376257617,
        "osm_type": "way"
      },
      "geometry": {
        "type": "Polygon",
        "coordinates": [
          [
            [
              37.3738281,
              55.8467455
            ],
            [
              37.3730708,
              55.8471237
            ],
            [
              37.3730708,
              55.8471402
            ],
            [
              37.3731987,
              55.8472166
            ],
            [
              37.3732241,
              55.847212
            ],
            [
              37.3738061,
              55.8469196
            ],
            [
              37.3738264,
              55.8468936
            ],
            [
              37.3738314,
              55.8468697
            ],
            [
              37.3738362,
              55.8467472
            ],
            [
              37.3738281,
              55.8467455
            ]
          ]
        ]
      }
    },
    {
      "type": "Feature",
      "properties": {
        "osm_kind": "building",
        "name": "",
        "source": "OpenStreetMap",
        "download_window_id": "moscow_mitino_+0_+1_9d4c501f",
        "download_city": "Москва Митино",
        "osm_tags": {
          "building": "apartments"
        },
        "osm_id": 376491658,
        "osm_type": "way"
      },
      "geometry": {
        "type": "Polygon",
        "coordinates": [
          [
            [
              37.3722754,
              55.8458391
            ],
            [
              37.3724636,
              55.8459695
            ],
            [
              37.372226,
              55.8460791
            ],
            [
              37.3717921,
              55.8462758
            ],
            [
              37.3714452,
              55.846433
            ],
            [
              37.3713768,
              55.8463854
            ],
            [
              37.3712963,
              55.8464219
            ],
            [
              37.3712534,
              55.8463921
            ],
            [
              37.3709553,
              55.8461848
            ],
            [
              37.3706752,
              55.84599
            ],
            [
              37.3705252,
              55.8458857
            ],
            [
              37.3707347,
              55.8457908
            ],
            [
              37.3708829,
              55.8458938
            ],
            [
              37.3711658,
              55.8460905
            ],
            [
              37.3713861,
              55.8462438
            ],
            [
              37.3714157,
              55.8462304
            ],
            [
              37.3714382,
              55.8462202
            ],
            [
              37.3716582,
              55.8461205
            ],
            [
              37.3720478,
              55.8459439
            ],
            [
              37.3722754,
              55.8458391
            ]
          ]
        ]
      }
    },
    {
      "type": "Feature",
      "properties": {
        "osm_kind": "building",
        "name": "",
        "source": "OpenStreetMap",
        "download_window_id": "moscow_mitino_+0_+1_9d4c501f",
        "download_city": "Москва Митино",
        "osm_tags": {
          "building": "apartments"
        },
        "osm_id": 376493772,
        "osm_type": "way"
      },
      "geometry": {
        "type": "Polygon",
        "coordinates": [
          [
            [
              37.3720967,
              55.8448009
            ],
            [
              37.3722806,
              55.8447155
            ],
            [
              37.3723244,
              55.8446951
            ],
            [
              37.3722196,
              55.844624
            ],
            [
              37.3719773,
              55.8444595
            ],
            [
              37.3717204,
              55.8442851
            ],
            [
              37.3714805,
              55.8441222
            ],
            [
              37.3712442,
              55.8439618
            ],
            [
              37.3710152,
              55.8438063
            ],
            [
              37.3708984,
              55.8437231
            ],
            [
              37.3706672,
              55.8438304
            ],
            [
              37.370777,
              55.8439049
            ],
            [
              37.3709963,
              55.8440538
            ],
            [
              37.3712341,
              55.8442152
            ],
            [
              37.3714835,
              55.8443846
            ],
            [
              37.3717369,
              55.8445566
            ],
            [
              37.3719744,
              55.8447178
            ],
            [
              37.3720967,
              55.8448009
            ]
          ]
        ]
      }
    },
    {
      "type": "Feature",
      "properties": {
        "osm_kind": "road",
        "name": "",
        "source": "OpenStreetMap",
        "download_window_id": "moscow_mitino_+0_+1_9d4c501f",
        "download_city": "Москва Митино",
        "osm_tags": {
          "highway": "service"
        },
        "osm_id": 380160717,
        "osm_type": "way"
      },
      "geometry": {
        "type": "LineString",
        "coordinates": [
          [
            37.3727606,
            55.847069
          ],
          [
            37.3726646,
            55.8470065
          ],
          [
            37.3726042,
            55.8469672
          ],
          [
            37.3725324,
            55.846901
          ],
          [
            37.3723092,
            55.8466953
          ],
          [
            37.372267,
            55.8466599
          ],
          [
            37.372192,
            55.8465968
          ],
          [
            37.3724154,
            55.8464856
          ],
          [
            37.3740663,
            55.8456858
          ],
          [
            37.3741762,
            55.8457589
          ],
          [
            37.3742335,
            55.8457976
          ]
        ]
      }
    },
    {
      "type": "Feature",
      "properties": {
        "osm_kind": "road",
        "name": "",
        "source": "OpenStreetMap",
        "download_window_id": "moscow_mitino_+0_+1_9d4c501f",
        "download_city": "Москва Митино",
        "osm_tags": {
          "highway": "service"
        },
        "osm_id": 383965919,
        "osm_type": "way"
      },
      "geometry": {
        "type": "LineString",
        "coordinates": [
          [
            37.3726141,
            55.8460737
          ],
          [
            37.3719485,
            55.8463844
          ],
          [
            37.371479,
            55.8466054
          ],
          [
            37.3707615,
            55.8461103
          ],
          [
            37.370488,
            55.8459216
          ],
          [
            37.3704586,
            55.8459013
          ],
          [
            37.3704324,
            55.8458832
          ],
          [
            37.3703435,
            55.8458169
          ]
        ]
      }
    },
    {
      "type": "Feature",
      "properties": {
        "osm_kind": "road",
        "name": "",
        "source": "OpenStreetMap",
        "download_window_id": "moscow_mitino_+0_+1_9d4c501f",
        "download_city": "Москва Митино",
        "osm_tags": {
          "highway": "service"
        },
        "osm_id": 383965950,
        "osm_type": "way"
      },
      "geometry": {
        "type": "LineString",
        "coordinates": [
          [
            37.3723092,
            55.8466953
          ],
          [
            37.3723428,
            55.8466782
          ],
          [
            37.3724555,
            55.8466209
          ]
        ]
      }
    },
    {
      "type": "Feature",
      "properties": {
        "osm_kind": "road",
        "name": "",
        "source": "OpenStreetMap",
        "download_window_id": "moscow_mitino_+0_+1_9d4c501f",
        "download_city": "Москва Митино",
        "osm_tags": {
          "highway": "service"
        },
        "osm_id": 386327745,
        "osm_type": "way"
      },
      "geometry": {
        "type": "LineString",
        "coordinates": [
          [
            37.3742936,
            55.8450296
          ],
          [
            37.3738447,
            55.8452424
          ],
          [
            37.374554,
            55.8457351
          ],
          [
            37.3746003,
            55.8457788
          ],
          [
            37.3746501,
            55.8457976
          ],
          [
            37.3747277,
            55.8458006
          ],
          [
            37.3747855,
            55.8457938
          ],
          [
            37.374878,
            55.845766
          ],
          [
            37.37511,
            55.8456419
          ]
        ]
      }
    },
    {
      "type": "Feature",
      "properties": {
        "osm_kind": "green",
        "name": "",
        "source": "OpenStreetMap",
        "download_window_id": "moscow_mitino_+0_+1_9d4c501f",
        "download_city": "Москва Митино",
        "osm_tags": {
          "landuse": "grass"
        },
        "osm_id": 386327748,
        "osm_type": "way"
      },
      "geometry": {
        "type": "Polygon",
        "coordinates": [
          [
            [
              37.374518,
              55.8457936
            ],
            [
              37.3745441,
              55.8457833
            ],
            [
              37.3746146,
              55.8458304
            ],
            [
              37.3747266,
              55.84583
            ],
            [
              37.374799,
              55.8458209
            ],
            [
              37.3749479,
              55.8457795
            ],
            [
              37.3750578,
              55.8457313
            ],
            [
              37.3751034,
              55.8457328
            ],
            [
              37.3751437,
              55.8457343
            ],
            [
              37.3751897,
              55.8457498
            ],
            [
              37.3747756,
              55.8459452
            ],
            [
              37.3746781,
              55.8458796
            ],
            [
              37.3746549,
              55.8458944
            ],
            [
              37.374518,
              55.8457936
            ]
          ]
        ]
      }
    },
    {
      "type": "Feature",
      "properties": {
        "osm_kind": "green",
        "name": "",
        "source": "OpenStreetMap",
        "download_window_id": "moscow_mitino_+0_+1_9d4c501f",
        "download_city": "Москва Митино",
        "osm_tags": {
          "landuse": "grass"
        },
        "osm_id": 386327749,
        "osm_type": "way"
      },
      "geometry": {
        "type": "Polygon",
        "coordinates": [
          [
            [
              37.3753611,
              55.8452771
            ],
            [
              37.3755427,
              55.8451949
            ],
            [
              37.3756661,
              55.8451407
            ],
            [
              37.3757197,
              55.8451211
            ],
            [
              37.3757787,
              55.8451106
            ],
            [
              37.375827,
              55.8451091
            ],
            [
              37.3758726,
              55.8451121
            ],
            [
              37.3759209,
              55.8451271
            ],
            [
              37.3761393,
              55.8452724
            ],
            [
              37.3756692,
              55.8454996
            ],
            [
              37.3753611,
              55.8452771
            ]
          ]
        ]
      }
    },
    {
      "type": "Feature",
      "properties": {
        "osm_kind": "road",
        "name": "",
        "source": "OpenStreetMap",
        "download_window_id": "moscow_mitino_+0_+1_9d4c501f",
        "download_city": "Москва Митино",
        "osm_tags": {
          "highway": "service"
        },
        "osm_id": 387303367,
        "osm_type": "way"
      },
      "geometry": {
        "type": "LineString",
        "coordinates": [
          [
            37.3722754,
            55.8458391
          ],
          [
            37.3724636,
            55.8459695
          ]
        ]
      }
    },
    {
      "type": "Feature",
      "properties": {
        "osm_kind": "road",
        "name": "",
        "source": "OpenStreetMap",
        "download_window_id": "moscow_mitino_+0_+1_9d4c501f",
        "download_city": "Москва Митино",
        "osm_tags": {
          "highway": "service"
        },
        "osm_id": 387303368,
        "osm_type": "way"
      },
      "geometry": {
        "type": "LineString",
        "coordinates": [
          [
            37.3724636,
            55.8459695
          ],
          [
            37.3726141,
            55.8460737
          ]
        ]
      }
    },
    {
      "type": "Feature",
      "properties": {
        "osm_kind": "road",
        "name": "",
        "source": "OpenStreetMap",
        "download_window_id": "moscow_mitino_+0_+1_9d4c501f",
        "download_city": "Москва Митино",
        "osm_tags": {
          "highway": "service"
        },
        "osm_id": 387303369,
        "osm_type": "way"
      },
      "geometry": {
        "type": "LineString",
        "coordinates": [
          [
            37.3742335,
            55.8457976
          ],
          [
            37.3741457,
            55.845839
          ]
        ]
      }
    },
    {
      "type": "Feature",
      "properties": {
        "osm_kind": "road",
        "name": "",
        "source": "OpenStreetMap",
        "download_window_id": "moscow_mitino_+0_+1_9d4c501f",
        "download_city": "Москва Митино",
        "osm_tags": {
          "highway": "service"
        },
        "osm_id": 387303370,
        "osm_type": "way"
      },
      "geometry": {
        "type": "LineString",
        "coordinates": [
          [
            37.3721869,
            55.8457778
          ],
          [
            37.3722208,
            55.8458013
          ],
          [
            37.3722754,
            55.8458391
          ]
        ]
      }
    },
    {
      "type": "Feature",
      "properties": {
        "osm_kind": "building",
        "name": "",
        "source": "OpenStreetMap",
        "download_window_id": "moscow_mitino_+0_+1_9d4c501f",
        "download_city": "Москва Митино",
        "osm_tags": {
          "building": "apartments"
        },
        "osm_id": 387705913,
        "osm_type": "way"
      },
      "geometry": {
        "type": "Polygon",
        "coordinates": [
          [
            [
              37.3722754,
              55.8458391
            ],
            [
              37.372485,
              55.8457438
            ],
            [
              37.3728196,
              55.8455922
            ],
            [
              37.373076,
              55.845476
            ],
            [
              37.3730539,
              55.8454606
            ],
            [
              37.373039,
              55.8454503
            ],
            [
              37.3728646,
              55.845329
            ],
            [
              37.3725336,
              55.8450988
            ],
            [
              37.3723952,
              55.8450026
            ],
            [
              37.3725732,
              55.8449219
            ],
            [
              37.3726155,
              55.8449027
            ],
            [
              37.3727489,
              55.8449955
            ],
            [
              37.3730857,
              55.8452297
            ],
            [
              37.3733559,
              55.8454176
            ],
            [
              37.3734215,
              55.8454632
            ],
            [
              37.3733514,
              55.845495
            ],
            [
              37.3734142,
              55.8455386
            ],
            [
              37.3730091,
              55.8457222
            ],
            [
              37.3726814,
              55.8458708
            ],
            [
              37.3724636,
              55.8459695
            ],
            [
              37.3722754,
              55.8458391
            ]
          ]
        ]
      }
    },
    {
      "type": "Feature",
      "properties": {
        "osm_kind": "green",
        "name": "",
        "source": "OpenStreetMap",
        "download_window_id": "moscow_mitino_+0_+1_9d4c501f",
        "download_city": "Москва Митино",
        "osm_tags": {
          "landuse": "grass"
        },
        "osm_id": 432994620,
        "osm_type": "way"
      },
      "geometry": {
        "type": "Polygon",
        "coordinates": [
          [
            [
              37.3714221,
              55.8467983
            ],
            [
              37.3719739,
              55.8465874
            ],
            [
              37.3721139,
              55.8467141
            ],
            [
              37.3720474,
              55.8467373
            ],
            [
              37.3720293,
              55.8467215
            ],
            [
              37.3719124,
              55.8467622
            ],
            [
              37.372111,
              55.8469353
            ],
            [
              37.3723309,
              55.8468588
            ],
            [
              37.3723781,
              55.8468698
            ],
            [
              37.3725626,
              55.8469991
            ],
            [
              37.3720732,
              55.8472343
            ],
            [
              37.3714221,
              55.8467983
            ]
          ]
        ]
      }
    },
    {
      "type": "Feature",
      "properties": {
        "osm_kind": "road",
        "name": "",
        "source": "OpenStreetMap",
        "download_window_id": "moscow_mitino_+0_+1_9d4c501f",
        "download_city": "Москва Митино",
        "osm_tags": {
          "highway": "service"
        },
        "osm_id": 474809938,
        "osm_type": "way"
      },
      "geometry": {
        "type": "LineString",
        "coordinates": [
          [
            37.3729415,
            55.8469795
          ],
          [
            37.3728458,
            55.8469165
          ],
          [
            37.3725995,
            55.8467543
          ]
        ]
      }
    },
    {
      "type": "Feature",
      "properties": {
        "osm_kind": "road",
        "name": "",
        "source": "OpenStreetMap",
        "download_window_id": "moscow_mitino_+0_+1_9d4c501f",
        "download_city": "Москва Митино",
        "osm_tags": {
          "highway": "service"
        },
        "osm_id": 480302478,
        "osm_type": "way"
      },
      "geometry": {
        "type": "LineString",
        "coordinates": [
          [
            37.3759757,
            55.8466011
          ],
          [
            37.3772905,
            55.8459112
          ],
          [
            37.3780107,
            55.8455772
          ],
          [
            37.3781184,
            55.845563
          ],
          [
            37.3781996,
            55.8455837
          ],
          [
            37.3786793,
            55.8458167
          ]
        ]
      }
    },
    {
      "type": "Feature",
      "properties": {
        "osm_kind": "road",
        "name": "",
        "source": "OpenStreetMap",
        "download_window_id": "moscow_mitino_+0_+1_9d4c501f",
        "download_city": "Москва Митино",
        "osm_tags": {
          "highway": "service"
        },
        "osm_id": 480302479,
        "osm_type": "way"
      },
      "geometry": {
        "type": "LineString",
        "coordinates": [
          [
            37.3769346,
            55.8456822
          ],
          [
            37.3770577,
            55.8457614
          ],
          [
            37.3772905,
            55.8459112
          ],
          [
            37.3773529,
            55.8459514
          ]
        ]
      }
    },
    {
      "type": "Feature",
      "properties": {
        "osm_kind": "road",
        "name": "",
        "source": "OpenStreetMap",
        "download_window_id": "moscow_mitino_+0_+1_9d4c501f",
        "download_city": "Москва Митино",
        "osm_tags": {
          "highway": "service"
        },
        "osm_id": 480302481,
        "osm_type": "way"
      },
      "geometry": {
        "type": "LineString",
        "coordinates": [
          [
            37.3773102,
            55.8467368
          ],
          [
            37.3768857,
            55.8470124
          ]
        ]
      }
    },
    {
      "type": "Feature",
      "properties": {
        "osm_kind": "road",
        "name": "",
        "source": "OpenStreetMap",
        "download_window_id": "moscow_mitino_+0_+1_9d4c501f",
        "download_city": "Москва Митино",
        "osm_tags": {
          "highway": "service"
        },
        "osm_id": 480302482,
        "osm_type": "way"
      },
      "geometry": {
        "type": "LineString",
        "coordinates": [
          [
            37.3768878,
            55.8465318
          ],
          [
            37.3775771,
            55.8460843
          ]
        ]
      }
    },
    {
      "type": "Feature",
      "properties": {
        "osm_kind": "road",
        "name": "",
        "source": "OpenStreetMap",
        "download_window_id": "moscow_mitino_+0_+1_9d4c501f",
        "download_city": "Москва Митино",
        "osm_tags": {
          "highway": "service"
        },
        "osm_id": 480302483,
        "osm_type": "way"
      },
      "geometry": {
        "type": "LineString",
        "coordinates": [
          [
            37.3773529,
            55.8459514
          ],
          [
            37.3775058,
            55.8460497
          ],
          [
            37.3775771,
            55.8460843
          ],
          [
            37.3782484,
            55.8464102
          ],
          [
            37.3775591,
            55.8468577
          ],
          [
            37.3773102,
            55.8467368
          ],
          [
            37.3768878,
            55.8465318
          ]
        ]
      }
    },
    {
      "type": "Feature",
      "properties": {
        "osm_kind": "road",
        "name": "",
        "source": "OpenStreetMap",
        "download_window_id": "moscow_mitino_+0_+1_9d4c501f",
        "download_city": "Москва Митино",
        "osm_tags": {
          "highway": "service"
        },
        "osm_id": 507244921,
        "osm_type": "way"
      },
      "geometry": {
        "type": "LineString",
        "coordinates": [
          [
            37.3726141,
            55.8460737
          ],
          [
            37.3738008,
            55.8455151
          ],
          [
            37.3738631,
            55.8454862
          ],
          [
            37.3738692,
            55.8454552
          ],
          [
            37.3738729,
            55.8454362
          ],
          [
            37.3736271,
            55.8452739
          ],
          [
            37.3735757,
            55.8452149
          ],
          [
            37.3735824,
            55.8451674
          ]
        ]
      }
    },
    {
      "type": "Feature",
      "properties": {
        "osm_kind": "building",
        "name": "",
        "source": "OpenStreetMap",
        "download_window_id": "moscow_mitino_+0_+1_9d4c501f",
        "download_city": "Москва Митино",
        "osm_tags": {
          "building": "yes"
        },
        "osm_id": 507244922,
        "osm_type": "way"
      },
      "geometry": {
        "type": "Polygon",
        "coordinates": [
          [
            [
              37.3736698,
              55.8450968
            ],
            [
              37.3741263,
              55.84489
            ],
            [
              37.3734386,
              55.8444115
            ],
            [
              37.373365,
              55.8444448
            ],
            [
              37.3729821,
              55.8446183
            ],
            [
              37.3736698,
              55.8450968
            ]
          ]
        ]
      }
    },
    {
      "type": "Feature",
      "properties": {
        "osm_kind": "road",
        "name": "",
        "source": "OpenStreetMap",
        "download_window_id": "moscow_mitino_+0_+1_9d4c501f",
        "download_city": "Москва Митино",
        "osm_tags": {
          "highway": "service"
        },
        "osm_id": 507244923,
        "osm_type": "way"
      },
      "geometry": {
        "type": "LineString",
        "coordinates": [
          [
            37.3743213,
            55.8459539
          ],
          [
            37.37447,
            55.8458824
          ],
          [
            37.3746589,
            55.846008
          ],
          [
            37.3747744,
            55.8460861
          ]
        ]
      }
    },
    {
      "type": "Feature",
      "properties": {
        "osm_kind": "road",
        "name": "",
        "source": "OpenStreetMap",
        "download_window_id": "moscow_mitino_+0_+1_9d4c501f",
        "download_city": "Москва Митино",
        "osm_tags": {
          "highway": "service"
        },
        "osm_id": 507244924,
        "osm_type": "way"
      },
      "geometry": {
        "type": "LineString",
        "coordinates": [
          [
            37.3741762,
            55.8457589
          ],
          [
            37.3740884,
            55.8458028
          ]
        ]
      }
    },
    {
      "type": "Feature",
      "properties": {
        "osm_kind": "road",
        "name": "",
        "source": "OpenStreetMap",
        "download_window_id": "moscow_mitino_+0_+1_9d4c501f",
        "download_city": "Москва Митино",
        "osm_tags": {
          "highway": "service"
        },
        "osm_id": 507244925,
        "osm_type": "way"
      },
      "geometry": {
        "type": "LineString",
        "coordinates": [
          [
            37.3727828,
            55.8448386
          ],
          [
            37.3727016,
            55.8447829
          ],
          [
            37.372633,
            55.8447355
          ],
          [
            37.3710662,
            55.8436524
          ],
          [
            37.3710159,
            55.8436176
          ],
          [
            37.3709476,
            55.843557
          ],
          [
            37.370835,
            55.8434878
          ]
        ]
      }
    },
    {
      "type": "Feature",
      "properties": {
        "osm_kind": "road",
        "name": "",
        "source": "OpenStreetMap",
        "download_window_id": "moscow_mitino_+0_+1_9d4c501f",
        "download_city": "Москва Митино",
        "osm_tags": {
          "highway": "service"
        },
        "osm_id": 507255673,
        "osm_type": "way"
      },
      "geometry": {
        "type": "LineString",
        "coordinates": [
          [
            37.3742963,
            55.8448406
          ],
          [
            37.3742283,
            55.8448717
          ],
          [
            37.3735824,
            55.8451674
          ],
          [
            37.3727989,
            55.8446237
          ],
          [
            37.3732662,
            55.8444076
          ],
          [
            37.3734269,
            55.8443333
          ],
          [
            37.3735114,
            55.8442942
          ]
        ]
      }
    },
    {
      "type": "Feature",
      "properties": {
        "osm_kind": "road",
        "name": "",
        "source": "OpenStreetMap",
        "download_window_id": "moscow_mitino_+0_+1_9d4c501f",
        "download_city": "Москва Митино",
        "osm_tags": {
          "highway": "service"
        },
        "osm_id": 507262714,
        "osm_type": "way"
      },
      "geometry": {
        "type": "LineString",
        "coordinates": [
          [
            37.3749662,
            55.8455737
          ],
          [
            37.37511,
            55.8456419
          ],
          [
            37.37528,
            55.8457339
          ],
          [
            37.3753712,
            55.8457883
          ]
        ]
      }
    },
    {
      "type": "Feature",
      "properties": {
        "osm_kind": "road",
        "name": "",
        "source": "OpenStreetMap",
        "download_window_id": "moscow_mitino_+0_+1_9d4c501f",
        "download_city": "Москва Митино",
        "osm_tags": {
          "highway": "footway"
        },
        "osm_id": 511060157,
        "osm_type": "way"
      },
      "geometry": {
        "type": "LineString",
        "coordinates": [
          [
            37.3724154,
            55.8464856
          ],
          [
            37.3719485,
            55.8463844
          ]
        ]
      }
    },
    {
      "type": "Feature",
      "properties": {
        "osm_kind": "green",
        "name": "",
        "source": "OpenStreetMap",
        "download_window_id": "moscow_mitino_+0_+1_9d4c501f",
        "download_city": "Москва Митино",
        "osm_tags": {
          "landuse": "grass"
        },
        "osm_id": 539372740,
        "osm_type": "way"
      },
      "geometry": {
        "type": "Polygon",
        "coordinates": [
          [
            [
              37.3774209,
              55.8449332
            ],
            [
              37.3763375,
              55.845472
            ],
            [
              37.3762931,
              55.8454615
            ],
            [
              37.3762557,
              55.845434
            ],
            [
              37.3762744,
              55.8454156
            ],
            [
              37.3773602,
              55.8448768
            ],
            [
              37.3774209,
              55.8449332
            ]
          ]
        ]
      }
    },
    {
      "type": "Feature",
      "properties": {
        "osm_kind": "green",
        "name": "",
        "source": "OpenStreetMap",
        "download_window_id": "moscow_mitino_+0_+1_9d4c501f",
        "download_city": "Москва Митино",
        "osm_tags": {
          "landuse": "grass"
        },
        "osm_id": 539372742,
        "osm_type": "way"
      },
      "geometry": {
        "type": "Polygon",
        "coordinates": [
          [
            [
              37.3754151,
              55.8459255
            ],
            [
              37.3754128,
              55.8458915
            ],
            [
              37.3753848,
              55.8458561
            ],
            [
              37.372954,
              55.8470542
            ],
            [
              37.3730171,
              55.847104
            ],
            [
              37.3754151,
              55.8459255
            ]
          ]
        ]
      }
    },
    {
      "type": "Feature",
      "properties": {
        "osm_kind": "green",
        "name": "",
        "source": "OpenStreetMap",
        "download_window_id": "moscow_mitino_+0_+1_9d4c501f",
        "download_city": "Москва Митино",
        "osm_tags": {
          "landuse": "grass"
        },
        "osm_id": 539372746,
        "osm_type": "way"
      },
      "geometry": {
        "type": "Polygon",
        "coordinates": [
          [
            [
              37.3728817,
              55.847167
            ],
            [
              37.3728093,
              55.8471185
            ],
            [
              37.3707148,
              55.8481501
            ],
            [
              37.3706144,
              55.8482773
            ],
            [
              37.3728817,
              55.847167
            ]
          ]
        ]
      }
    },
    {
      "type": "Feature",
      "properties": {
        "osm_kind": "green",
        "name": "",
        "source": "OpenStreetMap",
        "download_window_id": "moscow_mitino_+0_+1_9d4c501f",
        "download_city": "Москва Митино",
        "osm_tags": {
          "landuse": "grass"
        },
        "osm_id": 540191055,
        "osm_type": "way"
      },
      "geometry": {
        "type": "Polygon",
        "coordinates": [
          [
            [
              37.3736096,
              55.8476035
            ],
            [
              37.3735445,
              55.8476339
            ],
            [
              37.3734897,
              55.8476088
            ],
            [
              37.3734734,
              55.847586
            ],
            [
              37.3734754,
              55.8475597
            ],
            [
              37.376988,
              55.8458297
            ],
            [
              37.3770124,
              55.8458525
            ],
            [
              37.3769839,
              55.8458833
            ],
            [
              37.37674,
              55.8460568
            ],
            [
              37.3767989,
              55.8460899
            ],
            [
              37.3767969,
              55.846123
            ],
            [
              37.3758619,
              55.8465817
            ],
            [
              37.375872,
              55.8466148
            ],
            [
              37.3759916,
              55.8466784
            ],
            [
              37.375832,
              55.8467422
            ],
            [
              37.3756299,
              55.8466055
            ],
            [
              37.3735599,
              55.8475699
            ],
            [
              37.3736096,
              55.8476035
            ]
          ]
        ]
      }
    },
    {
      "type": "Feature",
      "properties": {
        "osm_kind": "road",
        "name": "",
        "source": "OpenStreetMap",
        "download_window_id": "moscow_mitino_+0_+1_9d4c501f",
        "download_city": "Москва Митино",
        "osm_tags": {
          "highway": "service"
        },
        "osm_id": 640251935,
        "osm_type": "way"
      },
      "geometry": {
        "type": "LineString",
        "coordinates": [
          [
            37.3738008,
            55.8455151
          ],
          [
            37.3727828,
            55.8448386
          ]
        ]
      }
    },
    {
      "type": "Feature",
      "properties": {
        "osm_kind": "road",
        "name": "",
        "source": "OpenStreetMap",
        "download_window_id": "moscow_mitino_+0_+1_9d4c501f",
        "download_city": "Москва Митино",
        "osm_tags": {
          "highway": "steps"
        },
        "osm_id": 640259821,
        "osm_type": "way"
      },
      "geometry": {
        "type": "LineString",
        "coordinates": [
          [
            37.3727016,
            55.8447829
          ],
          [
            37.3728378,
            55.8447185
          ],
          [
            37.3727059,
            55.8446227
          ]
        ]
      }
    },
    {
      "type": "Feature",
      "properties": {
        "osm_kind": "road",
        "name": "",
        "source": "OpenStreetMap",
        "download_window_id": "moscow_mitino_+0_+1_9d4c501f",
        "download_city": "Москва Митино",
        "osm_tags": {
          "highway": "service"
        },
        "osm_id": 693940161,
        "osm_type": "way"
      },
      "geometry": {
        "type": "LineString",
        "coordinates": [
          [
            37.3707792,
            55.8456064
          ],
          [
            37.3708884,
            55.8456801
          ],
          [
            37.3709241,
            55.8457038
          ],
          [
            37.3709362,
            55.8457113
          ],
          [
            37.3714287,
            55.8460442
          ],
          [
            37.3715763,
            55.846052
          ],
          [
            37.3717901,
            55.8459559
          ],
          [
            37.3721869,
            55.8457778
          ],
          [
            37.3724153,
            55.8456739
          ],
          [
            37.3727193,
            55.8455357
          ],
          [
            37.3727658,
            55.8455145
          ],
          [
            37.3727756,
            55.8454287
          ],
          [
            37.3724983,
            55.8452419
          ],
          [
            37.3723469,
            55.8451399
          ],
          [
            37.3722676,
            55.8450865
          ],
          [
            37.3722165,
            55.8450209
          ],
          [
            37.3721305,
            55.8449634
          ],
          [
            37.3704059,
            55.8438096
          ],
          [
            37.370562,
            55.8437343
          ],
          [
            37.3707693,
            55.8436342
          ],
          [
            37.3708757,
            55.8435871
          ],
          [
            37.3709476,
            55.843557
          ]
        ]
      }
    },
    {
      "type": "Feature",
      "properties": {
        "osm_kind": "road",
        "name": "",
        "source": "OpenStreetMap",
        "download_window_id": "moscow_mitino_+0_+1_9d4c501f",
        "download_city": "Москва Митино",
        "osm_tags": {
          "highway": "cycleway"
        },
        "osm_id": 694994249,
        "osm_type": "way"
      },
      "geometry": {
        "type": "LineString",
        "coordinates": [
          [
            37.3773267,
            55.8448204
          ],
          [
            37.3774409,
            55.8449009
          ],
          [
            37.3774541,
            55.8449271
          ],
          [
            37.3774342,
            55.8449557
          ],
          [
            37.3754008,
            55.8459455
          ],
          [
            37.3738414,
            55.84671
          ],
          [
            37.3730027,
            55.8471246
          ],
          [
            37.3715905,
            55.8478156
          ],
          [
            37.3704382,
            55.8483794
          ]
        ]
      }
    },
    {
      "type": "Feature",
      "properties": {
        "osm_kind": "major_road",
        "name": "Пятницкое шоссе",
        "source": "OpenStreetMap",
        "download_window_id": "moscow_mitino_+0_+1_9d4c501f",
        "download_city": "Москва Митино",
        "osm_tags": {
          "highway": "primary",
          "name": "Пятницкое шоссе"
        },
        "osm_id": 827357884,
        "osm_type": "way"
      },
      "geometry": {
        "type": "LineString",
        "coordinates": [
          [
            37.376387,
            55.8457939
          ],
          [
            37.3767507,
            55.8456157
          ],
          [
            37.3775977,
            55.8452008
          ],
          [
            37.377985,
            55.8450111
          ]
        ]
      }
    },
    {
      "type": "Feature",
      "properties": {
        "osm_kind": "road",
        "name": "",
        "source": "OpenStreetMap",
        "download_window_id": "moscow_mitino_+0_+1_9d4c501f",
        "download_city": "Москва Митино",
        "osm_tags": {
          "highway": "service"
        },
        "osm_id": 853367135,
        "osm_type": "way"
      },
      "geometry": {
        "type": "LineString",
        "coordinates": [
          [
            37.3760129,
            55.8451381
          ],
          [
            37.3758559,
            55.8450213
          ]
        ]
      }
    },
    {
      "type": "Feature",
      "properties": {
        "osm_kind": "road",
        "name": "",
        "source": "OpenStreetMap",
        "download_window_id": "moscow_mitino_+0_+1_9d4c501f",
        "download_city": "Москва Митино",
        "osm_tags": {
          "highway": "service"
        },
        "osm_id": 853367136,
        "osm_type": "way"
      },
      "geometry": {
        "type": "LineString",
        "coordinates": [
          [
            37.3753285,
            55.8452403
          ],
          [
            37.3752916,
            55.8452795
          ],
          [
            37.3751604,
            55.8453386
          ],
          [
            37.3750808,
            55.8453745
          ]
        ]
      }
    },
    {
      "type": "Feature",
      "properties": {
        "osm_kind": "road",
        "name": "",
        "source": "OpenStreetMap",
        "download_window_id": "moscow_mitino_+0_+1_9d4c501f",
        "download_city": "Москва Митино",
        "osm_tags": {
          "highway": "service"
        },
        "osm_id": 856534408,
        "osm_type": "way"
      },
      "geometry": {
        "type": "LineString",
        "coordinates": [
          [
            37.3745951,
            55.8447804
          ],
          [
            37.3745227,
            55.8446584
          ],
          [
            37.3737958,
            55.8441283
          ],
          [
            37.3733747,
            55.8437262
          ],
          [
            37.3731494,
            55.843797
          ],
          [
            37.3736322,
            55.8441961
          ],
          [
            37.3743805,
            55.8447352
          ],
          [
            37.3745012,
            55.8447834
          ],
          [
            37.3745951,
            55.8447804
          ]
        ]
      }
    },
    {
      "type": "Feature",
      "properties": {
        "osm_kind": "building",
        "name": "",
        "source": "OpenStreetMap",
        "download_window_id": "moscow_mitino_+0_+1_9d4c501f",
        "download_city": "Москва Митино",
        "osm_tags": {
          "building": "garages"
        },
        "osm_id": 856534409,
        "osm_type": "way"
      },
      "geometry": {
        "type": "Polygon",
        "coordinates": [
          [
            [
              37.3733613,
              55.8437624
            ],
            [
              37.3737609,
              55.8441509
            ],
            [
              37.3743108,
              55.8445424
            ],
            [
              37.3744905,
              55.8446719
            ],
            [
              37.3744088,
              55.8447076
            ],
            [
              37.3740587,
              55.8444581
            ],
            [
              37.3736563,
              55.8441825
            ],
            [
              37.373246,
              55.8438
            ],
            [
              37.3733613,
              55.8437624
            ]
          ]
        ]
      }
    },
    {
      "type": "Feature",
      "properties": {
        "osm_kind": "building",
        "name": "",
        "source": "OpenStreetMap",
        "download_window_id": "moscow_mitino_+0_+1_9d4c501f",
        "download_city": "Москва Митино",
        "osm_tags": {
          "building": "yes"
        },
        "osm_id": 856534410,
        "osm_type": "way"
      },
      "geometry": {
        "type": "Polygon",
        "coordinates": [
          [
            [
              37.3746085,
              55.8448715
            ],
            [
              37.3745599,
              55.8448914
            ],
            [
              37.3746203,
              55.8449377
            ],
            [
              37.3746689,
              55.8449178
            ],
            [
              37.3746085,
              55.8448715
            ]
          ]
        ]
      }
    },
    {
      "type": "Feature",
      "properties": {
        "osm_kind": "road",
        "name": "",
        "source": "OpenStreetMap",
        "download_window_id": "moscow_mitino_+0_+1_9d4c501f",
        "download_city": "Москва Митино",
        "osm_tags": {
          "highway": "service"
        },
        "osm_id": 856534411,
        "osm_type": "way"
      },
      "geometry": {
        "type": "LineString",
        "coordinates": [
          [
            37.3751945,
            55.8451779
          ],
          [
            37.3752916,
            55.8452795
          ]
        ]
      }
    },
    {
      "type": "Feature",
      "properties": {
        "osm_kind": "road",
        "name": "",
        "source": "OpenStreetMap",
        "download_window_id": "moscow_mitino_+0_+1_9d4c501f",
        "download_city": "Москва Митино",
        "osm_tags": {
          "highway": "service"
        },
        "osm_id": 856534413,
        "osm_type": "way"
      },
      "geometry": {
        "type": "LineString",
        "coordinates": [
          [
            37.3747022,
            55.8441398
          ],
          [
            37.3745415,
            55.8443587
          ],
          [
            37.3743939,
            55.8444265
          ],
          [
            37.3751329,
            55.8451067
          ],
          [
            37.3751945,
            55.8451779
          ]
        ]
      }
    },
    {
      "type": "Feature",
      "properties": {
        "osm_kind": "building",
        "name": "",
        "source": "OpenStreetMap",
        "download_window_id": "moscow_mitino_+0_+1_9d4c501f",
        "download_city": "Москва Митино",
        "osm_tags": {
          "building": "yes"
        },
        "osm_id": 856534417,
        "osm_type": "way"
      },
      "geometry": {
        "type": "Polygon",
        "coordinates": [
          [
            [
              37.3751758,
              55.8447548
            ],
            [
              37.375216,
              55.8447408
            ],
            [
              37.3751651,
              55.8446945
            ],
            [
              37.3751249,
              55.8447085
            ],
            [
              37.3751758,
              55.8447548
            ]
          ]
        ]
      }
    },
    {
      "type": "Feature",
      "properties": {
        "osm_kind": "road",
        "name": "",
        "source": "OpenStreetMap",
        "download_window_id": "moscow_mitino_+0_+1_9d4c501f",
        "download_city": "Москва Митино",
        "osm_tags": {
          "highway": "path"
        },
        "osm_id": 857269751,
        "osm_type": "way"
      },
      "geometry": {
        "type": "LineString",
        "coordinates": [
          [
            37.3755445,
            55.8456029
          ],
          [
            37.3751604,
            55.8453386
          ],
          [
            37.3738709,
            55.8444598
          ],
          [
            37.3736511,
            55.84431
          ],
          [
            37.3729151,
            55.8438321
          ],
          [
            37.3727149,
            55.8436901
          ],
          [
            37.3725566,
            55.8435967
          ],
          [
            37.3724359,
            55.8435523
          ],
          [
            37.3722576,
            55.8435101
          ],
          [
            37.372051,
            55.8434815
          ],
          [
            37.3717511,
            55.8434513
          ],
          [
            37.3717144,
            55.8434476
          ],
          [
            37.3715682,
            55.8434213
          ],
          [
            37.3714475,
            55.8433844
          ],
          [
            37.3714326,
            55.8433778
          ],
          [
            37.3713532,
            55.8433379
          ],
          [
            37.3713228,
            55.8433189
          ],
          [
            37.3709244,
            55.8430399
          ],
          [
            37.3706389,
            55.8428399
          ],
          [
            37.3703116,
            55.8426144
          ]
        ]
      }
    },
    {
      "type": "Feature",
      "properties": {
        "osm_kind": "road",
        "name": "",
        "source": "OpenStreetMap",
        "download_window_id": "moscow_mitino_+0_+1_9d4c501f",
        "download_city": "Москва Митино",
        "osm_tags": {
          "highway": "residential"
        },
        "osm_id": 857269752,
        "osm_type": "way"
      },
      "geometry": {
        "type": "LineString",
        "coordinates": [
          [
            37.3755581,
            55.8456952
          ],
          [
            37.3754704,
            55.8456388
          ],
          [
            37.3754394,
            55.8456178
          ],
          [
            37.3751464,
            55.8454186
          ]
        ]
      }
    },
    {
      "type": "Feature",
      "properties": {
        "osm_kind": "road",
        "name": "",
        "source": "OpenStreetMap",
        "download_window_id": "moscow_mitino_+0_+1_9d4c501f",
        "download_city": "Москва Митино",
        "osm_tags": {
          "highway": "residential"
        },
        "osm_id": 857269753,
        "osm_type": "way"
      },
      "geometry": {
        "type": "LineString",
        "coordinates": [
          [
            37.3751464,
            55.8454186
          ],
          [
            37.3750808,
            55.8453745
          ],
          [
            37.3743824,
            55.8448995
          ],
          [
            37.3742963,
            55.8448406
          ]
        ]
      }
    },
    {
      "type": "Feature",
      "properties": {
        "osm_kind": "road",
        "name": "",
        "source": "OpenStreetMap",
        "download_window_id": "moscow_mitino_+0_+1_9d4c501f",
        "download_city": "Москва Митино",
        "osm_tags": {
          "highway": "service"
        },
        "osm_id": 857269754,
        "osm_type": "way"
      },
      "geometry": {
        "type": "LineString",
        "coordinates": [
          [
            37.3749662,
            55.8455737
          ],
          [
            37.3749934,
            55.8454926
          ],
          [
            37.3750752,
            55.8454531
          ],
          [
            37.3751464,
            55.8454186
          ]
        ]
      }
    },
    {
      "type": "Feature",
      "properties": {
        "osm_kind": "building",
        "name": "",
        "source": "OpenStreetMap",
        "download_window_id": "moscow_mitino_+0_+1_9d4c501f",
        "download_city": "Москва Митино",
        "osm_tags": {
          "building": "yes"
        },
        "osm_id": 857269756,
        "osm_type": "way"
      },
      "geometry": {
        "type": "Polygon",
        "coordinates": [
          [
            [
              37.3728222,
              55.844806
            ],
            [
              37.3728926,
              55.8447714
            ],
            [
              37.3728316,
              55.8447322
            ],
            [
              37.3727611,
              55.8447667
            ],
            [
              37.3728222,
              55.844806
            ]
          ]
        ]
      }
    },
    {
      "type": "Feature",
      "properties": {
        "osm_kind": "road",
        "name": "",
        "source": "OpenStreetMap",
        "download_window_id": "moscow_mitino_+0_+1_9d4c501f",
        "download_city": "Москва Митино",
        "osm_tags": {
          "highway": "footway"
        },
        "osm_id": 857507394,
        "osm_type": "way"
      },
      "geometry": {
        "type": "LineString",
        "coordinates": [
          [
            37.3713515,
            55.8467693
          ],
          [
            37.3715287,
            55.8467517
          ],
          [
            37.3718766,
            55.8467297
          ],
          [
            37.3720551,
            55.8467086
          ],
          [
            37.372267,
            55.8466599
          ]
        ]
      }
    },
    {
      "type": "Feature",
      "properties": {
        "osm_kind": "road",
        "name": "",
        "source": "OpenStreetMap",
        "download_window_id": "moscow_mitino_+0_+1_9d4c501f",
        "download_city": "Москва Митино",
        "osm_tags": {
          "highway": "footway"
        },
        "osm_id": 857507396,
        "osm_type": "way"
      },
      "geometry": {
        "type": "LineString",
        "coordinates": [
          [
            37.371982,
            55.847187
          ],
          [
            37.3719826,
            55.8471521
          ],
          [
            37.3720047,
            55.8471266
          ],
          [
            37.3720081,
            55.8471227
          ],
          [
            37.3720403,
            55.8470986
          ],
          [
            37.3720966,
            55.8470745
          ],
          [
            37.3721717,
            55.8470587
          ],
          [
            37.3722192,
            55.8470603
          ],
          [
            37.3725346,
            55.84707
          ]
        ]
      }
    },
    {
      "type": "Feature",
      "properties": {
        "osm_kind": "road",
        "name": "",
        "source": "OpenStreetMap",
        "download_window_id": "moscow_mitino_+0_+1_9d4c501f",
        "download_city": "Москва Митино",
        "osm_tags": {
          "highway": "footway"
        },
        "osm_id": 857507397,
        "osm_type": "way"
      },
      "geometry": {
        "type": "LineString",
        "coordinates": [
          [
            37.3718673,
            55.8469262
          ],
          [
            37.3719759,
            55.8469864
          ],
          [
            37.3720913,
            55.8470271
          ],
          [
            37.3721959,
            55.8470534
          ],
          [
            37.3722192,
            55.8470603
          ],
          [
            37.3724267,
            55.8471216
          ]
        ]
      }
    },
    {
      "type": "Feature",
      "properties": {
        "osm_kind": "road",
        "name": "",
        "source": "OpenStreetMap",
        "download_window_id": "moscow_mitino_+0_+1_9d4c501f",
        "download_city": "Москва Митино",
        "osm_tags": {
          "highway": "footway"
        },
        "osm_id": 857507400,
        "osm_type": "way"
      },
      "geometry": {
        "type": "LineString",
        "coordinates": [
          [
            37.3725324,
            55.846901
          ],
          [
            37.3724347,
            55.8469342
          ],
          [
            37.372367,
            55.8469571
          ],
          [
            37.372292,
            55.8469711
          ],
          [
            37.3722133,
            55.8469753
          ],
          [
            37.3721349,
            55.8469695
          ],
          [
            37.3720607,
            55.8469542
          ],
          [
            37.3719945,
            55.8469299
          ],
          [
            37.3719396,
            55.846898
          ],
          [
            37.3718987,
            55.84686
          ],
          [
            37.3718739,
            55.8468179
          ],
          [
            37.3718664,
            55.8467737
          ],
          [
            37.3718766,
            55.8467297
          ],
          [
            37.371904,
            55.8466881
          ],
          [
            37.3719472,
            55.8466509
          ],
          [
            37.372004,
            55.8466201
          ],
          [
            37.3721566,
            55.8465634
          ]
        ]
      }
    },
    {
      "type": "Feature",
      "properties": {
        "osm_kind": "road",
        "name": "",
        "source": "OpenStreetMap",
        "download_window_id": "moscow_mitino_+0_+1_9d4c501f",
        "download_city": "Москва Митино",
        "osm_tags": {
          "highway": "footway"
        },
        "osm_id": 864799012,
        "osm_type": "way"
      },
      "geometry": {
        "type": "LineString",
        "coordinates": [
          [
            37.3721871,
            55.8455856
          ],
          [
            37.3725476,
            55.8454187
          ]
        ]
      }
    },
    {
      "type": "Feature",
      "properties": {
        "osm_kind": "road",
        "name": "",
        "source": "OpenStreetMap",
        "download_window_id": "moscow_mitino_+0_+1_9d4c501f",
        "download_city": "Москва Митино",
        "osm_tags": {
          "highway": "footway"
        },
        "osm_id": 864799013,
        "osm_type": "way"
      },
      "geometry": {
        "type": "LineString",
        "coordinates": [
          [
            37.3723288,
            55.845615
          ],
          [
            37.3726307,
            55.8454753
          ]
        ]
      }
    },
    {
      "type": "Feature",
      "properties": {
        "osm_kind": "road",
        "name": "",
        "source": "OpenStreetMap",
        "download_window_id": "moscow_mitino_+0_+1_9d4c501f",
        "download_city": "Москва Митино",
        "osm_tags": {
          "highway": "footway"
        },
        "osm_id": 864799014,
        "osm_type": "way"
      },
      "geometry": {
        "type": "LineString",
        "coordinates": [
          [
            37.3723731,
            55.8452999
          ],
          [
            37.3725476,
            55.8454187
          ],
          [
            37.3726307,
            55.8454753
          ],
          [
            37.3727193,
            55.8455357
          ]
        ]
      }
    },
    {
      "type": "Feature",
      "properties": {
        "osm_kind": "road",
        "name": "",
        "source": "OpenStreetMap",
        "download_window_id": "moscow_mitino_+0_+1_9d4c501f",
        "download_city": "Москва Митино",
        "osm_tags": {
          "highway": "footway"
        },
        "osm_id": 864799015,
        "osm_type": "way"
      },
      "geometry": {
        "type": "LineString",
        "coordinates": [
          [
            37.3722544,
            55.8456314
          ],
          [
            37.372313,
            55.8456042
          ],
          [
            37.3723288,
            55.845615
          ],
          [
            37.3724153,
            55.8456739
          ]
        ]
      }
    },
    {
      "type": "Feature",
      "properties": {
        "osm_kind": "road",
        "name": "",
        "source": "OpenStreetMap",
        "download_window_id": "moscow_mitino_+0_+1_9d4c501f",
        "download_city": "Москва Митино",
        "osm_tags": {
          "highway": "footway"
        },
        "osm_id": 864799016,
        "osm_type": "way"
      },
      "geometry": {
        "type": "LineString",
        "coordinates": [
          [
            37.3720127,
            55.8454668
          ],
          [
            37.3721871,
            55.8455856
          ],
          [
            37.3722544,
            55.8456314
          ],
          [
            37.372176,
            55.8456691
          ]
        ]
      }
    },
    {
      "type": "Feature",
      "properties": {
        "osm_kind": "road",
        "name": "",
        "source": "OpenStreetMap",
        "download_window_id": "moscow_mitino_+0_+1_9d4c501f",
        "download_city": "Москва Митино",
        "osm_tags": {
          "highway": "footway"
        },
        "osm_id": 864799022,
        "osm_type": "way"
      },
      "geometry": {
        "type": "LineString",
        "coordinates": [
          [
            37.3718472,
            55.8455434
          ],
          [
            37.3720127,
            55.8454668
          ],
          [
            37.3721147,
            55.8454196
          ],
          [
            37.3723731,
            55.8452999
          ],
          [
            37.3724983,
            55.8452419
          ]
        ]
      }
    },
    {
      "type": "Feature",
      "properties": {
        "osm_kind": "road",
        "name": "",
        "source": "OpenStreetMap",
        "download_window_id": "moscow_mitino_+0_+1_9d4c501f",
        "download_city": "Москва Митино",
        "osm_tags": {
          "highway": "footway"
        },
        "osm_id": 864799024,
        "osm_type": "way"
      },
      "geometry": {
        "type": "LineString",
        "coordinates": [
          [
            37.372633,
            55.8447355
          ],
          [
            37.3724357,
            55.8448249
          ],
          [
            37.3721305,
            55.8449634
          ]
        ]
      }
    },
    {
      "type": "Feature",
      "properties": {
        "osm_kind": "road",
        "name": "",
        "source": "OpenStreetMap",
        "download_window_id": "moscow_mitino_+0_+1_9d4c501f",
        "download_city": "Москва Митино",
        "osm_tags": {
          "highway": "footway"
        },
        "osm_id": 864799046,
        "osm_type": "way"
      },
      "geometry": {
        "type": "LineString",
        "coordinates": [
          [
            37.3723469,
            55.8451399
          ],
          [
            37.3722981,
            55.8451627
          ],
          [
            37.3722782,
            55.8451916
          ],
          [
            37.3722433,
            55.8452157
          ],
          [
            37.3721968,
            55.8452325
          ],
          [
            37.3721434,
            55.8452404
          ],
          [
            37.3720882,
            55.8452387
          ],
          [
            37.3720367,
            55.8452275
          ],
          [
            37.3719938,
            55.8452079
          ],
          [
            37.3719639,
            55.8451818
          ],
          [
            37.3719497,
            55.8451518
          ],
          [
            37.3719528,
            55.8451209
          ],
          [
            37.371976,
            55.8450873
          ],
          [
            37.3720077,
            55.8450679
          ],
          [
            37.3720541,
            55.8450511
          ],
          [
            37.3721075,
            55.8450431
          ],
          [
            37.3721627,
            55.8450448
          ],
          [
            37.3722165,
            55.8450209
          ]
        ]
      }
    },
    {
      "type": "Feature",
      "properties": {
        "osm_kind": "building",
        "name": "",
        "source": "OpenStreetMap",
        "download_window_id": "moscow_mitino_+0_+1_9d4c501f",
        "download_city": "Москва Митино",
        "osm_tags": {
          "building": "house"
        },
        "osm_id": 871581804,
        "osm_type": "way"
      },
      "geometry": {
        "type": "Polygon",
        "coordinates": [
          [
            [
              37.3731266,
              55.8460265
            ],
            [
              37.3731986,
              55.8459907
            ],
            [
              37.3731237,
              55.8459432
            ],
            [
              37.3730517,
              55.845979
            ],
            [
              37.3731266,
              55.8460265
            ]
          ]
        ]
      }
    },
    {
      "type": "Feature",
      "properties": {
        "osm_kind": "road",
        "name": "",
        "source": "OpenStreetMap",
        "download_window_id": "moscow_mitino_+0_+1_9d4c501f",
        "download_city": "Москва Митино",
        "osm_tags": {
          "highway": "residential"
        },
        "osm_id": 1342778530,
        "osm_type": "way"
      },
      "geometry": {
        "type": "LineString",
        "coordinates": [
          [
            37.3742963,
            55.8448406
          ],
          [
            37.3739169,
            55.8445765
          ]
        ]
      }
    },
    {
      "type": "Feature",
      "properties": {
        "osm_kind": "road",
        "name": "",
        "source": "OpenStreetMap",
        "download_window_id": "moscow_mitino_+0_+1_9d4c501f",
        "download_city": "Москва Митино",
        "osm_tags": {
          "highway": "path"
        },
        "osm_id": 1342778531,
        "osm_type": "way"
      },
      "geometry": {
        "type": "LineString",
        "coordinates": [
          [
            37.3734269,
            55.8443333
          ],
          [
            37.3737182,
            55.844529
          ],
          [
            37.3742283,
            55.8448717
          ],
          [
            37.3750752,
            55.8454531
          ],
          [
            37.3753983,
            55.8456748
          ]
        ]
      }
    }
  ]
}