{
  "type": "FeatureCollection",
  "name": "moscow_mitino_+3_-3_963cde70",
  "metadata": {
    "category": "separate_pipes",
    "rank": 56,
    "city": "Москва Митино",
    "seed": "moscow_mitino",
    "center": [
      37.3201982,
      55.8689069
    ],
    "bbox_south_west_north_east": [
      55.8675595,
      37.3177966,
      55.8702544,
      37.3225997
    ],
    "source": "OpenStreetMap via Overpass API",
    "note": "Real OSM geometry only. Category is a heuristic research bucket, not heat-network ground truth.",
    "metrics": {
      "counts": {
        "building": 3,
        "road": 24,
        "major_road": 0,
        "railway": 0,
        "water": 1,
        "green": 0
      },
      "lengths_m": {
        "road": 6330.25,
        "major_road": 0.0,
        "railway": 0.0,
        "water": 524.94
      },
      "building_centers": 3,
      "building_spread": 0.2263,
      "barrier_score": 2.5499,
      "road_score": 5.0851,
      "category_scores": {
        "shared_pipe": -0.1439,
        "separate_pipes": 1.6323,
        "fifty_fifty": 1.4902,
        "refusal": 7.2309
      }
    }
  },
  "features": [
    {
      "type": "Feature",
      "properties": {
        "osm_kind": "road",
        "name": "Знаменская улица",
        "source": "OpenStreetMap",
        "download_window_id": "moscow_mitino_+3_-3_963cde70",
        "download_city": "Москва Митино",
        "osm_tags": {
          "highway": "residential",
          "name": "Знаменская улица"
        },
        "osm_id": 171895387,
        "osm_type": "way"
      },
      "geometry": {
        "type": "LineString",
        "coordinates": [
          [
            37.3261371,
            55.8661101
          ],
          [
            37.3258851,
            55.8663556
          ],
          [
            37.3253577,
            55.8668694
          ],
          [
            37.3249442,
            55.8672722
          ],
          [
            37.3244145,
            55.8677882
          ],
          [
            37.3243442,
            55.8678568
          ],
          [
            37.3240371,
            55.8681559
          ],
          [
            37.3231473,
            55.8690015
          ],
          [
            37.3230988,
            55.8690476
          ],
          [
            37.3229564,
            55.8691902
          ],
          [
            37.3220034,
            55.8701009
          ],
          [
            37.3216918,
            55.8703989
          ]
        ]
      }
    },
    {
      "type": "Feature",
      "properties": {
        "osm_kind": "road",
        "name": "",
        "source": "OpenStreetMap",
        "download_window_id": "moscow_mitino_+3_-3_963cde70",
        "download_city": "Москва Митино",
        "osm_tags": {
          "highway": "service"
        },
        "osm_id": 228386900,
        "osm_type": "way"
      },
      "geometry": {
        "type": "LineString",
        "coordinates": [
          [
            37.321954,
            55.8699151
          ],
          [
            37.3219077,
            55.8699049
          ],
          [
            37.3215587,
            55.869845
          ],
          [
            37.3210807,
            55.8696998
          ],
          [
            37.3205297,
            55.8695005
          ],
          [
            37.3200981,
            55.8692778
          ],
          [
            37.3197353,
            55.8691648
          ],
          [
            37.3194556,
            55.8694402
          ],
          [
            37.3193372,
            55.8695567
          ],
          [
            37.3192905,
            55.8696027
          ]
        ]
      }
    },
    {
      "type": "Feature",
      "properties": {
        "osm_kind": "road",
        "name": "",
        "source": "OpenStreetMap",
        "download_window_id": "moscow_mitino_+3_-3_963cde70",
        "download_city": "Москва Митино",
        "osm_tags": {
          "highway": "service"
        },
        "osm_id": 343316862,
        "osm_type": "way"
      },
      "geometry": {
        "type": "LineString",
        "coordinates": [
          [
            37.3200094,
            55.8679735
          ],
          [
            37.3225733,
            55.8654478
          ],
          [
            37.321974,
            55.8652658
          ]
        ]
      }
    },
    {
      "type": "Feature",
      "properties": {
        "osm_kind": "road",
        "name": "",
        "source": "OpenStreetMap",
        "download_window_id": "moscow_mitino_+3_-3_963cde70",
        "download_city": "Москва Митино",
        "osm_tags": {
          "highway": "service"
        },
        "osm_id": 343316863,
        "osm_type": "way"
      },
      "geometry": {
        "type": "LineString",
        "coordinates": [
          [
            37.3195133,
            55.8688779
          ],
          [
            37.3195524,
            55.8688394
          ],
          [
            37.3203252,
            55.868079
          ],
          [
            37.3205427,
            55.8680233
          ],
          [
            37.3210856,
            55.8674655
          ]
        ]
      }
    },
    {
      "type": "Feature",
      "properties": {
        "osm_kind": "road",
        "name": "",
        "source": "OpenStreetMap",
        "download_window_id": "moscow_mitino_+3_-3_963cde70",
        "download_city": "Москва Митино",
        "osm_tags": {
          "highway": "service"
        },
        "osm_id": 343316865,
        "osm_type": "way"
      },
      "geometry": {
        "type": "LineString",
        "coordinates": [
          [
            37.3231473,
            55.8690015
          ],
          [
            37.3203252,
            55.868079
          ],
          [
            37.3200094,
            55.8679735
          ],
          [
            37.3194005,
            55.8677701
          ],
          [
            37.321974,
            55.8652658
          ]
        ]
      }
    },
    {
      "type": "Feature",
      "properties": {
        "osm_kind": "building",
        "name": "",
        "source": "OpenStreetMap",
        "download_window_id": "moscow_mitino_+3_-3_963cde70",
        "download_city": "Москва Митино",
        "osm_tags": {
          "building": "apartments"
        },
        "osm_id": 343316867,
        "osm_type": "way"
      },
      "geometry": {
        "type": "Polygon",
        "coordinates": [
          [
            [
              37.3235722,
              55.8696217
            ],
            [
              37.3236846,
              55.8696595
            ],
            [
              37.3239158,
              55.8697373
            ],
            [
              37.3239459,
              55.8697474
            ],
            [
              37.3238128,
              55.869872
            ],
            [
              37.3236022,
              55.8700691
            ],
            [
              37.3234532,
              55.8702086
            ],
            [
              37.3233699,
              55.8702865
            ],
            [
              37.323299,
              55.8702627
            ],
            [
              37.3231791,
              55.8702223
            ],
            [
              37.322603,
              55.8700285
            ],
            [
              37.3226742,
              55.8699618
            ],
            [
              37.3228624,
              55.8697857
            ],
            [
              37.3230335,
              55.8696256
            ],
            [
              37.3231791,
              55.8694894
            ],
            [
              37.3233355,
              55.869542
            ],
            [
              37.3234499,
              55.8694349
            ],
            [
              37.3231199,
              55.8693239
            ],
            [
              37.3230111,
              55.8694257
            ],
            [
              37.3228589,
              55.8695681
            ],
            [
              37.3226871,
              55.8697288
            ],
            [
              37.3224959,
              55.8699078
            ],
            [
              37.3223245,
              55.8700682
            ],
            [
              37.322727,
              55.8702036
            ],
            [
              37.32309,
              55.8703257
            ],
            [
              37.3231941,
              55.8703607
            ],
            [
              37.3234721,
              55.8704542
            ],
            [
              37.3236601,
              55.8702784
            ],
            [
              37.3238097,
              55.8701384
            ],
            [
              37.3240187,
              55.8699428
            ],
            [
              37.3242674,
              55.8697101
            ],
            [
              37.3242024,
              55.8696882
            ],
            [
              37.3240312,
              55.8696306
            ],
            [
              37.3237976,
              55.869552
            ],
            [
              37.3236866,
              55.8695147
            ],
            [
              37.3235722,
              55.8696217
            ]
          ]
        ]
      }
    },
    {
      "type": "Feature",
      "properties": {
        "osm_kind": "road",
        "name": "",
        "source": "OpenStreetMap",
        "download_window_id": "moscow_mitino_+3_-3_963cde70",
        "download_city": "Москва Митино",
        "osm_tags": {
          "highway": "service"
        },
        "osm_id": 433845931,
        "osm_type": "way"
      },
      "geometry": {
        "type": "LineString",
        "coordinates": [
          [
            37.3220034,
            55.8701009
          ],
          [
            37.3220873,
            55.8701281
          ],
          [
            37.3221215,
            55.8701396
          ],
          [
            37.3230827,
            55.8704649
          ],
          [
            37.3235104,
            55.8706097
          ],
          [
            37.324473,
            55.8697116
          ],
          [
            37.3246282,
            55.8695621
          ]
        ]
      }
    },
    {
      "type": "Feature",
      "properties": {
        "osm_kind": "road",
        "name": "",
        "source": "OpenStreetMap",
        "download_window_id": "moscow_mitino_+3_-3_963cde70",
        "download_city": "Москва Митино",
        "osm_tags": {
          "highway": "cycleway"
        },
        "osm_id": 433845938,
        "osm_type": "way"
      },
      "geometry": {
        "type": "LineString",
        "coordinates": [
          [
            37.3220428,
            55.8702163
          ],
          [
            37.3268227,
            55.8718532
          ],
          [
            37.3268782,
            55.8718718
          ]
        ]
      }
    },
    {
      "type": "Feature",
      "properties": {
        "osm_kind": "road",
        "name": "",
        "source": "OpenStreetMap",
        "download_window_id": "moscow_mitino_+3_-3_963cde70",
        "download_city": "Москва Митино",
        "osm_tags": {
          "highway": "footway"
        },
        "osm_id": 434328595,
        "osm_type": "way"
      },
      "geometry": {
        "type": "LineString",
        "coordinates": [
          [
            37.3221215,
            55.8701396
          ],
          [
            37.3230653,
            55.8692275
          ],
          [
            37.3232164,
            55.8690863
          ],
          [
            37.3238618,
            55.868481
          ],
          [
            37.3241639,
            55.8681976
          ],
          [
            37.3241852,
            55.8681742
          ]
        ]
      }
    },
    {
      "type": "Feature",
      "properties": {
        "osm_kind": "road",
        "name": "",
        "source": "OpenStreetMap",
        "download_window_id": "moscow_mitino_+3_-3_963cde70",
        "download_city": "Москва Митино",
        "osm_tags": {
          "highway": "cycleway"
        },
        "osm_id": 494882172,
        "osm_type": "way"
      },
      "geometry": {
        "type": "LineString",
        "coordinates": [
          [
            37.3220428,
            55.8702163
          ],
          [
            37.3220023,
            55.8702035
          ],
          [
            37.3220873,
            55.8701281
          ],
          [
            37.3230309,
            55.8692159
          ],
          [
            37.323178,
            55.8690732
          ],
          [
            37.3241285,
            55.868186
          ],
          [
            37.3244368,
            55.8678883
          ],
          [
            37.3250419,
            55.8673042
          ],
          [
            37.3254583,
            55.8669023
          ],
          [
            37.3262062,
            55.8661803
          ],
          [
            37.3262675,
            55.8661712
          ],
          [
            37.3262787,
            55.8661748
          ],
          [
            37.3281487,
            55.8667867
          ],
          [
            37.3309583,
            55.867706
          ],
          [
            37.331004,
            55.8677652
          ],
          [
            37.330993,
            55.8678162
          ],
          [
            37.3291242,
            55.8696129
          ]
        ]
      }
    },
    {
      "type": "Feature",
      "properties": {
        "osm_kind": "road",
        "name": "",
        "source": "OpenStreetMap",
        "download_window_id": "moscow_mitino_+3_-3_963cde70",
        "download_city": "Москва Митино",
        "osm_tags": {
          "highway": "service"
        },
        "osm_id": 525906333,
        "osm_type": "way"
      },
      "geometry": {
        "type": "LineString",
        "coordinates": [
          [
            37.3197353,
            55.8691648
          ],
          [
            37.3197547,
            55.8691162
          ],
          [
            37.3199227,
            55.8689527
          ],
          [
            37.3202294,
            55.8686595
          ]
        ]
      }
    },
    {
      "type": "Feature",
      "properties": {
        "osm_kind": "road",
        "name": "",
        "source": "OpenStreetMap",
        "download_window_id": "moscow_mitino_+3_-3_963cde70",
        "download_city": "Москва Митино",
        "osm_tags": {
          "highway": "service"
        },
        "osm_id": 542565339,
        "osm_type": "way"
      },
      "geometry": {
        "type": "LineString",
        "coordinates": [
          [
            37.3199227,
            55.8689527
          ],
          [
            37.3197934,
            55.8689124
          ],
          [
            37.3195524,
            55.8688394
          ]
        ]
      }
    },
    {
      "type": "Feature",
      "properties": {
        "osm_kind": "building",
        "name": "",
        "source": "OpenStreetMap",
        "download_window_id": "moscow_mitino_+3_-3_963cde70",
        "download_city": "Москва Митино",
        "osm_tags": {
          "building": "yes"
        },
        "osm_id": 686072285,
        "osm_type": "way"
      },
      "geometry": {
        "type": "Polygon",
        "coordinates": [
          [
            [
              37.3192021,
              55.868971
            ],
            [
              37.3195535,
              55.8690778
            ],
            [
              37.319673,
              55.8689541
            ],
            [
              37.3193216,
              55.8688473
            ],
            [
              37.3192021,
              55.868971
            ]
          ]
        ]
      }
    },
    {
      "type": "Feature",
      "properties": {
        "osm_kind": "road",
        "name": "",
        "source": "OpenStreetMap",
        "download_window_id": "moscow_mitino_+3_-3_963cde70",
        "download_city": "Москва Митино",
        "osm_tags": {
          "highway": "footway"
        },
        "osm_id": 793540047,
        "osm_type": "way"
      },
      "geometry": {
        "type": "LineString",
        "coordinates": [
          [
            37.320509,
            55.8701006
          ],
          [
            37.3204654,
            55.8700884
          ],
          [
            37.3204306,
            55.8700846
          ],
          [
            37.3204059,
            55.8700924
          ],
          [
            37.3203752,
            55.8701208
          ],
          [
            37.3194177,
            55.871071
          ],
          [
            37.3190887,
            55.8713929
          ],
          [
            37.318551,
            55.8719189
          ],
          [
            37.3178404,
            55.8726142
          ]
        ]
      }
    },
    {
      "type": "Feature",
      "properties": {
        "osm_kind": "road",
        "name": "",
        "source": "OpenStreetMap",
        "download_window_id": "moscow_mitino_+3_-3_963cde70",
        "download_city": "Москва Митино",
        "osm_tags": {
          "highway": "footway"
        },
        "osm_id": 899495674,
        "osm_type": "way"
      },
      "geometry": {
        "type": "LineString",
        "coordinates": [
          [
            37.320509,
            55.8701006
          ],
          [
            37.320575,
            55.870039
          ],
          [
            37.3206271,
            55.8699904
          ]
        ]
      }
    },
    {
      "type": "Feature",
      "properties": {
        "osm_kind": "road",
        "name": "",
        "source": "OpenStreetMap",
        "download_window_id": "moscow_mitino_+3_-3_963cde70",
        "download_city": "Москва Митино",
        "osm_tags": {
          "highway": "footway"
        },
        "osm_id": 899495675,
        "osm_type": "way"
      },
      "geometry": {
        "type": "LineString",
        "coordinates": [
          [
            37.3200947,
            55.8699641
          ],
          [
            37.3201614,
            55.8699029
          ],
          [
            37.3202186,
            55.8698504
          ]
        ]
      }
    },
    {
      "type": "Feature",
      "properties": {
        "osm_kind": "road",
        "name": "",
        "source": "OpenStreetMap",
        "download_window_id": "moscow_mitino_+3_-3_963cde70",
        "download_city": "Москва Митино",
        "osm_tags": {
          "highway": "footway"
        },
        "osm_id": 963470073,
        "osm_type": "way"
      },
      "geometry": {
        "type": "LineString",
        "coordinates": [
          [
            37.317799,
            55.8721341
          ],
          [
            37.31803,
            55.8720921
          ],
          [
            37.3201341,
            55.8700424
          ],
          [
            37.3201669,
            55.8700101
          ],
          [
            37.3201691,
            55.8699966
          ],
          [
            37.3201564,
            55.8699844
          ],
          [
            37.3200947,
            55.8699641
          ]
        ]
      }
    },
    {
      "type": "Feature",
      "properties": {
        "osm_kind": "road",
        "name": "",
        "source": "OpenStreetMap",
        "download_window_id": "moscow_mitino_+3_-3_963cde70",
        "download_city": "Москва Митино",
        "osm_tags": {
          "highway": "footway"
        },
        "osm_id": 1043711552,
        "osm_type": "way"
      },
      "geometry": {
        "type": "LineString",
        "coordinates": [
          [
            37.3206271,
            55.8699904
          ],
          [
            37.3202186,
            55.8698504
          ],
          [
            37.3193372,
            55.8695567
          ],
          [
            37.3189031,
            55.8694187
          ],
          [
            37.315498,
            55.8682787
          ],
          [
            37.3143728,
            55.867931
          ],
          [
            37.3137763,
            55.8677502
          ]
        ]
      }
    },
    {
      "type": "Feature",
      "properties": {
        "osm_kind": "road",
        "name": "",
        "source": "OpenStreetMap",
        "download_window_id": "moscow_mitino_+3_-3_963cde70",
        "download_city": "Москва Митино",
        "osm_tags": {
          "highway": "footway"
        },
        "osm_id": 1043711555,
        "osm_type": "way"
      },
      "geometry": {
        "type": "LineString",
        "coordinates": [
          [
            37.3201341,
            55.8700424
          ],
          [
            37.3202555,
            55.8700818
          ],
          [
            37.3203752,
            55.8701208
          ]
        ]
      }
    },
    {
      "type": "Feature",
      "properties": {
        "osm_kind": "road",
        "name": "",
        "source": "OpenStreetMap",
        "download_window_id": "moscow_mitino_+3_-3_963cde70",
        "download_city": "Москва Митино",
        "osm_tags": {
          "highway": "tertiary"
        },
        "osm_id": 1043711556,
        "osm_type": "way"
      },
      "geometry": {
        "type": "LineString",
        "coordinates": [
          [
            37.3203678,
            55.8699712
          ],
          [
            37.3201614,
            55.8699029
          ],
          [
            37.3192905,
            55.8696027
          ],
          [
            37.3189979,
            55.8695007
          ]
        ]
      }
    },
    {
      "type": "Feature",
      "properties": {
        "osm_kind": "road",
        "name": "",
        "source": "OpenStreetMap",
        "download_window_id": "moscow_mitino_+3_-3_963cde70",
        "download_city": "Москва Митино",
        "osm_tags": {
          "highway": "tertiary"
        },
        "osm_id": 1043711557,
        "osm_type": "way"
      },
      "geometry": {
        "type": "LineString",
        "coordinates": [
          [
            37.3210477,
            55.8701938
          ],
          [
            37.320575,
            55.870039
          ],
          [
            37.3203678,
            55.8699712
          ]
        ]
      }
    },
    {
      "type": "Feature",
      "properties": {
        "osm_kind": "road",
        "name": "Пятницкая улица",
        "source": "OpenStreetMap",
        "download_window_id": "moscow_mitino_+3_-3_963cde70",
        "download_city": "Москва Митино",
        "osm_tags": {
          "highway": "residential",
          "name": "Пятницкая улица"
        },
        "osm_id": 1043711558,
        "osm_type": "way"
      },
      "geometry": {
        "type": "LineString",
        "coordinates": [
          [
            37.3203678,
            55.8699712
          ],
          [
            37.3202555,
            55.8700818
          ],
          [
            37.3200544,
            55.8702713
          ]
        ]
      }
    },
    {
      "type": "Feature",
      "properties": {
        "osm_kind": "road",
        "name": "",
        "source": "OpenStreetMap",
        "download_window_id": "moscow_mitino_+3_-3_963cde70",
        "download_city": "Москва Митино",
        "osm_tags": {
          "highway": "tertiary"
        },
        "osm_id": 1043779503,
        "osm_type": "way"
      },
      "geometry": {
        "type": "LineString",
        "coordinates": [
          [
            37.3189979,
            55.8695007
          ],
          [
            37.3162926,
            55.868599
          ],
          [
            37.3154728,
            55.8683258
          ],
          [
            37.313741,
            55.8677871
          ],
          [
            37.3127515,
            55.8674865
          ]
        ]
      }
    },
    {
      "type": "Feature",
      "properties": {
        "osm_kind": "road",
        "name": "",
        "source": "OpenStreetMap",
        "download_window_id": "moscow_mitino_+3_-3_963cde70",
        "download_city": "Москва Митино",
        "osm_tags": {
          "highway": "footway"
        },
        "osm_id": 1188485917,
        "osm_type": "way"
      },
      "geometry": {
        "type": "LineString",
        "coordinates": [
          [
            37.3206271,
            55.8699904
          ],
          [
            37.320853,
            55.8700651
          ],
          [
            37.3211937,
            55.8701471
          ],
          [
            37.321545,
            55.8702652
          ],
          [
            37.3215866,
            55.870272
          ],
          [
            37.3216376,
            55.8702705
          ],
          [
            37.3216993,
            55.8702615
          ],
          [
            37.3217569,
            55.8702457
          ],
          [
            37.3217931,
            55.8702253
          ],
          [
            37.3218803,
            55.8701396
          ]
        ]
      }
    },
    {
      "type": "Feature",
      "properties": {
        "osm_kind": "road",
        "name": "",
        "source": "OpenStreetMap",
        "download_window_id": "moscow_mitino_+3_-3_963cde70",
        "download_city": "Москва Митино",
        "osm_tags": {
          "highway": "service"
        },
        "osm_id": 1382251899,
        "osm_type": "way"
      },
      "geometry": {
        "type": "LineString",
        "coordinates": [
          [
            37.3194556,
            55.8694402
          ],
          [
            37.3187019,
            55.8691854
          ]
        ]
      }
    },
    {
      "type": "Feature",
      "properties": {
        "osm_kind": "water",
        "name": "",
        "source": "OpenStreetMap",
        "download_window_id": "moscow_mitino_+3_-3_963cde70",
        "download_city": "Москва Митино",
        "osm_tags": {
          "waterway": "ditch"
        },
        "osm_id": 1382251903,
        "osm_type": "way"
      },
      "geometry": {
        "type": "LineString",
        "coordinates": [
          [
            37.3190278,
            55.8686233
          ],
          [
            37.3188615,
            55.8678408
          ],
          [
            37.3188829,
            55.8677685
          ],
          [
            37.3199719,
            55.8666969
          ],
          [
            37.3216402,
            55.8650805
          ],
          [
            37.3218387,
            55.8649781
          ],
          [
            37.3229063,
            55.8648818
          ]
        ]
      }
    },
    {
      "type": "Feature",
      "properties": {
        "osm_kind": "building",
        "name": "",
        "source": "OpenStreetMap",
        "download_window_id": "moscow_mitino_+3_-3_963cde70",
        "download_city": "Москва Митино",
        "osm_tags": {
          "building": "yes"
        },
        "osm_id": 1382251908,
        "osm_type": "way"
      },
      "geometry": {
        "type": "Polygon",
        "coordinates": [
          [
            [
              37.321592,
              55.869582
            ],
            [
              37.3214805,
              55.869688
            ],
            [
              37.3216126,
              55.8697317
            ],
            [
              37.3215687,
              55.8697734
            ],
            [
              37.3217475,
              55.8698325
            ],
            [
              37.3217913,
              55.8697908
            ],
            [
              37.3218534,
              55.8698114
            ],
            [
              37.3219648,
              55.8697054
            ],
            [
              37.321592,
              55.869582
            ]
          ]
        ]
      }
    },
    {
      "type": "Feature",
      "properties": {
        "osm_kind": "road",
        "name": "",
        "source": "OpenStreetMap",
        "download_window_id": "moscow_mitino_+3_-3_963cde70",
        "download_city": "Москва Митино",
        "osm_tags": {
          "highway": "tertiary"
        },
        "osm_id": 1539982167,
        "osm_type": "way"
      },
      "geometry": {
        "type": "LineString",
        "coordinates": [
          [
            37.3267521,
            55.8721173
          ],
          [
            37.326597,
            55.8720646
          ],
          [
            37.3216918,
            55.8703989
          ],
          [
            37.3210477,
            55.8701938
          ]
        ]
      }
    }
  ]
}