<?xml version="1.0" encoding="UTF-8"?>
<osm version="0.6" generator="openstreetmap-cgimap 2.1.0 (862525 spike-07.openstreetmap.org)" copyright="OpenStreetMap and contributors" attribution="http://www.openstreetmap.org/copyright" license="http://opendatacommons.org/licenses/odbl/1-0/">
 <bounds minlat="55.7659238" minlon="48.7416047" maxlat="55.7686188" maxlon="48.7463953"/>
 <node id="695151212" visible="true" version="7" changeset="122751278" timestamp="2022-06-23T10:06:45Z" user="toorboalex" uid="463102" lat="55.7610622" lon="48.7511605"/>
 <node id="695151213" visible="true" version="7" changeset="122751278" timestamp="2022-06-23T10:06:45Z" user="toorboalex" uid="463102" lat="55.7621639" lon="48.7502754"/>
 <node id="695151215" visible="true" version="9" changeset="122751278" timestamp="2022-06-23T10:06:45Z" user="toorboalex" uid="463102" lat="55.7644395" lon="48.7480599"/>
 <node id="695151216" visible="true" version="8" changeset="122751278" timestamp="2022-06-23T10:06:45Z" user="toorboalex" uid="463102" lat="55.7647353" lon="48.7477219"/>
 <node id="695151218" visible="true" version="7" changeset="122751278" timestamp="2022-06-23T10:06:45Z" user="toorboalex" uid="463102" lat="55.7669051" lon="48.7449968"/>
 <node id="695151220" visible="true" version="4" changeset="111944385" timestamp="2021-10-01T05:14:35Z" user="misha yakin" uid="384109" lat="55.7686397" lon="48.7412565"/>
 <node id="695151221" visible="true" version="4" changeset="111944385" timestamp="2021-10-01T05:14:35Z" user="misha yakin" uid="384109" lat="55.7694890" lon="48.7389411"/>
 <node id="695151222" visible="true" version="4" changeset="111944385" timestamp="2021-10-01T05:14:35Z" user="misha yakin" uid="384109" lat="55.7705361" lon="48.7357643"/>
 <node id="695151223" visible="true" version="4" changeset="111944385" timestamp="2021-10-01T05:14:35Z" user="misha yakin" uid="384109" lat="55.7707120" lon="48.7311287"/>
 <node id="695151226" visible="true" version="2" changeset="9649263" timestamp="2011-10-25T05:24:55Z" user="shafr" uid="261620" lat="55.7706774" lon="48.7304943"/>
 <node id="730545839" visible="true" version="3" changeset="9649263" timestamp="2011-10-25T05:24:55Z" user="shafr" uid="261620" lat="55.7706286" lon="48.7280178"/>
 <node id="730545840" visible="true" version="3" changeset="9649263" timestamp="2011-10-25T05:24:55Z" user="shafr" uid="261620" lat="55.7705083" lon="48.7248214"/>
 <node id="730545841" visible="true" version="4" changeset="111944385" timestamp="2021-10-01T05:14:36Z" user="misha yakin" uid="384109" lat="55.7704337" lon="48.7200445"/>
 <node id="730545843" visible="true" version="4" changeset="134503756" timestamp="2023-04-04T16:24:32Z" user="CometSeeker" uid="231327" lat="55.7701551" lon="48.7167021"/>
 <node id="730549577" visible="true" version="7" changeset="14159116" timestamp="2012-12-05T01:27:34Z" user="misha yakin" uid="384109" lat="55.7663483" lon="48.6982099"/>
 <node id="1006677953" visible="true" version="7" changeset="122751278" timestamp="2022-06-23T10:06:45Z" user="toorboalex" uid="463102" lat="55.7651246" lon="48.7472820"/>
 <node id="1006682175" visible="true" version="2" changeset="63773864" timestamp="2018-10-22T21:40:12Z" user="Dmitry Samoylenko" uid="8989365" lat="55.7505117" lon="48.7388728"/>
 <node id="1006682177" visible="true" version="2" changeset="63773864" timestamp="2018-10-22T21:40:12Z" user="Dmitry Samoylenko" uid="8989365" lat="55.7505718" lon="48.7389480"/>
 <node id="1006682179" visible="true" version="2" changeset="63773864" timestamp="2018-10-22T21:40:12Z" user="Dmitry Samoylenko" uid="8989365" lat="55.7506589" lon="48.7389428"/>
 <node id="1006682183" visible="true" version="2" changeset="63773864" timestamp="2018-10-22T21:40:12Z" user="Dmitry Samoylenko" uid="8989365" lat="55.7507363" lon="48.7390034"/>
 <node id="1006682186" visible="true" version="1" changeset="6467303" timestamp="2010-11-27T07:42:06Z" user="shafr" uid="261620" lat="55.7508351" lon="48.7390046"/>
 <node id="1006682189" visible="true" version="2" changeset="51400212" timestamp="2017-08-24T09:16:00Z" user="NeoChapay" uid="96925" lat="55.7506903" lon="48.7395427"/>
 <node id="1006682192" visible="true" version="2" changeset="51400212" timestamp="2017-08-24T09:16:00Z" user="NeoChapay" uid="96925" lat="55.7508655" lon="48.7398674"/>
 <node id="1006682195" visible="true" version="1" changeset="6467303" timestamp="2010-11-27T07:42:06Z" user="shafr" uid="261620" lat="55.7509679" lon="48.7397985"/>
 <node id="1006682199" visible="true" version="2" changeset="63773864" timestamp="2018-10-22T21:40:12Z" user="Dmitry Samoylenko" uid="8989365" lat="55.7510639" lon="48.7402666"/>
 <node id="1006682202" visible="true" version="1" changeset="6467303" timestamp="2010-11-27T07:42:06Z" user="shafr" uid="261620" lat="55.7512336" lon="48.7405710"/>
 <node id="1006682203" visible="true" version="1" changeset="6467303" timestamp="2010-11-27T07:42:06Z" user="shafr" uid="261620" lat="55.7515234" lon="48.7407856"/>
 <node id="1006682205" visible="true" version="2" changeset="63773864" timestamp="2018-10-22T21:40:12Z" user="Dmitry Samoylenko" uid="8989365" lat="55.7516846" lon="48.7400909"/>
 <node id="1006682207" visible="true" version="2" changeset="63773864" timestamp="2018-10-22T21:40:12Z" user="Dmitry Samoylenko" uid="8989365" lat="55.7519895" lon="48.7398115"/>
 <node id="1006682209" visible="true" version="2" changeset="63773864" timestamp="2018-10-22T21:40:12Z" user="Dmitry Samoylenko" uid="8989365" lat="55.7520655" lon="48.7394157"/>
 <node id="1006682212" visible="true" version="2" changeset="63773864" timestamp="2018-10-22T21:40:12Z" user="Dmitry Samoylenko" uid="8989365" lat="55.7517342" lon="48.7393520"/>
 <node id="1006682215" visible="true" version="1" changeset="6467303" timestamp="2010-11-27T07:42:06Z" user="shafr" uid="261620" lat="55.7517891" lon="48.7387256"/>
 <node id="1006682217" visible="true" version="1" changeset="6467303" timestamp="2010-11-27T07:42:06Z" user="shafr" uid="261620" lat="55.7524412" lon="48.7378244"/>
 <node id="1006682220" visible="true" version="1" changeset="6467303" timestamp="2010-11-27T07:42:07Z" user="shafr" uid="261620" lat="55.7525136" lon="48.7373738"/>
 <node id="1006682223" visible="true" version="3" changeset="115182160" timestamp="2021-12-20T21:25:45Z" user="acsd" uid="345493" lat="55.7530509" lon="48.7368536"/>
 <node id="1006682225" visible="true" version="3" changeset="115182160" timestamp="2021-12-20T21:25:45Z" user="acsd" uid="345493" lat="55.7531506" lon="48.7365532"/>
 <node id="1006682236" visible="true" version="3" changeset="115182160" timestamp="2021-12-20T21:25:45Z" user="acsd" uid="345493" lat="55.7533317" lon="48.7363762"/>
 <node id="1006682239" visible="true" version="3" changeset="115182160" timestamp="2021-12-20T21:25:45Z" user="acsd" uid="345493" lat="55.7534856" lon="48.7363332"/>
 <node id="1006682241" visible="true" version="3" changeset="115182160" timestamp="2021-12-20T21:25:46Z" user="acsd" uid="345493" lat="55.7536094" lon="48.7364083"/>
 <node id="1006682244" visible="true" version="3" changeset="115182160" timestamp="2021-12-20T21:25:46Z" user="acsd" uid="345493" lat="55.7537272" lon="48.7360758"/>
 <node id="1006682250" visible="true" version="3" changeset="115182160" timestamp="2021-12-20T21:25:46Z" user="acsd" uid="345493" lat="55.7538751" lon="48.7357056"/>
 <node id="1006682252" visible="true" version="3" changeset="115182160" timestamp="2021-12-20T21:25:46Z" user="acsd" uid="345493" lat="55.7546539" lon="48.7346756"/>
 <node id="1006682254" visible="true" version="2" changeset="63773864" timestamp="2018-10-22T21:40:12Z" user="Dmitry Samoylenko" uid="8989365" lat="55.7552515" lon="48.7342489"/>
 <node id="1006682257" visible="true" version="1" changeset="6467303" timestamp="2010-11-27T07:42:07Z" user="shafr" uid="261620" lat="55.7558102" lon="48.7334685"/>
 <node id="1006682259" visible="true" version="1" changeset="6467303" timestamp="2010-11-27T07:42:07Z" user="shafr" uid="261620" lat="55.7570418" lon="48.7311082"/>
 <node id="1006682261" visible="true" version="1" changeset="6467303" timestamp="2010-11-27T07:42:07Z" user="shafr" uid="261620" lat="55.7571987" lon="48.7301426"/>
 <node id="1006682264" visible="true" version="1" changeset="6467303" timestamp="2010-11-27T07:42:07Z" user="shafr" uid="261620" lat="55.7571021" lon="48.7299494"/>
 <node id="1006682267" visible="true" version="1" changeset="6467303" timestamp="2010-11-27T07:42:07Z" user="shafr" uid="261620" lat="55.7564381" lon="48.7308721"/>
 <node id="1006682271" visible="true" version="1" changeset="6467303" timestamp="2010-11-27T07:42:08Z" user="shafr" uid="261620" lat="55.7553996" lon="48.7320308"/>
 <node id="1006682274" visible="true" version="1" changeset="6467303" timestamp="2010-11-27T07:42:08Z" user="shafr" uid="261620" lat="55.7545423" lon="48.7332754"/>
 <node id="1006682279" visible="true" version="1" changeset="6467303" timestamp="2010-11-27T07:42:08Z" user="shafr" uid="261620" lat="55.7537333" lon="48.7337475"/>
 <node id="1006682282" visible="true" version="1" changeset="6467303" timestamp="2010-11-27T07:42:08Z" user="shafr" uid="261620" lat="55.7495791" lon="48.7337260"/>
 <node id="1006682284" visible="true" version="2" changeset="140389156" timestamp="2023-08-25T21:14:19Z" user="dpolovinkin" uid="6710042" lat="55.7474772" lon="48.7342684"/>
 <node id="1006682306" visible="true" version="2" changeset="140389156" timestamp="2023-08-25T21:14:19Z" user="dpolovinkin" uid="6710042" lat="55.7475532" lon="48.7356371"/>
 <node id="1006682308" visible="true" version="2" changeset="140389156" timestamp="2023-08-25T21:14:19Z" user="dpolovinkin" uid="6710042" lat="55.7477992" lon="48.7365837"/>
 <node id="1006682310" visible="true" version="1" changeset="6467303" timestamp="2010-11-27T07:42:08Z" user="shafr" uid="261620" lat="55.7482869" lon="48.7360434"/>
 <node id="1006682312" visible="true" version="1" changeset="6467303" timestamp="2010-11-27T07:42:09Z" user="shafr" uid="261620" lat="55.7481420" lon="48.7373953"/>
 <node id="1006682314" visible="true" version="1" changeset="6467303" timestamp="2010-11-27T07:42:09Z" user="shafr" uid="261620" lat="55.7483111" lon="48.7373953"/>
 <node id="1006682317" visible="true" version="1" changeset="6467303" timestamp="2010-11-27T07:42:09Z" user="shafr" uid="261620" lat="55.7485768" lon="48.7368374"/>
 <node id="1006682320" visible="true" version="1" changeset="6467303" timestamp="2010-11-27T07:42:09Z" user="shafr" uid="261620" lat="55.7492531" lon="48.7370948"/>
 <node id="1006682322" visible="true" version="1" changeset="6467303" timestamp="2010-11-27T07:42:09Z" user="shafr" uid="261620" lat="55.7493859" lon="48.7373309"/>
 <node id="1006682325" visible="true" version="1" changeset="6467303" timestamp="2010-11-27T07:42:09Z" user="shafr" uid="261620" lat="55.7489270" lon="48.7376527"/>
 <node id="1006682328" visible="true" version="1" changeset="6467303" timestamp="2010-11-27T07:42:09Z" user="shafr" uid="261620" lat="55.7488545" lon="48.7379317"/>
 <node id="1006682331" visible="true" version="1" changeset="6467303" timestamp="2010-11-27T07:42:09Z" user="shafr" uid="261620" lat="55.7495067" lon="48.7383394"/>
 <node id="1006682333" visible="true" version="2" changeset="63773864" timestamp="2018-10-22T21:40:12Z" user="Dmitry Samoylenko" uid="8989365" lat="55.7498708" lon="48.7386933"/>
 <node id="1006682335" visible="true" version="2" changeset="63773864" timestamp="2018-10-22T21:40:12Z" user="Dmitry Samoylenko" uid="8989365" lat="55.7502620" lon="48.7388371"/>
 <node id="1006697547" visible="true" version="1" changeset="6467303" timestamp="2010-11-27T07:52:10Z" user="shafr" uid="261620" lat="55.7645754" lon="48.7297349"/>
 <node id="1006697551" visible="true" version="1" changeset="6467303" timestamp="2010-11-27T07:52:10Z" user="shafr" uid="261620" lat="55.7650945" lon="48.7310009"/>
 <node id="1006697554" visible="true" version="1" changeset="6467303" timestamp="2010-11-27T07:52:10Z" user="shafr" uid="261620" lat="55.7653963" lon="48.7323527"/>
 <node id="1006697558" visible="true" version="1" changeset="6467303" timestamp="2010-11-27T07:52:10Z" user="shafr" uid="261620" lat="55.7664707" lon="48.7335758"/>
 <node id="1006697561" visible="true" version="1" changeset="6467303" timestamp="2010-11-27T07:52:10Z" user="shafr" uid="261620" lat="55.7679071" lon="48.7336616"/>
 <node id="1006697565" visible="true" version="2" changeset="111944385" timestamp="2021-10-01T05:14:36Z" user="misha yakin" uid="384109" lat="55.7683839" lon="48.7337367"/>
 <node id="1006697568" visible="true" version="2" changeset="111944385" timestamp="2021-10-01T05:14:36Z" user="misha yakin" uid="384109" lat="55.7688789" lon="48.7346594"/>
 <node id="1006697570" visible="true" version="1" changeset="6467303" timestamp="2010-11-27T07:52:10Z" user="shafr" uid="261620" lat="55.7695125" lon="48.7354426"/>
 <node id="1006697572" visible="true" version="1" changeset="6467303" timestamp="2010-11-27T07:52:10Z" user="shafr" uid="261620" lat="55.7695970" lon="48.7362365"/>
 <node id="1006697574" visible="true" version="2" changeset="111944385" timestamp="2021-10-01T05:14:36Z" user="misha yakin" uid="384109" lat="55.7694703" lon="48.7369018"/>
 <node id="1006697585" visible="true" version="2" changeset="111944385" timestamp="2021-10-01T05:14:36Z" user="misha yakin" uid="384109" lat="55.7686254" lon="48.7369768"/>
 <node id="1006697588" visible="true" version="1" changeset="6467303" timestamp="2010-11-27T07:52:11Z" user="shafr" uid="261620" lat="55.7678830" lon="48.7360434"/>
 <node id="1006697593" visible="true" version="1" changeset="6467303" timestamp="2010-11-27T07:52:11Z" user="shafr" uid="261620" lat="55.7667000" lon="48.7357859"/>
 <node id="1006697597" visible="true" version="1" changeset="6467303" timestamp="2010-11-27T07:52:11Z" user="shafr" uid="261620" lat="55.7662534" lon="48.7360863"/>
 <node id="1006697599" visible="true" version="1" changeset="6467303" timestamp="2010-11-27T07:52:11Z" user="shafr" uid="261620" lat="55.7662172" lon="48.7363867"/>
 <node id="1006697601" visible="true" version="1" changeset="6467303" timestamp="2010-11-27T07:52:11Z" user="shafr" uid="261620" lat="55.7663741" lon="48.7366872"/>
 <node id="1006697602" visible="true" version="1" changeset="6467303" timestamp="2010-11-27T07:52:11Z" user="shafr" uid="261620" lat="55.7664103" lon="48.7370734"/>
 <node id="1006697603" visible="true" version="1" changeset="6467303" timestamp="2010-11-27T07:52:11Z" user="shafr" uid="261620" lat="55.7665310" lon="48.7371807"/>
 <node id="1006697605" visible="true" version="1" changeset="6467303" timestamp="2010-11-27T07:52:11Z" user="shafr" uid="261620" lat="55.7665310" lon="48.7378244"/>
 <node id="1006697608" visible="true" version="1" changeset="6467303" timestamp="2010-11-27T07:52:11Z" user="shafr" uid="261620" lat="55.7660723" lon="48.7375884"/>
 <node id="1006697611" visible="true" version="1" changeset="6467303" timestamp="2010-11-27T07:52:11Z" user="shafr" uid="261620" lat="55.7658309" lon="48.7376313"/>
 <node id="1006697614" visible="true" version="1" changeset="6467303" timestamp="2010-11-27T07:52:11Z" user="shafr" uid="261620" lat="55.7656739" lon="48.7384038"/>
 <node id="1006697617" visible="true" version="1" changeset="6467303" timestamp="2010-11-27T07:52:11Z" user="shafr" uid="261620" lat="55.7657102" lon="48.7394123"/>
 <node id="1006697621" visible="true" version="1" changeset="6467303" timestamp="2010-11-27T07:52:11Z" user="shafr" uid="261620" lat="55.7659757" lon="48.7403135"/>
 <node id="1006697625" visible="true" version="1" changeset="6467303" timestamp="2010-11-27T07:52:11Z" user="shafr" uid="261620" lat="55.7671346" lon="48.7408285"/>
 <node id="1006697627" visible="true" version="2" changeset="101688258" timestamp="2021-03-25T05:26:00Z" user="misha yakin" uid="384109" lat="55.7673126" lon="48.7411450"/>
 <node id="1006697628" visible="true" version="2" changeset="101688258" timestamp="2021-03-25T05:26:00Z" user="misha yakin" uid="384109" lat="55.7673760" lon="48.7420033"/>
 <node id="1006697629" visible="true" version="1" changeset="6467303" timestamp="2010-11-27T07:52:12Z" user="shafr" uid="261620" lat="55.7674846" lon="48.7421589"/>
 <node id="1006697630" visible="true" version="2" changeset="101688258" timestamp="2021-03-25T05:26:00Z" user="misha yakin" uid="384109" lat="55.7676717" lon="48.7429742"/>
 <node id="1006697633" visible="true" version="2" changeset="101688258" timestamp="2021-03-25T05:26:00Z" user="misha yakin" uid="384109" lat="55.7672191" lon="48.7437360"/>
 <node id="1006697641" visible="true" version="2" changeset="101688258" timestamp="2021-03-25T05:26:00Z" user="misha yakin" uid="384109" lat="55.7668238" lon="48.7422232"/>
 <node id="1006697642" visible="true" version="2" changeset="101688258" timestamp="2021-03-25T05:26:00Z" user="misha yakin" uid="384109" lat="55.7665582" lon="48.7422179"/>
 <node id="1006697643" visible="true" version="2" changeset="101688258" timestamp="2021-03-25T05:26:00Z" user="misha yakin" uid="384109" lat="55.7662564" lon="48.7430547"/>
 <node id="1006697644" visible="true" version="1" changeset="6467303" timestamp="2010-11-27T07:52:12Z" user="shafr" uid="261620" lat="55.7661085" lon="48.7429528"/>
 <node id="1006697645" visible="true" version="2" changeset="101688258" timestamp="2021-03-25T05:26:00Z" user="misha yakin" uid="384109" lat="55.7661206" lon="48.7425022"/>
 <node id="1006697647" visible="true" version="2" changeset="101688258" timestamp="2021-03-25T05:26:00Z" user="misha yakin" uid="384109" lat="55.7659455" lon="48.7424754"/>
 <node id="1006697649" visible="true" version="2" changeset="101688258" timestamp="2021-03-25T05:26:00Z" user="misha yakin" uid="384109" lat="55.7654959" lon="48.7431084"/>
 <node id="1006697652" visible="true" version="2" changeset="101688258" timestamp="2021-03-25T05:26:00Z" user="misha yakin" uid="384109" lat="55.7653511" lon="48.7437467"/>
 <node id="1006697654" visible="true" version="2" changeset="101688258" timestamp="2021-03-25T05:26:00Z" user="misha yakin" uid="384109" lat="55.7644185" lon="48.7438916"/>
 <node id="1006697656" visible="true" version="2" changeset="101688258" timestamp="2021-03-25T05:26:00Z" user="misha yakin" uid="384109" lat="55.7644064" lon="48.7453292"/>
 <node id="1006697658" visible="true" version="2" changeset="101688258" timestamp="2021-03-25T05:26:00Z" user="misha yakin" uid="384109" lat="55.7641710" lon="48.7452809"/>
 <node id="1006697660" visible="true" version="2" changeset="101688258" timestamp="2021-03-25T05:26:00Z" user="misha yakin" uid="384109" lat="55.7636428" lon="48.7451522"/>
 <node id="1006697661" visible="true" version="2" changeset="101688258" timestamp="2021-03-25T05:26:00Z" user="misha yakin" uid="384109" lat="55.7629577" lon="48.7443529"/>
 <node id="1006697662" visible="true" version="2" changeset="101688258" timestamp="2021-03-25T05:26:00Z" user="misha yakin" uid="384109" lat="55.7629184" lon="48.7439291"/>
 <node id="1006697663" visible="true" version="1" changeset="6467303" timestamp="2010-11-27T07:52:13Z" user="shafr" uid="261620" lat="55.7635855" lon="48.7430815"/>
 <node id="1006697665" visible="true" version="1" changeset="6467303" timestamp="2010-11-27T07:52:13Z" user="shafr" uid="261620" lat="55.7635251" lon="48.7429099"/>
 <node id="1006697668" visible="true" version="1" changeset="6467303" timestamp="2010-11-27T07:52:13Z" user="shafr" uid="261620" lat="55.7641046" lon="48.7425022"/>
 <node id="1006697670" visible="true" version="1" changeset="6467303" timestamp="2010-11-27T07:52:13Z" user="shafr" uid="261620" lat="55.7646358" lon="48.7405495"/>
 <node id="1006697673" visible="true" version="2" changeset="101688258" timestamp="2021-03-25T05:26:00Z" user="misha yakin" uid="384109" lat="55.7645874" lon="48.7390582"/>
 <node id="1006697676" visible="true" version="2" changeset="101688258" timestamp="2021-03-25T05:26:00Z" user="misha yakin" uid="384109" lat="55.7638028" lon="48.7389831"/>
 <node id="1006697678" visible="true" version="2" changeset="101688258" timestamp="2021-03-25T05:26:00Z" user="misha yakin" uid="384109" lat="55.7631811" lon="48.7392299"/>
 <node id="1006697680" visible="true" version="2" changeset="101688258" timestamp="2021-03-25T05:26:00Z" user="misha yakin" uid="384109" lat="55.7626378" lon="48.7398843"/>
 <node id="1006697683" visible="true" version="2" changeset="101688258" timestamp="2021-03-25T05:26:00Z" user="misha yakin" uid="384109" lat="55.7623662" lon="48.7408499"/>
 <node id="1006697685" visible="true" version="2" changeset="101688258" timestamp="2021-03-25T05:26:00Z" user="misha yakin" uid="384109" lat="55.7617988" lon="48.7405817"/>
 <node id="1006697688" visible="true" version="2" changeset="101688258" timestamp="2021-03-25T05:26:00Z" user="misha yakin" uid="384109" lat="55.7618893" lon="48.7401955"/>
 <node id="1006697689" visible="true" version="2" changeset="101688258" timestamp="2021-03-25T05:26:00Z" user="misha yakin" uid="384109" lat="55.7615754" lon="48.7398844"/>
 <node id="1006697690" visible="true" version="1" changeset="6467303" timestamp="2010-11-27T07:52:14Z" user="shafr" uid="261620" lat="55.7605673" lon="48.7400775"/>
 <node id="1006697691" visible="true" version="1" changeset="6467303" timestamp="2010-11-27T07:52:14Z" user="shafr" uid="261620" lat="55.7600844" lon="48.7407212"/>
 <node id="1006697692" visible="true" version="1" changeset="6467303" timestamp="2010-11-27T07:52:14Z" user="shafr" uid="261620" lat="55.7596497" lon="48.7422232"/>
 <node id="1006697694" visible="true" version="1" changeset="6467303" timestamp="2010-11-27T07:52:14Z" user="shafr" uid="261620" lat="55.7594807" lon="48.7423091"/>
 <node id="1006697697" visible="true" version="1" changeset="6467303" timestamp="2010-11-27T07:52:14Z" user="shafr" uid="261620" lat="55.7588529" lon="48.7401418"/>
 <node id="1006697699" visible="true" version="1" changeset="6467303" timestamp="2010-11-27T07:52:14Z" user="shafr" uid="261620" lat="55.7588770" lon="48.7394337"/>
 <node id="1006697701" visible="true" version="1" changeset="6467303" timestamp="2010-11-27T07:52:14Z" user="shafr" uid="261620" lat="55.7593600" lon="48.7395839"/>
 <node id="1006697703" visible="true" version="1" changeset="6467303" timestamp="2010-11-27T07:52:14Z" user="shafr" uid="261620" lat="55.7612072" lon="48.7386613"/>
 <node id="1006697705" visible="true" version="1" changeset="6467303" timestamp="2010-11-27T07:52:14Z" user="shafr" uid="261620" lat="55.7613641" lon="48.7378673"/>
 <node id="1006697707" visible="true" version="1" changeset="6467303" timestamp="2010-11-27T07:52:14Z" user="shafr" uid="261620" lat="55.7616780" lon="48.7373953"/>
 <node id="1006697708" visible="true" version="1" changeset="6467303" timestamp="2010-11-27T07:52:14Z" user="shafr" uid="261620" lat="55.7626197" lon="48.7371163"/>
 <node id="1006697709" visible="true" version="1" changeset="6467303" timestamp="2010-11-27T07:52:14Z" user="shafr" uid="261620" lat="55.7628491" lon="48.7365369"/>
 <node id="1006697710" visible="true" version="1" changeset="6467303" timestamp="2010-11-27T07:52:14Z" user="shafr" uid="261620" lat="55.7631509" lon="48.7364511"/>
 <node id="1006697716" visible="true" version="1" changeset="6467303" timestamp="2010-11-27T07:52:14Z" user="shafr" uid="261620" lat="55.7631388" lon="48.7362151"/>
 <node id="1006697718" visible="true" version="1" changeset="6467303" timestamp="2010-11-27T07:52:14Z" user="shafr" uid="261620" lat="55.7627766" lon="48.7360863"/>
 <node id="1006697720" visible="true" version="1" changeset="6467303" timestamp="2010-11-27T07:52:14Z" user="shafr" uid="261620" lat="55.7628853" lon="48.7350564"/>
 <node id="1006697722" visible="true" version="1" changeset="6467303" timestamp="2010-11-27T07:52:15Z" user="shafr" uid="261620" lat="55.7627766" lon="48.7347774"/>
 <node id="1006697723" visible="true" version="1" changeset="6467303" timestamp="2010-11-27T07:52:15Z" user="shafr" uid="261620" lat="55.7628612" lon="48.7346272"/>
 <node id="1006697724" visible="true" version="1" changeset="6467303" timestamp="2010-11-27T07:52:15Z" user="shafr" uid="261620" lat="55.7628732" lon="48.7342624"/>
 <node id="1006697725" visible="true" version="1" changeset="6467303" timestamp="2010-11-27T07:52:15Z" user="shafr" uid="261620" lat="55.7627887" lon="48.7341551"/>
 <node id="1006697726" visible="true" version="1" changeset="6467303" timestamp="2010-11-27T07:52:15Z" user="shafr" uid="261620" lat="55.7627163" lon="48.7324171"/>
 <node id="1006697728" visible="true" version="1" changeset="6467303" timestamp="2010-11-27T07:52:15Z" user="shafr" uid="261620" lat="55.7624748" lon="48.7315373"/>
 <node id="1006697730" visible="true" version="1" changeset="6467303" timestamp="2010-11-27T07:52:15Z" user="shafr" uid="261620" lat="55.7624748" lon="48.7309580"/>
 <node id="1006697732" visible="true" version="1" changeset="6467303" timestamp="2010-11-27T07:52:15Z" user="shafr" uid="261620" lat="55.7620281" lon="48.7295847"/>
 <node id="1006697734" visible="true" version="1" changeset="6467303" timestamp="2010-11-27T07:52:15Z" user="shafr" uid="261620" lat="55.7619195" lon="48.7296920"/>
 <node id="1006697736" visible="true" version="1" changeset="6467303" timestamp="2010-11-27T07:52:15Z" user="shafr" uid="261620" lat="55.7620161" lon="48.7302928"/>
 <node id="1006697738" visible="true" version="1" changeset="6467303" timestamp="2010-11-27T07:52:15Z" user="shafr" uid="261620" lat="55.7619074" lon="48.7308936"/>
 <node id="1006697740" visible="true" version="1" changeset="6467303" timestamp="2010-11-27T07:52:15Z" user="shafr" uid="261620" lat="55.7616780" lon="48.7311725"/>
 <node id="1006697741" visible="true" version="1" changeset="6467303" timestamp="2010-11-27T07:52:15Z" user="shafr" uid="261620" lat="55.7612675" lon="48.7305288"/>
 <node id="1006697742" visible="true" version="1" changeset="6467303" timestamp="2010-11-27T07:52:15Z" user="shafr" uid="261620" lat="55.7609536" lon="48.7301640"/>
 <node id="1006697743" visible="true" version="1" changeset="6467303" timestamp="2010-11-27T07:52:15Z" user="shafr" uid="261620" lat="55.7606518" lon="48.7302499"/>
 <node id="1006697744" visible="true" version="1" changeset="6467303" timestamp="2010-11-27T07:52:15Z" user="shafr" uid="261620" lat="55.7606639" lon="48.7310223"/>
 <node id="1006697746" visible="true" version="1" changeset="6467303" timestamp="2010-11-27T07:52:15Z" user="shafr" uid="261620" lat="55.7605673" lon="48.7310438"/>
 <node id="1006697754" visible="true" version="1" changeset="6467303" timestamp="2010-11-27T07:52:15Z" user="shafr" uid="261620" lat="55.7604224" lon="48.7304001"/>
 <node id="1006697755" visible="true" version="1" changeset="6467303" timestamp="2010-11-27T07:52:16Z" user="shafr" uid="261620" lat="55.7606639" lon="48.7293915"/>
 <node id="1006697756" visible="true" version="1" changeset="6467303" timestamp="2010-11-27T07:52:16Z" user="shafr" uid="261620" lat="55.7608329" lon="48.7291341"/>
 <node id="1006697757" visible="true" version="1" changeset="6467303" timestamp="2010-11-27T07:52:16Z" user="shafr" uid="261620" lat="55.7612193" lon="48.7275891"/>
 <node id="1006697759" visible="true" version="1" changeset="6467303" timestamp="2010-11-27T07:52:16Z" user="shafr" uid="261620" lat="55.7615573" lon="48.7269454"/>
 <node id="1006697761" visible="true" version="1" changeset="6467303" timestamp="2010-11-27T07:52:16Z" user="shafr" uid="261620" lat="55.7621851" lon="48.7266235"/>
 <node id="1006697764" visible="true" version="1" changeset="6467303" timestamp="2010-11-27T07:52:16Z" user="shafr" uid="261620" lat="55.7621972" lon="48.7260871"/>
 <node id="1006697766" visible="true" version="1" changeset="6467303" timestamp="2010-11-27T07:52:16Z" user="shafr" uid="261620" lat="55.7623420" lon="48.7261514"/>
 <node id="1006697769" visible="true" version="1" changeset="6467303" timestamp="2010-11-27T07:52:16Z" user="shafr" uid="261620" lat="55.7626680" lon="48.7266879"/>
 <node id="1006697770" visible="true" version="1" changeset="6467303" timestamp="2010-11-27T07:52:16Z" user="shafr" uid="261620" lat="55.7632475" lon="48.7261300"/>
 <node id="1006697771" visible="true" version="1" changeset="6467303" timestamp="2010-11-27T07:52:16Z" user="shafr" uid="261620" lat="55.7637304" lon="48.7263660"/>
 <node id="1006697772" visible="true" version="1" changeset="6467303" timestamp="2010-11-27T07:52:16Z" user="shafr" uid="261620" lat="55.7639235" lon="48.7261300"/>
 <node id="1006697774" visible="true" version="1" changeset="6467303" timestamp="2010-11-27T07:52:16Z" user="shafr" uid="261620" lat="55.7641167" lon="48.7256365"/>
 <node id="1006697776" visible="true" version="1" changeset="6467303" timestamp="2010-11-27T07:52:16Z" user="shafr" uid="261620" lat="55.7647565" lon="48.7257652"/>
 <node id="1006697779" visible="true" version="1" changeset="6467303" timestamp="2010-11-27T07:52:16Z" user="shafr" uid="261620" lat="55.7649859" lon="48.7257008"/>
 <node id="1006697782" visible="true" version="1" changeset="6467303" timestamp="2010-11-27T07:52:16Z" user="shafr" uid="261620" lat="55.7651186" lon="48.7255077"/>
 <node id="1006697785" visible="true" version="1" changeset="6467303" timestamp="2010-11-27T07:52:16Z" user="shafr" uid="261620" lat="55.7657222" lon="48.7254648"/>
 <node id="1006697787" visible="true" version="1" changeset="6467303" timestamp="2010-11-27T07:52:16Z" user="shafr" uid="261620" lat="55.7662292" lon="48.7257867"/>
 <node id="1006697790" visible="true" version="1" changeset="6467303" timestamp="2010-11-27T07:52:16Z" user="shafr" uid="261620" lat="55.7659637" lon="48.7263016"/>
 <node id="1006697792" visible="true" version="1" changeset="6467303" timestamp="2010-11-27T07:52:16Z" user="shafr" uid="261620" lat="55.7658912" lon="48.7267523"/>
 <node id="1006697801" visible="true" version="1" changeset="6467303" timestamp="2010-11-27T07:52:16Z" user="shafr" uid="261620" lat="55.7649255" lon="48.7274174"/>
 <node id="1006697804" visible="true" version="1" changeset="6467303" timestamp="2010-11-27T07:52:17Z" user="shafr" uid="261620" lat="55.7640322" lon="48.7275891"/>
 <node id="1006697806" visible="true" version="1" changeset="6467303" timestamp="2010-11-27T07:52:17Z" user="shafr" uid="261620" lat="55.7631147" lon="48.7279324"/>
 <node id="1006697808" visible="true" version="1" changeset="6467303" timestamp="2010-11-27T07:52:17Z" user="shafr" uid="261620" lat="55.7636700" lon="48.7282972"/>
 <node id="1006697811" visible="true" version="1" changeset="6467303" timestamp="2010-11-27T07:52:17Z" user="shafr" uid="261620" lat="55.7638752" lon="48.7288551"/>
 <node id="1006697815" visible="true" version="1" changeset="6467303" timestamp="2010-11-27T07:52:17Z" user="shafr" uid="261620" lat="55.7642736" lon="48.7290482"/>
 <node id="1006697819" visible="true" version="1" changeset="6467303" timestamp="2010-11-27T07:52:17Z" user="shafr" uid="261620" lat="55.7642615" lon="48.7284903"/>
 <node id="1006697822" visible="true" version="1" changeset="6467303" timestamp="2010-11-27T07:52:17Z" user="shafr" uid="261620" lat="55.7645150" lon="48.7282972"/>
 <node id="1006697825" visible="true" version="1" changeset="6467303" timestamp="2010-11-27T07:52:17Z" user="shafr" uid="261620" lat="55.7646841" lon="48.7284903"/>
 <node id="1006697827" visible="true" version="1" changeset="6467303" timestamp="2010-11-27T07:52:17Z" user="shafr" uid="261620" lat="55.7652394" lon="48.7283401"/>
 <node id="1006697828" visible="true" version="1" changeset="6467303" timestamp="2010-11-27T07:52:17Z" user="shafr" uid="261620" lat="55.7655049" lon="48.7284259"/>
 <node id="1006697830" visible="true" version="1" changeset="6467303" timestamp="2010-11-27T07:52:17Z" user="shafr" uid="261620" lat="55.7653239" lon="48.7289409"/>
 <node id="1006697832" visible="true" version="1" changeset="6467303" timestamp="2010-11-27T07:52:17Z" user="shafr" uid="261620" lat="55.7649859" lon="48.7295417"/>
 <node id="1118300870" visible="true" version="4" changeset="111944385" timestamp="2021-10-01T05:14:36Z" user="misha yakin" uid="384109" lat="55.7706912" lon="48.7300263"/>
 <node id="1423733193" visible="true" version="6" changeset="122751278" timestamp="2022-06-23T10:06:45Z" user="toorboalex" uid="463102" lat="55.7656890" lon="48.7465954"/>
 <node id="1423733194" visible="true" version="5" changeset="122751278" timestamp="2022-06-23T10:06:45Z" user="toorboalex" uid="463102" lat="55.7661809" lon="48.7459785"/>
 <node id="1423733240" visible="true" version="5" changeset="122751278" timestamp="2022-06-23T10:06:45Z" user="toorboalex" uid="463102" lat="55.7689962" lon="48.7436225"/>
 <node id="1470634469" visible="true" version="3" changeset="134503756" timestamp="2023-04-04T16:24:32Z" user="CometSeeker" uid="231327" lat="55.7690618" lon="48.7103598"/>
 <node id="1470634470" visible="true" version="2" changeset="9649263" timestamp="2011-10-25T05:24:56Z" user="shafr" uid="261620" lat="55.7687960" lon="48.7095481"/>
 <node id="1470634471" visible="true" version="2" changeset="9649263" timestamp="2011-10-25T05:24:55Z" user="shafr" uid="261620" lat="55.7683245" lon="48.7076271"/>
 <node id="1470634472" visible="true" version="2" changeset="9649263" timestamp="2011-10-25T05:24:55Z" user="shafr" uid="261620" lat="55.7679008" lon="48.7059057"/>
 <node id="1470634473" visible="true" version="1" changeset="9579647" timestamp="2011-10-17T08:39:14Z" user="shafr" uid="261620" lat="55.7671703" lon="48.7026654"/>
 <node id="1470634474" visible="true" version="1" changeset="9579647" timestamp="2011-10-17T08:39:14Z" user="shafr" uid="261620" lat="55.7667567" lon="48.7006151"/>
 <node id="1470634491" visible="true" version="4" changeset="134503756" timestamp="2023-04-04T16:24:32Z" user="CometSeeker" uid="231327" lat="55.7704737" lon="48.7184037"/>
 <node id="1470634492" visible="true" version="2" changeset="9649263" timestamp="2011-10-25T05:24:55Z" user="shafr" uid="261620" lat="55.7697707" lon="48.7135342"/>
 <node id="1470634493" visible="true" version="3" changeset="134503756" timestamp="2023-04-04T16:24:32Z" user="CometSeeker" uid="231327" lat="55.7692530" lon="48.7112210"/>
 <node id="1470635298" visible="true" version="3" changeset="111944385" timestamp="2021-10-01T05:14:36Z" user="misha yakin" uid="384109" lat="55.7704439" lon="48.7367790"/>
 <node id="1470635305" visible="true" version="7" changeset="122751278" timestamp="2022-06-23T10:06:45Z" user="toorboalex" uid="463102" lat="55.7632957" lon="48.7492132"/>
 <node id="1470635309" visible="true" version="3" changeset="111944385" timestamp="2021-10-01T05:14:36Z" user="misha yakin" uid="384109" lat="55.7700898" lon="48.7370466"/>
 <node id="1470635328" visible="true" version="3" changeset="111944385" timestamp="2021-10-01T05:14:36Z" user="misha yakin" uid="384109" lat="55.7705561" lon="48.7328785"/>
 <node id="1470635330" visible="true" version="3" changeset="111944385" timestamp="2021-10-01T05:14:36Z" user="misha yakin" uid="384109" lat="55.7698488" lon="48.7378685"/>
 <node id="1470635338" visible="true" version="3" changeset="111944385" timestamp="2021-10-01T05:14:36Z" user="misha yakin" uid="384109" lat="55.7704405" lon="48.7338682"/>
 <node id="1470635341" visible="true" version="5" changeset="122751278" timestamp="2022-06-23T10:06:45Z" user="toorboalex" uid="463102" lat="55.7674746" lon="48.7442315"/>
 <node id="1479953836" visible="true" version="1" changeset="9649263" timestamp="2011-10-25T05:24:54Z" user="shafr" uid="261620" lat="55.7704547" lon="48.7225834"/>
 <node id="1479953837" visible="true" version="3" changeset="134503756" timestamp="2023-04-04T16:24:32Z" user="CometSeeker" uid="231327" lat="55.7703034" lon="48.7173019"/>
 <node id="3590831246" visible="true" version="1" changeset="31933817" timestamp="2015-06-12T22:45:13Z" user="dbanisimov" uid="2963812" lat="55.7614789" lon="48.7274327"/>
 <node id="3590831249" visible="true" version="1" changeset="31933817" timestamp="2015-06-12T22:45:13Z" user="dbanisimov" uid="2963812" lat="55.7616516" lon="48.7284194"/>
 <node id="3590831252" visible="true" version="1" changeset="31933817" timestamp="2015-06-12T22:45:13Z" user="dbanisimov" uid="2963812" lat="55.7624566" lon="48.7309021"/>
 <node id="3590831253" visible="true" version="1" changeset="31933817" timestamp="2015-06-12T22:45:13Z" user="dbanisimov" uid="2963812" lat="55.7626663" lon="48.7349480"/>
 <node id="3590831254" visible="true" version="1" changeset="31933817" timestamp="2015-06-12T22:45:13Z" user="dbanisimov" uid="2963812" lat="55.7626786" lon="48.7361649"/>
 <node id="3590831255" visible="true" version="1" changeset="31933817" timestamp="2015-06-12T22:45:13Z" user="dbanisimov" uid="2963812" lat="55.7627064" lon="48.7339449"/>
 <node id="3590831256" visible="true" version="1" changeset="31933817" timestamp="2015-06-12T22:45:13Z" user="dbanisimov" uid="2963812" lat="55.7627236" lon="48.7325913"/>
 <node id="3590831257" visible="true" version="1" changeset="31933817" timestamp="2015-06-12T22:45:13Z" user="dbanisimov" uid="2963812" lat="55.7629253" lon="48.7354852"/>
 <node id="3590831258" visible="true" version="1" changeset="31933817" timestamp="2015-06-12T22:45:13Z" user="dbanisimov" uid="2963812" lat="55.7629685" lon="48.7345533"/>
 <node id="3600598688" visible="true" version="1" changeset="32030933" timestamp="2015-06-17T14:40:46Z" user="dbanisimov" uid="2963812" lat="55.7574714" lon="48.7303206"/>
 <node id="3600598689" visible="true" version="1" changeset="32030933" timestamp="2015-06-17T14:40:47Z" user="dbanisimov" uid="2963812" lat="55.7574955" lon="48.7307593"/>
 <node id="3600598690" visible="true" version="1" changeset="32030933" timestamp="2015-06-17T14:40:47Z" user="dbanisimov" uid="2963812" lat="55.7576098" lon="48.7297857"/>
 <node id="3600598692" visible="true" version="1" changeset="32030933" timestamp="2015-06-17T14:40:47Z" user="dbanisimov" uid="2963812" lat="55.7579048" lon="48.7295396"/>
 <node id="3600600093" visible="true" version="1" changeset="32030933" timestamp="2015-06-17T14:40:47Z" user="dbanisimov" uid="2963812" lat="55.7579109" lon="48.7300639"/>
 <node id="3600600096" visible="true" version="1" changeset="32030933" timestamp="2015-06-17T14:40:47Z" user="dbanisimov" uid="2963812" lat="55.7582721" lon="48.7290367"/>
 <node id="3600600097" visible="true" version="1" changeset="32030933" timestamp="2015-06-17T14:40:47Z" user="dbanisimov" uid="2963812" lat="55.7583142" lon="48.7292614"/>
 <node id="3600600100" visible="true" version="1" changeset="32030933" timestamp="2015-06-17T14:40:47Z" user="dbanisimov" uid="2963812" lat="55.7586453" lon="48.7287372"/>
 <node id="3600600102" visible="true" version="1" changeset="32030933" timestamp="2015-06-17T14:40:47Z" user="dbanisimov" uid="2963812" lat="55.7587838" lon="48.7291009"/>
 <node id="3600600104" visible="true" version="1" changeset="32030933" timestamp="2015-06-17T14:40:47Z" user="dbanisimov" uid="2963812" lat="55.7589349" lon="48.7281362"/>
 <node id="3600600108" visible="true" version="1" changeset="32030933" timestamp="2015-06-17T14:40:47Z" user="dbanisimov" uid="2963812" lat="55.7592027" lon="48.7268930"/>
 <node id="3600600109" visible="true" version="1" changeset="32030933" timestamp="2015-06-17T14:40:47Z" user="dbanisimov" uid="2963812" lat="55.7594099" lon="48.7282878"/>
 <node id="3600600110" visible="true" version="1" changeset="32030933" timestamp="2015-06-17T14:40:47Z" user="dbanisimov" uid="2963812" lat="55.7594882" lon="48.7278598"/>
 <node id="3600600111" visible="true" version="1" changeset="32030933" timestamp="2015-06-17T14:40:47Z" user="dbanisimov" uid="2963812" lat="55.7601383" lon="48.7286195"/>
 <node id="3600600112" visible="true" version="1" changeset="32030933" timestamp="2015-06-17T14:40:47Z" user="dbanisimov" uid="2963812" lat="55.7601865" lon="48.7291437"/>
 <node id="3600600115" visible="true" version="1" changeset="32030933" timestamp="2015-06-17T14:40:47Z" user="dbanisimov" uid="2963812" lat="55.7603671" lon="48.7291330"/>
 <node id="3600600116" visible="true" version="1" changeset="32030933" timestamp="2015-06-17T14:40:47Z" user="dbanisimov" uid="2963812" lat="55.7603972" lon="48.7276244"/>
 <node id="3600600117" visible="true" version="1" changeset="32030933" timestamp="2015-06-17T14:40:47Z" user="dbanisimov" uid="2963812" lat="55.7607524" lon="48.7278063"/>
 <node id="3600600120" visible="true" version="1" changeset="32030933" timestamp="2015-06-17T14:40:47Z" user="dbanisimov" uid="2963812" lat="55.7611376" lon="48.7275923"/>
 <node id="3600600121" visible="true" version="1" changeset="32030933" timestamp="2015-06-17T14:40:47Z" user="dbanisimov" uid="2963812" lat="55.7614000" lon="48.7270962"/>
 <node id="3603430309" visible="true" version="4" changeset="122751278" timestamp="2022-06-23T10:06:45Z" user="toorboalex" uid="463102" lat="55.7600360" lon="48.7519115"/>
 <node id="3603430310" visible="true" version="6" changeset="122751278" timestamp="2022-06-23T10:06:45Z" user="toorboalex" uid="463102" lat="55.7683596" lon="48.7428551"/>
 <node id="4895038134" visible="true" version="2" changeset="93770601" timestamp="2020-11-09T05:42:55Z" user="misha yakin" uid="384109" lat="55.7578537" lon="48.7533116"/>
 <node id="4895038135" visible="true" version="2" changeset="93770601" timestamp="2020-11-09T05:42:55Z" user="misha yakin" uid="384109" lat="55.7572908" lon="48.7536335"/>
 <node id="4897685179" visible="true" version="1" changeset="49275032" timestamp="2017-06-05T15:38:14Z" user="NeoChapay" uid="96925" lat="55.7619544" lon="48.7267418"/>
 <node id="4897685197" visible="true" version="1" changeset="49275032" timestamp="2017-06-05T15:38:14Z" user="NeoChapay" uid="96925" lat="55.7652957" lon="48.7342198"/>
 <node id="4897685198" visible="true" version="1" changeset="49275032" timestamp="2017-06-05T15:38:14Z" user="NeoChapay" uid="96925" lat="55.7653526" lon="48.7350387"/>
 <node id="4897685199" visible="true" version="1" changeset="49275032" timestamp="2017-06-05T15:38:14Z" user="NeoChapay" uid="96925" lat="55.7656210" lon="48.7361578"/>
 <node id="4897685200" visible="true" version="2" changeset="101688258" timestamp="2021-03-25T05:26:01Z" user="misha yakin" uid="384109" lat="55.7654268" lon="48.7376179"/>
 <node id="4897685201" visible="true" version="1" changeset="49275032" timestamp="2017-06-05T15:38:14Z" user="NeoChapay" uid="96925" lat="55.7650739" lon="48.7388180"/>
 <node id="4897685202" visible="true" version="2" changeset="101688258" timestamp="2021-03-25T05:26:01Z" user="misha yakin" uid="384109" lat="55.7650531" lon="48.7392519"/>
 <node id="4897685203" visible="true" version="2" changeset="101688258" timestamp="2021-03-25T05:26:01Z" user="misha yakin" uid="384109" lat="55.7654981" lon="48.7406085"/>
 <node id="4897685204" visible="true" version="1" changeset="49275032" timestamp="2017-06-05T15:38:14Z" user="NeoChapay" uid="96925" lat="55.7664673" lon="48.7414232"/>
 <node id="4897685205" visible="true" version="2" changeset="101688258" timestamp="2021-03-25T05:26:01Z" user="misha yakin" uid="384109" lat="55.7667563" lon="48.7414907"/>
 <node id="5055734453" visible="true" version="1" changeset="51400268" timestamp="2017-08-24T09:17:21Z" user="NeoChapay" uid="96925" lat="55.7491701" lon="48.7374822"/>
 <node id="5723216541" visible="true" version="2" changeset="111944385" timestamp="2021-10-01T05:14:36Z" user="misha yakin" uid="384109" lat="55.7705492" lon="48.7362977"/>
 <node id="6005954993" visible="true" version="2" changeset="115182160" timestamp="2021-12-20T21:25:46Z" user="acsd" uid="345493" lat="55.7541649" lon="48.7355608"/>
 <node id="7284961527" visible="true" version="2" changeset="93770601" timestamp="2020-11-09T05:42:55Z" user="misha yakin" uid="384109" lat="55.7567707" lon="48.7539212"/>
 <node id="7588983453" visible="true" version="3" changeset="122751278" timestamp="2022-06-23T10:06:45Z" user="toorboalex" uid="463102" lat="55.7642373" lon="48.7482798"/>
 <node id="8095710974" visible="true" version="2" changeset="111944385" timestamp="2021-10-01T05:14:36Z" user="misha yakin" uid="384109" lat="55.7683697" lon="48.7423316"/>
 <node id="8559027701" visible="true" version="1" changeset="101688258" timestamp="2021-03-25T05:26:00Z" user="misha yakin" uid="384109" lat="55.7651608" lon="48.7382162"/>
 <node id="8559027702" visible="true" version="1" changeset="101688258" timestamp="2021-03-25T05:26:00Z" user="misha yakin" uid="384109" lat="55.7614184" lon="48.7402117"/>
 <node id="8559027703" visible="true" version="1" changeset="101688258" timestamp="2021-03-25T05:26:00Z" user="misha yakin" uid="384109" lat="55.7619737" lon="48.7409520"/>
 <node id="8559027704" visible="true" version="1" changeset="101688258" timestamp="2021-03-25T05:26:00Z" user="misha yakin" uid="384109" lat="55.7628913" lon="48.7398362"/>
 <node id="8559027705" visible="true" version="1" changeset="101688258" timestamp="2021-03-25T05:26:00Z" user="misha yakin" uid="384109" lat="55.7639295" lon="48.7392139"/>
 <node id="8559027706" visible="true" version="1" changeset="101688258" timestamp="2021-03-25T05:26:00Z" user="misha yakin" uid="384109" lat="55.7650612" lon="48.7439775"/>
 <node id="8559027707" visible="true" version="1" changeset="101688258" timestamp="2021-03-25T05:26:00Z" user="misha yakin" uid="384109" lat="55.7663650" lon="48.7427652"/>
 <node id="8559027708" visible="true" version="1" changeset="101688258" timestamp="2021-03-25T05:26:00Z" user="misha yakin" uid="384109" lat="55.7664887" lon="48.7429154"/>
 <node id="8559027709" visible="true" version="1" changeset="101688258" timestamp="2021-03-25T05:26:00Z" user="misha yakin" uid="384109" lat="55.7666034" lon="48.7431568"/>
 <node id="8559027710" visible="true" version="1" changeset="101688258" timestamp="2021-03-25T05:26:00Z" user="misha yakin" uid="384109" lat="55.7667754" lon="48.7431031"/>
 <node id="8559027711" visible="true" version="1" changeset="101688258" timestamp="2021-03-25T05:26:00Z" user="misha yakin" uid="384109" lat="55.7666758" lon="48.7426418"/>
 <node id="8559027712" visible="true" version="1" changeset="101688258" timestamp="2021-03-25T05:26:00Z" user="misha yakin" uid="384109" lat="55.7665128" lon="48.7425613"/>
 <node id="8559027713" visible="true" version="1" changeset="101688258" timestamp="2021-03-25T05:26:00Z" user="misha yakin" uid="384109" lat="55.7666396" lon="48.7408286"/>
 <node id="8559027714" visible="true" version="1" changeset="101688258" timestamp="2021-03-25T05:26:00Z" user="misha yakin" uid="384109" lat="55.7664374" lon="48.7405872"/>
 <node id="8559027715" visible="true" version="1" changeset="101688258" timestamp="2021-03-25T05:26:00Z" user="misha yakin" uid="384109" lat="55.7668267" lon="48.7407696"/>
 <node id="8559027716" visible="true" version="1" changeset="101688258" timestamp="2021-03-25T05:26:00Z" user="misha yakin" uid="384109" lat="55.7676083" lon="48.7432694"/>
 <node id="8559041817" visible="true" version="1" changeset="101688258" timestamp="2021-03-25T05:26:00Z" user="misha yakin" uid="384109" lat="55.7672673" lon="48.7432265"/>
 <node id="8559041818" visible="true" version="1" changeset="101688258" timestamp="2021-03-25T05:26:00Z" user="misha yakin" uid="384109" lat="55.7672914" lon="48.7427759"/>
 <node id="8559041819" visible="true" version="1" changeset="101688258" timestamp="2021-03-25T05:26:00Z" user="misha yakin" uid="384109" lat="55.7672854" lon="48.7422931"/>
 <node id="8559041820" visible="true" version="1" changeset="101688258" timestamp="2021-03-25T05:26:00Z" user="misha yakin" uid="384109" lat="55.7671466" lon="48.7421214"/>
 <node id="8559041821" visible="true" version="1" changeset="101688258" timestamp="2021-03-25T05:26:00Z" user="misha yakin" uid="384109" lat="55.7670560" lon="48.7417459"/>
 <node id="8559041822" visible="true" version="1" changeset="101688258" timestamp="2021-03-25T05:26:00Z" user="misha yakin" uid="384109" lat="55.7660360" lon="48.7408233"/>
 <node id="8559041827" visible="true" version="1" changeset="101688258" timestamp="2021-03-25T05:26:00Z" user="misha yakin" uid="384109" lat="55.7652815" lon="48.7399220"/>
 <node id="8559041828" visible="true" version="1" changeset="101688258" timestamp="2021-03-25T05:26:00Z" user="misha yakin" uid="384109" lat="55.7630271" lon="48.7446374"/>
 <node id="8559041829" visible="true" version="1" changeset="101688258" timestamp="2021-03-25T05:26:00Z" user="misha yakin" uid="384109" lat="55.7630784" lon="48.7448198"/>
 <node id="8559041830" visible="true" version="1" changeset="101688258" timestamp="2021-03-25T05:26:00Z" user="misha yakin" uid="384109" lat="55.7634436" lon="48.7446696"/>
 <node id="8559041831" visible="true" version="1" changeset="101688258" timestamp="2021-03-25T05:26:00Z" user="misha yakin" uid="384109" lat="55.7632776" lon="48.7447661"/>
 <node id="8559041832" visible="true" version="1" changeset="101688258" timestamp="2021-03-25T05:26:00Z" user="misha yakin" uid="384109" lat="55.7636880" lon="48.7459195"/>
 <node id="8559041833" visible="true" version="1" changeset="101688258" timestamp="2021-03-25T05:26:00Z" user="misha yakin" uid="384109" lat="55.7639566" lon="48.7461072"/>
 <node id="8559041834" visible="true" version="1" changeset="101688258" timestamp="2021-03-25T05:26:00Z" user="misha yakin" uid="384109" lat="55.7648258" lon="48.7468100"/>
 <node id="8559041835" visible="true" version="1" changeset="101688258" timestamp="2021-03-25T05:26:00Z" user="misha yakin" uid="384109" lat="55.7648530" lon="48.7469816"/>
 <node id="8559041836" visible="true" version="1" changeset="101688258" timestamp="2021-03-25T05:26:00Z" user="misha yakin" uid="384109" lat="55.7647323" lon="48.7470943"/>
 <node id="8559041837" visible="true" version="1" changeset="101688258" timestamp="2021-03-25T05:26:00Z" user="misha yakin" uid="384109" lat="55.7643942" lon="48.7469816"/>
 <node id="8559041838" visible="true" version="1" changeset="101688258" timestamp="2021-03-25T05:26:00Z" user="misha yakin" uid="384109" lat="55.7646447" lon="48.7463379"/>
 <node id="8559041839" visible="true" version="1" changeset="101688258" timestamp="2021-03-25T05:26:00Z" user="misha yakin" uid="384109" lat="55.7647504" lon="48.7461555"/>
 <node id="8559041840" visible="true" version="1" changeset="101688258" timestamp="2021-03-25T05:26:00Z" user="misha yakin" uid="384109" lat="55.7645602" lon="48.7459892"/>
 <node id="8559041841" visible="true" version="1" changeset="101688258" timestamp="2021-03-25T05:26:00Z" user="misha yakin" uid="384109" lat="55.7646719" lon="48.7459892"/>
 <node id="8559041842" visible="true" version="1" changeset="101688258" timestamp="2021-03-25T05:26:00Z" user="misha yakin" uid="384109" lat="55.7648560" lon="48.7465686"/>
 <node id="8559041843" visible="true" version="1" changeset="101688258" timestamp="2021-03-25T05:26:00Z" user="misha yakin" uid="384109" lat="55.7644063" lon="48.7456727"/>
 <node id="8559041844" visible="true" version="1" changeset="101688258" timestamp="2021-03-25T05:26:00Z" user="misha yakin" uid="384109" lat="55.7642071" lon="48.7456459"/>
 <node id="8559041845" visible="true" version="1" changeset="101688258" timestamp="2021-03-25T05:26:00Z" user="misha yakin" uid="384109" lat="55.7645482" lon="48.7448627"/>
 <node id="8559041846" visible="true" version="1" changeset="101688258" timestamp="2021-03-25T05:26:00Z" user="misha yakin" uid="384109" lat="55.7644727" lon="48.7443906"/>
 <node id="8559041847" visible="true" version="1" changeset="101688258" timestamp="2021-03-25T05:26:00Z" user="misha yakin" uid="384109" lat="55.7643188" lon="48.7442350"/>
 <node id="8559041848" visible="true" version="1" changeset="101688258" timestamp="2021-03-25T05:26:00Z" user="misha yakin" uid="384109" lat="55.7635251" lon="48.7455279"/>
 <node id="8559041849" visible="true" version="1" changeset="101688258" timestamp="2021-03-25T05:26:00Z" user="misha yakin" uid="384109" lat="55.7661628" lon="48.7479472"/>
 <node id="8559041850" visible="true" version="1" changeset="101688258" timestamp="2021-03-25T05:26:00Z" user="misha yakin" uid="384109" lat="55.7658851" lon="48.7481511"/>
 <node id="8559041851" visible="true" version="1" changeset="101688258" timestamp="2021-03-25T05:26:00Z" user="misha yakin" uid="384109" lat="55.7660420" lon="48.7478077"/>
 <node id="8559041852" visible="true" version="1" changeset="101688258" timestamp="2021-03-25T05:26:00Z" user="misha yakin" uid="384109" lat="55.7662714" lon="48.7476361"/>
 <node id="8559041853" visible="true" version="1" changeset="101688258" timestamp="2021-03-25T05:26:00Z" user="misha yakin" uid="384109" lat="55.7660692" lon="48.7474376"/>
 <node id="8559041854" visible="true" version="1" changeset="101688258" timestamp="2021-03-25T05:26:00Z" user="misha yakin" uid="384109" lat="55.7662141" lon="48.7472981"/>
 <node id="8559041866" visible="true" version="1" changeset="101688258" timestamp="2021-03-25T05:26:00Z" user="misha yakin" uid="384109" lat="55.7661929" lon="48.7483871"/>
 <node id="8559041867" visible="true" version="1" changeset="101688258" timestamp="2021-03-25T05:26:00Z" user="misha yakin" uid="384109" lat="55.7662473" lon="48.7483066"/>
 <node id="8559041868" visible="true" version="1" changeset="101688258" timestamp="2021-03-25T05:26:00Z" user="misha yakin" uid="384109" lat="55.7663197" lon="48.7483227"/>
 <node id="8559041869" visible="true" version="1" changeset="101688258" timestamp="2021-03-25T05:26:00Z" user="misha yakin" uid="384109" lat="55.7663257" lon="48.7484461"/>
 <node id="8559041870" visible="true" version="1" changeset="101688258" timestamp="2021-03-25T05:26:00Z" user="misha yakin" uid="384109" lat="55.7666517" lon="48.7484944"/>
 <node id="8559041871" visible="true" version="1" changeset="101688258" timestamp="2021-03-25T05:26:00Z" user="misha yakin" uid="384109" lat="55.7666547" lon="48.7482959"/>
 <node id="8559041872" visible="true" version="1" changeset="101688258" timestamp="2021-03-25T05:26:00Z" user="misha yakin" uid="384109" lat="55.7667905" lon="48.7483066"/>
 <node id="8559041873" visible="true" version="1" changeset="101688258" timestamp="2021-03-25T05:26:00Z" user="misha yakin" uid="384109" lat="55.7668267" lon="48.7485427"/>
 <node id="8559041874" visible="true" version="1" changeset="101688258" timestamp="2021-03-25T05:26:00Z" user="misha yakin" uid="384109" lat="55.7673216" lon="48.7486768"/>
 <node id="8559041875" visible="true" version="1" changeset="101688258" timestamp="2021-03-25T05:26:00Z" user="misha yakin" uid="384109" lat="55.7673850" lon="48.7485748"/>
 <node id="8559041876" visible="true" version="1" changeset="101688258" timestamp="2021-03-25T05:26:00Z" user="misha yakin" uid="384109" lat="55.7674876" lon="48.7486821"/>
 <node id="8559041877" visible="true" version="1" changeset="101688258" timestamp="2021-03-25T05:26:00Z" user="misha yakin" uid="384109" lat="55.7677682" lon="48.7483120"/>
 <node id="8559041878" visible="true" version="1" changeset="101688258" timestamp="2021-03-25T05:26:00Z" user="misha yakin" uid="384109" lat="55.7678950" lon="48.7482476"/>
 <node id="8559041879" visible="true" version="1" changeset="101688258" timestamp="2021-03-25T05:26:00Z" user="misha yakin" uid="384109" lat="55.7677320" lon="48.7480438"/>
 <node id="8559041880" visible="true" version="1" changeset="101688258" timestamp="2021-03-25T05:26:00Z" user="misha yakin" uid="384109" lat="55.7677079" lon="48.7482262"/>
 <node id="8559041881" visible="true" version="1" changeset="101688258" timestamp="2021-03-25T05:26:00Z" user="misha yakin" uid="384109" lat="55.7675691" lon="48.7484622"/>
 <node id="8559041882" visible="true" version="1" changeset="101688258" timestamp="2021-03-25T05:26:00Z" user="misha yakin" uid="384109" lat="55.7675268" lon="48.7482154"/>
 <node id="8559041883" visible="true" version="1" changeset="101688258" timestamp="2021-03-25T05:26:00Z" user="misha yakin" uid="384109" lat="55.7676173" lon="48.7480223"/>
 <node id="8559041884" visible="true" version="1" changeset="101688258" timestamp="2021-03-25T05:26:00Z" user="misha yakin" uid="384109" lat="55.7675630" lon="48.7477863"/>
 <node id="8559041885" visible="true" version="1" changeset="101688258" timestamp="2021-03-25T05:26:00Z" user="misha yakin" uid="384109" lat="55.7676837" lon="48.7475932"/>
 <node id="8559041886" visible="true" version="1" changeset="101688258" timestamp="2021-03-25T05:26:00Z" user="misha yakin" uid="384109" lat="55.7676687" lon="48.7472069"/>
 <node id="8559041887" visible="true" version="1" changeset="101688258" timestamp="2021-03-25T05:26:00Z" user="misha yakin" uid="384109" lat="55.7678889" lon="48.7473518"/>
 <node id="8559041888" visible="true" version="1" changeset="101688258" timestamp="2021-03-25T05:26:00Z" user="misha yakin" uid="384109" lat="55.7680881" lon="48.7474644"/>
 <node id="8559041889" visible="true" version="1" changeset="101688258" timestamp="2021-03-25T05:26:00Z" user="misha yakin" uid="384109" lat="55.7680519" lon="48.7479365"/>
 <node id="8559041890" visible="true" version="1" changeset="101688258" timestamp="2021-03-25T05:26:00Z" user="misha yakin" uid="384109" lat="55.7679372" lon="48.7485587"/>
 <node id="8559041891" visible="true" version="1" changeset="101688258" timestamp="2021-03-25T05:26:00Z" user="misha yakin" uid="384109" lat="55.7680036" lon="48.7488484"/>
 <node id="8559041892" visible="true" version="1" changeset="101688258" timestamp="2021-03-25T05:26:00Z" user="misha yakin" uid="384109" lat="55.7681183" lon="48.7482369"/>
 <node id="8559041893" visible="true" version="1" changeset="101688258" timestamp="2021-03-25T05:26:00Z" user="misha yakin" uid="384109" lat="55.7681605" lon="48.7478292"/>
 <node id="8559041894" visible="true" version="1" changeset="101688258" timestamp="2021-03-25T05:26:00Z" user="misha yakin" uid="384109" lat="55.7682752" lon="48.7481832"/>
 <node id="8559041895" visible="true" version="1" changeset="101688258" timestamp="2021-03-25T05:26:00Z" user="misha yakin" uid="384109" lat="55.7683778" lon="48.7481403"/>
 <node id="8559041896" visible="true" version="1" changeset="101688258" timestamp="2021-03-25T05:26:00Z" user="misha yakin" uid="384109" lat="55.7682933" lon="48.7476790"/>
 <node id="8559041897" visible="true" version="1" changeset="101688258" timestamp="2021-03-25T05:26:00Z" user="misha yakin" uid="384109" lat="55.7685709" lon="48.7474966"/>
 <node id="8559041898" visible="true" version="1" changeset="101688258" timestamp="2021-03-25T05:26:00Z" user="misha yakin" uid="384109" lat="55.7684804" lon="48.7471640"/>
 <node id="8559041899" visible="true" version="1" changeset="101688258" timestamp="2021-03-25T05:26:00Z" user="misha yakin" uid="384109" lat="55.7682933" lon="48.7470889"/>
 <node id="8559041900" visible="true" version="1" changeset="101688258" timestamp="2021-03-25T05:26:00Z" user="misha yakin" uid="384109" lat="55.7683295" lon="48.7468207"/>
 <node id="8559041901" visible="true" version="1" changeset="101688258" timestamp="2021-03-25T05:26:00Z" user="misha yakin" uid="384109" lat="55.7684683" lon="48.7467885"/>
 <node id="8559041902" visible="true" version="1" changeset="101688258" timestamp="2021-03-25T05:26:00Z" user="misha yakin" uid="384109" lat="55.7684623" lon="48.7462628"/>
 <node id="8559041903" visible="true" version="1" changeset="101688258" timestamp="2021-03-25T05:26:00Z" user="misha yakin" uid="384109" lat="55.7682933" lon="48.7458229"/>
 <node id="8559041904" visible="true" version="1" changeset="101688258" timestamp="2021-03-25T05:26:00Z" user="misha yakin" uid="384109" lat="55.7684502" lon="48.7453508"/>
 <node id="8559041905" visible="true" version="1" changeset="101688258" timestamp="2021-03-25T05:26:00Z" user="misha yakin" uid="384109" lat="55.7682692" lon="48.7451148"/>
 <node id="8559041906" visible="true" version="1" changeset="101688258" timestamp="2021-03-25T05:26:00Z" user="misha yakin" uid="384109" lat="55.7679523" lon="48.7452382"/>
 <node id="8559041907" visible="true" version="1" changeset="101688258" timestamp="2021-03-25T05:26:00Z" user="misha yakin" uid="384109" lat="55.7674604" lon="48.7456888"/>
 <node id="8559041908" visible="true" version="1" changeset="101688258" timestamp="2021-03-25T05:26:00Z" user="misha yakin" uid="384109" lat="55.7673246" lon="48.7461233"/>
 <node id="8559041909" visible="true" version="1" changeset="101688258" timestamp="2021-03-25T05:26:00Z" user="misha yakin" uid="384109" lat="55.7672069" lon="48.7463432"/>
 <node id="8559041910" visible="true" version="1" changeset="101688258" timestamp="2021-03-25T05:26:00Z" user="misha yakin" uid="384109" lat="55.7672039" lon="48.7466651"/>
 <node id="8559041911" visible="true" version="1" changeset="101688258" timestamp="2021-03-25T05:26:00Z" user="misha yakin" uid="384109" lat="55.7670983" lon="48.7467831"/>
 <node id="8559041912" visible="true" version="1" changeset="101688258" timestamp="2021-03-25T05:26:00Z" user="misha yakin" uid="384109" lat="55.7669504" lon="48.7463325"/>
 <node id="8559041913" visible="true" version="1" changeset="101688258" timestamp="2021-03-25T05:26:00Z" user="misha yakin" uid="384109" lat="55.7668750" lon="48.7462681"/>
 <node id="8559041914" visible="true" version="1" changeset="101688258" timestamp="2021-03-25T05:26:00Z" user="misha yakin" uid="384109" lat="55.7666848" lon="48.7464291"/>
 <node id="8559041915" visible="true" version="1" changeset="101688258" timestamp="2021-03-25T05:26:00Z" user="misha yakin" uid="384109" lat="55.7666577" lon="48.7467188"/>
 <node id="8559041916" visible="true" version="1" changeset="101688258" timestamp="2021-03-25T05:26:00Z" user="misha yakin" uid="384109" lat="55.7664947" lon="48.7467295"/>
 <node id="8559041917" visible="true" version="1" changeset="101688258" timestamp="2021-03-25T05:26:00Z" user="misha yakin" uid="384109" lat="55.7659907" lon="48.7475878"/>
 <node id="8559041918" visible="true" version="1" changeset="101688258" timestamp="2021-03-25T05:26:00Z" user="misha yakin" uid="384109" lat="55.7659123" lon="48.7474644"/>
 <node id="8559041919" visible="true" version="1" changeset="101688258" timestamp="2021-03-25T05:26:00Z" user="misha yakin" uid="384109" lat="55.7655984" lon="48.7479472"/>
 <node id="8559041920" visible="true" version="1" changeset="101688258" timestamp="2021-03-25T05:26:00Z" user="misha yakin" uid="384109" lat="55.7657765" lon="48.7483495"/>
 <node id="8625397189" visible="true" version="2" changeset="122751278" timestamp="2022-06-23T10:06:45Z" user="toorboalex" uid="463102" lat="55.7679972" lon="48.7434033"/>
 <node id="9136759667" visible="true" version="2" changeset="134503756" timestamp="2023-04-04T16:24:32Z" user="CometSeeker" uid="231327" lat="55.7703830" lon="48.7177751"/>
 <node id="9136759668" visible="true" version="1" changeset="111944385" timestamp="2021-10-01T05:14:35Z" user="misha yakin" uid="384109" lat="55.7704690" lon="48.7187809"/>
 <node id="9136759725" visible="true" version="1" changeset="111944385" timestamp="2021-10-01T05:14:35Z" user="misha yakin" uid="384109" lat="55.7692831" lon="48.7346113"/>
 <node id="9136759830" visible="true" version="1" changeset="111944385" timestamp="2021-10-01T05:14:35Z" user="misha yakin" uid="384109" lat="55.7705656" lon="48.7321436"/>
 <node id="9136759831" visible="true" version="1" changeset="111944385" timestamp="2021-10-01T05:14:35Z" user="misha yakin" uid="384109" lat="55.7704509" lon="48.7352174"/>
 <node id="9841082566" visible="true" version="1" changeset="122751278" timestamp="2022-06-23T10:06:45Z" user="toorboalex" uid="463102" lat="55.7616115" lon="48.7507099"/>
 <node id="9841082567" visible="true" version="1" changeset="122751278" timestamp="2022-06-23T10:06:45Z" user="toorboalex" uid="463102" lat="55.7628641" lon="48.7496424"/>
 <node id="9841082568" visible="true" version="1" changeset="122751278" timestamp="2022-06-23T10:06:45Z" user="toorboalex" uid="463102" lat="55.7637122" lon="48.7488162"/>
 <node id="9841082569" visible="true" version="1" changeset="122751278" timestamp="2022-06-23T10:06:45Z" user="toorboalex" uid="463102" lat="55.7686192" lon="48.7431085"/>
 <node id="10246394754" visible="true" version="2" changeset="141695110" timestamp="2023-09-24T18:39:34Z" user="Corsa5" uid="7731115" lat="55.7690503" lon="48.7415372"/>
 <node id="10246394755" visible="true" version="2" changeset="141695110" timestamp="2023-09-24T18:39:34Z" user="Corsa5" uid="7731115" lat="55.7696066" lon="48.7402668"/>
 <node id="10246394756" visible="true" version="2" changeset="141695110" timestamp="2023-09-24T18:39:34Z" user="Corsa5" uid="7731115" lat="55.7701269" lon="48.7388646"/>
 <node id="10246394757" visible="true" version="2" changeset="141695110" timestamp="2023-09-24T18:39:34Z" user="Corsa5" uid="7731115" lat="55.7704707" lon="48.7376995"/>
 <node id="10246394758" visible="true" version="1" changeset="129854613" timestamp="2022-12-08T10:18:28Z" user="Марьяна Зубаирова" uid="17917020" lat="55.7709840" lon="48.7352598"/>
 <node id="10246394759" visible="true" version="1" changeset="129854613" timestamp="2022-12-08T10:18:28Z" user="Марьяна Зубаирова" uid="17917020" lat="55.7711478" lon="48.7342159"/>
 <node id="10246394760" visible="true" version="1" changeset="129854613" timestamp="2022-12-08T10:18:28Z" user="Марьяна Зубаирова" uid="17917020" lat="55.7712776" lon="48.7328928"/>
 <node id="10246394761" visible="true" version="1" changeset="129854613" timestamp="2022-12-08T10:18:28Z" user="Марьяна Зубаирова" uid="17917020" lat="55.7714005" lon="48.7306351"/>
 <node id="10246394762" visible="true" version="1" changeset="129854613" timestamp="2022-12-08T10:18:28Z" user="Марьяна Зубаирова" uid="17917020" lat="55.7715712" lon="48.7265809"/>
 <node id="10246394763" visible="true" version="1" changeset="129854613" timestamp="2022-12-08T10:18:28Z" user="Марьяна Зубаирова" uid="17917020" lat="55.7716258" lon="48.7251000"/>
 <node id="10246394764" visible="true" version="1" changeset="129854613" timestamp="2022-12-08T10:18:28Z" user="Марьяна Зубаирова" uid="17917020" lat="55.7716775" lon="48.7213969"/>
 <node id="10246394765" visible="true" version="1" changeset="129854613" timestamp="2022-12-08T10:18:28Z" user="Марьяна Зубаирова" uid="17917020" lat="55.7716121" lon="48.7180234"/>
 <node id="10246394766" visible="true" version="1" changeset="129854613" timestamp="2022-12-08T10:18:28Z" user="Марьяна Зубаирова" uid="17917020" lat="55.7715780" lon="48.7171980"/>
 <node id="10246394767" visible="true" version="1" changeset="129854613" timestamp="2022-12-08T10:18:28Z" user="Марьяна Зубаирова" uid="17917020" lat="55.7715029" lon="48.7161905"/>
 <node id="10246394768" visible="true" version="2" changeset="129926966" timestamp="2022-12-10T09:22:44Z" user="ratrun" uid="474183" lat="55.7712248" lon="48.7143726"/>
 <node id="10246394769" visible="true" version="2" changeset="129926966" timestamp="2022-12-10T09:22:44Z" user="ratrun" uid="474183" lat="55.7711087" lon="48.7135534"/>
 <node id="10246394770" visible="true" version="2" changeset="129926966" timestamp="2022-12-10T09:22:44Z" user="ratrun" uid="474183" lat="55.7733062" lon="48.7120340"/>
 <node id="10246394771" visible="true" version="3" changeset="140906567" timestamp="2023-09-06T18:05:34Z" user="Corsa5" uid="7731115" lat="55.7757473" lon="48.7104427"/>
 <node id="10246394772" visible="true" version="3" changeset="140906567" timestamp="2023-09-06T18:05:34Z" user="Corsa5" uid="7731115" lat="55.7756319" lon="48.7074925"/>
 <node id="10784742048" visible="true" version="1" changeset="134503756" timestamp="2023-04-04T16:24:32Z" user="CometSeeker" uid="231327" lat="55.7696150" lon="48.7128586"/>
 <node id="10784742049" visible="true" version="1" changeset="134503756" timestamp="2023-04-04T16:24:32Z" user="CometSeeker" uid="231327" lat="55.7695306" lon="48.7123463"/>
 <node id="10784742050" visible="true" version="1" changeset="134503756" timestamp="2023-04-04T16:24:32Z" user="CometSeeker" uid="231327" lat="55.7693601" lon="48.7115228"/>
 <node id="10784742056" visible="true" version="1" changeset="134503756" timestamp="2023-04-04T16:24:32Z" user="CometSeeker" uid="231327" lat="55.7701597" lon="48.7161362"/>
 <node id="10784742057" visible="true" version="1" changeset="134503756" timestamp="2023-04-04T16:24:32Z" user="CometSeeker" uid="231327" lat="55.7701658" lon="48.7155220"/>
 <node id="10784742058" visible="true" version="1" changeset="134503756" timestamp="2023-04-04T16:24:32Z" user="CometSeeker" uid="231327" lat="55.7701039" lon="48.7151358"/>
 <node id="10784742059" visible="true" version="1" changeset="134503756" timestamp="2023-04-04T16:24:32Z" user="CometSeeker" uid="231327" lat="55.7700843" lon="48.7147549"/>
 <node id="10784742060" visible="true" version="1" changeset="134503756" timestamp="2023-04-04T16:24:32Z" user="CometSeeker" uid="231327" lat="55.7701899" lon="48.7163106"/>
 <node id="10784742061" visible="true" version="1" changeset="134503756" timestamp="2023-04-04T16:24:32Z" user="CometSeeker" uid="231327" lat="55.7701793" lon="48.7169301"/>
 <node id="11144746663" visible="true" version="1" changeset="140389156" timestamp="2023-08-25T21:14:19Z" user="dpolovinkin" uid="6710042" lat="55.7480607" lon="48.7334136"/>
 <node id="11159800476" visible="true" version="1" changeset="140652676" timestamp="2023-08-31T20:55:04Z" user="dimsharav" uid="2554875" lat="55.7714282" lon="48.7299783">
  <tag k="crossing" v="unmarked"/>
  <tag k="crossing:island" v="no"/>
  <tag k="crossing:markings" v="no"/>
  <tag k="highway" v="crossing"/>
  <tag k="kerb" v="no"/>
  <tag k="tactile_paving" v="no"/>
 </node>
 <node id="11163133919" visible="true" version="1" changeset="140724773" timestamp="2023-09-02T15:34:07Z" user="dimsharav" uid="2554875" lat="55.7707731" lon="48.7364007">
  <tag k="crossing" v="unmarked"/>
  <tag k="crossing:island" v="no"/>
  <tag k="crossing:markings" v="no"/>
  <tag k="highway" v="crossing"/>
  <tag k="tactile_paving" v="no"/>
 </node>
 <node id="11281111582" visible="true" version="1" changeset="142960250" timestamp="2023-10-22T09:50:31Z" user="dpolovinkin" uid="6710042" lat="55.7672133" lon="48.7441175"/>
 <node id="11281111583" visible="true" version="1" changeset="142960250" timestamp="2023-10-22T09:50:31Z" user="dpolovinkin" uid="6710042" lat="55.7654847" lon="48.7465629"/>
 <node id="11281111584" visible="true" version="1" changeset="142960250" timestamp="2023-10-22T09:50:31Z" user="dpolovinkin" uid="6710042" lat="55.7652031" lon="48.7460308"/>
 <node id="11281111585" visible="true" version="1" changeset="142960250" timestamp="2023-10-22T09:50:31Z" user="dpolovinkin" uid="6710042" lat="55.7648396" lon="48.7447384"/>
 <node id="11281111586" visible="true" version="1" changeset="142960250" timestamp="2023-10-22T09:50:31Z" user="dpolovinkin" uid="6710042" lat="55.7653029" lon="48.7439274"/>
 <node id="11281111587" visible="true" version="1" changeset="142960250" timestamp="2023-10-22T09:50:31Z" user="dpolovinkin" uid="6710042" lat="55.7658732" lon="48.7428758"/>
 <node id="11281111588" visible="true" version="1" changeset="142960250" timestamp="2023-10-22T09:50:31Z" user="dpolovinkin" uid="6710042" lat="55.7664042" lon="48.7432432"/>
 <node id="11281111589" visible="true" version="1" changeset="142960250" timestamp="2023-10-22T09:50:31Z" user="dpolovinkin" uid="6710042" lat="55.7669923" lon="48.7433826"/>
 <node id="11281111604" visible="true" version="1" changeset="142960250" timestamp="2023-10-22T09:50:31Z" user="dpolovinkin" uid="6710042" lat="55.7696527" lon="48.7376701"/>
 <node id="11281111605" visible="true" version="1" changeset="142960250" timestamp="2023-10-22T09:50:31Z" user="dpolovinkin" uid="6710042" lat="55.7683354" lon="48.7418151"/>
 <node id="11281111606" visible="true" version="1" changeset="142960250" timestamp="2023-10-22T09:50:31Z" user="dpolovinkin" uid="6710042" lat="55.7676788" lon="48.7420545"/>
 <node id="11281111607" visible="true" version="1" changeset="142960250" timestamp="2023-10-22T09:50:31Z" user="dpolovinkin" uid="6710042" lat="55.7674136" lon="48.7409622"/>
 <node id="11281111608" visible="true" version="1" changeset="142960250" timestamp="2023-10-22T09:50:31Z" user="dpolovinkin" uid="6710042" lat="55.7675525" lon="48.7400494"/>
 <node id="11281111609" visible="true" version="1" changeset="142960250" timestamp="2023-10-22T09:50:31Z" user="dpolovinkin" uid="6710042" lat="55.7680071" lon="48.7391440"/>
 <node id="11281111610" visible="true" version="1" changeset="142960250" timestamp="2023-10-22T09:50:31Z" user="dpolovinkin" uid="6710042" lat="55.7678766" lon="48.7376028"/>
 <node id="11281111611" visible="true" version="1" changeset="142960250" timestamp="2023-10-22T09:50:31Z" user="dpolovinkin" uid="6710042" lat="55.7681754" lon="48.7369593"/>
 <node id="11281111612" visible="true" version="1" changeset="142960250" timestamp="2023-10-22T09:50:31Z" user="dpolovinkin" uid="6710042" lat="55.7690425" lon="48.7371838"/>
 <node id="12026314696" visible="true" version="2" changeset="172767806" timestamp="2025-10-02T22:37:55Z" user="Глеб" uid="346125" lat="55.7584030" lon="48.7529468"/>
 <node id="12026314702" visible="true" version="1" changeset="153418263" timestamp="2024-07-01T15:44:18Z" user="NeoChapay" uid="96925" lat="55.7594047" lon="48.7523165"/>
 <node id="13926210090" visible="true" version="1" changeset="183924544" timestamp="2026-06-10T13:32:07Z" user="Глеб" uid="346125" lat="55.7593221" lon="48.7523685"/>
 <node id="14139585550" visible="true" version="1" changeset="188353444" timestamp="2026-09-01T09:39:11Z" user="Tim Apelov" uid="10074340" lat="55.7650410" lon="48.7473764"/>
 <node id="14139585565" visible="true" version="1" changeset="188353444" timestamp="2026-09-01T09:39:11Z" user="Tim Apelov" uid="10074340" lat="55.7674422" lon="48.7439556"/>
 <node id="14139585566" visible="true" version="1" changeset="188353444" timestamp="2026-09-01T09:39:11Z" user="Tim Apelov" uid="10074340" lat="55.7660192" lon="48.7458939"/>
 <node id="14139585567" visible="true" version="1" changeset="188353444" timestamp="2026-09-01T09:39:11Z" user="Tim Apelov" uid="10074340" lat="55.7650587" lon="48.7470431"/>
 <node id="14139585568" visible="true" version="1" changeset="188353444" timestamp="2026-09-01T09:39:11Z" user="Tim Apelov" uid="10074340" lat="55.7648953" lon="48.7472078"/>
 <way id="86584877" visible="true" version="4" changeset="111944385" timestamp="2021-10-01T05:14:36Z" user="misha yakin" uid="384109">
  <nd ref="1006697547"/>
  <nd ref="1006697551"/>
  <nd ref="1006697554"/>
  <nd ref="1006697558"/>
  <nd ref="1006697561"/>
  <nd ref="1006697565"/>
  <nd ref="1006697568"/>
  <nd ref="9136759725"/>
  <nd ref="1006697570"/>
  <nd ref="1006697572"/>
  <nd ref="1006697574"/>
  <nd ref="1006697585"/>
  <nd ref="1006697588"/>
  <nd ref="1006697593"/>
  <nd ref="1006697597"/>
  <nd ref="1006697599"/>
  <nd ref="1006697601"/>
  <nd ref="1006697602"/>
  <nd ref="1006697603"/>
  <nd ref="1006697605"/>
  <nd ref="1006697608"/>
  <nd ref="1006697611"/>
  <nd ref="1006697614"/>
  <nd ref="1006697617"/>
  <nd ref="1006697621"/>
  <nd ref="8559027714"/>
  <nd ref="8559027713"/>
  <nd ref="8559027715"/>
  <nd ref="1006697625"/>
  <nd ref="1006697627"/>
  <nd ref="1006697628"/>
  <nd ref="1006697629"/>
  <nd ref="1006697630"/>
  <nd ref="8559027716"/>
  <nd ref="1006697633"/>
  <nd ref="1006697641"/>
  <nd ref="1006697642"/>
  <nd ref="8559027712"/>
  <nd ref="8559027711"/>
  <nd ref="8559027710"/>
  <nd ref="8559027709"/>
  <nd ref="8559027708"/>
  <nd ref="8559027707"/>
  <nd ref="1006697643"/>
  <nd ref="1006697644"/>
  <nd ref="1006697645"/>
  <nd ref="1006697647"/>
  <nd ref="1006697649"/>
  <nd ref="1006697652"/>
  <nd ref="8559027706"/>
  <nd ref="1006697654"/>
  <nd ref="8559041847"/>
  <nd ref="8559041846"/>
  <nd ref="8559041845"/>
  <nd ref="1006697656"/>
  <nd ref="1006697658"/>
  <nd ref="8559041844"/>
  <nd ref="8559041843"/>
  <nd ref="8559041840"/>
  <nd ref="8559041841"/>
  <nd ref="8559041839"/>
  <nd ref="8559041838"/>
  <nd ref="8559041842"/>
  <nd ref="8559041834"/>
  <nd ref="8559041835"/>
  <nd ref="8559041836"/>
  <nd ref="8559041837"/>
  <nd ref="8559041833"/>
  <nd ref="8559041832"/>
  <nd ref="8559041848"/>
  <nd ref="1006697660"/>
  <nd ref="8559041830"/>
  <nd ref="8559041831"/>
  <nd ref="8559041829"/>
  <nd ref="8559041828"/>
  <nd ref="1006697661"/>
  <nd ref="1006697662"/>
  <nd ref="1006697663"/>
  <nd ref="1006697665"/>
  <nd ref="1006697668"/>
  <nd ref="1006697670"/>
  <nd ref="1006697673"/>
  <nd ref="8559027705"/>
  <nd ref="1006697676"/>
  <nd ref="1006697678"/>
  <nd ref="8559027704"/>
  <nd ref="1006697680"/>
  <nd ref="1006697683"/>
  <nd ref="8559027703"/>
  <nd ref="1006697685"/>
  <nd ref="1006697688"/>
  <nd ref="1006697689"/>
  <nd ref="8559027702"/>
  <nd ref="1006697690"/>
  <nd ref="1006697691"/>
  <nd ref="1006697692"/>
  <nd ref="1006697694"/>
  <nd ref="1006697697"/>
  <nd ref="1006697699"/>
  <nd ref="1006697701"/>
  <nd ref="1006697703"/>
  <nd ref="1006697705"/>
  <nd ref="1006697707"/>
  <nd ref="1006697708"/>
  <nd ref="1006697709"/>
  <nd ref="1006697710"/>
  <nd ref="1006697716"/>
  <nd ref="1006697718"/>
  <nd ref="1006697720"/>
  <nd ref="1006697722"/>
  <nd ref="1006697723"/>
  <nd ref="1006697724"/>
  <nd ref="1006697725"/>
  <nd ref="1006697726"/>
  <nd ref="1006697728"/>
  <nd ref="1006697730"/>
  <nd ref="1006697732"/>
  <nd ref="1006697734"/>
  <nd ref="1006697736"/>
  <nd ref="1006697738"/>
  <nd ref="1006697740"/>
  <nd ref="1006697741"/>
  <nd ref="1006697742"/>
  <nd ref="1006697743"/>
  <nd ref="1006697744"/>
  <nd ref="1006697746"/>
  <nd ref="1006697754"/>
  <nd ref="1006697755"/>
  <nd ref="1006697756"/>
  <nd ref="1006697757"/>
  <nd ref="1006697759"/>
  <nd ref="4897685179"/>
  <nd ref="1006697761"/>
  <nd ref="1006697764"/>
  <nd ref="1006697766"/>
  <nd ref="1006697769"/>
  <nd ref="1006697770"/>
  <nd ref="1006697771"/>
  <nd ref="1006697772"/>
  <nd ref="1006697774"/>
  <nd ref="1006697776"/>
  <nd ref="1006697779"/>
  <nd ref="1006697782"/>
  <nd ref="1006697785"/>
  <nd ref="1006697787"/>
  <nd ref="1006697790"/>
  <nd ref="1006697792"/>
  <nd ref="1006697801"/>
  <nd ref="1006697804"/>
  <nd ref="1006697806"/>
  <nd ref="1006697808"/>
  <nd ref="1006697811"/>
  <nd ref="1006697815"/>
  <nd ref="1006697819"/>
  <nd ref="1006697822"/>
  <nd ref="1006697825"/>
  <nd ref="1006697827"/>
  <nd ref="1006697828"/>
  <nd ref="1006697830"/>
  <nd ref="1006697832"/>
  <nd ref="1006697547"/>
  <tag k="natural" v="wood"/>
 </way>
 <way id="354327332" visible="true" version="8" changeset="140389156" timestamp="2023-08-25T21:14:19Z" user="dpolovinkin" uid="6710042">
  <nd ref="3600600108"/>
  <nd ref="3600600104"/>
  <nd ref="3600600100"/>
  <nd ref="3600600096"/>
  <nd ref="3600598692"/>
  <nd ref="3600598690"/>
  <nd ref="3600598688"/>
  <nd ref="1006682261"/>
  <nd ref="1006682264"/>
  <nd ref="1006682267"/>
  <nd ref="1006682271"/>
  <nd ref="1006682274"/>
  <nd ref="1006682279"/>
  <nd ref="1006682282"/>
  <nd ref="11144746663"/>
  <nd ref="1006682284"/>
  <nd ref="1006682306"/>
  <nd ref="1006682308"/>
  <nd ref="1006682310"/>
  <nd ref="1006682312"/>
  <nd ref="1006682314"/>
  <nd ref="1006682317"/>
  <nd ref="1006682320"/>
  <nd ref="1006682322"/>
  <nd ref="5055734453"/>
  <nd ref="1006682325"/>
  <nd ref="1006682328"/>
  <nd ref="1006682331"/>
  <nd ref="1006682333"/>
  <nd ref="1006682335"/>
  <nd ref="1006682175"/>
  <nd ref="1006682177"/>
  <nd ref="1006682179"/>
  <nd ref="1006682183"/>
  <nd ref="1006682186"/>
  <nd ref="1006682189"/>
  <nd ref="1006682192"/>
  <nd ref="1006682195"/>
  <nd ref="1006682199"/>
  <nd ref="1006682202"/>
  <nd ref="1006682203"/>
  <nd ref="1006682205"/>
  <nd ref="1006682207"/>
  <nd ref="1006682209"/>
  <nd ref="1006682212"/>
  <nd ref="1006682215"/>
  <nd ref="1006682217"/>
  <nd ref="1006682220"/>
  <nd ref="1006682223"/>
  <nd ref="1006682225"/>
  <nd ref="1006682236"/>
  <nd ref="1006682239"/>
  <nd ref="1006682241"/>
  <nd ref="1006682244"/>
  <nd ref="1006682250"/>
  <nd ref="6005954993"/>
  <nd ref="1006682252"/>
  <nd ref="1006682254"/>
  <nd ref="1006682257"/>
  <nd ref="1006682259"/>
  <nd ref="3600598689"/>
  <nd ref="3600600093"/>
  <nd ref="3600600097"/>
  <nd ref="3600600102"/>
  <nd ref="3600600109"/>
  <nd ref="3600600110"/>
  <nd ref="3600600116"/>
  <nd ref="3600600111"/>
  <nd ref="3600600112"/>
  <nd ref="3600600115"/>
  <nd ref="3600600117"/>
  <nd ref="3600600120"/>
  <nd ref="3600600121"/>
  <nd ref="3590831246"/>
  <nd ref="3590831249"/>
  <nd ref="3590831252"/>
  <nd ref="3590831256"/>
  <nd ref="3590831255"/>
  <nd ref="3590831258"/>
  <nd ref="3590831253"/>
  <nd ref="3590831257"/>
  <nd ref="3590831254"/>
  <nd ref="1006697716"/>
  <nd ref="1006697710"/>
  <nd ref="1006697709"/>
  <nd ref="1006697708"/>
  <nd ref="1006697707"/>
  <nd ref="1006697705"/>
  <nd ref="1006697703"/>
  <nd ref="1006697701"/>
  <nd ref="1006697699"/>
  <nd ref="1006697697"/>
  <nd ref="1006697694"/>
  <nd ref="1006697692"/>
  <nd ref="1006697691"/>
  <nd ref="1006697690"/>
  <nd ref="8559027702"/>
  <nd ref="1006697689"/>
  <nd ref="1006697688"/>
  <nd ref="1006697685"/>
  <nd ref="8559027703"/>
  <nd ref="1006697683"/>
  <nd ref="1006697680"/>
  <nd ref="8559027704"/>
  <nd ref="1006697678"/>
  <nd ref="1006697676"/>
  <nd ref="8559027705"/>
  <nd ref="1006697673"/>
  <nd ref="1006697670"/>
  <nd ref="1006697668"/>
  <nd ref="1006697665"/>
  <nd ref="1006697663"/>
  <nd ref="1006697662"/>
  <nd ref="1006697661"/>
  <nd ref="8559041828"/>
  <nd ref="8559041829"/>
  <nd ref="8559041831"/>
  <nd ref="8559041830"/>
  <nd ref="1006697660"/>
  <nd ref="8559041848"/>
  <nd ref="8559041832"/>
  <nd ref="8559041833"/>
  <nd ref="8559041837"/>
  <nd ref="8559041836"/>
  <nd ref="8559041835"/>
  <nd ref="8559041834"/>
  <nd ref="8559041842"/>
  <nd ref="8559041838"/>
  <nd ref="8559041839"/>
  <nd ref="8559041841"/>
  <nd ref="8559041840"/>
  <nd ref="8559041843"/>
  <nd ref="8559041844"/>
  <nd ref="1006697658"/>
  <nd ref="1006697656"/>
  <nd ref="8559041845"/>
  <nd ref="8559041846"/>
  <nd ref="8559041847"/>
  <nd ref="1006697654"/>
  <nd ref="8559027706"/>
  <nd ref="1006697652"/>
  <nd ref="1006697649"/>
  <nd ref="1006697647"/>
  <nd ref="1006697645"/>
  <nd ref="1006697644"/>
  <nd ref="1006697643"/>
  <nd ref="8559027707"/>
  <nd ref="8559027708"/>
  <nd ref="8559027709"/>
  <nd ref="8559027710"/>
  <nd ref="8559027711"/>
  <nd ref="8559027712"/>
  <nd ref="1006697642"/>
  <nd ref="1006697641"/>
  <nd ref="1006697633"/>
  <nd ref="8559027716"/>
  <nd ref="1006697630"/>
  <nd ref="1006697629"/>
  <nd ref="1006697628"/>
  <nd ref="1006697627"/>
  <nd ref="1006697625"/>
  <nd ref="8559027715"/>
  <nd ref="8559027713"/>
  <nd ref="8559027714"/>
  <nd ref="1006697621"/>
  <nd ref="1006697617"/>
  <nd ref="1006697614"/>
  <nd ref="1006697611"/>
  <nd ref="1006697608"/>
  <nd ref="1006697605"/>
  <nd ref="1006697603"/>
  <nd ref="1006697602"/>
  <nd ref="1006697601"/>
  <nd ref="1006697599"/>
  <nd ref="1006697597"/>
  <nd ref="1006697593"/>
  <nd ref="1006697588"/>
  <nd ref="1006697585"/>
  <nd ref="1006697574"/>
  <nd ref="1006697572"/>
  <nd ref="1006697570"/>
  <nd ref="9136759725"/>
  <nd ref="1006697568"/>
  <nd ref="1006697565"/>
  <nd ref="1006697561"/>
  <nd ref="1006697558"/>
  <nd ref="1006697554"/>
  <nd ref="1006697551"/>
  <nd ref="1006697547"/>
  <nd ref="1006697832"/>
  <nd ref="1006697830"/>
  <nd ref="1006697828"/>
  <nd ref="1006697827"/>
  <nd ref="1006697825"/>
  <nd ref="1006697822"/>
  <nd ref="1006697819"/>
  <nd ref="1006697815"/>
  <nd ref="1006697811"/>
  <nd ref="1006697808"/>
  <nd ref="1006697806"/>
  <nd ref="1006697804"/>
  <nd ref="1006697801"/>
  <nd ref="1006697792"/>
  <nd ref="1006697790"/>
  <nd ref="1006697787"/>
  <nd ref="1006697785"/>
  <nd ref="1006697782"/>
  <nd ref="1006697779"/>
  <nd ref="1006697776"/>
  <nd ref="1006697774"/>
  <nd ref="1006697772"/>
  <nd ref="1006697771"/>
  <nd ref="1006697770"/>
  <nd ref="1006697769"/>
  <nd ref="1006697766"/>
 </way>
 <way id="361305472" visible="true" version="5" changeset="134503756" timestamp="2023-04-04T16:24:32Z" user="CometSeeker" uid="231327">
  <nd ref="3603430310"/>
  <nd ref="8095710974"/>
  <nd ref="695151220"/>
  <nd ref="695151221"/>
  <nd ref="1470635330"/>
  <nd ref="1470635309"/>
  <nd ref="1470635298"/>
  <nd ref="5723216541"/>
  <nd ref="695151222"/>
  <nd ref="9136759831"/>
  <nd ref="1470635338"/>
  <nd ref="1470635328"/>
  <nd ref="9136759830"/>
  <nd ref="695151223"/>
  <nd ref="695151226"/>
  <nd ref="1118300870"/>
  <nd ref="730545839"/>
  <nd ref="730545840"/>
  <nd ref="1479953836"/>
  <nd ref="730545841"/>
  <nd ref="9136759668"/>
  <nd ref="1470634491"/>
  <nd ref="9136759667"/>
  <nd ref="1479953837"/>
  <nd ref="10784742061"/>
  <nd ref="730545843"/>
  <nd ref="10784742060"/>
  <nd ref="10784742056"/>
  <nd ref="10784742057"/>
  <nd ref="10784742058"/>
  <nd ref="10784742059"/>
  <nd ref="1470634492"/>
  <nd ref="10784742048"/>
  <nd ref="10784742049"/>
  <nd ref="10784742050"/>
  <nd ref="1470634493"/>
  <nd ref="1470634469"/>
  <nd ref="1470634470"/>
  <nd ref="1470634471"/>
  <nd ref="1470634472"/>
  <nd ref="1470634473"/>
  <nd ref="1470634474"/>
  <nd ref="730549577"/>
  <tag k="highway" v="track"/>
  <tag k="surface" v="dirt"/>
  <tag k="tracktype" v="grade4"/>
 </way>
 <way id="498318914" visible="true" version="3" changeset="101688258" timestamp="2021-03-25T05:26:01Z" user="misha yakin" uid="384109">
  <nd ref="8559041817"/>
  <nd ref="8559041818"/>
  <nd ref="8559041819"/>
  <nd ref="8559041820"/>
  <nd ref="8559041821"/>
  <nd ref="4897685205"/>
  <nd ref="4897685204"/>
  <nd ref="8559041822"/>
  <nd ref="4897685203"/>
  <nd ref="8559041827"/>
  <nd ref="4897685202"/>
  <nd ref="4897685201"/>
  <nd ref="8559027701"/>
  <nd ref="4897685200"/>
  <nd ref="4897685199"/>
  <nd ref="4897685198"/>
  <nd ref="4897685197"/>
  <tag k="waterway" v="stream"/>
 </way>
 <way id="780202181" visible="true" version="11" changeset="188353444" timestamp="2026-09-01T09:39:11Z" user="Tim Apelov" uid="10074340">
  <nd ref="7284961527"/>
  <nd ref="4895038135"/>
  <nd ref="4895038134"/>
  <nd ref="12026314696"/>
  <nd ref="13926210090"/>
  <nd ref="12026314702"/>
  <nd ref="3603430309"/>
  <nd ref="695151212"/>
  <nd ref="9841082566"/>
  <nd ref="695151213"/>
  <nd ref="9841082567"/>
  <nd ref="1470635305"/>
  <nd ref="9841082568"/>
  <nd ref="7588983453"/>
  <nd ref="695151215"/>
  <nd ref="695151216"/>
  <nd ref="14139585550"/>
  <nd ref="1006677953"/>
  <nd ref="1423733193"/>
  <nd ref="1423733194"/>
  <nd ref="695151218"/>
  <nd ref="1470635341"/>
  <nd ref="8625397189"/>
  <tag k="highway" v="tertiary"/>
  <tag k="lanes" v="2"/>
  <tag k="name" v="Центральная улица"/>
  <tag k="name:en" v="Tsentralnaya street"/>
  <tag k="name:ru" v="Центральная улица"/>
  <tag k="surface" v="concrete"/>
 </way>
 <way id="921925783" visible="true" version="1" changeset="101688258" timestamp="2021-03-25T05:26:00Z" user="misha yakin" uid="384109">
  <nd ref="8559041920"/>
  <nd ref="8559041919"/>
  <nd ref="8559041918"/>
  <nd ref="8559041917"/>
  <nd ref="8559041853"/>
  <nd ref="8559041851"/>
  <nd ref="8559041850"/>
  <nd ref="8559041849"/>
  <nd ref="8559041852"/>
  <nd ref="8559041854"/>
  <nd ref="8559041916"/>
  <nd ref="8559041915"/>
  <nd ref="8559041914"/>
  <nd ref="8559041913"/>
  <nd ref="8559041912"/>
  <nd ref="8559041911"/>
  <nd ref="8559041910"/>
  <nd ref="8559041909"/>
  <nd ref="8559041908"/>
  <nd ref="8559041907"/>
  <nd ref="8559041906"/>
  <nd ref="8559041905"/>
  <nd ref="8559041904"/>
  <nd ref="8559041903"/>
  <nd ref="8559041902"/>
  <nd ref="8559041901"/>
  <nd ref="8559041900"/>
  <nd ref="8559041899"/>
  <nd ref="8559041898"/>
  <nd ref="8559041897"/>
  <nd ref="8559041896"/>
  <nd ref="8559041895"/>
  <nd ref="8559041894"/>
  <nd ref="8559041893"/>
  <nd ref="8559041892"/>
  <nd ref="8559041891"/>
  <nd ref="8559041890"/>
  <nd ref="8559041889"/>
  <nd ref="8559041888"/>
  <nd ref="8559041887"/>
  <nd ref="8559041886"/>
  <nd ref="8559041885"/>
  <nd ref="8559041884"/>
  <nd ref="8559041883"/>
  <nd ref="8559041882"/>
  <nd ref="8559041881"/>
  <nd ref="8559041880"/>
  <nd ref="8559041879"/>
  <nd ref="8559041878"/>
  <nd ref="8559041877"/>
  <nd ref="8559041876"/>
  <nd ref="8559041875"/>
  <nd ref="8559041874"/>
  <nd ref="8559041873"/>
  <nd ref="8559041872"/>
  <nd ref="8559041871"/>
  <nd ref="8559041870"/>
  <nd ref="8559041869"/>
  <nd ref="8559041868"/>
  <nd ref="8559041867"/>
  <nd ref="8559041866"/>
  <nd ref="8559041920"/>
  <tag k="natural" v="scrub"/>
 </way>
 <way id="930203337" visible="true" version="4" changeset="152836866" timestamp="2024-06-18T08:39:35Z" user="Глеб" uid="346125">
  <nd ref="8625397189"/>
  <nd ref="3603430310"/>
  <tag k="highway" v="tertiary"/>
  <tag k="lanes" v="2"/>
  <tag k="maxspeed" v="40"/>
  <tag k="name" v="Центральная улица"/>
  <tag k="name:en" v="Tsentralnaya street"/>
  <tag k="name:ru" v="Центральная улица"/>
  <tag k="surface" v="concrete"/>
 </way>
 <way id="930203338" visible="true" version="3" changeset="122751278" timestamp="2022-06-23T10:06:45Z" user="toorboalex" uid="463102">
  <nd ref="3603430310"/>
  <nd ref="9841082569"/>
  <nd ref="1423733240"/>
  <tag k="highway" v="unclassified"/>
  <tag k="lanes" v="2"/>
  <tag k="maxspeed" v="40"/>
  <tag k="surface" v="concrete"/>
 </way>
 <way id="1120295204" visible="true" version="8" changeset="140906567" timestamp="2023-09-06T18:05:34Z" user="Corsa5" uid="7731115">
  <nd ref="3603430310"/>
  <nd ref="10246394754"/>
  <nd ref="10246394755"/>
  <nd ref="10246394756"/>
  <nd ref="10246394757"/>
  <nd ref="11163133919"/>
  <nd ref="10246394758"/>
  <nd ref="10246394759"/>
  <nd ref="10246394760"/>
  <nd ref="10246394761"/>
  <nd ref="11159800476"/>
  <nd ref="10246394762"/>
  <nd ref="10246394763"/>
  <nd ref="10246394764"/>
  <nd ref="10246394765"/>
  <nd ref="10246394766"/>
  <nd ref="10246394767"/>
  <nd ref="10246394768"/>
  <nd ref="10246394769"/>
  <nd ref="10246394770"/>
  <nd ref="10246394771"/>
  <nd ref="10246394772"/>
  <tag k="access" v="yes"/>
  <tag k="highway" v="unclassified"/>
  <tag k="lanes" v="2"/>
  <tag k="maxspeed" v="40"/>
  <tag k="oneway" v="no"/>
  <tag k="ref" v="16:15:041001:6266"/>
  <tag k="surface" v="asphalt"/>
 </way>
 <way id="1217505816" visible="true" version="1" changeset="142960250" timestamp="2023-10-22T09:50:31Z" user="dpolovinkin" uid="6710042">
  <nd ref="11281111582"/>
  <nd ref="11281111583"/>
  <nd ref="11281111584"/>
  <nd ref="11281111585"/>
  <nd ref="11281111586"/>
  <nd ref="11281111587"/>
  <nd ref="11281111588"/>
  <nd ref="11281111589"/>
  <nd ref="11281111582"/>
  <tag k="natural" v="grassland"/>
 </way>
 <way id="1217505818" visible="true" version="1" changeset="142960250" timestamp="2023-10-22T09:50:31Z" user="dpolovinkin" uid="6710042">
  <nd ref="11281111604"/>
  <nd ref="11281111605"/>
  <nd ref="11281111606"/>
  <nd ref="11281111607"/>
  <nd ref="11281111608"/>
  <nd ref="11281111609"/>
  <nd ref="11281111610"/>
  <nd ref="11281111611"/>
  <nd ref="11281111612"/>
  <nd ref="11281111604"/>
  <tag k="natural" v="scrub"/>
 </way>
 <way id="1554174957" visible="true" version="1" changeset="188353444" timestamp="2026-09-01T09:39:11Z" user="Tim Apelov" uid="10074340">
  <nd ref="8095710974"/>
  <nd ref="14139585565"/>
  <nd ref="14139585566"/>
  <nd ref="14139585567"/>
  <nd ref="14139585568"/>
  <tag k="highway" v="path"/>
 </way>
 <relation id="5293421" visible="true" version="23" changeset="173198754" timestamp="2025-10-12T20:29:49Z" user="Глеб" uid="346125">
  <member type="way" ref="354327333" role="outer"/>
  <member type="way" ref="354327340" role="outer"/>
  <member type="way" ref="484689883" role="outer"/>
  <member type="way" ref="362608058" role="outer"/>
  <member type="way" ref="362608060" role="outer"/>
  <member type="way" ref="362608065" role="outer"/>
  <member type="way" ref="1329322131" role="outer"/>
  <member type="way" ref="362608063" role="outer"/>
  <member type="way" ref="484672733" role="outer"/>
  <member type="way" ref="484703853" role="outer"/>
  <member type="way" ref="354327341" role="outer"/>
  <member type="way" ref="354327332" role="outer"/>
  <member type="way" ref="354327343" role="outer"/>
  <member type="way" ref="1320487729" role="outer"/>
  <member type="way" ref="354327334" role="outer"/>
  <member type="way" ref="354327335" role="outer"/>
  <member type="way" ref="354327336" role="outer"/>
  <member type="way" ref="354327337" role="outer"/>
  <tag k="addr:city" v="Иннополис"/>
  <tag k="contact:facebook" v="https://www.facebook.com/innopolis.ru"/>
  <tag k="contact:instagram" v="https://instagram.com/innopolis/"/>
  <tag k="contact:telegram" v="https://t.me/InnoHelpBot"/>
  <tag k="contact:twitter" v="https://twitter.com/InnopolisRUS"/>
  <tag k="contact:vk" v="https://vk.com/innopolis"/>
  <tag k="ele" v="100"/>
  <tag k="name" v="Иннополис"/>
  <tag k="name:en" v="Innopolis"/>
  <tag k="name:ru" v="Иннополис"/>
  <tag k="name:tt" v="Иннополис"/>
  <tag k="official_status" v="ru:город"/>
  <tag k="phone" v="+7 800 2222287"/>
  <tag k="place" v="town"/>
  <tag k="postal_code" v="420500"/>
  <tag k="type" v="multipolygon"/>
  <tag k="website" v="https://www.innopolis.ru/"/>
  <tag k="wheelchair" v="yes"/>
  <tag k="wikidata" v="Q4201239"/>
  <tag k="wikipedia" v="ru:Иннополис"/>
 </relation>
 <relation id="16292925" visible="true" version="1" changeset="140906638" timestamp="2023-09-06T18:07:05Z" user="Corsa5" uid="7731115">
  <member type="way" ref="780202180" role="from"/>
  <member type="node" ref="7284961527" role="via"/>
  <member type="way" ref="780202181" role="to"/>
  <tag k="restriction" v="only_straight_on"/>
  <tag k="type" v="restriction"/>
 </relation>
 <relation id="16292928" visible="true" version="1" changeset="140906638" timestamp="2023-09-06T18:07:05Z" user="Corsa5" uid="7731115">
  <member type="way" ref="780202181" role="from"/>
  <member type="node" ref="7284961527" role="via"/>
  <member type="way" ref="440709123" role="to"/>
  <tag k="restriction" v="only_straight_on"/>
  <tag k="type" v="restriction"/>
 </relation>
</osm>
