<?xml version="1.0" encoding="UTF-8"?>
<osm version="0.6" generator="openstreetmap-cgimap 2.1.0 (244694 spike-07.openstreetmap.org)" copyright="OpenStreetMap and contributors" attribution="http://www.openstreetmap.org/copyright" license="http://opendatacommons.org/licenses/odbl/1-0/">
 <bounds minlat="55.7659238" minlon="48.7280369" maxlat="55.7686188" maxlon="48.7328274"/>
 <node id="9136759501" visible="true" version="1" changeset="111944385" timestamp="2021-10-01T05:14:35Z" user="misha yakin" uid="384109" lat="55.7702819" lon="48.7268972"/>
 <node id="9136759502" visible="true" version="1" changeset="111944385" timestamp="2021-10-01T05:14:35Z" user="misha yakin" uid="384109" lat="55.7701522" lon="48.7270260"/>
 <node id="9136759503" visible="true" version="1" changeset="111944385" timestamp="2021-10-01T05:14:35Z" user="misha yakin" uid="384109" lat="55.7702005" lon="48.7273693"/>
 <node id="9136759504" visible="true" version="1" changeset="111944385" timestamp="2021-10-01T05:14:35Z" user="misha yakin" uid="384109" lat="55.7700254" lon="48.7276375"/>
 <node id="9136759505" visible="true" version="1" changeset="111944385" timestamp="2021-10-01T05:14:35Z" user="misha yakin" uid="384109" lat="55.7698987" lon="48.7271976"/>
 <node id="9136759506" visible="true" version="1" changeset="111944385" timestamp="2021-10-01T05:14:35Z" user="misha yakin" uid="384109" lat="55.7698021" lon="48.7276375"/>
 <node id="9136759507" visible="true" version="1" changeset="111944385" timestamp="2021-10-01T05:14:35Z" user="misha yakin" uid="384109" lat="55.7696271" lon="48.7271976"/>
 <node id="9136759508" visible="true" version="1" changeset="111944385" timestamp="2021-10-01T05:14:35Z" user="misha yakin" uid="384109" lat="55.7694883" lon="48.7274015"/>
 <node id="9136759509" visible="true" version="1" changeset="111944385" timestamp="2021-10-01T05:14:35Z" user="misha yakin" uid="384109" lat="55.7693495" lon="48.7271225"/>
 <node id="9136759510" visible="true" version="1" changeset="111944385" timestamp="2021-10-01T05:14:35Z" user="misha yakin" uid="384109" lat="55.7691202" lon="48.7272513"/>
 <node id="9136759511" visible="true" version="1" changeset="111944385" timestamp="2021-10-01T05:14:35Z" user="misha yakin" uid="384109" lat="55.7688606" lon="48.7268221"/>
 <node id="9136759512" visible="true" version="1" changeset="111944385" timestamp="2021-10-01T05:14:35Z" user="misha yakin" uid="384109" lat="55.7688606" lon="48.7263608"/>
 <node id="9136759513" visible="true" version="1" changeset="111944385" timestamp="2021-10-01T05:14:35Z" user="misha yakin" uid="384109" lat="55.7687460" lon="48.7262750"/>
 <node id="9136759514" visible="true" version="1" changeset="111944385" timestamp="2021-10-01T05:14:35Z" user="misha yakin" uid="384109" lat="55.7685770" lon="48.7268114"/>
 <node id="9136759515" visible="true" version="1" changeset="111944385" timestamp="2021-10-01T05:14:35Z" user="misha yakin" uid="384109" lat="55.7688063" lon="48.7272513"/>
 <node id="9136759516" visible="true" version="1" changeset="111944385" timestamp="2021-10-01T05:14:35Z" user="misha yakin" uid="384109" lat="55.7685528" lon="48.7276590"/>
 <node id="9136759517" visible="true" version="1" changeset="111944385" timestamp="2021-10-01T05:14:35Z" user="misha yakin" uid="384109" lat="55.7687339" lon="48.7280989"/>
 <node id="9136759518" visible="true" version="1" changeset="111944385" timestamp="2021-10-01T05:14:35Z" user="misha yakin" uid="384109" lat="55.7685891" lon="48.7284315"/>
 <node id="9136759519" visible="true" version="1" changeset="111944385" timestamp="2021-10-01T05:14:35Z" user="misha yakin" uid="384109" lat="55.7686373" lon="48.7286675"/>
 <node id="9136759520" visible="true" version="1" changeset="111944385" timestamp="2021-10-01T05:14:35Z" user="misha yakin" uid="384109" lat="55.7688425" lon="48.7286138"/>
 <node id="9136759521" visible="true" version="1" changeset="111944385" timestamp="2021-10-01T05:14:35Z" user="misha yakin" uid="384109" lat="55.7689572" lon="48.7287748"/>
 <node id="9136759522" visible="true" version="1" changeset="111944385" timestamp="2021-10-01T05:14:35Z" user="misha yakin" uid="384109" lat="55.7688365" lon="48.7290215"/>
 <node id="9136759523" visible="true" version="1" changeset="111944385" timestamp="2021-10-01T05:14:35Z" user="misha yakin" uid="384109" lat="55.7689150" lon="48.7292147"/>
 <node id="9136759524" visible="true" version="1" changeset="111944385" timestamp="2021-10-01T05:14:35Z" user="misha yakin" uid="384109" lat="55.7687701" lon="48.7296116"/>
 <node id="9136759525" visible="true" version="1" changeset="111944385" timestamp="2021-10-01T05:14:35Z" user="misha yakin" uid="384109" lat="55.7685649" lon="48.7291396"/>
 <node id="9136759526" visible="true" version="1" changeset="111944385" timestamp="2021-10-01T05:14:35Z" user="misha yakin" uid="384109" lat="55.7684382" lon="48.7291825"/>
 <node id="9136759527" visible="true" version="1" changeset="111944385" timestamp="2021-10-01T05:14:35Z" user="misha yakin" uid="384109" lat="55.7684985" lon="48.7288284"/>
 <node id="9136759528" visible="true" version="1" changeset="111944385" timestamp="2021-10-01T05:14:35Z" user="misha yakin" uid="384109" lat="55.7683899" lon="48.7286138"/>
 <node id="9136759529" visible="true" version="1" changeset="111944385" timestamp="2021-10-01T05:14:35Z" user="misha yakin" uid="384109" lat="55.7682149" lon="48.7291717"/>
 <node id="9136759530" visible="true" version="1" changeset="111944385" timestamp="2021-10-01T05:14:35Z" user="misha yakin" uid="384109" lat="55.7683597" lon="48.7298477"/>
 <node id="9136759531" visible="true" version="1" changeset="111944385" timestamp="2021-10-01T05:14:35Z" user="misha yakin" uid="384109" lat="55.7681424" lon="48.7302875"/>
 <node id="9136759532" visible="true" version="1" changeset="111944385" timestamp="2021-10-01T05:14:35Z" user="misha yakin" uid="384109" lat="55.7683235" lon="48.7306631"/>
 <node id="9136759533" visible="true" version="1" changeset="111944385" timestamp="2021-10-01T05:14:35Z" user="misha yakin" uid="384109" lat="55.7682450" lon="48.7309849"/>
 <node id="9136759534" visible="true" version="1" changeset="111944385" timestamp="2021-10-01T05:14:35Z" user="misha yakin" uid="384109" lat="55.7682541" lon="48.7311727"/>
 <node id="9136759535" visible="true" version="1" changeset="111944385" timestamp="2021-10-01T05:14:35Z" user="misha yakin" uid="384109" lat="55.7684050" lon="48.7310654"/>
 <node id="9136759536" visible="true" version="1" changeset="111944385" timestamp="2021-10-01T05:14:35Z" user="misha yakin" uid="384109" lat="55.7685649" lon="48.7311941"/>
 <node id="9136759537" visible="true" version="1" changeset="111944385" timestamp="2021-10-01T05:14:35Z" user="misha yakin" uid="384109" lat="55.7688425" lon="48.7310547"/>
 <node id="9136759538" visible="true" version="1" changeset="111944385" timestamp="2021-10-01T05:14:35Z" user="misha yakin" uid="384109" lat="55.7688969" lon="48.7313390"/>
 <node id="9136759539" visible="true" version="1" changeset="111944385" timestamp="2021-10-01T05:14:35Z" user="misha yakin" uid="384109" lat="55.7691232" lon="48.7312692"/>
 <node id="9136759540" visible="true" version="1" changeset="111944385" timestamp="2021-10-01T05:14:35Z" user="misha yakin" uid="384109" lat="55.7692378" lon="48.7307918"/>
 <node id="9136759541" visible="true" version="1" changeset="111944385" timestamp="2021-10-01T05:14:35Z" user="misha yakin" uid="384109" lat="55.7694461" lon="48.7311190"/>
 <node id="9136759542" visible="true" version="1" changeset="111944385" timestamp="2021-10-01T05:14:35Z" user="misha yakin" uid="384109" lat="55.7695034" lon="48.7307811"/>
 <node id="9136759543" visible="true" version="1" changeset="111944385" timestamp="2021-10-01T05:14:35Z" user="misha yakin" uid="384109" lat="55.7698715" lon="48.7308025"/>
 <node id="9136759544" visible="true" version="1" changeset="111944385" timestamp="2021-10-01T05:14:35Z" user="misha yakin" uid="384109" lat="55.7702125" lon="48.7304538"/>
 <node id="9136759545" visible="true" version="1" changeset="111944385" timestamp="2021-10-01T05:14:35Z" user="misha yakin" uid="384109" lat="55.7703332" lon="48.7305772"/>
 <node id="9136759546" visible="true" version="1" changeset="111944385" timestamp="2021-10-01T05:14:35Z" user="misha yakin" uid="384109" lat="55.7704117" lon="48.7306148"/>
 <node id="9136759547" visible="true" version="1" changeset="111944385" timestamp="2021-10-01T05:14:35Z" user="misha yakin" uid="384109" lat="55.7704328" lon="48.7313604"/>
 <node id="9136759548" visible="true" version="1" changeset="111944385" timestamp="2021-10-01T05:14:35Z" user="misha yakin" uid="384109" lat="55.7705022" lon="48.7316877"/>
 <node id="9136759549" visible="true" version="1" changeset="111944385" timestamp="2021-10-01T05:14:35Z" user="misha yakin" uid="384109" lat="55.7705958" lon="48.7316716"/>
 <node id="9136759550" visible="true" version="1" changeset="111944385" timestamp="2021-10-01T05:14:35Z" user="misha yakin" uid="384109" lat="55.7706229" lon="48.7314302"/>
 <node id="9136759551" visible="true" version="1" changeset="111944385" timestamp="2021-10-01T05:14:35Z" user="misha yakin" uid="384109" lat="55.7706229" lon="48.7305504"/>
 <node id="9136759552" visible="true" version="1" changeset="111944385" timestamp="2021-10-01T05:14:35Z" user="misha yakin" uid="384109" lat="55.7706290" lon="48.7294239"/>
 <node id="9136759553" visible="true" version="1" changeset="111944385" timestamp="2021-10-01T05:14:35Z" user="misha yakin" uid="384109" lat="55.7705656" lon="48.7274337"/>
 <node id="9136759554" visible="true" version="1" changeset="111944385" timestamp="2021-10-01T05:14:35Z" user="misha yakin" uid="384109" lat="55.7705022" lon="48.7273157"/>
 <node id="9136759555" visible="true" version="1" changeset="111944385" timestamp="2021-10-01T05:14:35Z" user="misha yakin" uid="384109" lat="55.7704932" lon="48.7270904"/>
 <node id="9136759556" visible="true" version="1" changeset="111944385" timestamp="2021-10-01T05:14:35Z" user="misha yakin" uid="384109" lat="55.7704117" lon="48.7268919"/>
 <way id="988485284" visible="true" version="1" changeset="111944385" timestamp="2021-10-01T05:14:35Z" user="misha yakin" uid="384109">
  <nd ref="9136759556"/>
  <nd ref="9136759555"/>
  <nd ref="9136759554"/>
  <nd ref="9136759553"/>
  <nd ref="9136759552"/>
  <nd ref="9136759551"/>
  <nd ref="9136759550"/>
  <nd ref="9136759549"/>
  <nd ref="9136759548"/>
  <nd ref="9136759547"/>
  <nd ref="9136759546"/>
  <nd ref="9136759545"/>
  <nd ref="9136759544"/>
  <nd ref="9136759543"/>
  <nd ref="9136759542"/>
  <nd ref="9136759541"/>
  <nd ref="9136759540"/>
  <nd ref="9136759539"/>
  <nd ref="9136759538"/>
  <nd ref="9136759537"/>
  <nd ref="9136759536"/>
  <nd ref="9136759535"/>
  <nd ref="9136759534"/>
  <nd ref="9136759533"/>
  <nd ref="9136759532"/>
  <nd ref="9136759531"/>
  <nd ref="9136759530"/>
  <nd ref="9136759529"/>
  <nd ref="9136759528"/>
  <nd ref="9136759527"/>
  <nd ref="9136759526"/>
  <nd ref="9136759525"/>
  <nd ref="9136759524"/>
  <nd ref="9136759523"/>
  <nd ref="9136759522"/>
  <nd ref="9136759521"/>
  <nd ref="9136759520"/>
  <nd ref="9136759519"/>
  <nd ref="9136759518"/>
  <nd ref="9136759517"/>
  <nd ref="9136759516"/>
  <nd ref="9136759515"/>
  <nd ref="9136759514"/>
  <nd ref="9136759513"/>
  <nd ref="9136759512"/>
  <nd ref="9136759511"/>
  <nd ref="9136759510"/>
  <nd ref="9136759509"/>
  <nd ref="9136759508"/>
  <nd ref="9136759507"/>
  <nd ref="9136759506"/>
  <nd ref="9136759505"/>
  <nd ref="9136759504"/>
  <nd ref="9136759503"/>
  <nd ref="9136759502"/>
  <nd ref="9136759501"/>
  <nd ref="9136759556"/>
  <tag k="natural" v="wood"/>
 </way>
</osm>
