<?xml version="1.0" encoding="UTF-8"?>
<osm version="0.6" generator="openstreetmap-cgimap 2.1.0 (244696 spike-07.openstreetmap.org)" copyright="OpenStreetMap and contributors" attribution="http://www.openstreetmap.org/copyright" license="http://opendatacommons.org/licenses/odbl/1-0/">
 <bounds minlat="55.7430169" minlon="48.7551740" maxlat="55.7457118" maxlon="48.7599617"/>
 <node id="2050758789" visible="true" version="1" changeset="14159116" timestamp="2012-12-05T01:26:48Z" user="misha yakin" uid="384109" lat="55.7280292" lon="48.7488604"/>
 <node id="2050758792" visible="true" version="1" changeset="14159116" timestamp="2012-12-05T01:26:48Z" user="misha yakin" uid="384109" lat="55.7283277" lon="48.7516929"/>
 <node id="2050758796" visible="true" version="1" changeset="14159116" timestamp="2012-12-05T01:26:48Z" user="misha yakin" uid="384109" lat="55.7285492" lon="48.7483190"/>
 <node id="2050758800" visible="true" version="1" changeset="14159116" timestamp="2012-12-05T01:26:48Z" user="misha yakin" uid="384109" lat="55.7292231" lon="48.7501883"/>
 <node id="2050758803" visible="true" version="1" changeset="14159116" timestamp="2012-12-05T01:26:48Z" user="misha yakin" uid="384109" lat="55.7295472" lon="48.7544855"/>
 <node id="2050758807" visible="true" version="1" changeset="14159116" timestamp="2012-12-05T01:26:48Z" user="misha yakin" uid="384109" lat="55.7299484" lon="48.7498920"/>
 <node id="2050758809" visible="true" version="1" changeset="14159116" timestamp="2012-12-05T01:26:48Z" user="misha yakin" uid="384109" lat="55.7304041" lon="48.7657870"/>
 <node id="2050758810" visible="true" version="1" changeset="14159116" timestamp="2012-12-05T01:26:48Z" user="misha yakin" uid="384109" lat="55.7309817" lon="48.7521716"/>
 <node id="2050758812" visible="true" version="1" changeset="14159116" timestamp="2012-12-05T01:26:48Z" user="misha yakin" uid="384109" lat="55.7313347" lon="48.7562978"/>
 <node id="2050758814" visible="true" version="1" changeset="14159116" timestamp="2012-12-05T01:26:48Z" user="misha yakin" uid="384109" lat="55.7315144" lon="48.7653823"/>
 <node id="2050758816" visible="true" version="1" changeset="14159116" timestamp="2012-12-05T01:26:48Z" user="misha yakin" uid="384109" lat="55.7316043" lon="48.7547705"/>
 <node id="2050758818" visible="true" version="1" changeset="14159116" timestamp="2012-12-05T01:26:48Z" user="misha yakin" uid="384109" lat="55.7317904" lon="48.7634389"/>
 <node id="2050758819" visible="true" version="1" changeset="14159116" timestamp="2012-12-05T01:26:48Z" user="misha yakin" uid="384109" lat="55.7318867" lon="48.7528156"/>
 <node id="2050758821" visible="true" version="1" changeset="14159116" timestamp="2012-12-05T01:26:48Z" user="misha yakin" uid="384109" lat="55.7319027" lon="48.7507696"/>
 <node id="2050758823" visible="true" version="1" changeset="14159116" timestamp="2012-12-05T01:26:48Z" user="misha yakin" uid="384109" lat="55.7319188" lon="48.7650233"/>
 <node id="2050758825" visible="true" version="1" changeset="14159116" timestamp="2012-12-05T01:26:48Z" user="misha yakin" uid="384109" lat="55.7319348" lon="48.7638834"/>
 <node id="2050758827" visible="true" version="1" changeset="14159116" timestamp="2012-12-05T01:26:48Z" user="misha yakin" uid="384109" lat="55.7319573" lon="48.7648124"/>
 <node id="2050758828" visible="true" version="1" changeset="14159116" timestamp="2012-12-05T01:26:48Z" user="misha yakin" uid="384109" lat="55.7320182" lon="48.7635073"/>
 <node id="2050758830" visible="true" version="1" changeset="14159116" timestamp="2012-12-05T01:26:48Z" user="misha yakin" uid="384109" lat="55.7322557" lon="48.7637980"/>
 <node id="2050758838" visible="true" version="1" changeset="14159116" timestamp="2012-12-05T01:26:48Z" user="misha yakin" uid="384109" lat="55.7325606" lon="48.7604867"/>
 <node id="2050758839" visible="true" version="1" changeset="14159116" timestamp="2012-12-05T01:26:48Z" user="misha yakin" uid="384109" lat="55.7325766" lon="48.7606577"/>
 <node id="2050758841" visible="true" version="1" changeset="14159116" timestamp="2012-12-05T01:26:48Z" user="misha yakin" uid="384109" lat="55.7326151" lon="48.7487920"/>
 <node id="2050758843" visible="true" version="1" changeset="14159116" timestamp="2012-12-05T01:26:48Z" user="misha yakin" uid="384109" lat="55.7327435" lon="48.7602531"/>
 <node id="2050758845" visible="true" version="1" changeset="14159116" timestamp="2012-12-05T01:26:49Z" user="misha yakin" uid="384109" lat="55.7329456" lon="48.7512427"/>
 <node id="2050758847" visible="true" version="1" changeset="14159116" timestamp="2012-12-05T01:26:49Z" user="misha yakin" uid="384109" lat="55.7329649" lon="48.7603386"/>
 <node id="2050758849" visible="true" version="1" changeset="14159116" timestamp="2012-12-05T01:26:49Z" user="misha yakin" uid="384109" lat="55.7329970" lon="48.7609655"/>
 <node id="2050758850" visible="true" version="1" changeset="14159116" timestamp="2012-12-05T01:26:49Z" user="misha yakin" uid="384109" lat="55.7330226" lon="48.7633477"/>
 <node id="2050758852" visible="true" version="1" changeset="14159116" timestamp="2012-12-05T01:26:49Z" user="misha yakin" uid="384109" lat="55.7332184" lon="48.7600992"/>
 <node id="2050758854" visible="true" version="1" changeset="14159116" timestamp="2012-12-05T01:26:49Z" user="misha yakin" uid="384109" lat="55.7332248" lon="48.7426711"/>
 <node id="2050758856" visible="true" version="1" changeset="14159116" timestamp="2012-12-05T01:26:49Z" user="misha yakin" uid="384109" lat="55.7332473" lon="48.7554943"/>
 <node id="2050758858" visible="true" version="1" changeset="14159116" timestamp="2012-12-05T01:26:49Z" user="misha yakin" uid="384109" lat="55.7332842" lon="48.7422075"/>
 <node id="2050758859" visible="true" version="1" changeset="14159116" timestamp="2012-12-05T01:26:49Z" user="misha yakin" uid="384109" lat="55.7333705" lon="48.7420464"/>
 <node id="2050758860" visible="true" version="1" changeset="14159116" timestamp="2012-12-05T01:26:49Z" user="misha yakin" uid="384109" lat="55.7334687" lon="48.7629944"/>
 <node id="2050758861" visible="true" version="1" changeset="14159116" timestamp="2012-12-05T01:26:49Z" user="misha yakin" uid="384109" lat="55.7334911" lon="48.7612333"/>
 <node id="2050758862" visible="true" version="1" changeset="14159116" timestamp="2012-12-05T01:26:49Z" user="misha yakin" uid="384109" lat="55.7335489" lon="48.7452927"/>
 <node id="2050758863" visible="true" version="1" changeset="14159116" timestamp="2012-12-05T01:26:49Z" user="misha yakin" uid="384109" lat="55.7336227" lon="48.7603329"/>
 <node id="2050758864" visible="true" version="1" changeset="14159116" timestamp="2012-12-05T01:26:49Z" user="misha yakin" uid="384109" lat="55.7337199" lon="48.7420181"/>
 <node id="2050758865" visible="true" version="1" changeset="14159116" timestamp="2012-12-05T01:26:49Z" user="misha yakin" uid="384109" lat="55.7337864" lon="48.7458228"/>
 <node id="2050758866" visible="true" version="1" changeset="14159116" timestamp="2012-12-05T01:26:49Z" user="misha yakin" uid="384109" lat="55.7338056" lon="48.7617576"/>
 <node id="2050758867" visible="true" version="1" changeset="14159116" timestamp="2012-12-05T01:26:49Z" user="misha yakin" uid="384109" lat="55.7338345" lon="48.7625498"/>
 <node id="2050758868" visible="true" version="1" changeset="14159116" timestamp="2012-12-05T01:26:49Z" user="misha yakin" uid="384109" lat="55.7338537" lon="48.7603101"/>
 <node id="2050758869" visible="true" version="1" changeset="14159116" timestamp="2012-12-05T01:26:49Z" user="misha yakin" uid="384109" lat="55.7338698" lon="48.7621395"/>
 <node id="2050758870" visible="true" version="1" changeset="14159116" timestamp="2012-12-05T01:26:49Z" user="misha yakin" uid="384109" lat="55.7340103" lon="48.7420625"/>
 <node id="2050758871" visible="true" version="1" changeset="14159116" timestamp="2012-12-05T01:26:49Z" user="misha yakin" uid="384109" lat="55.7341714" lon="48.7462901"/>
 <node id="2050758872" visible="true" version="1" changeset="14159116" timestamp="2012-12-05T01:26:49Z" user="misha yakin" uid="384109" lat="55.7342236" lon="48.7417240"/>
 <node id="2050758874" visible="true" version="1" changeset="14159116" timestamp="2012-12-05T01:26:49Z" user="misha yakin" uid="384109" lat="55.7342869" lon="48.7559787"/>
 <node id="2050758876" visible="true" version="1" changeset="14159116" timestamp="2012-12-05T01:26:49Z" user="misha yakin" uid="384109" lat="55.7343393" lon="48.7417401"/>
 <node id="2050758878" visible="true" version="1" changeset="14159116" timestamp="2012-12-05T01:26:49Z" user="misha yakin" uid="384109" lat="55.7343511" lon="48.7581957"/>
 <node id="2050758879" visible="true" version="1" changeset="14159116" timestamp="2012-12-05T01:26:49Z" user="misha yakin" uid="384109" lat="55.7344602" lon="48.7472817"/>
 <node id="2050758881" visible="true" version="1" changeset="14159116" timestamp="2012-12-05T01:26:49Z" user="misha yakin" uid="384109" lat="55.7344800" lon="48.7419698"/>
 <node id="2050758883" visible="true" version="1" changeset="14159116" timestamp="2012-12-05T01:26:49Z" user="misha yakin" uid="384109" lat="55.7345501" lon="48.7589878"/>
 <node id="2050758885" visible="true" version="1" changeset="14159116" timestamp="2012-12-05T01:26:49Z" user="misha yakin" uid="384109" lat="55.7347522" lon="48.7499661"/>
 <node id="2050758886" visible="true" version="1" changeset="14159116" timestamp="2012-12-05T01:26:49Z" user="misha yakin" uid="384109" lat="55.7347568" lon="48.7427838"/>
 <node id="2050758888" visible="true" version="1" changeset="14159116" timestamp="2012-12-05T01:26:49Z" user="misha yakin" uid="384109" lat="55.7349156" lon="48.7442427"/>
 <node id="2050758890" visible="true" version="1" changeset="14159116" timestamp="2012-12-05T01:26:49Z" user="misha yakin" uid="384109" lat="55.7349292" lon="48.7438638"/>
 <node id="2050758892" visible="true" version="1" changeset="14159116" timestamp="2012-12-05T01:26:49Z" user="misha yakin" uid="384109" lat="55.7349633" lon="48.7431062"/>
 <node id="2050758893" visible="true" version="1" changeset="14159116" timestamp="2012-12-05T01:26:49Z" user="misha yakin" uid="384109" lat="55.7350506" lon="48.7557564"/>
 <node id="2050758895" visible="true" version="1" changeset="14159116" timestamp="2012-12-05T01:26:49Z" user="misha yakin" uid="384109" lat="55.7350994" lon="48.7435495"/>
 <node id="2050758897" visible="true" version="1" changeset="14159116" timestamp="2012-12-05T01:26:49Z" user="misha yakin" uid="384109" lat="55.7351924" lon="48.7447545"/>
 <node id="2050758899" visible="true" version="1" changeset="14159116" timestamp="2012-12-05T01:26:49Z" user="misha yakin" uid="384109" lat="55.7352752" lon="48.7612333"/>
 <node id="2050758901" visible="true" version="1" changeset="14159116" timestamp="2012-12-05T01:26:49Z" user="misha yakin" uid="384109" lat="55.7353587" lon="48.7574833"/>
 <node id="2050758902" visible="true" version="1" changeset="14159116" timestamp="2012-12-05T01:26:49Z" user="misha yakin" uid="384109" lat="55.7354216" lon="48.7446577"/>
 <node id="2050758904" visible="true" version="1" changeset="14159116" timestamp="2012-12-05T01:26:49Z" user="misha yakin" uid="384109" lat="55.7356314" lon="48.7610567"/>
 <node id="2050758911" visible="true" version="1" changeset="14159116" timestamp="2012-12-05T01:26:49Z" user="misha yakin" uid="384109" lat="55.7358336" lon="48.7596888"/>
 <node id="2050758913" visible="true" version="1" changeset="14159116" timestamp="2012-12-05T01:26:49Z" user="misha yakin" uid="384109" lat="55.7358822" lon="48.7437470"/>
 <node id="2050758915" visible="true" version="1" changeset="14159116" timestamp="2012-12-05T01:26:49Z" user="misha yakin" uid="384109" lat="55.7359775" lon="48.7437067"/>
 <node id="2050758916" visible="true" version="1" changeset="14159116" timestamp="2012-12-05T01:26:49Z" user="misha yakin" uid="384109" lat="55.7360433" lon="48.7475633"/>
 <node id="2050758918" visible="true" version="1" changeset="14159116" timestamp="2012-12-05T01:26:49Z" user="misha yakin" uid="384109" lat="55.7360710" lon="48.7603727"/>
 <node id="2050758920" visible="true" version="1" changeset="14159116" timestamp="2012-12-05T01:26:50Z" user="misha yakin" uid="384109" lat="55.7361127" lon="48.7600707"/>
 <node id="2050758921" visible="true" version="1" changeset="14159116" timestamp="2012-12-05T01:26:50Z" user="misha yakin" uid="384109" lat="55.7361159" lon="48.7469911"/>
 <node id="2050758923" visible="true" version="1" changeset="14159116" timestamp="2012-12-05T01:26:50Z" user="misha yakin" uid="384109" lat="55.7361182" lon="48.7478535"/>
 <node id="2050758925" visible="true" version="1" changeset="14159116" timestamp="2012-12-05T01:26:50Z" user="misha yakin" uid="384109" lat="55.7362497" lon="48.7487683"/>
 <node id="2050758927" visible="true" version="1" changeset="14159116" timestamp="2012-12-05T01:26:50Z" user="misha yakin" uid="384109" lat="55.7362747" lon="48.7481597"/>
 <node id="2050758929" visible="true" version="1" changeset="14159116" timestamp="2012-12-05T01:26:50Z" user="misha yakin" uid="384109" lat="55.7362747" lon="48.7499974"/>
 <node id="2050758930" visible="true" version="1" changeset="14159116" timestamp="2012-12-05T01:26:50Z" user="misha yakin" uid="384109" lat="55.7363745" lon="48.7465639"/>
 <node id="2050758932" visible="true" version="1" changeset="14159116" timestamp="2012-12-05T01:26:50Z" user="misha yakin" uid="384109" lat="55.7363859" lon="48.7438558"/>
 <node id="2050758934" visible="true" version="1" changeset="14159116" timestamp="2012-12-05T01:26:50Z" user="misha yakin" uid="384109" lat="55.7364358" lon="48.7506865"/>
 <node id="2050758936" visible="true" version="1" changeset="14159116" timestamp="2012-12-05T01:26:50Z" user="misha yakin" uid="384109" lat="55.7364426" lon="48.7458385"/>
 <node id="2050758937" visible="true" version="1" changeset="14159116" timestamp="2012-12-05T01:26:50Z" user="misha yakin" uid="384109" lat="55.7364880" lon="48.7511459"/>
 <node id="2050758939" visible="true" version="1" changeset="14159116" timestamp="2012-12-05T01:26:50Z" user="misha yakin" uid="384109" lat="55.7365265" lon="48.7440734"/>
 <node id="2050758941" visible="true" version="1" changeset="14159116" timestamp="2012-12-05T01:26:50Z" user="misha yakin" uid="384109" lat="55.7365742" lon="48.7514764"/>
 <node id="2050758943" visible="true" version="1" changeset="14159116" timestamp="2012-12-05T01:26:50Z" user="misha yakin" uid="384109" lat="55.7366990" lon="48.7514683"/>
 <node id="2050758945" visible="true" version="1" changeset="14159116" timestamp="2012-12-05T01:26:50Z" user="misha yakin" uid="384109" lat="55.7367353" lon="48.7449398"/>
 <node id="2050758946" visible="true" version="1" changeset="14159116" timestamp="2012-12-05T01:26:50Z" user="misha yakin" uid="384109" lat="55.7367353" lon="48.7451937"/>
 <node id="2050758948" visible="true" version="1" changeset="14159116" timestamp="2012-12-05T01:26:50Z" user="misha yakin" uid="384109" lat="55.7368646" lon="48.7577872"/>
 <node id="2050758950" visible="true" version="1" changeset="14159116" timestamp="2012-12-05T01:26:50Z" user="misha yakin" uid="384109" lat="55.7369712" lon="48.7538419"/>
 <node id="2050758952" visible="true" version="1" changeset="14159116" timestamp="2012-12-05T01:26:50Z" user="misha yakin" uid="384109" lat="55.7370438" lon="48.7583111"/>
 <node id="2050758954" visible="true" version="1" changeset="14159116" timestamp="2012-12-05T01:26:50Z" user="misha yakin" uid="384109" lat="55.7372299" lon="48.7508679"/>
 <node id="2050758955" visible="true" version="1" changeset="14159116" timestamp="2012-12-05T01:26:50Z" user="misha yakin" uid="384109" lat="55.7375180" lon="48.7541200"/>
 <node id="2050758957" visible="true" version="1" changeset="14159116" timestamp="2012-12-05T01:26:50Z" user="misha yakin" uid="384109" lat="55.7376178" lon="48.7582547"/>
 <node id="2050758959" visible="true" version="1" changeset="14159116" timestamp="2012-12-05T01:26:50Z" user="misha yakin" uid="384109" lat="55.7376882" lon="48.7500175"/>
 <node id="2050758961" visible="true" version="1" changeset="14159116" timestamp="2012-12-05T01:26:50Z" user="misha yakin" uid="384109" lat="55.7378788" lon="48.7501546"/>
 <node id="2050758962" visible="true" version="1" changeset="14159116" timestamp="2012-12-05T01:26:50Z" user="misha yakin" uid="384109" lat="55.7379241" lon="48.7584119"/>
 <node id="2050758964" visible="true" version="1" changeset="14159116" timestamp="2012-12-05T01:26:50Z" user="misha yakin" uid="384109" lat="55.7379423" lon="48.7508759"/>
 <node id="2050758965" visible="true" version="1" changeset="14159116" timestamp="2012-12-05T01:26:50Z" user="misha yakin" uid="384109" lat="55.7379491" lon="48.7504165"/>
 <node id="2050758966" visible="true" version="1" changeset="14159116" timestamp="2012-12-05T01:26:50Z" user="misha yakin" uid="384109" lat="55.7380235" lon="48.7584024"/>
 <node id="2050758967" visible="true" version="1" changeset="14159116" timestamp="2012-12-05T01:26:50Z" user="misha yakin" uid="384109" lat="55.7380989" lon="48.7585392"/>
 <node id="2050758968" visible="true" version="1" changeset="14159116" timestamp="2012-12-05T01:26:50Z" user="misha yakin" uid="384109" lat="55.7381867" lon="48.7583692"/>
 <node id="2050758969" visible="true" version="1" changeset="14159116" timestamp="2012-12-05T01:26:50Z" user="misha yakin" uid="384109" lat="55.7381889" lon="48.7585062"/>
 <node id="2050759014" visible="true" version="1" changeset="14159116" timestamp="2012-12-05T01:26:52Z" user="misha yakin" uid="384109" lat="55.7383750" lon="48.7582402"/>
 <node id="2050759015" visible="true" version="1" changeset="14159116" timestamp="2012-12-05T01:26:52Z" user="misha yakin" uid="384109" lat="55.7384861" lon="48.7582483"/>
 <node id="2050759017" visible="true" version="1" changeset="14159116" timestamp="2012-12-05T01:26:52Z" user="misha yakin" uid="384109" lat="55.7385338" lon="48.7585062"/>
 <node id="2050759018" visible="true" version="1" changeset="14159116" timestamp="2012-12-05T01:26:52Z" user="misha yakin" uid="384109" lat="55.7386608" lon="48.7588044"/>
 <node id="2050759020" visible="true" version="1" changeset="14159116" timestamp="2012-12-05T01:26:52Z" user="misha yakin" uid="384109" lat="55.7386699" lon="48.7585465"/>
 <node id="2050759028" visible="true" version="1" changeset="14159116" timestamp="2012-12-05T01:26:52Z" user="misha yakin" uid="384109" lat="55.7388060" lon="48.7592477"/>
 <node id="2050759029" visible="true" version="1" changeset="14159116" timestamp="2012-12-05T01:26:52Z" user="misha yakin" uid="384109" lat="55.7388332" lon="48.7589898"/>
 <node id="2050759031" visible="true" version="1" changeset="14159116" timestamp="2012-12-05T01:26:52Z" user="misha yakin" uid="384109" lat="55.7389240" lon="48.7594734"/>
 <node id="2050759033" visible="true" version="1" changeset="14159116" timestamp="2012-12-05T01:26:52Z" user="misha yakin" uid="384109" lat="55.7390011" lon="48.7594492"/>
 <node id="2050759035" visible="true" version="1" changeset="14159116" timestamp="2012-12-05T01:26:52Z" user="misha yakin" uid="384109" lat="55.7390442" lon="48.7595419"/>
 <node id="2050759037" visible="true" version="1" changeset="14159116" timestamp="2012-12-05T01:26:52Z" user="misha yakin" uid="384109" lat="55.7391872" lon="48.7574987"/>
 <node id="2050759039" visible="true" version="1" changeset="14159116" timestamp="2012-12-05T01:26:52Z" user="misha yakin" uid="384109" lat="55.7392167" lon="48.7574584"/>
 <node id="2050759040" visible="true" version="1" changeset="14159116" timestamp="2012-12-05T01:26:52Z" user="misha yakin" uid="384109" lat="55.7392189" lon="48.7596426"/>
 <node id="2050759042" visible="true" version="1" changeset="14159116" timestamp="2012-12-05T01:26:52Z" user="misha yakin" uid="384109" lat="55.7392983" lon="48.7569990"/>
 <node id="2050759044" visible="true" version="1" changeset="14159116" timestamp="2012-12-05T01:26:52Z" user="misha yakin" uid="384109" lat="55.7393188" lon="48.7591510"/>
 <node id="2050759046" visible="true" version="1" changeset="14159116" timestamp="2012-12-05T01:26:52Z" user="misha yakin" uid="384109" lat="55.7395229" lon="48.7568338"/>
 <node id="2050759050" visible="true" version="1" changeset="14159116" timestamp="2012-12-05T01:26:52Z" user="misha yakin" uid="384109" lat="55.7397203" lon="48.7573053"/>
 <node id="2050759052" visible="true" version="1" changeset="14159116" timestamp="2012-12-05T01:26:52Z" user="misha yakin" uid="384109" lat="55.7397226" lon="48.7569788"/>
 <node id="2050759055" visible="true" version="1" changeset="14159116" timestamp="2012-12-05T01:26:52Z" user="misha yakin" uid="384109" lat="55.7398519" lon="48.7574181"/>
 <node id="2050759057" visible="true" version="1" changeset="14159116" timestamp="2012-12-05T01:26:52Z" user="misha yakin" uid="384109" lat="55.7399472" lon="48.7574262"/>
 <node id="2050759061" visible="true" version="1" changeset="14159116" timestamp="2012-12-05T01:26:52Z" user="misha yakin" uid="384109" lat="55.7400856" lon="48.7567209"/>
 <node id="2050759063" visible="true" version="1" changeset="14159116" timestamp="2012-12-05T01:26:52Z" user="misha yakin" uid="384109" lat="55.7402852" lon="48.7566766"/>
 <node id="2050759066" visible="true" version="1" changeset="14159116" timestamp="2012-12-05T01:26:52Z" user="misha yakin" uid="384109" lat="55.7404690" lon="48.7568418"/>
 <node id="2050759070" visible="true" version="1" changeset="14159116" timestamp="2012-12-05T01:26:52Z" user="misha yakin" uid="384109" lat="55.7405574" lon="48.7568257"/>
 <node id="2050759072" visible="true" version="1" changeset="14159116" timestamp="2012-12-05T01:26:52Z" user="misha yakin" uid="384109" lat="55.7406323" lon="48.7562454"/>
 <node id="2050759074" visible="true" version="1" changeset="14159116" timestamp="2012-12-05T01:26:52Z" user="misha yakin" uid="384109" lat="55.7407639" lon="48.7546616"/>
 <node id="2050759076" visible="true" version="1" changeset="14159116" timestamp="2012-12-05T01:26:52Z" user="misha yakin" uid="384109" lat="55.7408433" lon="48.7543231"/>
 <node id="2050759079" visible="true" version="1" changeset="14159116" timestamp="2012-12-05T01:26:52Z" user="misha yakin" uid="384109" lat="55.7408614" lon="48.7562696"/>
 <node id="2050759081" visible="true" version="1" changeset="14159116" timestamp="2012-12-05T01:26:52Z" user="misha yakin" uid="384109" lat="55.7409817" lon="48.7541498"/>
 <node id="2050759083" visible="true" version="1" changeset="14159116" timestamp="2012-12-05T01:26:52Z" user="misha yakin" uid="384109" lat="55.7409839" lon="48.7559794"/>
 <node id="2050759085" visible="true" version="1" changeset="14159116" timestamp="2012-12-05T01:26:52Z" user="misha yakin" uid="384109" lat="55.7410157" lon="48.7560681"/>
 <node id="2050759087" visible="true" version="1" changeset="14159116" timestamp="2012-12-05T01:26:52Z" user="misha yakin" uid="384109" lat="55.7410724" lon="48.7557417"/>
 <node id="2050759089" visible="true" version="1" changeset="14159116" timestamp="2012-12-05T01:26:52Z" user="misha yakin" uid="384109" lat="55.7414739" lon="48.7544279"/>
 <node id="2050759093" visible="true" version="1" changeset="14159116" timestamp="2012-12-05T01:26:53Z" user="misha yakin" uid="384109" lat="55.7421227" lon="48.7530980"/>
 <node id="2050759096" visible="true" version="1" changeset="14159116" timestamp="2012-12-05T01:26:53Z" user="misha yakin" uid="384109" lat="55.7423655" lon="48.7528603"/>
 <node id="2050759098" visible="true" version="1" changeset="14159116" timestamp="2012-12-05T01:26:53Z" user="misha yakin" uid="384109" lat="55.7424608" lon="48.7540209"/>
 <node id="2050759100" visible="true" version="1" changeset="14159116" timestamp="2012-12-05T01:26:53Z" user="misha yakin" uid="384109" lat="55.7424721" lon="48.7542748"/>
 <node id="2050759102" visible="true" version="1" changeset="14159116" timestamp="2012-12-05T01:26:53Z" user="misha yakin" uid="384109" lat="55.7424744" lon="48.7544561"/>
 <node id="2050759103" visible="true" version="1" changeset="14159116" timestamp="2012-12-05T01:26:53Z" user="misha yakin" uid="384109" lat="55.7425152" lon="48.7543191"/>
 <node id="2050759104" visible="true" version="1" changeset="14159116" timestamp="2012-12-05T01:26:53Z" user="misha yakin" uid="384109" lat="55.7425243" lon="48.7528320"/>
 <node id="2050759105" visible="true" version="1" changeset="14159116" timestamp="2012-12-05T01:26:53Z" user="misha yakin" uid="384109" lat="55.7426354" lon="48.7537751"/>
 <node id="2050759106" visible="true" version="1" changeset="14159116" timestamp="2012-12-05T01:26:53Z" user="misha yakin" uid="384109" lat="55.7426400" lon="48.7531061"/>
 <node id="2050759107" visible="true" version="1" changeset="14159116" timestamp="2012-12-05T01:26:53Z" user="misha yakin" uid="384109" lat="55.7428782" lon="48.7546858"/>
 <node id="2050759108" visible="true" version="1" changeset="14159116" timestamp="2012-12-05T01:26:53Z" user="misha yakin" uid="384109" lat="55.7429326" lon="48.7548672"/>
 <node id="2050759110" visible="true" version="1" changeset="14159116" timestamp="2012-12-05T01:26:53Z" user="misha yakin" uid="384109" lat="55.7431209" lon="48.7547624"/>
 <node id="2050759111" visible="true" version="1" changeset="14159116" timestamp="2012-12-05T01:26:53Z" user="misha yakin" uid="384109" lat="55.7432547" lon="48.7535736"/>
 <node id="2050759113" visible="true" version="1" changeset="14159116" timestamp="2012-12-05T01:26:53Z" user="misha yakin" uid="384109" lat="55.7433228" lon="48.7536662"/>
 <node id="2050759115" visible="true" version="1" changeset="14159116" timestamp="2012-12-05T01:26:53Z" user="misha yakin" uid="384109" lat="55.7433364" lon="48.7533438"/>
 <node id="2050759117" visible="true" version="1" changeset="14159116" timestamp="2012-12-05T01:26:53Z" user="misha yakin" uid="384109" lat="55.7433613" lon="48.7527917"/>
 <node id="2050759119" visible="true" version="1" changeset="14159116" timestamp="2012-12-05T01:26:53Z" user="misha yakin" uid="384109" lat="55.7434090" lon="48.7529449"/>
 <node id="2050759121" visible="true" version="1" changeset="14159116" timestamp="2012-12-05T01:26:53Z" user="misha yakin" uid="384109" lat="55.7434317" lon="48.7550566"/>
 <node id="2050759122" visible="true" version="1" changeset="14159116" timestamp="2012-12-05T01:26:53Z" user="misha yakin" uid="384109" lat="55.7434748" lon="48.7549760"/>
 <node id="2050759124" visible="true" version="1" changeset="14159116" timestamp="2012-12-05T01:26:53Z" user="misha yakin" uid="384109" lat="55.7434838" lon="48.7552903"/>
 <node id="2050759126" visible="true" version="1" changeset="14159116" timestamp="2012-12-05T01:26:53Z" user="misha yakin" uid="384109" lat="55.7436063" lon="48.7519696"/>
 <node id="2050759128" visible="true" version="1" changeset="14159116" timestamp="2012-12-05T01:26:53Z" user="misha yakin" uid="384109" lat="55.7437061" lon="48.7534365"/>
 <node id="2050759130" visible="true" version="1" changeset="14159116" timestamp="2012-12-05T01:26:53Z" user="misha yakin" uid="384109" lat="55.7437129" lon="48.7539242"/>
 <node id="2050759131" visible="true" version="1" changeset="14159116" timestamp="2012-12-05T01:26:53Z" user="misha yakin" uid="384109" lat="55.7437628" lon="48.7541539"/>
 <node id="2050759133" visible="true" version="1" changeset="14159116" timestamp="2012-12-05T01:26:53Z" user="misha yakin" uid="384109" lat="55.7437855" lon="48.7530940"/>
 <node id="2050759135" visible="true" version="1" changeset="14159116" timestamp="2012-12-05T01:26:53Z" user="misha yakin" uid="384109" lat="55.7437991" lon="48.7513249"/>
 <node id="2050759137" visible="true" version="1" changeset="14159116" timestamp="2012-12-05T01:26:53Z" user="misha yakin" uid="384109" lat="55.7438241" lon="48.7530900"/>
 <node id="2050759139" visible="true" version="1" changeset="14159116" timestamp="2012-12-05T01:26:53Z" user="misha yakin" uid="384109" lat="55.7438763" lon="48.7548873"/>
 <node id="2050759141" visible="true" version="1" changeset="14159116" timestamp="2012-12-05T01:26:53Z" user="misha yakin" uid="384109" lat="55.7439194" lon="48.7510871"/>
 <node id="2050759142" visible="true" version="1" changeset="14159116" timestamp="2012-12-05T01:26:53Z" user="misha yakin" uid="384109" lat="55.7439307" lon="48.7545004"/>
 <node id="2050759144" visible="true" version="1" changeset="14159116" timestamp="2012-12-05T01:26:53Z" user="misha yakin" uid="384109" lat="55.7439352" lon="48.7556530"/>
 <node id="2050759146" visible="true" version="1" changeset="14159116" timestamp="2012-12-05T01:26:53Z" user="misha yakin" uid="384109" lat="55.7439965" lon="48.7520905"/>
 <node id="2050759148" visible="true" version="1" changeset="14159116" timestamp="2012-12-05T01:26:53Z" user="misha yakin" uid="384109" lat="55.7440237" lon="48.7555805"/>
 <node id="2050759150" visible="true" version="1" changeset="14159116" timestamp="2012-12-05T01:26:53Z" user="misha yakin" uid="384109" lat="55.7440532" lon="48.7517399"/>
 <node id="2050759151" visible="true" version="1" changeset="14159116" timestamp="2012-12-05T01:26:53Z" user="misha yakin" uid="384109" lat="55.7441054" lon="48.7510508"/>
 <node id="2050759153" visible="true" version="1" changeset="14159116" timestamp="2012-12-05T01:26:53Z" user="misha yakin" uid="384109" lat="55.7441439" lon="48.7516190"/>
 <node id="2050759155" visible="true" version="1" changeset="14159116" timestamp="2012-12-05T01:26:53Z" user="misha yakin" uid="384109" lat="55.7441439" lon="48.7546616"/>
 <node id="2050759157" visible="true" version="1" changeset="14159116" timestamp="2012-12-05T01:26:53Z" user="misha yakin" uid="384109" lat="55.7441462" lon="48.7547704"/>
 <node id="2050759159" visible="true" version="1" changeset="14159116" timestamp="2012-12-05T01:26:53Z" user="misha yakin" uid="384109" lat="55.7441825" lon="48.7511153"/>
 <node id="2050759161" visible="true" version="1" changeset="14159116" timestamp="2012-12-05T01:26:53Z" user="misha yakin" uid="384109" lat="55.7442097" lon="48.7513168"/>
 <node id="2050759162" visible="true" version="1" changeset="14159116" timestamp="2012-12-05T01:26:53Z" user="misha yakin" uid="384109" lat="55.7442256" lon="48.7549921"/>
 <node id="2050759164" visible="true" version="1" changeset="14159116" timestamp="2012-12-05T01:26:53Z" user="misha yakin" uid="384109" lat="55.7443300" lon="48.7549155"/>
 <node id="2050759166" visible="true" version="1" changeset="14159116" timestamp="2012-12-05T01:26:53Z" user="misha yakin" uid="384109" lat="55.7443368" lon="48.7619195"/>
 <node id="2050759168" visible="true" version="1" changeset="14159116" timestamp="2012-12-05T01:26:54Z" user="misha yakin" uid="384109" lat="55.7443549" lon="48.7611135"/>
 <node id="2050759170" visible="true" version="1" changeset="14159116" timestamp="2012-12-05T01:26:54Z" user="misha yakin" uid="384109" lat="55.7444275" lon="48.7623024"/>
 <node id="2050759172" visible="true" version="1" changeset="14159116" timestamp="2012-12-05T01:26:54Z" user="misha yakin" uid="384109" lat="55.7444411" lon="48.7547261"/>
 <node id="2050759173" visible="true" version="1" changeset="14159116" timestamp="2012-12-05T01:26:54Z" user="misha yakin" uid="384109" lat="55.7445704" lon="48.7623749"/>
 <node id="2050759175" visible="true" version="1" changeset="14159116" timestamp="2012-12-05T01:26:54Z" user="misha yakin" uid="384109" lat="55.7446135" lon="48.7604446"/>
 <node id="2050759177" visible="true" version="1" changeset="14159116" timestamp="2012-12-05T01:26:54Z" user="misha yakin" uid="384109" lat="55.7446634" lon="48.7627618"/>
 <node id="2050759179" visible="true" version="1" changeset="14159116" timestamp="2012-12-05T01:26:54Z" user="misha yakin" uid="384109" lat="55.7447587" lon="48.7559673"/>
 <node id="2050759181" visible="true" version="1" changeset="14159116" timestamp="2012-12-05T01:26:54Z" user="misha yakin" uid="384109" lat="55.7447677" lon="48.7578695"/>
 <node id="2050759183" visible="true" version="1" changeset="14159116" timestamp="2012-12-05T01:26:54Z" user="misha yakin" uid="384109" lat="55.7448177" lon="48.7547704"/>
 <node id="2050759190" visible="true" version="1" changeset="14159116" timestamp="2012-12-05T01:26:54Z" user="misha yakin" uid="384109" lat="55.7448177" lon="48.7567169"/>
 <node id="2050759192" visible="true" version="1" changeset="14159116" timestamp="2012-12-05T01:26:54Z" user="misha yakin" uid="384109" lat="55.7448290" lon="48.7551815"/>
 <node id="2050759193" visible="true" version="1" changeset="14159116" timestamp="2012-12-05T01:26:54Z" user="misha yakin" uid="384109" lat="55.7448562" lon="48.7594008"/>
 <node id="2050759195" visible="true" version="1" changeset="14159116" timestamp="2012-12-05T01:26:54Z" user="misha yakin" uid="384109" lat="55.7449038" lon="48.7567975"/>
 <node id="2050759197" visible="true" version="1" changeset="14159116" timestamp="2012-12-05T01:26:54Z" user="misha yakin" uid="384109" lat="55.7449311" lon="48.7568982"/>
 <node id="2050759198" visible="true" version="1" changeset="14159116" timestamp="2012-12-05T01:26:54Z" user="misha yakin" uid="384109" lat="55.7449424" lon="48.7580024"/>
 <node id="2050759199" visible="true" version="1" changeset="14159116" timestamp="2012-12-05T01:26:54Z" user="misha yakin" uid="384109" lat="55.7449719" lon="48.7585666"/>
 <node id="2050759200" visible="true" version="1" changeset="14159116" timestamp="2012-12-05T01:26:54Z" user="misha yakin" uid="384109" lat="55.7450218" lon="48.7573939"/>
 <node id="2050759201" visible="true" version="1" changeset="14159116" timestamp="2012-12-05T01:26:54Z" user="misha yakin" uid="384109" lat="55.7450331" lon="48.7579259"/>
 <node id="2050759202" visible="true" version="1" changeset="14159116" timestamp="2012-12-05T01:26:54Z" user="misha yakin" uid="384109" lat="55.7450558" lon="48.7571602"/>
 <node id="2050759203" visible="true" version="1" changeset="14159116" timestamp="2012-12-05T01:26:54Z" user="misha yakin" uid="384109" lat="55.7450785" lon="48.7627134"/>
 <node id="2050759204" visible="true" version="1" changeset="14159116" timestamp="2012-12-05T01:26:54Z" user="misha yakin" uid="384109" lat="55.7451420" lon="48.7568096"/>
 <node id="2050759206" visible="true" version="1" changeset="14159116" timestamp="2012-12-05T01:26:54Z" user="misha yakin" uid="384109" lat="55.7453258" lon="48.7565960"/>
 <node id="2050759207" visible="true" version="1" changeset="14159116" timestamp="2012-12-05T01:26:54Z" user="misha yakin" uid="384109" lat="55.7453258" lon="48.7569668"/>
 <node id="2050759208" visible="true" version="1" changeset="14159116" timestamp="2012-12-05T01:26:54Z" user="misha yakin" uid="384109" lat="55.7454528" lon="48.7567975"/>
 <node id="2050759209" visible="true" version="1" changeset="14159116" timestamp="2012-12-05T01:26:54Z" user="misha yakin" uid="384109" lat="55.7454551" lon="48.7565839"/>
 <node id="2050759210" visible="true" version="1" changeset="14159116" timestamp="2012-12-05T01:26:54Z" user="misha yakin" uid="384109" lat="55.7456206" lon="48.7640514"/>
 <node id="2050759212" visible="true" version="1" changeset="14159116" timestamp="2012-12-05T01:26:54Z" user="misha yakin" uid="384109" lat="55.7456252" lon="48.7638136"/>
 <node id="2050759214" visible="true" version="1" changeset="14159116" timestamp="2012-12-05T01:26:54Z" user="misha yakin" uid="384109" lat="55.7456705" lon="48.7642327"/>
 <node id="2050759217" visible="true" version="1" changeset="14159116" timestamp="2012-12-05T01:26:54Z" user="misha yakin" uid="384109" lat="55.7459790" lon="48.7645470"/>
 <node id="2050759219" visible="true" version="1" changeset="14159116" timestamp="2012-12-05T01:26:54Z" user="misha yakin" uid="384109" lat="55.7463510" lon="48.7647647"/>
 <node id="2050759221" visible="true" version="1" changeset="14159116" timestamp="2012-12-05T01:26:54Z" user="misha yakin" uid="384109" lat="55.7463533" lon="48.7640272"/>
 <node id="2050759223" visible="true" version="1" changeset="14159116" timestamp="2012-12-05T01:26:54Z" user="misha yakin" uid="384109" lat="55.7463851" lon="48.7646518"/>
 <node id="2050759225" visible="true" version="1" changeset="14159116" timestamp="2012-12-05T01:26:54Z" user="misha yakin" uid="384109" lat="55.7464191" lon="48.7641561"/>
 <node id="2050759226" visible="true" version="1" changeset="14159116" timestamp="2012-12-05T01:26:54Z" user="misha yakin" uid="384109" lat="55.7464259" lon="48.7640111"/>
 <node id="2050759228" visible="true" version="1" changeset="14159116" timestamp="2012-12-05T01:26:54Z" user="misha yakin" uid="384109" lat="55.7465257" lon="48.7646720"/>
 <node id="2050759230" visible="true" version="1" changeset="14159116" timestamp="2012-12-05T01:26:54Z" user="misha yakin" uid="384109" lat="55.7465643" lon="48.7646075"/>
 <node id="2050759232" visible="true" version="1" changeset="14159116" timestamp="2012-12-05T01:26:54Z" user="misha yakin" uid="384109" lat="55.7465688" lon="48.7642972"/>
 <node id="2050759234" visible="true" version="1" changeset="14159116" timestamp="2012-12-05T01:26:54Z" user="misha yakin" uid="384109" lat="55.7466119" lon="48.7645833"/>
 <node id="2050759236" visible="true" version="1" changeset="14159116" timestamp="2012-12-05T01:26:54Z" user="misha yakin" uid="384109" lat="55.7466504" lon="48.7648453"/>
 <node id="2050759237" visible="true" version="1" changeset="14159116" timestamp="2012-12-05T01:26:54Z" user="misha yakin" uid="384109" lat="55.7466799" lon="48.7649621"/>
 <node id="2050759239" visible="true" version="1" changeset="14159116" timestamp="2012-12-05T01:26:55Z" user="misha yakin" uid="384109" lat="55.7467434" lon="48.7645551"/>
 <node id="2050759241" visible="true" version="1" changeset="14159116" timestamp="2012-12-05T01:26:55Z" user="misha yakin" uid="384109" lat="55.7468977" lon="48.7649702"/>
 <node id="2050759243" visible="true" version="1" changeset="14159116" timestamp="2012-12-05T01:26:55Z" user="misha yakin" uid="384109" lat="55.7473944" lon="48.7655989"/>
 <node id="2050759244" visible="true" version="1" changeset="14159116" timestamp="2012-12-05T01:26:55Z" user="misha yakin" uid="384109" lat="55.7474353" lon="48.7655465"/>
 <node id="2050759246" visible="true" version="1" changeset="14159116" timestamp="2012-12-05T01:26:55Z" user="misha yakin" uid="384109" lat="55.7474874" lon="48.7653168"/>
 <node id="2050759248" visible="true" version="1" changeset="14159116" timestamp="2012-12-05T01:26:55Z" user="misha yakin" uid="384109" lat="55.7476235" lon="48.7651435"/>
 <node id="2050759250" visible="true" version="1" changeset="14159116" timestamp="2012-12-05T01:26:55Z" user="misha yakin" uid="384109" lat="55.7476643" lon="48.7653691"/>
 <node id="2050759252" visible="true" version="1" changeset="14159116" timestamp="2012-12-05T01:26:55Z" user="misha yakin" uid="384109" lat="55.7476734" lon="48.7659333"/>
 <node id="2050759254" visible="true" version="1" changeset="14159116" timestamp="2012-12-05T01:26:55Z" user="misha yakin" uid="384109" lat="55.7476870" lon="48.7665620"/>
 <node id="2050759255" visible="true" version="1" changeset="14159116" timestamp="2012-12-05T01:26:55Z" user="misha yakin" uid="384109" lat="55.7476961" lon="48.7659857"/>
 <node id="2050759257" visible="true" version="1" changeset="14159116" timestamp="2012-12-05T01:26:55Z" user="misha yakin" uid="384109" lat="55.7477596" lon="48.7638136"/>
 <node id="2050759265" visible="true" version="1" changeset="14159116" timestamp="2012-12-05T01:26:55Z" user="misha yakin" uid="384109" lat="55.7477641" lon="48.7641723"/>
 <node id="2050759266" visible="true" version="1" changeset="14159116" timestamp="2012-12-05T01:26:55Z" user="misha yakin" uid="384109" lat="55.7477641" lon="48.7647284"/>
 <node id="2050759268" visible="true" version="1" changeset="14159116" timestamp="2012-12-05T01:26:55Z" user="misha yakin" uid="384109" lat="55.7477959" lon="48.7636081"/>
 <node id="2050759270" visible="true" version="1" changeset="14159116" timestamp="2012-12-05T01:26:55Z" user="misha yakin" uid="384109" lat="55.7478118" lon="48.7638096"/>
 <node id="2050759272" visible="true" version="1" changeset="14159116" timestamp="2012-12-05T01:26:55Z" user="misha yakin" uid="384109" lat="55.7478730" lon="48.7647888"/>
 <node id="2050759274" visible="true" version="1" changeset="14159116" timestamp="2012-12-05T01:26:55Z" user="misha yakin" uid="384109" lat="55.7478980" lon="48.7667313"/>
 <node id="2050759276" visible="true" version="1" changeset="14159116" timestamp="2012-12-05T01:26:55Z" user="misha yakin" uid="384109" lat="55.7480204" lon="48.7635194"/>
 <node id="2050759278" visible="true" version="1" changeset="14159116" timestamp="2012-12-05T01:26:55Z" user="misha yakin" uid="384109" lat="55.7480409" lon="48.7644785"/>
 <node id="2050759279" visible="true" version="1" changeset="14159116" timestamp="2012-12-05T01:26:55Z" user="misha yakin" uid="384109" lat="55.7480908" lon="48.7667313"/>
 <node id="2050759281" visible="true" version="1" changeset="14159116" timestamp="2012-12-05T01:26:55Z" user="misha yakin" uid="384109" lat="55.7481202" lon="48.7640675"/>
 <node id="2050759283" visible="true" version="1" changeset="14159116" timestamp="2012-12-05T01:26:55Z" user="misha yakin" uid="384109" lat="55.7484151" lon="48.7671423"/>
 <node id="2050759285" visible="true" version="1" changeset="14159116" timestamp="2012-12-05T01:26:55Z" user="misha yakin" uid="384109" lat="55.7487304" lon="48.7671786"/>
 <node id="2050759287" visible="true" version="1" changeset="14159116" timestamp="2012-12-05T01:26:55Z" user="misha yakin" uid="384109" lat="55.7489821" lon="48.7667595"/>
 <node id="2050759289" visible="true" version="1" changeset="14159116" timestamp="2012-12-05T01:26:55Z" user="misha yakin" uid="384109" lat="55.7493337" lon="48.7667957"/>
 <node id="2050759290" visible="true" version="1" changeset="14159116" timestamp="2012-12-05T01:26:55Z" user="misha yakin" uid="384109" lat="55.7494448" lon="48.7666990"/>
 <node id="2050759292" visible="true" version="1" changeset="14159116" timestamp="2012-12-05T01:26:55Z" user="misha yakin" uid="384109" lat="55.7494902" lon="48.7665338"/>
 <node id="2050759294" visible="true" version="1" changeset="14159116" timestamp="2012-12-05T01:26:55Z" user="misha yakin" uid="384109" lat="55.7494947" lon="48.7668360"/>
 <node id="2050759296" visible="true" version="1" changeset="14159116" timestamp="2012-12-05T01:26:55Z" user="misha yakin" uid="384109" lat="55.7495945" lon="48.7668965"/>
 <node id="2050759299" visible="true" version="1" changeset="14159116" timestamp="2012-12-05T01:26:55Z" user="misha yakin" uid="384109" lat="55.7497465" lon="48.7662396"/>
 <node id="2050759300" visible="true" version="1" changeset="14159116" timestamp="2012-12-05T01:26:55Z" user="misha yakin" uid="384109" lat="55.7497601" lon="48.7666547"/>
 <node id="2050759301" visible="true" version="1" changeset="14159116" timestamp="2012-12-05T01:26:55Z" user="misha yakin" uid="384109" lat="55.7499166" lon="48.7658809"/>
 <node id="2050759302" visible="true" version="1" changeset="14159116" timestamp="2012-12-05T01:26:55Z" user="misha yakin" uid="384109" lat="55.7500912" lon="48.7661469"/>
 <node id="2050759303" visible="true" version="1" changeset="14159116" timestamp="2012-12-05T01:26:55Z" user="misha yakin" uid="384109" lat="55.7502591" lon="48.7658890"/>
 <node id="2050759304" visible="true" version="1" changeset="14159116" timestamp="2012-12-05T01:26:55Z" user="misha yakin" uid="384109" lat="55.7503725" lon="48.7658729"/>
 <node id="2050759305" visible="true" version="1" changeset="14159116" timestamp="2012-12-05T01:26:55Z" user="misha yakin" uid="384109" lat="55.7503952" lon="48.7655868"/>
 <node id="2050759307" visible="true" version="1" changeset="14159116" timestamp="2012-12-05T01:26:55Z" user="misha yakin" uid="384109" lat="55.7505426" lon="48.7653933"/>
 <node id="2050759309" visible="true" version="1" changeset="14159116" timestamp="2012-12-05T01:26:55Z" user="misha yakin" uid="384109" lat="55.7506469" lon="48.7648211"/>
 <node id="2050759310" visible="true" version="1" changeset="14159116" timestamp="2012-12-05T01:26:55Z" user="misha yakin" uid="384109" lat="55.7507195" lon="48.7640997"/>
 <node id="2050759311" visible="true" version="1" changeset="14159116" timestamp="2012-12-05T01:26:55Z" user="misha yakin" uid="384109" lat="55.7507354" lon="48.7642932"/>
 <node id="2050759312" visible="true" version="1" changeset="14159116" timestamp="2012-12-05T01:26:55Z" user="misha yakin" uid="384109" lat="55.7507875" lon="48.7644181"/>
 <node id="2050759314" visible="true" version="1" changeset="14159116" timestamp="2012-12-05T01:26:56Z" user="misha yakin" uid="384109" lat="55.7508261" lon="48.7632373"/>
 <node id="2050759316" visible="true" version="1" changeset="14159116" timestamp="2012-12-05T01:26:56Z" user="misha yakin" uid="384109" lat="55.7508306" lon="48.7636846"/>
 <node id="2050759318" visible="true" version="1" changeset="14159116" timestamp="2012-12-05T01:26:56Z" user="misha yakin" uid="384109" lat="55.7508782" lon="48.7631970"/>
 <node id="2050759319" visible="true" version="1" changeset="14159116" timestamp="2012-12-05T01:26:56Z" user="misha yakin" uid="384109" lat="55.7509304" lon="48.7640997"/>
 <node id="2050759321" visible="true" version="1" changeset="14159116" timestamp="2012-12-05T01:26:56Z" user="misha yakin" uid="384109" lat="55.7509531" lon="48.7636282"/>
 <node id="2050759323" visible="true" version="1" changeset="14159116" timestamp="2012-12-05T01:26:56Z" user="misha yakin" uid="384109" lat="55.7509939" lon="48.7645108"/>
 <node id="2050759325" visible="true" version="1" changeset="14159116" timestamp="2012-12-05T01:26:56Z" user="misha yakin" uid="384109" lat="55.7510347" lon="48.7654578"/>
 <node id="2050759327" visible="true" version="1" changeset="14159116" timestamp="2012-12-05T01:26:56Z" user="misha yakin" uid="384109" lat="55.7511511" lon="48.7699504"/>
 <node id="2050759328" visible="true" version="1" changeset="14159116" timestamp="2012-12-05T01:26:56Z" user="misha yakin" uid="384109" lat="55.7511803" lon="48.7657080"/>
 <node id="2050759330" visible="true" version="1" changeset="14159116" timestamp="2012-12-05T01:26:56Z" user="misha yakin" uid="384109" lat="55.7512028" lon="48.7667225"/>
 <node id="2050759332" visible="true" version="1" changeset="14159116" timestamp="2012-12-05T01:26:56Z" user="misha yakin" uid="384109" lat="55.7513983" lon="48.7699384"/>
 <node id="2050759339" visible="true" version="1" changeset="14159116" timestamp="2012-12-05T01:26:56Z" user="misha yakin" uid="384109" lat="55.7515321" lon="48.7702084"/>
 <way id="354327333" visible="true" version="1" changeset="32030933" timestamp="2015-06-17T14:40:49Z" user="dbanisimov" uid="2963812">
  <nd ref="2050759339"/>
  <nd ref="2050759332"/>
  <nd ref="2050759327"/>
  <nd ref="2050759330"/>
  <nd ref="2050759328"/>
  <nd ref="2050759325"/>
  <nd ref="2050759323"/>
  <nd ref="2050759319"/>
  <nd ref="2050759321"/>
  <nd ref="2050759318"/>
  <nd ref="2050759314"/>
  <nd ref="2050759316"/>
  <nd ref="2050759310"/>
  <nd ref="2050759311"/>
  <nd ref="2050759312"/>
  <nd ref="2050759309"/>
  <nd ref="2050759307"/>
  <nd ref="2050759305"/>
  <nd ref="2050759304"/>
  <nd ref="2050759303"/>
  <nd ref="2050759302"/>
  <nd ref="2050759301"/>
  <nd ref="2050759299"/>
  <nd ref="2050759300"/>
  <nd ref="2050759296"/>
  <nd ref="2050759294"/>
  <nd ref="2050759292"/>
  <nd ref="2050759290"/>
  <nd ref="2050759289"/>
  <nd ref="2050759287"/>
  <nd ref="2050759285"/>
  <nd ref="2050759283"/>
  <nd ref="2050759279"/>
  <nd ref="2050759274"/>
  <nd ref="2050759254"/>
  <nd ref="2050759255"/>
  <nd ref="2050759252"/>
  <nd ref="2050759250"/>
  <nd ref="2050759272"/>
  <nd ref="2050759278"/>
  <nd ref="2050759281"/>
  <nd ref="2050759276"/>
  <nd ref="2050759268"/>
  <nd ref="2050759257"/>
  <nd ref="2050759270"/>
  <nd ref="2050759265"/>
  <nd ref="2050759266"/>
  <nd ref="2050759248"/>
  <nd ref="2050759246"/>
  <nd ref="2050759244"/>
  <nd ref="2050759243"/>
  <nd ref="2050759241"/>
  <nd ref="2050759237"/>
  <nd ref="2050759236"/>
  <nd ref="2050759239"/>
  <nd ref="2050759234"/>
  <nd ref="2050759232"/>
  <nd ref="2050759226"/>
  <nd ref="2050759221"/>
  <nd ref="2050759225"/>
  <nd ref="2050759230"/>
  <nd ref="2050759228"/>
  <nd ref="2050759223"/>
  <nd ref="2050759219"/>
  <nd ref="2050759217"/>
  <nd ref="2050759214"/>
  <nd ref="2050759210"/>
  <nd ref="2050759212"/>
  <nd ref="2050759203"/>
  <nd ref="2050759177"/>
  <nd ref="2050759173"/>
  <nd ref="2050759170"/>
  <nd ref="2050759166"/>
  <nd ref="2050759168"/>
  <nd ref="2050759175"/>
  <nd ref="2050759193"/>
  <nd ref="2050759199"/>
  <nd ref="2050759181"/>
  <nd ref="2050759198"/>
  <nd ref="2050759201"/>
  <nd ref="2050759200"/>
  <nd ref="2050759202"/>
  <nd ref="2050759207"/>
  <nd ref="2050759208"/>
  <nd ref="2050759209"/>
  <nd ref="2050759206"/>
  <nd ref="2050759204"/>
  <nd ref="2050759197"/>
  <nd ref="2050759195"/>
  <nd ref="2050759190"/>
  <nd ref="2050759179"/>
  <nd ref="2050759192"/>
  <nd ref="2050759183"/>
  <nd ref="2050759172"/>
  <nd ref="2050759164"/>
  <nd ref="2050759162"/>
  <nd ref="2050759148"/>
  <nd ref="2050759144"/>
  <nd ref="2050759124"/>
  <nd ref="2050759121"/>
  <nd ref="2050759122"/>
  <nd ref="2050759139"/>
  <nd ref="2050759157"/>
  <nd ref="2050759155"/>
  <nd ref="2050759142"/>
  <nd ref="2050759131"/>
  <nd ref="2050759130"/>
  <nd ref="2050759128"/>
  <nd ref="2050759133"/>
  <nd ref="2050759137"/>
  <nd ref="2050759146"/>
  <nd ref="2050759150"/>
  <nd ref="2050759153"/>
  <nd ref="2050759161"/>
  <nd ref="2050759159"/>
  <nd ref="2050759151"/>
  <nd ref="2050759141"/>
  <nd ref="2050759135"/>
  <nd ref="2050759126"/>
  <nd ref="2050759117"/>
  <nd ref="2050759119"/>
  <nd ref="2050759115"/>
  <nd ref="2050759113"/>
  <nd ref="2050759111"/>
  <nd ref="2050759110"/>
  <nd ref="2050759108"/>
  <nd ref="2050759107"/>
  <nd ref="2050759102"/>
  <nd ref="2050759103"/>
  <nd ref="2050759100"/>
  <nd ref="2050759098"/>
  <nd ref="2050759105"/>
  <nd ref="2050759106"/>
  <nd ref="2050759104"/>
  <nd ref="2050759096"/>
  <nd ref="2050759093"/>
  <nd ref="2050759089"/>
  <nd ref="2050759081"/>
  <nd ref="2050759076"/>
  <nd ref="2050759074"/>
  <nd ref="2050759087"/>
  <nd ref="2050759083"/>
  <nd ref="2050759085"/>
  <nd ref="2050759079"/>
  <nd ref="2050759072"/>
  <nd ref="2050759070"/>
  <nd ref="2050759066"/>
  <nd ref="2050759063"/>
  <nd ref="2050759061"/>
  <nd ref="2050759057"/>
  <nd ref="2050759055"/>
  <nd ref="2050759050"/>
  <nd ref="2050759052"/>
  <nd ref="2050759046"/>
  <nd ref="2050759042"/>
  <nd ref="2050759039"/>
  <nd ref="2050759037"/>
  <nd ref="2050759044"/>
  <nd ref="2050759040"/>
  <nd ref="2050759035"/>
  <nd ref="2050759033"/>
  <nd ref="2050759031"/>
  <nd ref="2050759028"/>
  <nd ref="2050759029"/>
  <nd ref="2050759018"/>
  <nd ref="2050759020"/>
  <nd ref="2050759017"/>
  <nd ref="2050759015"/>
  <nd ref="2050759014"/>
  <nd ref="2050758968"/>
  <nd ref="2050758969"/>
  <nd ref="2050758967"/>
  <nd ref="2050758966"/>
  <nd ref="2050758962"/>
  <nd ref="2050758957"/>
  <nd ref="2050758952"/>
  <nd ref="2050758948"/>
  <nd ref="2050758955"/>
  <nd ref="2050758950"/>
  <nd ref="2050758964"/>
  <nd ref="2050758965"/>
  <nd ref="2050758961"/>
  <nd ref="2050758959"/>
  <nd ref="2050758954"/>
  <nd ref="2050758943"/>
  <nd ref="2050758941"/>
  <nd ref="2050758937"/>
  <nd ref="2050758934"/>
  <nd ref="2050758929"/>
  <nd ref="2050758925"/>
  <nd ref="2050758927"/>
  <nd ref="2050758923"/>
  <nd ref="2050758916"/>
  <nd ref="2050758921"/>
  <nd ref="2050758930"/>
  <nd ref="2050758936"/>
  <nd ref="2050758946"/>
  <nd ref="2050758945"/>
  <nd ref="2050758939"/>
  <nd ref="2050758932"/>
  <nd ref="2050758915"/>
  <nd ref="2050758913"/>
  <nd ref="2050758902"/>
  <nd ref="2050758897"/>
  <nd ref="2050758888"/>
  <nd ref="2050758890"/>
  <nd ref="2050758895"/>
  <nd ref="2050758892"/>
  <nd ref="2050758886"/>
  <nd ref="2050758881"/>
  <nd ref="2050758876"/>
  <nd ref="2050758872"/>
  <nd ref="2050758870"/>
  <nd ref="2050758864"/>
  <nd ref="2050758859"/>
  <nd ref="2050758858"/>
  <nd ref="2050758854"/>
  <nd ref="2050758862"/>
  <nd ref="2050758865"/>
  <nd ref="2050758871"/>
  <nd ref="2050758879"/>
  <nd ref="2050758885"/>
  <nd ref="2050758845"/>
  <nd ref="2050758841"/>
  <nd ref="2050758821"/>
  <nd ref="2050758819"/>
  <nd ref="2050758810"/>
  <nd ref="2050758807"/>
  <nd ref="2050758800"/>
  <nd ref="2050758796"/>
  <nd ref="2050758789"/>
  <nd ref="2050758792"/>
  <nd ref="2050758803"/>
  <nd ref="2050758816"/>
  <nd ref="2050758812"/>
  <nd ref="2050758856"/>
  <nd ref="2050758874"/>
  <nd ref="2050758893"/>
  <nd ref="2050758901"/>
  <nd ref="2050758878"/>
  <nd ref="2050758883"/>
  <nd ref="2050758911"/>
  <nd ref="2050758920"/>
  <nd ref="2050758918"/>
  <nd ref="2050758904"/>
  <nd ref="2050758899"/>
  <nd ref="2050758868"/>
  <nd ref="2050758863"/>
  <nd ref="2050758852"/>
  <nd ref="2050758847"/>
  <nd ref="2050758843"/>
  <nd ref="2050758838"/>
  <nd ref="2050758839"/>
  <nd ref="2050758849"/>
  <nd ref="2050758861"/>
  <nd ref="2050758866"/>
  <nd ref="2050758869"/>
  <nd ref="2050758867"/>
  <nd ref="2050758860"/>
  <nd ref="2050758850"/>
  <nd ref="2050758830"/>
  <nd ref="2050758828"/>
  <nd ref="2050758818"/>
  <nd ref="2050758825"/>
  <nd ref="2050758827"/>
  <nd ref="2050758823"/>
  <nd ref="2050758814"/>
  <nd ref="2050758809"/>
 </way>
 <relation id="5293421" visible="true" version="23" changeset="173198754" timestamp="2025-10-12T20:29:49Z" user="Глеб" uid="346125">
  <member type="way" ref="354327333" role="outer"/>
  <member type="way" ref="354327340" role="outer"/>
  <member type="way" ref="484689883" role="outer"/>
  <member type="way" ref="362608058" role="outer"/>
  <member type="way" ref="362608060" role="outer"/>
  <member type="way" ref="362608065" role="outer"/>
  <member type="way" ref="1329322131" role="outer"/>
  <member type="way" ref="362608063" role="outer"/>
  <member type="way" ref="484672733" role="outer"/>
  <member type="way" ref="484703853" role="outer"/>
  <member type="way" ref="354327341" role="outer"/>
  <member type="way" ref="354327332" role="outer"/>
  <member type="way" ref="354327343" role="outer"/>
  <member type="way" ref="1320487729" role="outer"/>
  <member type="way" ref="354327334" role="outer"/>
  <member type="way" ref="354327335" role="outer"/>
  <member type="way" ref="354327336" role="outer"/>
  <member type="way" ref="354327337" role="outer"/>
  <tag k="addr:city" v="Иннополис"/>
  <tag k="contact:facebook" v="https://www.facebook.com/innopolis.ru"/>
  <tag k="contact:instagram" v="https://instagram.com/innopolis/"/>
  <tag k="contact:telegram" v="https://t.me/InnoHelpBot"/>
  <tag k="contact:twitter" v="https://twitter.com/InnopolisRUS"/>
  <tag k="contact:vk" v="https://vk.com/innopolis"/>
  <tag k="ele" v="100"/>
  <tag k="name" v="Иннополис"/>
  <tag k="name:en" v="Innopolis"/>
  <tag k="name:ru" v="Иннополис"/>
  <tag k="name:tt" v="Иннополис"/>
  <tag k="official_status" v="ru:город"/>
  <tag k="phone" v="+7 800 2222287"/>
  <tag k="place" v="town"/>
  <tag k="postal_code" v="420500"/>
  <tag k="type" v="multipolygon"/>
  <tag k="website" v="https://www.innopolis.ru/"/>
  <tag k="wheelchair" v="yes"/>
  <tag k="wikidata" v="Q4201239"/>
  <tag k="wikipedia" v="ru:Иннополис"/>
 </relation>
</osm>
