<?xml version="1.0" encoding="UTF-8"?>
<osm version="0.6" generator="openstreetmap-cgimap 2.1.0 (244708 spike-07.openstreetmap.org)" copyright="OpenStreetMap and contributors" attribution="http://www.openstreetmap.org/copyright" license="http://opendatacommons.org/licenses/odbl/1-0/">
 <bounds minlat="55.7735595" minlon="48.7280365" maxlat="55.7762544" maxlon="48.7328279"/>
 <node id="730549734" visible="true" version="6" changeset="7069766" timestamp="2011-01-24T05:38:27Z" user="shafr" uid="261620" lat="55.7764716" lon="48.7300571"/>
 <node id="1118300857" visible="true" version="1" changeset="7069766" timestamp="2011-01-24T05:38:27Z" user="shafr" uid="261620" lat="55.7771354" lon="48.7307759"/>
 <node id="1118300858" visible="true" version="1" changeset="7069766" timestamp="2011-01-24T05:38:27Z" user="shafr" uid="261620" lat="55.7766828" lon="48.7302716"/>
 <node id="1118300859" visible="true" version="2" changeset="111944385" timestamp="2021-10-01T05:14:36Z" user="misha yakin" uid="384109" lat="55.7728238" lon="48.7300571"/>
 <node id="1118300861" visible="true" version="2" changeset="111944385" timestamp="2021-10-01T05:14:36Z" user="misha yakin" uid="384109" lat="55.7715655" lon="48.7299552"/>
 <node id="1118300863" visible="true" version="2" changeset="111944385" timestamp="2021-10-01T05:14:36Z" user="misha yakin" uid="384109" lat="55.7710918" lon="48.7300786"/>
 <node id="1118300869" visible="true" version="2" changeset="111944385" timestamp="2021-10-01T05:14:36Z" user="misha yakin" uid="384109" lat="55.7708761" lon="48.7300088"/>
 <node id="1118300870" visible="true" version="4" changeset="111944385" timestamp="2021-10-01T05:14:36Z" user="misha yakin" uid="384109" lat="55.7706912" lon="48.7300263"/>
 <node id="1553403674" visible="true" version="1" changeset="10153095" timestamp="2011-12-19T06:35:03Z" user="shafr" uid="261620" lat="55.7776935" lon="48.7312255"/>
 <node id="1553403675" visible="true" version="1" changeset="10153095" timestamp="2011-12-19T06:35:03Z" user="shafr" uid="261620" lat="55.7780435" lon="48.7315474"/>
 <node id="1553403676" visible="true" version="1" changeset="10153095" timestamp="2011-12-19T06:35:03Z" user="shafr" uid="261620" lat="55.7781762" lon="48.7316546"/>
 <node id="1553403677" visible="true" version="1" changeset="10153095" timestamp="2011-12-19T06:35:03Z" user="shafr" uid="261620" lat="55.7785384" lon="48.7318305"/>
 <node id="7964531113" visible="true" version="2" changeset="111944385" timestamp="2021-10-01T05:14:36Z" user="misha yakin" uid="384109" lat="55.7757801" lon="48.7127924"/>
 <node id="7964531114" visible="true" version="4" changeset="111944385" timestamp="2021-10-01T05:14:36Z" user="misha yakin" uid="384109" lat="55.7714332" lon="48.7143071"/>
 <node id="7964531117" visible="true" version="3" changeset="111944385" timestamp="2021-10-01T05:14:36Z" user="misha yakin" uid="384109" lat="55.7716978" lon="48.7269384"/>
 <node id="7964531119" visible="true" version="3" changeset="111944385" timestamp="2021-10-01T05:14:36Z" user="misha yakin" uid="384109" lat="55.7711972" lon="48.7347788"/>
 <node id="7964531120" visible="true" version="2" changeset="111944385" timestamp="2021-10-01T05:14:36Z" user="misha yakin" uid="384109" lat="55.7715899" lon="48.7366954"/>
 <node id="7964531121" visible="true" version="2" changeset="111944385" timestamp="2021-10-01T05:14:36Z" user="misha yakin" uid="384109" lat="55.7728220" lon="48.7371848"/>
 <node id="7964531122" visible="true" version="2" changeset="111944385" timestamp="2021-10-01T05:14:36Z" user="misha yakin" uid="384109" lat="55.7751185" lon="48.7373446"/>
 <node id="7964531123" visible="true" version="2" changeset="111944385" timestamp="2021-10-01T05:14:36Z" user="misha yakin" uid="384109" lat="55.7764345" lon="48.7372971"/>
 <node id="7964531124" visible="true" version="2" changeset="111944385" timestamp="2021-10-01T05:14:36Z" user="misha yakin" uid="384109" lat="55.7764993" lon="48.7318989"/>
 <node id="7964531125" visible="true" version="2" changeset="111944385" timestamp="2021-10-01T05:14:36Z" user="misha yakin" uid="384109" lat="55.7763558" lon="48.7302431"/>
 <node id="7964531126" visible="true" version="2" changeset="111944385" timestamp="2021-10-01T05:14:36Z" user="misha yakin" uid="384109" lat="55.7761857" lon="48.7296774"/>
 <node id="7964531127" visible="true" version="2" changeset="111944385" timestamp="2021-10-01T05:14:36Z" user="misha yakin" uid="384109" lat="55.7762863" lon="48.7293846"/>
 <node id="7964531128" visible="true" version="2" changeset="111944385" timestamp="2021-10-01T05:14:36Z" user="misha yakin" uid="384109" lat="55.7760452" lon="48.7279470"/>
 <node id="7964531129" visible="true" version="2" changeset="111944385" timestamp="2021-10-01T05:14:36Z" user="misha yakin" uid="384109" lat="55.7761067" lon="48.7250736"/>
 <node id="7964531130" visible="true" version="2" changeset="111944385" timestamp="2021-10-01T05:14:36Z" user="misha yakin" uid="384109" lat="55.7760633" lon="48.7244159"/>
 <node id="7964531131" visible="true" version="2" changeset="111944385" timestamp="2021-10-01T05:14:36Z" user="misha yakin" uid="384109" lat="55.7760857" lon="48.7220320"/>
 <node id="7964531132" visible="true" version="2" changeset="111944385" timestamp="2021-10-01T05:14:36Z" user="misha yakin" uid="384109" lat="55.7760601" lon="48.7209506"/>
 <node id="7964531133" visible="true" version="2" changeset="111944385" timestamp="2021-10-01T05:14:36Z" user="misha yakin" uid="384109" lat="55.7761320" lon="48.7202959"/>
 <node id="7964531134" visible="true" version="2" changeset="111944385" timestamp="2021-10-01T05:14:36Z" user="misha yakin" uid="384109" lat="55.7761501" lon="48.7196384"/>
 <node id="7964531135" visible="true" version="2" changeset="111944385" timestamp="2021-10-01T05:14:36Z" user="misha yakin" uid="384109" lat="55.7763223" lon="48.7179786"/>
 <node id="7964531136" visible="true" version="2" changeset="111944385" timestamp="2021-10-01T05:14:36Z" user="misha yakin" uid="384109" lat="55.7763752" lon="48.7173614"/>
 <node id="7964531137" visible="true" version="2" changeset="111944385" timestamp="2021-10-01T05:14:36Z" user="misha yakin" uid="384109" lat="55.7762256" lon="48.7144306"/>
 <node id="8852294625" visible="true" version="2" changeset="111944385" timestamp="2021-10-01T05:14:36Z" user="misha yakin" uid="384109" lat="55.7734198" lon="48.7127977"/>
 <node id="9136759726" visible="true" version="1" changeset="111944385" timestamp="2021-10-01T05:14:35Z" user="misha yakin" uid="384109" lat="55.7764825" lon="48.7361616"/>
 <node id="9136759727" visible="true" version="1" changeset="111944385" timestamp="2021-10-01T05:14:35Z" user="misha yakin" uid="384109" lat="55.7765006" lon="48.7345791"/>
 <node id="9136759728" visible="true" version="1" changeset="111944385" timestamp="2021-10-01T05:14:35Z" user="misha yakin" uid="384109" lat="55.7725058" lon="48.7299067"/>
 <node id="9136759729" visible="true" version="1" changeset="111944385" timestamp="2021-10-01T05:14:35Z" user="misha yakin" uid="384109" lat="55.7721920" lon="48.7298316"/>
 <node id="9136759730" visible="true" version="1" changeset="111944385" timestamp="2021-10-01T05:14:35Z" user="misha yakin" uid="384109" lat="55.7738696" lon="48.7301159"/>
 <node id="9136759731" visible="true" version="1" changeset="111944385" timestamp="2021-10-01T05:14:35Z" user="misha yakin" uid="384109" lat="55.7762110" lon="48.7300032"/>
 <node id="9136759732" visible="true" version="1" changeset="111944385" timestamp="2021-10-01T05:14:35Z" user="misha yakin" uid="384109" lat="55.7759576" lon="48.7300337"/>
 <node id="9136759733" visible="true" version="1" changeset="111944385" timestamp="2021-10-01T05:14:35Z" user="misha yakin" uid="384109" lat="55.7762457" lon="48.7298128"/>
 <node id="9136759734" visible="true" version="1" changeset="111944385" timestamp="2021-10-01T05:14:35Z" user="misha yakin" uid="384109" lat="55.7761144" lon="48.7300622"/>
 <node id="9136759735" visible="true" version="1" changeset="111944385" timestamp="2021-10-01T05:14:35Z" user="misha yakin" uid="384109" lat="55.7762864" lon="48.7300944"/>
 <node id="9136759736" visible="true" version="1" changeset="111944385" timestamp="2021-10-01T05:14:35Z" user="misha yakin" uid="384109" lat="55.7761235" lon="48.7299281"/>
 <node id="9136759738" visible="true" version="1" changeset="111944385" timestamp="2021-10-01T05:14:35Z" user="misha yakin" uid="384109" lat="55.7760239" lon="48.7270421"/>
 <node id="9136759739" visible="true" version="1" changeset="111944385" timestamp="2021-10-01T05:14:35Z" user="misha yakin" uid="384109" lat="55.7760571" lon="48.7263930"/>
 <node id="9136759740" visible="true" version="1" changeset="111944385" timestamp="2021-10-01T05:14:35Z" user="misha yakin" uid="384109" lat="55.7759515" lon="48.7266880"/>
 <node id="9136759746" visible="true" version="1" changeset="111944385" timestamp="2021-10-01T05:14:35Z" user="misha yakin" uid="384109" lat="55.7762683" lon="48.7158948"/>
 <node id="9136759748" visible="true" version="1" changeset="111944385" timestamp="2021-10-01T05:14:35Z" user="misha yakin" uid="384109" lat="55.7717394" lon="48.7172735"/>
 <node id="9136759749" visible="true" version="1" changeset="111944385" timestamp="2021-10-01T05:14:35Z" user="misha yakin" uid="384109" lat="55.7715221" lon="48.7137866"/>
 <node id="9136759754" visible="true" version="1" changeset="111944385" timestamp="2021-10-01T05:14:35Z" user="misha yakin" uid="384109" lat="55.7718178" lon="48.7214899"/>
 <node id="9136759756" visible="true" version="1" changeset="111944385" timestamp="2021-10-01T05:14:35Z" user="misha yakin" uid="384109" lat="55.7717575" lon="48.7187326"/>
 <node id="9136759757" visible="true" version="1" changeset="111944385" timestamp="2021-10-01T05:14:35Z" user="misha yakin" uid="384109" lat="55.7717846" lon="48.7246442"/>
 <node id="9136759758" visible="true" version="1" changeset="111944385" timestamp="2021-10-01T05:14:35Z" user="misha yakin" uid="384109" lat="55.7713471" lon="48.7338120"/>
 <node id="9136759759" visible="true" version="1" changeset="111944385" timestamp="2021-10-01T05:14:35Z" user="misha yakin" uid="384109" lat="55.7714437" lon="48.7326157"/>
 <node id="9136759782" visible="true" version="1" changeset="111944385" timestamp="2021-10-01T05:14:35Z" user="misha yakin" uid="384109" lat="55.7713803" lon="48.7352121"/>
 <node id="9136759783" visible="true" version="1" changeset="111944385" timestamp="2021-10-01T05:14:35Z" user="misha yakin" uid="384109" lat="55.7718088" lon="48.7354857"/>
 <node id="9136759784" visible="true" version="1" changeset="111944385" timestamp="2021-10-01T05:14:35Z" user="misha yakin" uid="384109" lat="55.7718420" lon="48.7361348"/>
 <node id="9136759785" visible="true" version="1" changeset="111944385" timestamp="2021-10-01T05:14:35Z" user="misha yakin" uid="384109" lat="55.7715342" lon="48.7361777"/>
 <node id="9136759810" visible="true" version="1" changeset="111944385" timestamp="2021-10-01T05:14:35Z" user="misha yakin" uid="384109" lat="55.7742106" lon="48.7373418"/>
 <node id="9136759812" visible="true" version="1" changeset="111944385" timestamp="2021-10-01T05:14:35Z" user="misha yakin" uid="384109" lat="55.7732420" lon="48.7368482"/>
 <node id="9136759813" visible="true" version="1" changeset="111944385" timestamp="2021-10-01T05:14:35Z" user="misha yakin" uid="384109" lat="55.7731093" lon="48.7372345"/>
 <node id="9136759814" visible="true" version="1" changeset="111944385" timestamp="2021-10-01T05:14:35Z" user="misha yakin" uid="384109" lat="55.7736283" lon="48.7372506"/>
 <node id="9136759819" visible="true" version="1" changeset="111944385" timestamp="2021-10-01T05:14:35Z" user="misha yakin" uid="384109" lat="55.7758851" lon="48.7129927"/>
 <node id="9136759820" visible="true" version="1" changeset="111944385" timestamp="2021-10-01T05:14:35Z" user="misha yakin" uid="384109" lat="55.7758610" lon="48.7134057"/>
 <node id="9136759821" visible="true" version="1" changeset="111944385" timestamp="2021-10-01T05:14:35Z" user="misha yakin" uid="384109" lat="55.7760752" lon="48.7135720"/>
 <node id="9136759828" visible="true" version="1" changeset="111944385" timestamp="2021-10-01T05:14:35Z" user="misha yakin" uid="384109" lat="55.7712475" lon="48.7300086"/>
 <node id="9852954920" visible="true" version="1" changeset="122949297" timestamp="2022-06-28T10:08:09Z" user="NeoChapay" uid="96925" lat="55.7716664" lon="48.7276542"/>
 <node id="9852954921" visible="true" version="1" changeset="122949297" timestamp="2022-06-28T10:08:09Z" user="NeoChapay" uid="96925" lat="55.7719486" lon="48.7274775"/>
 <node id="9852954922" visible="true" version="1" changeset="122949297" timestamp="2022-06-28T10:08:09Z" user="NeoChapay" uid="96925" lat="55.7721628" lon="48.7278091"/>
 <node id="9852954923" visible="true" version="1" changeset="122949297" timestamp="2022-06-28T10:08:09Z" user="NeoChapay" uid="96925" lat="55.7720939" lon="48.7283416"/>
 <node id="9852954924" visible="true" version="1" changeset="122949297" timestamp="2022-06-28T10:08:09Z" user="NeoChapay" uid="96925" lat="55.7719340" lon="48.7288299"/>
 <node id="9852954925" visible="true" version="1" changeset="122949297" timestamp="2022-06-28T10:08:09Z" user="NeoChapay" uid="96925" lat="55.7716573" lon="48.7286544"/>
 <node id="9852954926" visible="true" version="1" changeset="122949297" timestamp="2022-06-28T10:08:09Z" user="NeoChapay" uid="96925" lat="55.7715538" lon="48.7283864"/>
 <node id="11159800476" visible="true" version="1" changeset="140652676" timestamp="2023-08-31T20:55:04Z" user="dimsharav" uid="2554875" lat="55.7714282" lon="48.7299783">
  <tag k="crossing" v="unmarked"/>
  <tag k="crossing:island" v="no"/>
  <tag k="crossing:markings" v="no"/>
  <tag k="highway" v="crossing"/>
  <tag k="kerb" v="no"/>
  <tag k="tactile_paving" v="no"/>
 </node>
 <way id="96525414" visible="true" version="6" changeset="140652676" timestamp="2023-08-31T20:55:04Z" user="dimsharav" uid="2554875">
  <nd ref="1553403677"/>
  <nd ref="1553403676"/>
  <nd ref="1553403675"/>
  <nd ref="1553403674"/>
  <nd ref="1118300857"/>
  <nd ref="1118300858"/>
  <nd ref="730549734"/>
  <nd ref="9136759731"/>
  <nd ref="9136759732"/>
  <nd ref="9136759730"/>
  <nd ref="1118300859"/>
  <nd ref="9136759728"/>
  <nd ref="9136759729"/>
  <nd ref="1118300861"/>
  <nd ref="11159800476"/>
  <nd ref="9136759828"/>
  <nd ref="1118300863"/>
  <nd ref="1118300869"/>
  <nd ref="1118300870"/>
  <tag k="highway" v="track"/>
  <tag k="surface" v="unpaved"/>
  <tag k="tracktype" v="grade3"/>
 </way>
 <way id="853989959" visible="true" version="5" changeset="122949297" timestamp="2022-06-28T10:08:09Z" user="NeoChapay" uid="96925">
  <nd ref="7964531113"/>
  <nd ref="8852294625"/>
  <nd ref="9136759749"/>
  <nd ref="7964531114"/>
  <nd ref="9136759748"/>
  <nd ref="9136759756"/>
  <nd ref="9136759754"/>
  <nd ref="9136759757"/>
  <nd ref="7964531117"/>
  <nd ref="9852954920"/>
  <nd ref="9852954921"/>
  <nd ref="9852954922"/>
  <nd ref="9852954923"/>
  <nd ref="9852954924"/>
  <nd ref="9852954925"/>
  <nd ref="9852954926"/>
  <nd ref="1118300861"/>
  <nd ref="9136759759"/>
  <nd ref="9136759758"/>
  <nd ref="7964531119"/>
  <nd ref="9136759782"/>
  <nd ref="9136759783"/>
  <nd ref="9136759784"/>
  <nd ref="9136759785"/>
  <nd ref="7964531120"/>
  <nd ref="7964531121"/>
  <nd ref="9136759813"/>
  <nd ref="9136759812"/>
  <nd ref="9136759814"/>
  <nd ref="9136759810"/>
  <nd ref="7964531122"/>
  <nd ref="7964531123"/>
  <nd ref="9136759726"/>
  <nd ref="9136759727"/>
  <nd ref="7964531124"/>
  <nd ref="7964531125"/>
  <nd ref="9136759735"/>
  <nd ref="9136759734"/>
  <nd ref="9136759736"/>
  <nd ref="9136759733"/>
  <nd ref="7964531126"/>
  <nd ref="7964531127"/>
  <nd ref="7964531128"/>
  <nd ref="9136759738"/>
  <nd ref="9136759740"/>
  <nd ref="9136759739"/>
  <nd ref="7964531129"/>
  <nd ref="7964531130"/>
  <nd ref="7964531131"/>
  <nd ref="7964531132"/>
  <nd ref="7964531133"/>
  <nd ref="7964531134"/>
  <nd ref="7964531135"/>
  <nd ref="7964531136"/>
  <nd ref="9136759746"/>
  <nd ref="7964531137"/>
  <nd ref="9136759821"/>
  <nd ref="9136759820"/>
  <nd ref="9136759819"/>
  <nd ref="7964531113"/>
  <tag k="natural" v="wood"/>
 </way>
</osm>
