<?xml version="1.0" encoding="UTF-8"?>
<osm version="0.6" generator="openstreetmap-cgimap 2.1.0 (244684 spike-07.openstreetmap.org)" copyright="OpenStreetMap and contributors" attribution="http://www.openstreetmap.org/copyright" license="http://opendatacommons.org/licenses/odbl/1-0/">
 <bounds minlat="55.7036525" minlon="37.9682631" maxlat="55.7063475" maxlon="37.9730459"/>
 <node id="250063990" visible="true" version="2" changeset="7466938" timestamp="2011-03-05T19:33:05Z" user="LexIgnatov" uid="316868" lat="55.7037415" lon="37.9710650"/>
 <node id="250063991" visible="true" version="2" changeset="7466938" timestamp="2011-03-05T19:32:49Z" user="LexIgnatov" uid="316868" lat="55.7039449" lon="37.9710623"/>
 <node id="250063992" visible="true" version="2" changeset="7466938" timestamp="2011-03-05T19:32:23Z" user="LexIgnatov" uid="316868" lat="55.7040159" lon="37.9710807"/>
 <node id="250063993" visible="true" version="2" changeset="7466938" timestamp="2011-03-05T19:32:08Z" user="LexIgnatov" uid="316868" lat="55.7040790" lon="37.9711208"/>
 <node id="250063994" visible="true" version="2" changeset="7466938" timestamp="2011-03-05T19:32:49Z" user="LexIgnatov" uid="316868" lat="55.7045723" lon="37.9718144"/>
 <node id="250063995" visible="true" version="2" changeset="7466938" timestamp="2011-03-05T19:32:35Z" user="LexIgnatov" uid="316868" lat="55.7047363" lon="37.9719945"/>
 <node id="250063996" visible="true" version="2" changeset="7466938" timestamp="2011-03-05T19:32:55Z" user="LexIgnatov" uid="316868" lat="55.7052364" lon="37.9723113"/>
 <node id="250063998" visible="true" version="2" changeset="7466938" timestamp="2011-03-05T19:31:55Z" user="LexIgnatov" uid="316868" lat="55.7057301" lon="37.9727363"/>
 <node id="250063999" visible="true" version="2" changeset="7466938" timestamp="2011-03-05T19:33:11Z" user="LexIgnatov" uid="316868" lat="55.7060839" lon="37.9730085"/>
 <node id="250064000" visible="true" version="2" changeset="7466938" timestamp="2011-03-05T19:32:24Z" user="LexIgnatov" uid="316868" lat="55.7063165" lon="37.9731441"/>
 <node id="250064001" visible="true" version="2" changeset="7466938" timestamp="2011-03-05T19:32:09Z" user="LexIgnatov" uid="316868" lat="55.7066305" lon="37.9732048"/>
 <node id="250064002" visible="true" version="2" changeset="7466938" timestamp="2011-03-05T19:32:50Z" user="LexIgnatov" uid="316868" lat="55.7069076" lon="37.9731183"/>
 <node id="250064004" visible="true" version="4" changeset="184111023" timestamp="2026-06-14T20:51:46Z" user="SniperS88" uid="20386805" lat="55.7076484" lon="37.9724502"/>
 <node id="250200596" visible="true" version="2" changeset="7466938" timestamp="2011-03-05T19:32:22Z" user="LexIgnatov" uid="316868" lat="55.7007572" lon="37.9721568"/>
 <node id="262508546" visible="true" version="5" changeset="179430220" timestamp="2026-03-06T07:29:05Z" user="literan" uid="830106" lat="55.7078926" lon="37.9690169"/>
 <node id="262508547" visible="true" version="4" changeset="7628443" timestamp="2011-03-21T15:48:50Z" user="Yu440" uid="236129" lat="55.7076543" lon="37.9692051"/>
 <node id="262508548" visible="true" version="4" changeset="175227367" timestamp="2025-11-28T08:02:13Z" user="literan" uid="830106" lat="55.7064840" lon="37.9690719"/>
 <node id="262508549" visible="true" version="4" changeset="175227367" timestamp="2025-11-28T08:02:13Z" user="literan" uid="830106" lat="55.7059098" lon="37.9692060"/>
 <node id="262508551" visible="true" version="5" changeset="149897432" timestamp="2024-04-12T07:56:15Z" user="literan" uid="830106" lat="55.7054268" lon="37.9693499"/>
 <node id="262508552" visible="true" version="4" changeset="7628443" timestamp="2011-03-21T15:51:29Z" user="Yu440" uid="236129" lat="55.7053274" lon="37.9693057"/>
 <node id="262508553" visible="true" version="4" changeset="175227367" timestamp="2025-11-28T08:02:13Z" user="literan" uid="830106" lat="55.7049969" lon="37.9688573"/>
 <node id="262509157" visible="true" version="5" changeset="175227367" timestamp="2025-11-28T08:02:13Z" user="literan" uid="830106" lat="55.7038967" lon="37.9689324"/>
 <node id="262509159" visible="true" version="3" changeset="7467839" timestamp="2011-03-05T21:14:35Z" user="LexIgnatov" uid="316868" lat="55.7037804" lon="37.9693160"/>
 <node id="262509161" visible="true" version="4" changeset="175227367" timestamp="2025-11-28T08:02:13Z" user="literan" uid="830106" lat="55.7037048" lon="37.9695439"/>
 <node id="262509164" visible="true" version="4" changeset="175227367" timestamp="2025-11-28T08:02:13Z" user="literan" uid="830106" lat="55.7035219" lon="37.9696941"/>
 <node id="262509166" visible="true" version="3" changeset="7467839" timestamp="2011-03-05T21:14:54Z" user="LexIgnatov" uid="316868" lat="55.7033869" lon="37.9700270"/>
 <node id="262509168" visible="true" version="3" changeset="7467839" timestamp="2011-03-05T21:14:31Z" user="LexIgnatov" uid="316868" lat="55.7032827" lon="37.9702403"/>
 <node id="262509170" visible="true" version="3" changeset="7467839" timestamp="2011-03-05T21:14:45Z" user="LexIgnatov" uid="316868" lat="55.7030267" lon="37.9702830"/>
 <node id="262509173" visible="true" version="3" changeset="7467839" timestamp="2011-03-05T21:14:41Z" user="LexIgnatov" uid="316868" lat="55.7019744" lon="37.9702640"/>
 <node id="262509175" visible="true" version="4" changeset="7628443" timestamp="2011-03-21T15:50:29Z" user="Yu440" uid="236129" lat="55.7013504" lon="37.9702581"/>
 <node id="262509177" visible="true" version="3" changeset="7467839" timestamp="2011-03-05T21:14:34Z" user="LexIgnatov" uid="316868" lat="55.7011259" lon="37.9703588"/>
 <node id="262509179" visible="true" version="3" changeset="7467839" timestamp="2011-03-05T21:14:51Z" user="LexIgnatov" uid="316868" lat="55.7007514" lon="37.9706669"/>
 <node id="262509182" visible="true" version="3" changeset="7467839" timestamp="2011-03-05T21:14:27Z" user="LexIgnatov" uid="316868" lat="55.7005618" lon="37.9707949"/>
 <node id="262509184" visible="true" version="3" changeset="7467839" timestamp="2011-03-05T21:14:41Z" user="LexIgnatov" uid="316868" lat="55.7004006" lon="37.9707665"/>
 <node id="262509189" visible="true" version="3" changeset="7467839" timestamp="2011-03-05T21:14:54Z" user="LexIgnatov" uid="316868" lat="55.7000546" lon="37.9703778"/>
 <node id="262509191" visible="true" version="4" changeset="7628443" timestamp="2011-03-21T15:49:28Z" user="Yu440" uid="236129" lat="55.6997910" lon="37.9701303"/>
 <node id="262509194" visible="true" version="4" changeset="7628443" timestamp="2011-03-21T15:48:38Z" user="Yu440" uid="236129" lat="55.6995460" lon="37.9695523"/>
 <node id="262509196" visible="true" version="4" changeset="7628443" timestamp="2011-03-21T15:48:47Z" user="Yu440" uid="236129" lat="55.6993983" lon="37.9693958"/>
 <node id="262509198" visible="true" version="4" changeset="7628443" timestamp="2011-03-21T15:49:51Z" user="Yu440" uid="236129" lat="55.6989882" lon="37.9689880"/>
 <node id="262509201" visible="true" version="4" changeset="7628443" timestamp="2011-03-21T15:48:58Z" user="Yu440" uid="236129" lat="55.6987153" lon="37.9688538"/>
 <node id="262509203" visible="true" version="4" changeset="7628443" timestamp="2011-03-21T15:50:10Z" user="Yu440" uid="236129" lat="55.6983584" lon="37.9686428"/>
 <node id="262509205" visible="true" version="4" changeset="7628443" timestamp="2011-03-21T15:50:27Z" user="Yu440" uid="236129" lat="55.6980489" lon="37.9685820"/>
 <node id="262509207" visible="true" version="4" changeset="7628443" timestamp="2011-03-21T15:51:27Z" user="Yu440" uid="236129" lat="55.6978279" lon="37.9684082"/>
 <node id="262509209" visible="true" version="4" changeset="7628443" timestamp="2011-03-21T15:49:52Z" user="Yu440" uid="236129" lat="55.6975493" lon="37.9680379"/>
 <node id="262509211" visible="true" version="4" changeset="7628443" timestamp="2011-03-21T15:51:06Z" user="Yu440" uid="236129" lat="55.6964472" lon="37.9651823"/>
 <node id="262509214" visible="true" version="4" changeset="7628443" timestamp="2011-03-21T15:51:39Z" user="Yu440" uid="236129" lat="55.6958862" lon="37.9639278"/>
 <node id="262509216" visible="true" version="4" changeset="7628443" timestamp="2011-03-21T15:49:48Z" user="Yu440" uid="236129" lat="55.6956462" lon="37.9636936"/>
 <node id="262509218" visible="true" version="4" changeset="7628443" timestamp="2011-03-21T15:51:04Z" user="Yu440" uid="236129" lat="55.6956051" lon="37.9635152"/>
 <node id="262509221" visible="true" version="3" changeset="7467839" timestamp="2011-03-05T21:14:51Z" user="LexIgnatov" uid="316868" lat="55.6955751" lon="37.9633907"/>
 <node id="262509223" visible="true" version="4" changeset="7628443" timestamp="2011-03-21T15:49:06Z" user="Yu440" uid="236129" lat="55.6950798" lon="37.9624229"/>
 <node id="262509225" visible="true" version="4" changeset="7628443" timestamp="2011-03-21T15:51:14Z" user="Yu440" uid="236129" lat="55.6949127" lon="37.9622301"/>
 <node id="262509227" visible="true" version="4" changeset="7628443" timestamp="2011-03-21T15:48:44Z" user="Yu440" uid="236129" lat="55.6946352" lon="37.9617112"/>
 <node id="262509231" visible="true" version="3" changeset="7467839" timestamp="2011-03-05T21:14:26Z" user="LexIgnatov" uid="316868" lat="55.6940772" lon="37.9612244"/>
 <node id="262509233" visible="true" version="3" changeset="7467839" timestamp="2011-03-05T21:14:53Z" user="LexIgnatov" uid="316868" lat="55.6936743" lon="37.9612291"/>
 <node id="262509236" visible="true" version="3" changeset="7467839" timestamp="2011-03-05T21:14:30Z" user="LexIgnatov" uid="316868" lat="55.6935606" lon="37.9613429"/>
 <node id="262509238" visible="true" version="3" changeset="7467839" timestamp="2011-03-05T21:14:44Z" user="LexIgnatov" uid="316868" lat="55.6932382" lon="37.9613571"/>
 <node id="262509240" visible="true" version="4" changeset="7628443" timestamp="2011-03-21T15:48:53Z" user="Yu440" uid="236129" lat="55.6930017" lon="37.9615062"/>
 <node id="262509242" visible="true" version="3" changeset="7467839" timestamp="2011-03-05T21:14:36Z" user="LexIgnatov" uid="316868" lat="55.6928495" lon="37.9618928"/>
 <node id="262509245" visible="true" version="4" changeset="7628443" timestamp="2011-03-21T15:51:05Z" user="Yu440" uid="236129" lat="55.6927203" lon="37.9621873"/>
 <node id="262509247" visible="true" version="3" changeset="7467839" timestamp="2011-03-05T21:14:50Z" user="LexIgnatov" uid="316868" lat="55.6924845" lon="37.9624284"/>
 <node id="262509249" visible="true" version="4" changeset="7628443" timestamp="2011-03-21T15:51:23Z" user="Yu440" uid="236129" lat="55.6923228" lon="37.9622738"/>
 <node id="262509252" visible="true" version="4" changeset="7628443" timestamp="2011-03-21T15:48:44Z" user="Yu440" uid="236129" lat="55.6921700" lon="37.9620025"/>
 <node id="677696513" visible="true" version="4" changeset="184111023" timestamp="2026-06-14T20:51:46Z" user="SniperS88" uid="20386805" lat="55.7076088" lon="37.9722848">
  <tag k="barrier" v="gate"/>
  <tag k="bicycle" v="yes"/>
  <tag k="foot" v="yes"/>
  <tag k="motorcar" v="yes"/>
 </node>
 <node id="1187791544" visible="true" version="1" changeset="7466938" timestamp="2011-03-05T19:30:27Z" user="LexIgnatov" uid="316868" lat="55.7044912" lon="37.9717082"/>
 <node id="1187791564" visible="true" version="1" changeset="7466938" timestamp="2011-03-05T19:30:28Z" user="LexIgnatov" uid="316868" lat="55.7058442" lon="37.9729529"/>
 <node id="1187791589" visible="true" version="1" changeset="7466938" timestamp="2011-03-05T19:30:28Z" user="LexIgnatov" uid="316868" lat="55.7090940" lon="37.9722727"/>
 <node id="1187791604" visible="true" version="2" changeset="42644853" timestamp="2016-10-04T23:13:48Z" user="Hvfb" uid="1232315" lat="55.7063226" lon="37.9729461"/>
 <node id="1187791627" visible="true" version="1" changeset="7466938" timestamp="2011-03-05T19:30:29Z" user="LexIgnatov" uid="316868" lat="55.7087121" lon="37.9737333"/>
 <node id="1187791636" visible="true" version="1" changeset="7466938" timestamp="2011-03-05T19:30:30Z" user="LexIgnatov" uid="316868" lat="55.7054391" lon="37.9760434"/>
 <node id="1187791649" visible="true" version="1" changeset="7466938" timestamp="2011-03-05T19:30:30Z" user="LexIgnatov" uid="316868" lat="55.7073591" lon="37.9734762"/>
 <node id="1187791660" visible="true" version="1" changeset="7466938" timestamp="2011-03-05T19:30:30Z" user="LexIgnatov" uid="316868" lat="55.7067597" lon="37.9731804"/>
 <node id="1187791670" visible="true" version="2" changeset="72489658" timestamp="2019-07-21T19:01:49Z" user="neo-plan" uid="363136" lat="55.7034425" lon="37.9745598"/>
 <node id="1187791690" visible="true" version="1" changeset="7466938" timestamp="2011-03-05T19:30:31Z" user="LexIgnatov" uid="316868" lat="55.7077027" lon="37.9750323"/>
 <node id="1187791755" visible="true" version="1" changeset="7466938" timestamp="2011-03-05T19:30:33Z" user="LexIgnatov" uid="316868" lat="55.7064723" lon="37.9732987"/>
 <node id="1187791793" visible="true" version="1" changeset="7466938" timestamp="2011-03-05T19:30:33Z" user="LexIgnatov" uid="316868" lat="55.7086505" lon="37.9728506"/>
 <node id="1187791802" visible="true" version="1" changeset="7466938" timestamp="2011-03-05T19:30:33Z" user="LexIgnatov" uid="316868" lat="55.7067977" lon="37.9760301"/>
 <node id="1187791853" visible="true" version="1" changeset="7466938" timestamp="2011-03-05T19:30:34Z" user="LexIgnatov" uid="316868" lat="55.7073976" lon="37.9755797"/>
 <node id="1187791867" visible="true" version="2" changeset="7634939" timestamp="2011-03-22T08:53:02Z" user="Yu440" uid="236129" lat="55.7046356" lon="37.9755552"/>
 <node id="1187791885" visible="true" version="1" changeset="7466938" timestamp="2011-03-05T19:30:35Z" user="LexIgnatov" uid="316868" lat="55.7077206" lon="37.9733488"/>
 <node id="1187791923" visible="true" version="2" changeset="72489658" timestamp="2019-07-21T19:01:49Z" user="neo-plan" uid="363136" lat="55.7032884" lon="37.9749415"/>
 <node id="1187791961" visible="true" version="1" changeset="7466938" timestamp="2011-03-05T19:30:36Z" user="LexIgnatov" uid="316868" lat="55.7049084" lon="37.9722430"/>
 <node id="1187792016" visible="true" version="1" changeset="7466938" timestamp="2011-03-05T19:30:37Z" user="LexIgnatov" uid="316868" lat="55.7069645" lon="37.9750140"/>
 <node id="1187792051" visible="true" version="1" changeset="7466938" timestamp="2011-03-05T19:30:37Z" user="LexIgnatov" uid="316868" lat="55.7089863" lon="37.9726959"/>
 <node id="1187792054" visible="true" version="1" changeset="7466938" timestamp="2011-03-05T19:30:37Z" user="LexIgnatov" uid="316868" lat="55.7072542" lon="37.9748502"/>
 <node id="1187792059" visible="true" version="1" changeset="7466938" timestamp="2011-03-05T19:30:37Z" user="LexIgnatov" uid="316868" lat="55.7059363" lon="37.9759573"/>
 <node id="1187792144" visible="true" version="1" changeset="7466938" timestamp="2011-03-05T19:30:39Z" user="LexIgnatov" uid="316868" lat="55.7075950" lon="37.9730075"/>
 <node id="1187792175" visible="true" version="1" changeset="7466938" timestamp="2011-03-05T19:30:39Z" user="LexIgnatov" uid="316868" lat="55.7064173" lon="37.9731831"/>
 <node id="1187792188" visible="true" version="1" changeset="7466938" timestamp="2011-03-05T19:30:39Z" user="LexIgnatov" uid="316868" lat="55.7053554" lon="37.9723877"/>
 <node id="1187792189" visible="true" version="1" changeset="7466938" timestamp="2011-03-05T19:30:39Z" user="LexIgnatov" uid="316868" lat="55.7041056" lon="37.9739792"/>
 <node id="1187792261" visible="true" version="1" changeset="7466938" timestamp="2011-03-05T19:30:40Z" user="LexIgnatov" uid="316868" lat="55.7086941" lon="37.9718996"/>
 <node id="1187792324" visible="true" version="1" changeset="7466938" timestamp="2011-03-05T19:30:41Z" user="LexIgnatov" uid="316868" lat="55.7089069" lon="37.9733056"/>
 <node id="1187792350" visible="true" version="1" changeset="7466938" timestamp="2011-03-05T19:30:42Z" user="LexIgnatov" uid="316868" lat="55.7061542" lon="37.9759255"/>
 <node id="1187792377" visible="true" version="1" changeset="7466938" timestamp="2011-03-05T19:30:42Z" user="LexIgnatov" uid="316868" lat="55.7075770" lon="37.9727391"/>
 <node id="1187792389" visible="true" version="1" changeset="7466938" timestamp="2011-03-05T19:30:42Z" user="LexIgnatov" uid="316868" lat="55.7072063" lon="37.9729237"/>
 <node id="1187792434" visible="true" version="1" changeset="7466938" timestamp="2011-03-05T19:30:43Z" user="LexIgnatov" uid="316868" lat="55.7074924" lon="37.9736218"/>
 <node id="1187792451" visible="true" version="1" changeset="7466938" timestamp="2011-03-05T19:30:43Z" user="LexIgnatov" uid="316868" lat="55.7054900" lon="37.9724938"/>
 <node id="1187792454" visible="true" version="2" changeset="72489658" timestamp="2019-07-21T19:01:49Z" user="neo-plan" uid="363136" lat="55.7046667" lon="37.9723553"/>
 <node id="1187792472" visible="true" version="1" changeset="7466938" timestamp="2011-03-05T19:30:43Z" user="LexIgnatov" uid="316868" lat="55.7055497" lon="37.9762887"/>
 <node id="1187792477" visible="true" version="1" changeset="7466938" timestamp="2011-03-05T19:30:43Z" user="LexIgnatov" uid="316868" lat="55.7045329" lon="37.9715369"/>
 <node id="1187792493" visible="true" version="1" changeset="7466938" timestamp="2011-03-05T19:30:44Z" user="LexIgnatov" uid="316868" lat="55.7046444" lon="37.9719048"/>
 <node id="1187792527" visible="true" version="1" changeset="7466938" timestamp="2011-03-05T19:30:44Z" user="LexIgnatov" uid="316868" lat="55.7053468" lon="37.9724842"/>
 <node id="1187792543" visible="true" version="1" changeset="7466938" timestamp="2011-03-05T19:30:45Z" user="LexIgnatov" uid="316868" lat="55.7089735" lon="37.9721999"/>
 <node id="1187792609" visible="true" version="2" changeset="81899363" timestamp="2020-03-07T13:33:32Z" user="et2t7121" uid="3097362" lat="55.7093577" lon="37.9696298"/>
 <node id="1187792612" visible="true" version="1" changeset="7466938" timestamp="2011-03-05T19:30:46Z" user="LexIgnatov" uid="316868" lat="55.7081872" lon="37.9746606"/>
 <node id="1187792641" visible="true" version="1" changeset="7466938" timestamp="2011-03-05T19:30:46Z" user="LexIgnatov" uid="316868" lat="55.7055623" lon="37.9761921"/>
 <node id="1187792664" visible="true" version="1" changeset="7466938" timestamp="2011-03-05T19:30:46Z" user="LexIgnatov" uid="316868" lat="55.7072899" lon="37.9736900"/>
 <node id="1187792740" visible="true" version="1" changeset="7466938" timestamp="2011-03-05T19:30:47Z" user="LexIgnatov" uid="316868" lat="55.7073514" lon="37.9750232"/>
 <node id="1187792796" visible="true" version="1" changeset="7466938" timestamp="2011-03-05T19:30:48Z" user="LexIgnatov" uid="316868" lat="55.7053725" lon="37.9722251"/>
 <node id="1187792872" visible="true" version="1" changeset="7466938" timestamp="2011-03-05T19:30:49Z" user="LexIgnatov" uid="316868" lat="55.7038553" lon="37.9710554"/>
 <node id="1187792876" visible="true" version="1" changeset="7466938" timestamp="2011-03-05T19:30:49Z" user="LexIgnatov" uid="316868" lat="55.7068158" lon="37.9733078"/>
 <node id="1187792932" visible="true" version="1" changeset="7466938" timestamp="2011-03-05T19:30:49Z" user="LexIgnatov" uid="316868" lat="55.7088402" lon="37.9722272"/>
 <node id="1187792959" visible="true" version="1" changeset="7466938" timestamp="2011-03-05T19:30:50Z" user="LexIgnatov" uid="316868" lat="55.7071002" lon="37.9755888"/>
 <node id="1187793032" visible="true" version="1" changeset="7466938" timestamp="2011-03-05T19:30:50Z" user="LexIgnatov" uid="316868" lat="55.7076360" lon="37.9752430"/>
 <node id="1187793064" visible="true" version="1" changeset="7466938" timestamp="2011-03-05T19:30:51Z" user="LexIgnatov" uid="316868" lat="55.7033131" lon="37.9756799"/>
 <node id="1187793107" visible="true" version="1" changeset="7466938" timestamp="2011-03-05T19:30:51Z" user="LexIgnatov" uid="316868" lat="55.7071951" lon="37.9736354"/>
 <node id="1187793164" visible="true" version="1" changeset="7466938" timestamp="2011-03-05T19:30:52Z" user="LexIgnatov" uid="316868" lat="55.7031264" lon="37.9749989"/>
 <node id="1187793287" visible="true" version="1" changeset="7466938" timestamp="2011-03-05T19:30:53Z" user="LexIgnatov" uid="316868" lat="55.7049271" lon="37.9719862"/>
 <node id="1187793315" visible="true" version="3" changeset="182316542" timestamp="2026-05-06T23:54:11Z" user="neo-plan" uid="363136" lat="55.7097550" lon="37.9711693"/>
 <node id="1187793328" visible="true" version="1" changeset="7466938" timestamp="2011-03-05T19:30:54Z" user="LexIgnatov" uid="316868" lat="55.7036273" lon="37.9710989"/>
 <node id="1187793393" visible="true" version="1" changeset="7466938" timestamp="2011-03-05T19:30:55Z" user="LexIgnatov" uid="316868" lat="55.7067773" lon="37.9744271"/>
 <node id="1187793428" visible="true" version="1" changeset="7466938" timestamp="2011-03-05T19:30:55Z" user="LexIgnatov" uid="316868" lat="55.7090863" lon="37.9725639"/>
 <node id="1187793435" visible="true" version="1" changeset="7466938" timestamp="2011-03-05T19:30:55Z" user="LexIgnatov" uid="316868" lat="55.7015221" lon="37.9718923"/>
 <node id="1187793455" visible="true" version="1" changeset="7466938" timestamp="2011-03-05T19:30:56Z" user="LexIgnatov" uid="316868" lat="55.7072156" lon="37.9752566"/>
 <node id="1187793468" visible="true" version="2" changeset="116854587" timestamp="2022-02-01T07:53:23Z" user="literan" uid="830106" lat="55.7088430" lon="37.9706973"/>
 <node id="1187793481" visible="true" version="1" changeset="7466938" timestamp="2011-03-05T19:30:56Z" user="LexIgnatov" uid="316868" lat="55.7077744" lon="37.9752157"/>
 <node id="1187793523" visible="true" version="1" changeset="7466938" timestamp="2011-03-05T19:30:57Z" user="LexIgnatov" uid="316868" lat="55.7073925" lon="37.9731304"/>
 <node id="1187793551" visible="true" version="1" changeset="7466938" timestamp="2011-03-05T19:30:58Z" user="LexIgnatov" uid="316868" lat="55.7065268" lon="37.9731968"/>
 <node id="1187793577" visible="true" version="1" changeset="7466938" timestamp="2011-03-05T19:30:58Z" user="LexIgnatov" uid="316868" lat="55.7044621" lon="37.9733607"/>
 <node id="1187793586" visible="true" version="1" changeset="7466938" timestamp="2011-03-05T19:30:58Z" user="LexIgnatov" uid="316868" lat="55.7036901" lon="37.9704562"/>
 <node id="1187793607" visible="true" version="1" changeset="7466938" timestamp="2011-03-05T19:30:59Z" user="LexIgnatov" uid="316868" lat="55.7049581" lon="37.9721520"/>
 <node id="1187793641" visible="true" version="1" changeset="7466938" timestamp="2011-03-05T19:31:00Z" user="LexIgnatov" uid="316868" lat="55.7091094" lon="37.9712034"/>
 <node id="1187793684" visible="true" version="1" changeset="7466938" timestamp="2011-03-05T19:31:01Z" user="LexIgnatov" uid="316868" lat="55.7067645" lon="37.9738993"/>
 <node id="1187793711" visible="true" version="1" changeset="7466938" timestamp="2011-03-05T19:31:01Z" user="LexIgnatov" uid="316868" lat="55.7087223" lon="37.9734739"/>
 <node id="1187793716" visible="true" version="1" changeset="7466938" timestamp="2011-03-05T19:31:01Z" user="LexIgnatov" uid="316868" lat="55.7064131" lon="37.9763077"/>
 <node id="1187793740" visible="true" version="1" changeset="7466938" timestamp="2011-03-05T19:31:02Z" user="LexIgnatov" uid="316868" lat="55.7078795" lon="37.9726663"/>
 <node id="1187793755" visible="true" version="1" changeset="7466938" timestamp="2011-03-05T19:31:02Z" user="LexIgnatov" uid="316868" lat="55.7075284" lon="37.9726225"/>
 <node id="1187793790" visible="true" version="1" changeset="7466938" timestamp="2011-03-05T19:31:03Z" user="LexIgnatov" uid="316868" lat="55.7076232" lon="37.9740996"/>
 <node id="1187793840" visible="true" version="1" changeset="7466938" timestamp="2011-03-05T19:31:04Z" user="LexIgnatov" uid="316868" lat="55.7058319" lon="37.9728276"/>
 <node id="1187793847" visible="true" version="1" changeset="7466938" timestamp="2011-03-05T19:31:04Z" user="LexIgnatov" uid="316868" lat="55.7057814" lon="37.9764704"/>
 <node id="1187793865" visible="true" version="1" changeset="7466938" timestamp="2011-03-05T19:31:04Z" user="LexIgnatov" uid="316868" lat="55.7042861" lon="37.9711274"/>
 <node id="1187793899" visible="true" version="1" changeset="7466938" timestamp="2011-03-05T19:31:05Z" user="LexIgnatov" uid="316868" lat="55.7093581" lon="37.9716766"/>
 <node id="1187793931" visible="true" version="2" changeset="42644853" timestamp="2016-10-04T23:13:48Z" user="Hvfb" uid="1232315" lat="55.7070462" lon="37.9728257"/>
 <node id="1187793976" visible="true" version="1" changeset="7466938" timestamp="2011-03-05T19:31:06Z" user="LexIgnatov" uid="316868" lat="55.7083325" lon="37.9745603"/>
 <node id="1187793987" visible="true" version="5" changeset="165451800" timestamp="2025-04-26T07:26:12Z" user="neo-plan" uid="363136" lat="55.7097019" lon="37.9698655"/>
 <node id="1187793995" visible="true" version="1" changeset="7466938" timestamp="2011-03-05T19:31:06Z" user="LexIgnatov" uid="316868" lat="55.7048520" lon="37.9756203"/>
 <node id="1187794026" visible="true" version="1" changeset="7466938" timestamp="2011-03-05T19:31:07Z" user="LexIgnatov" uid="316868" lat="55.7077693" lon="37.9725571"/>
 <node id="1187794052" visible="true" version="1" changeset="7466938" timestamp="2011-03-05T19:31:07Z" user="LexIgnatov" uid="316868" lat="55.7073386" lon="37.9751961"/>
 <node id="1187794062" visible="true" version="1" changeset="7466938" timestamp="2011-03-05T19:31:08Z" user="LexIgnatov" uid="316868" lat="55.7043700" lon="37.9729483"/>
 <node id="1187794064" visible="true" version="1" changeset="7466938" timestamp="2011-03-05T19:31:08Z" user="LexIgnatov" uid="316868" lat="55.7041080" lon="37.9709431"/>
 <node id="1187794084" visible="true" version="1" changeset="7466938" timestamp="2011-03-05T19:31:08Z" user="LexIgnatov" uid="316868" lat="55.7041385" lon="37.9711691"/>
 <node id="1187794085" visible="true" version="1" changeset="7466938" timestamp="2011-03-05T19:31:08Z" user="LexIgnatov" uid="316868" lat="55.7067184" lon="37.9733260"/>
 <node id="1187794099" visible="true" version="1" changeset="7466938" timestamp="2011-03-05T19:31:09Z" user="LexIgnatov" uid="316868" lat="55.7055621" lon="37.9723680"/>
 <node id="1187794104" visible="true" version="1" changeset="7466938" timestamp="2011-03-05T19:31:09Z" user="LexIgnatov" uid="316868" lat="55.7087018" lon="37.9720816"/>
 <node id="1187794107" visible="true" version="2" changeset="42644853" timestamp="2016-10-04T23:13:48Z" user="Hvfb" uid="1232315" lat="55.7066754" lon="37.9729514"/>
 <node id="1187794127" visible="true" version="1" changeset="7466938" timestamp="2011-03-05T19:31:09Z" user="LexIgnatov" uid="316868" lat="55.7084442" lon="37.9746423"/>
 <node id="1187794137" visible="true" version="1" changeset="7466938" timestamp="2011-03-05T19:31:10Z" user="LexIgnatov" uid="316868" lat="55.7038208" lon="37.9754842"/>
 <node id="1187794150" visible="true" version="1" changeset="7466938" timestamp="2011-03-05T19:31:10Z" user="LexIgnatov" uid="316868" lat="55.7071515" lon="37.9731258"/>
 <node id="1187794162" visible="true" version="1" changeset="7466938" timestamp="2011-03-05T19:31:11Z" user="LexIgnatov" uid="316868" lat="55.7070460" lon="37.9730379"/>
 <node id="1187794172" visible="true" version="1" changeset="7466938" timestamp="2011-03-05T19:31:11Z" user="LexIgnatov" uid="316868" lat="55.7040535" lon="37.9747683"/>
 <node id="1187794192" visible="true" version="1" changeset="7466938" timestamp="2011-03-05T19:31:11Z" user="LexIgnatov" uid="316868" lat="55.7074668" lon="37.9752826"/>
 <node id="1187794228" visible="true" version="1" changeset="7466938" timestamp="2011-03-05T19:31:12Z" user="LexIgnatov" uid="316868" lat="55.7047220" lon="37.9717871"/>
 <node id="1187794233" visible="true" version="3" changeset="182316542" timestamp="2026-05-06T23:54:11Z" user="neo-plan" uid="363136" lat="55.7097548" lon="37.9708233"/>
 <node id="1187794270" visible="true" version="1" changeset="7466938" timestamp="2011-03-05T19:31:13Z" user="LexIgnatov" uid="316868" lat="55.7089351" lon="37.9731463"/>
 <node id="1187794279" visible="true" version="1" changeset="7466938" timestamp="2011-03-05T19:31:13Z" user="LexIgnatov" uid="316868" lat="55.7073104" lon="37.9755751"/>
 <node id="1187794290" visible="true" version="4" changeset="165451800" timestamp="2025-04-26T07:26:12Z" user="neo-plan" uid="363136" lat="55.7095763" lon="37.9698578"/>
 <node id="1187794302" visible="true" version="1" changeset="7466938" timestamp="2011-03-05T19:31:14Z" user="LexIgnatov" uid="316868" lat="55.7081102" lon="37.9749154"/>
 <node id="1187794313" visible="true" version="2" changeset="7634939" timestamp="2011-03-22T08:52:53Z" user="Yu440" uid="236129" lat="55.7044221" lon="37.9756202"/>
 <node id="1187794316" visible="true" version="1" changeset="7466938" timestamp="2011-03-05T19:31:14Z" user="LexIgnatov" uid="316868" lat="55.7076719" lon="37.9736627"/>
 <node id="1187794339" visible="true" version="1" changeset="7466938" timestamp="2011-03-05T19:31:15Z" user="LexIgnatov" uid="316868" lat="55.7043860" lon="37.9737446"/>
 <node id="1187794350" visible="true" version="1" changeset="7466938" timestamp="2011-03-05T19:31:15Z" user="LexIgnatov" uid="316868" lat="55.7071508" lon="37.9748025"/>
 <node id="1187794370" visible="true" version="1" changeset="7466938" timestamp="2011-03-05T19:31:16Z" user="LexIgnatov" uid="316868" lat="55.7050161" lon="37.9722840"/>
 <node id="1187794421" visible="true" version="1" changeset="7466938" timestamp="2011-03-05T19:31:16Z" user="LexIgnatov" uid="316868" lat="55.7068799" lon="37.9737309"/>
 <node id="1187794439" visible="true" version="1" changeset="7466938" timestamp="2011-03-05T19:31:17Z" user="LexIgnatov" uid="316868" lat="55.7086172" lon="37.9731964"/>
 <node id="1187794441" visible="true" version="1" changeset="7466938" timestamp="2011-03-05T19:31:17Z" user="LexIgnatov" uid="316868" lat="55.7058312" lon="37.9762804"/>
 <node id="1187794495" visible="true" version="1" changeset="7466938" timestamp="2011-03-05T19:31:18Z" user="LexIgnatov" uid="316868" lat="55.7074412" lon="37.9739585"/>
 <node id="1187794515" visible="true" version="1" changeset="7466938" timestamp="2011-03-05T19:31:19Z" user="LexIgnatov" uid="316868" lat="55.7048191" lon="37.9720577"/>
 <node id="1187794517" visible="true" version="1" changeset="7466938" timestamp="2011-03-05T19:31:19Z" user="LexIgnatov" uid="316868" lat="55.7041657" lon="37.9736379"/>
 <node id="1187794532" visible="true" version="1" changeset="7466938" timestamp="2011-03-05T19:31:19Z" user="LexIgnatov" uid="316868" lat="55.7042036" lon="37.9712488"/>
 <node id="1187794549" visible="true" version="1" changeset="7466938" timestamp="2011-03-05T19:31:20Z" user="LexIgnatov" uid="316868" lat="55.7043039" lon="37.9713975"/>
 <node id="1187794552" visible="true" version="1" changeset="7466938" timestamp="2011-03-05T19:31:20Z" user="LexIgnatov" uid="316868" lat="55.7063159" lon="37.9732395"/>
 <node id="1187794578" visible="true" version="1" changeset="7466938" timestamp="2011-03-05T19:31:20Z" user="LexIgnatov" uid="316868" lat="55.7094426" lon="37.9715538"/>
 <node id="1187794635" visible="true" version="1" changeset="7466938" timestamp="2011-03-05T19:31:22Z" user="LexIgnatov" uid="316868" lat="55.7086736" lon="37.9730963"/>
 <node id="1187794642" visible="true" version="1" changeset="7466938" timestamp="2011-03-05T19:31:22Z" user="LexIgnatov" uid="316868" lat="55.7051879" lon="37.9759479"/>
 <node id="1187794659" visible="true" version="1" changeset="7466938" timestamp="2011-03-05T19:31:22Z" user="LexIgnatov" uid="316868" lat="55.7077642" lon="37.9724251"/>
 <node id="1187794702" visible="true" version="1" changeset="7466938" timestamp="2011-03-05T19:31:23Z" user="LexIgnatov" uid="316868" lat="55.7074130" lon="37.9738266"/>
 <node id="1187794714" visible="true" version="1" changeset="7466938" timestamp="2011-03-05T19:31:23Z" user="LexIgnatov" uid="316868" lat="55.7042779" lon="37.9731971"/>
 <node id="1187794723" visible="true" version="1" changeset="7466938" timestamp="2011-03-05T19:31:24Z" user="LexIgnatov" uid="316868" lat="55.7037824" lon="37.9708475"/>
 <node id="1212041129" visible="true" version="1" changeset="7628443" timestamp="2011-03-21T15:48:07Z" user="Yu440" uid="236129" lat="55.6922470" lon="37.9620883"/>
 <node id="1212041192" visible="true" version="1" changeset="7628443" timestamp="2011-03-21T15:48:09Z" user="Yu440" uid="236129" lat="55.6953108" lon="37.9627880"/>
 <node id="1212041278" visible="true" version="1" changeset="7628443" timestamp="2011-03-21T15:48:11Z" user="Yu440" uid="236129" lat="55.6926185" lon="37.9623329"/>
 <node id="1212041336" visible="true" version="1" changeset="7628443" timestamp="2011-03-21T15:48:13Z" user="Yu440" uid="236129" lat="55.6931316" lon="37.9613911"/>
 <node id="1212041579" visible="true" version="1" changeset="7628443" timestamp="2011-03-21T15:48:18Z" user="Yu440" uid="236129" lat="55.7071514" lon="37.9691886"/>
 <node id="1212041656" visible="true" version="1" changeset="7628443" timestamp="2011-03-21T15:48:20Z" user="Yu440" uid="236129" lat="55.6925695" lon="37.9623932"/>
 <node id="1212041657" visible="true" version="1" changeset="7628443" timestamp="2011-03-21T15:48:20Z" user="Yu440" uid="236129" lat="55.6970240" lon="37.9665969"/>
 <node id="1212041705" visible="true" version="2" changeset="175227367" timestamp="2025-11-28T08:02:13Z" user="literan" uid="830106" lat="55.7052085" lon="37.9691577"/>
 <node id="1212041762" visible="true" version="1" changeset="7628443" timestamp="2011-03-21T15:48:22Z" user="Yu440" uid="236129" lat="55.6943760" lon="37.9615010"/>
 <node id="1212042060" visible="true" version="3" changeset="179430220" timestamp="2026-03-06T07:29:05Z" user="literan" uid="830106" lat="55.7080621" lon="37.9687885"/>
 <node id="1212042115" visible="true" version="1" changeset="7628443" timestamp="2011-03-21T15:48:30Z" user="Yu440" uid="236129" lat="55.6923938" lon="37.9623966"/>
 <node id="1341684362" visible="true" version="1" changeset="8566048" timestamp="2011-06-27T21:07:55Z" user="DonAvero" uid="302540" lat="55.6953282" lon="37.9628276"/>
 <node id="1341684363" visible="true" version="1" changeset="8566048" timestamp="2011-06-27T21:07:56Z" user="DonAvero" uid="302540" lat="55.7071146" lon="37.9691770"/>
 <node id="1797218117" visible="true" version="3" changeset="173949012" timestamp="2025-10-29T21:14:35Z" user="neo-plan" uid="363136" lat="55.7026357" lon="37.9704506"/>
 <node id="1797218118" visible="true" version="1" changeset="11970620" timestamp="2012-06-21T16:49:20Z" user="Vnuks" uid="247467" lat="55.7029426" lon="37.9699577"/>
 <node id="1797218119" visible="true" version="1" changeset="11970620" timestamp="2012-06-21T16:49:20Z" user="Vnuks" uid="247467" lat="55.7016902" lon="37.9699507"/>
 <node id="1797218131" visible="true" version="2" changeset="167371947" timestamp="2025-06-08T22:10:58Z" user="neo-plan" uid="363136" lat="55.7031228" lon="37.9705786"/>
 <node id="1797218155" visible="true" version="1" changeset="11970620" timestamp="2012-06-21T16:49:20Z" user="Vnuks" uid="247467" lat="55.7034193" lon="37.9706588"/>
 <node id="1797218158" visible="true" version="1" changeset="11970620" timestamp="2012-06-21T16:49:20Z" user="Vnuks" uid="247467" lat="55.7012429" lon="37.9706803"/>
 <node id="1797218183" visible="true" version="1" changeset="11970620" timestamp="2012-06-21T16:49:21Z" user="Vnuks" uid="247467" lat="55.7037600" lon="37.9699642"/>
 <node id="1797226452" visible="true" version="1" changeset="11970620" timestamp="2012-06-21T16:53:48Z" user="Vnuks" uid="247467" lat="55.7033272" lon="37.9712120"/>
 <node id="1797270086" visible="true" version="2" changeset="50424254" timestamp="2017-07-20T06:57:11Z" user="FvGordon" uid="161619" lat="55.7072987" lon="37.9726962"/>
 <node id="1797270098" visible="true" version="1" changeset="11970620" timestamp="2012-06-21T17:26:44Z" user="Vnuks" uid="247467" lat="55.7055382" lon="37.9723035"/>
 <node id="1797270099" visible="true" version="1" changeset="11970620" timestamp="2012-06-21T17:26:44Z" user="Vnuks" uid="247467" lat="55.7079924" lon="37.9692726"/>
 <node id="1797270102" visible="true" version="1" changeset="11970620" timestamp="2012-06-21T17:26:44Z" user="Vnuks" uid="247467" lat="55.7070555" lon="37.9694979"/>
 <node id="1797270115" visible="true" version="1" changeset="11970620" timestamp="2012-06-21T17:26:44Z" user="Vnuks" uid="247467" lat="55.7063148" lon="37.9730092"/>
 <node id="1797270166" visible="true" version="1" changeset="11970620" timestamp="2012-06-21T17:26:45Z" user="Vnuks" uid="247467" lat="55.7066504" lon="37.9730599"/>
 <node id="1797270175" visible="true" version="1" changeset="11970620" timestamp="2012-06-21T17:26:45Z" user="Vnuks" uid="247467" lat="55.7046072" lon="37.9704582"/>
 <node id="1797270181" visible="true" version="1" changeset="11970620" timestamp="2012-06-21T17:26:45Z" user="Vnuks" uid="247467" lat="55.7085727" lon="37.9706191"/>
 <node id="1797270188" visible="true" version="1" changeset="11970620" timestamp="2012-06-21T17:26:45Z" user="Vnuks" uid="247467" lat="55.7047160" lon="37.9700183"/>
 <node id="1797270192" visible="true" version="1" changeset="11970620" timestamp="2012-06-21T17:26:45Z" user="Vnuks" uid="247467" lat="55.7044621" lon="37.9708766"/>
 <node id="1797270196" visible="true" version="1" changeset="11970620" timestamp="2012-06-21T17:26:46Z" user="Vnuks" uid="247467" lat="55.7076781" lon="37.9721909"/>
 <node id="1797270222" visible="true" version="1" changeset="11970620" timestamp="2012-06-21T17:26:46Z" user="Vnuks" uid="247467" lat="55.7063180" lon="37.9696696"/>
 <node id="1797270237" visible="true" version="1" changeset="11970620" timestamp="2012-06-21T17:26:46Z" user="Vnuks" uid="247467" lat="55.7062787" lon="37.9707371"/>
 <node id="1797270312" visible="true" version="1" changeset="11970620" timestamp="2012-06-21T17:26:47Z" user="Vnuks" uid="247467" lat="55.7041659" lon="37.9709195"/>
 <node id="1797270314" visible="true" version="1" changeset="11970620" timestamp="2012-06-21T17:26:47Z" user="Vnuks" uid="247467" lat="55.7062908" lon="37.9711555"/>
 <node id="2624648532" visible="true" version="1" changeset="20033232" timestamp="2014-01-16T13:11:50Z" user="neo-plan" uid="363136" lat="55.7041216" lon="37.9710221">
  <tag k="barrier" v="lift_gate"/>
 </node>
 <node id="2624651610" visible="true" version="1" changeset="20033232" timestamp="2014-01-16T13:12:55Z" user="neo-plan" uid="363136" lat="55.7038258" lon="37.9723950"/>
 <node id="2624651611" visible="true" version="1" changeset="20033232" timestamp="2014-01-16T13:12:55Z" user="neo-plan" uid="363136" lat="55.7039140" lon="37.9725532"/>
 <node id="2624651624" visible="true" version="1" changeset="20033232" timestamp="2014-01-16T13:12:55Z" user="neo-plan" uid="363136" lat="55.7037169" lon="37.9728994"/>
 <node id="2624651628" visible="true" version="1" changeset="20033232" timestamp="2014-01-16T13:12:55Z" user="neo-plan" uid="363136" lat="55.7036287" lon="37.9727412"/>
 <node id="2901567860" visible="true" version="2" changeset="184111023" timestamp="2026-06-14T20:51:46Z" user="SniperS88" uid="20386805" lat="55.7070922" lon="37.9730014">
  <tag k="highway" v="crossing"/>
 </node>
 <node id="3446995991" visible="true" version="2" changeset="184111023" timestamp="2026-06-14T20:51:46Z" user="SniperS88" uid="20386805" lat="55.7074319" lon="37.9727206">
  <tag k="crossing" v="uncontrolled"/>
  <tag k="highway" v="crossing"/>
 </node>
 <node id="4982090497" visible="true" version="1" changeset="50424254" timestamp="2017-07-20T06:57:10Z" user="FvGordon" uid="161619" lat="55.7070612" lon="37.9728819"/>
 <node id="6476629021" visible="true" version="1" changeset="70294589" timestamp="2019-05-15T21:33:58Z" user="AlexCvv" uid="2310965" lat="55.7059359" lon="37.9763221"/>
 <node id="6476629022" visible="true" version="1" changeset="70294589" timestamp="2019-05-15T21:33:58Z" user="AlexCvv" uid="2310965" lat="55.7059714" lon="37.9760153"/>
 <node id="6476629023" visible="true" version="1" changeset="70294589" timestamp="2019-05-15T21:33:58Z" user="AlexCvv" uid="2310965" lat="55.7058783" lon="37.9757086"/>
 <node id="6476629024" visible="true" version="1" changeset="70294589" timestamp="2019-05-15T21:33:58Z" user="AlexCvv" uid="2310965" lat="55.7058384" lon="37.9750636"/>
 <node id="6476629025" visible="true" version="1" changeset="70294589" timestamp="2019-05-15T21:33:58Z" user="AlexCvv" uid="2310965" lat="55.7056390" lon="37.9748670"/>
 <node id="6476629026" visible="true" version="1" changeset="70294589" timestamp="2019-05-15T21:33:58Z" user="AlexCvv" uid="2310965" lat="55.7055548" lon="37.9742614"/>
 <node id="6476629027" visible="true" version="1" changeset="70294589" timestamp="2019-05-15T21:33:58Z" user="AlexCvv" uid="2310965" lat="55.7052579" lon="37.9738682"/>
 <node id="6476629028" visible="true" version="1" changeset="70294589" timestamp="2019-05-15T21:33:58Z" user="AlexCvv" uid="2310965" lat="55.7048901" lon="37.9733884"/>
 <node id="6476629030" visible="true" version="1" changeset="70294589" timestamp="2019-05-15T21:33:58Z" user="AlexCvv" uid="2310965" lat="55.7048649" lon="37.9720888"/>
 <node id="6635677671" visible="true" version="2" changeset="175227367" timestamp="2025-11-28T08:02:13Z" user="literan" uid="830106" lat="55.7033117" lon="37.9747502"/>
 <node id="6635677672" visible="true" version="1" changeset="72489658" timestamp="2019-07-21T19:01:49Z" user="neo-plan" uid="363136" lat="55.7039178" lon="37.9716630"/>
 <node id="6635677673" visible="true" version="1" changeset="72489658" timestamp="2019-07-21T19:01:49Z" user="neo-plan" uid="363136" lat="55.7027208" lon="37.9756970"/>
 <node id="6635677674" visible="true" version="2" changeset="175227367" timestamp="2025-11-28T08:02:13Z" user="literan" uid="830106" lat="55.7030397" lon="37.9742701"/>
 <node id="6635677675" visible="true" version="1" changeset="72489658" timestamp="2019-07-21T19:01:49Z" user="neo-plan" uid="363136" lat="55.7039753" lon="37.9711266"/>
 <node id="6635677676" visible="true" version="1" changeset="72489658" timestamp="2019-07-21T19:01:49Z" user="neo-plan" uid="363136" lat="55.7028538" lon="37.9752250"/>
 <node id="6635677677" visible="true" version="1" changeset="72489658" timestamp="2019-07-21T19:01:49Z" user="neo-plan" uid="363136" lat="55.7046638" lon="37.9722850"/>
 <node id="6635677678" visible="true" version="2" changeset="175227367" timestamp="2025-11-28T08:02:13Z" user="literan" uid="830106" lat="55.7027164" lon="37.9737552"/>
 <node id="6635677679" visible="true" version="1" changeset="72489658" timestamp="2019-07-21T19:01:49Z" user="neo-plan" uid="363136" lat="55.7041324" lon="37.9712821"/>
 <node id="6635677680" visible="true" version="2" changeset="175227367" timestamp="2025-11-28T08:02:13Z" user="literan" uid="830106" lat="55.7024971" lon="37.9734171"/>
 <node id="6635677681" visible="true" version="1" changeset="72489658" timestamp="2019-07-21T19:01:49Z" user="neo-plan" uid="363136" lat="55.7030020" lon="37.9743667"/>
 <node id="6635677682" visible="true" version="1" changeset="72489658" timestamp="2019-07-21T19:01:49Z" user="neo-plan" uid="363136" lat="55.7038604" lon="37.9713465"/>
 <node id="6635677683" visible="true" version="1" changeset="72489658" timestamp="2019-07-21T19:01:49Z" user="neo-plan" uid="363136" lat="55.7027904" lon="37.9757561"/>
 <node id="7600795608" visible="true" version="1" changeset="86319212" timestamp="2020-06-07T20:35:24Z" user="AlexCvv" uid="2310965" lat="55.6920749" lon="37.9619598">
  <tag k="ford" v="yes"/>
 </node>
 <node id="8253079486" visible="true" version="1" changeset="96283529" timestamp="2020-12-22T22:45:37Z" user="tealeaf6" uid="11399589" lat="55.7040198" lon="37.9723901"/>
 <node id="8253079487" visible="true" version="1" changeset="96283529" timestamp="2020-12-22T22:45:37Z" user="tealeaf6" uid="11399589" lat="55.7041679" lon="37.9729286"/>
 <node id="8253079488" visible="true" version="1" changeset="96283529" timestamp="2020-12-22T22:45:37Z" user="tealeaf6" uid="11399589" lat="55.7035454" lon="37.9740825"/>
 <node id="8253079489" visible="true" version="1" changeset="96283529" timestamp="2020-12-22T22:45:37Z" user="tealeaf6" uid="11399589" lat="55.7035178" lon="37.9741080"/>
 <node id="8253079490" visible="true" version="1" changeset="96283529" timestamp="2020-12-22T22:45:37Z" user="tealeaf6" uid="11399589" lat="55.7034818" lon="37.9740910"/>
 <node id="8253079491" visible="true" version="1" changeset="96283529" timestamp="2020-12-22T22:45:37Z" user="tealeaf6" uid="11399589" lat="55.7033271" lon="37.9737972"/>
 <node id="8253079492" visible="true" version="1" changeset="96283529" timestamp="2020-12-22T22:45:37Z" user="tealeaf6" uid="11399589" lat="55.7033211" lon="37.9737355"/>
 <node id="8253079493" visible="true" version="1" changeset="96283529" timestamp="2020-12-22T22:45:37Z" user="tealeaf6" uid="11399589" lat="55.7033406" lon="37.9736680"/>
 <node id="8253079494" visible="true" version="1" changeset="96283529" timestamp="2020-12-22T22:45:37Z" user="tealeaf6" uid="11399589" lat="55.7039772" lon="37.9725497"/>
 <node id="8253079495" visible="true" version="1" changeset="96283529" timestamp="2020-12-22T22:45:37Z" user="tealeaf6" uid="11399589" lat="55.7039964" lon="37.9725035"/>
 <node id="8253079496" visible="true" version="1" changeset="96283529" timestamp="2020-12-22T22:45:37Z" user="tealeaf6" uid="11399589" lat="55.7040379" lon="37.9723419"/>
 <node id="8253079497" visible="true" version="1" changeset="96283529" timestamp="2020-12-22T22:45:37Z" user="tealeaf6" uid="11399589" lat="55.7043991" lon="37.9717855">
  <tag k="barrier" v="gate"/>
 </node>
 <node id="8941496123" visible="true" version="3" changeset="184111023" timestamp="2026-06-14T20:51:46Z" user="SniperS88" uid="20386805" lat="55.7090228" lon="37.9701350">
  <tag k="crossing" v="uncontrolled"/>
  <tag k="highway" v="crossing"/>
 </node>
 <node id="9465277978" visible="true" version="2" changeset="184111023" timestamp="2026-06-14T20:51:46Z" user="SniperS88" uid="20386805" lat="55.7081381" lon="37.9716347"/>
 <node id="9465277981" visible="true" version="1" changeset="116854587" timestamp="2022-02-01T07:53:23Z" user="literan" uid="830106" lat="55.7094656" lon="37.9699624"/>
 <node id="9465277982" visible="true" version="1" changeset="116854587" timestamp="2022-02-01T07:53:23Z" user="literan" uid="830106" lat="55.7093462" lon="37.9702815"/>
 <node id="9465277983" visible="true" version="1" changeset="116854587" timestamp="2022-02-01T07:53:23Z" user="literan" uid="830106" lat="55.7090289" lon="37.9706678"/>
 <node id="10725049004" visible="true" version="2" changeset="133966405" timestamp="2023-03-22T07:37:07Z" user="literan" uid="830106" lat="55.7093584" lon="37.9692836"/>
 <node id="10725054405" visible="true" version="2" changeset="133966405" timestamp="2023-03-22T07:37:07Z" user="literan" uid="830106" lat="55.7092586" lon="37.9689431"/>
 <node id="10725054406" visible="true" version="1" changeset="133505402" timestamp="2023-03-10T06:55:45Z" user="literan" uid="830106" lat="55.7088234" lon="37.9686320"/>
 <node id="10725054407" visible="true" version="1" changeset="133505402" timestamp="2023-03-10T06:55:45Z" user="literan" uid="830106" lat="55.7079590" lon="37.9687393"/>
 <node id="10725054408" visible="true" version="1" changeset="133505402" timestamp="2023-03-10T06:55:45Z" user="literan" uid="830106" lat="55.7071429" lon="37.9689217"/>
 <node id="10725054409" visible="true" version="1" changeset="133505402" timestamp="2023-03-10T06:55:45Z" user="literan" uid="830106" lat="55.7066291" lon="37.9689109"/>
 <node id="10725054410" visible="true" version="1" changeset="133505402" timestamp="2023-03-10T06:55:45Z" user="literan" uid="830106" lat="55.7059400" lon="37.9689646"/>
 <node id="10725054411" visible="true" version="2" changeset="134053265" timestamp="2023-03-24T07:58:10Z" user="neo-plan" uid="363136" lat="55.7054604" lon="37.9690588"/>
 <node id="10725054414" visible="true" version="4" changeset="181389407" timestamp="2026-04-15T22:25:45Z" user="neo-plan" uid="363136" lat="55.7037584" lon="37.9686201"/>
 <node id="10725054415" visible="true" version="2" changeset="181389407" timestamp="2026-04-15T22:25:45Z" user="neo-plan" uid="363136" lat="55.7028523" lon="37.9686989"/>
 <node id="10741576625" visible="true" version="4" changeset="182316542" timestamp="2026-05-06T23:54:11Z" user="neo-plan" uid="363136" lat="55.7082881" lon="37.9681670"/>
 <node id="10741576627" visible="true" version="2" changeset="179430220" timestamp="2026-03-06T07:29:05Z" user="literan" uid="830106" lat="55.7081251" lon="37.9681934"/>
 <node id="10741576628" visible="true" version="2" changeset="179430220" timestamp="2026-03-06T07:29:05Z" user="literan" uid="830106" lat="55.7079792" lon="37.9682628"/>
 <node id="10741576629" visible="true" version="1" changeset="133789106" timestamp="2023-03-17T13:44:14Z" user="literan" uid="830106" lat="55.7076240" lon="37.9685761"/>
 <node id="10741576630" visible="true" version="1" changeset="133789106" timestamp="2023-03-17T13:44:14Z" user="literan" uid="830106" lat="55.7074468" lon="37.9686810"/>
 <node id="10741576631" visible="true" version="1" changeset="133789106" timestamp="2023-03-17T13:44:14Z" user="literan" uid="830106" lat="55.7073029" lon="37.9687083"/>
 <node id="10741576641" visible="true" version="2" changeset="182727798" timestamp="2026-05-16T06:52:25Z" user="neo-plan" uid="363136" lat="55.7047696" lon="37.9682370"/>
 <node id="10741576645" visible="true" version="1" changeset="133789106" timestamp="2023-03-17T13:44:14Z" user="literan" uid="830106" lat="55.7042897" lon="37.9681626"/>
 <node id="11811212006" visible="true" version="2" changeset="175227367" timestamp="2025-11-28T08:02:13Z" user="literan" uid="830106" lat="55.7038226" lon="37.9690719"/>
 <node id="12787591594" visible="true" version="1" changeset="165451800" timestamp="2025-04-26T07:26:12Z" user="neo-plan" uid="363136" lat="55.7097342" lon="37.9701283"/>
 <node id="12898163665" visible="true" version="1" changeset="167371947" timestamp="2025-06-08T22:10:58Z" user="neo-plan" uid="363136" lat="55.7017818" lon="37.9705907"/>
 <node id="13268627810" visible="true" version="2" changeset="175227367" timestamp="2025-11-28T08:02:13Z" user="literan" uid="830106" lat="55.7022564" lon="37.9704093"/>
 <node id="13337832627" visible="true" version="1" changeset="175227367" timestamp="2025-11-28T08:02:13Z" user="literan" uid="830106" lat="55.7044769" lon="37.9724936"/>
 <node id="13337832628" visible="true" version="1" changeset="175227367" timestamp="2025-11-28T08:02:13Z" user="literan" uid="830106" lat="55.7045073" lon="37.9725480"/>
 <node id="13337832629" visible="true" version="1" changeset="175227367" timestamp="2025-11-28T08:02:13Z" user="literan" uid="830106" lat="55.7037144" lon="37.9739820"/>
 <node id="13337832630" visible="true" version="1" changeset="175227367" timestamp="2025-11-28T08:02:13Z" user="literan" uid="830106" lat="55.7036730" lon="37.9739079"/>
 <node id="13337832631" visible="true" version="1" changeset="175227367" timestamp="2025-11-28T08:02:13Z" user="literan" uid="830106" lat="55.7037966" lon="37.9730494"/>
 <node id="13337832632" visible="true" version="1" changeset="175227367" timestamp="2025-11-28T08:02:13Z" user="literan" uid="830106" lat="55.7037607" lon="37.9729852"/>
 <node id="13337832633" visible="true" version="1" changeset="175227367" timestamp="2025-11-28T08:02:13Z" user="literan" uid="830106" lat="55.7039893" lon="37.9725830"/>
 <node id="13337832634" visible="true" version="1" changeset="175227367" timestamp="2025-11-28T08:02:13Z" user="literan" uid="830106" lat="55.7040252" lon="37.9726472"/>
 <node id="13337832643" visible="true" version="1" changeset="175227367" timestamp="2025-11-28T08:02:13Z" user="literan" uid="830106" lat="55.7039214" lon="37.9732534"/>
 <node id="13337832644" visible="true" version="1" changeset="175227367" timestamp="2025-11-28T08:02:13Z" user="literan" uid="830106" lat="55.7038597" lon="37.9731430"/>
 <node id="13337832645" visible="true" version="1" changeset="175227367" timestamp="2025-11-28T08:02:13Z" user="literan" uid="830106" lat="55.7040851" lon="37.9727465"/>
 <node id="13337832646" visible="true" version="1" changeset="175227367" timestamp="2025-11-28T08:02:13Z" user="literan" uid="830106" lat="55.7041468" lon="37.9728570"/>
 <node id="13337832647" visible="true" version="1" changeset="175227367" timestamp="2025-11-28T08:02:13Z" user="literan" uid="830106" lat="55.7045355" lon="37.9724666"/>
 <node id="13337832648" visible="true" version="1" changeset="175227367" timestamp="2025-11-28T08:02:13Z" user="literan" uid="830106" lat="55.7044498" lon="37.9723039"/>
 <node id="13337832649" visible="true" version="1" changeset="175227367" timestamp="2025-11-28T08:02:13Z" user="literan" uid="830106" lat="55.7045350" lon="37.9721627"/>
 <node id="13337832650" visible="true" version="1" changeset="175227367" timestamp="2025-11-28T08:02:13Z" user="literan" uid="830106" lat="55.7046206" lon="37.9723254"/>
 <node id="13337832651" visible="true" version="1" changeset="175227367" timestamp="2025-11-28T08:02:13Z" user="literan" uid="830106" lat="55.7040670" lon="37.9725545"/>
 <node id="13337832652" visible="true" version="1" changeset="175227367" timestamp="2025-11-28T08:02:13Z" user="literan" uid="830106" lat="55.7040297" lon="37.9724836"/>
 <node id="13337832653" visible="true" version="1" changeset="175227367" timestamp="2025-11-28T08:02:13Z" user="literan" uid="830106" lat="55.7042584" lon="37.9721043"/>
 <node id="13337832654" visible="true" version="1" changeset="175227367" timestamp="2025-11-28T08:02:13Z" user="literan" uid="830106" lat="55.7042957" lon="37.9721752"/>
 <node id="13337832655" visible="true" version="1" changeset="175227367" timestamp="2025-11-28T08:02:13Z" user="literan" uid="830106" lat="55.7044038" lon="37.9721739"/>
 <node id="13337832656" visible="true" version="1" changeset="175227367" timestamp="2025-11-28T08:02:13Z" user="literan" uid="830106" lat="55.7043168" lon="37.9720089"/>
 <node id="13337832657" visible="true" version="1" changeset="175227367" timestamp="2025-11-28T08:02:13Z" user="literan" uid="830106" lat="55.7043856" lon="37.9718948"/>
 <node id="13337832658" visible="true" version="1" changeset="175227367" timestamp="2025-11-28T08:02:13Z" user="literan" uid="830106" lat="55.7044725" lon="37.9720598"/>
 <node id="13337832659" visible="true" version="1" changeset="175227367" timestamp="2025-11-28T08:02:13Z" user="literan" uid="830106" lat="55.7040293" lon="37.9714476"/>
 <node id="13337832660" visible="true" version="1" changeset="175227367" timestamp="2025-11-28T08:02:13Z" user="literan" uid="830106" lat="55.7039647" lon="37.9713249"/>
 <node id="13337832661" visible="true" version="1" changeset="175227367" timestamp="2025-11-28T08:02:13Z" user="literan" uid="830106" lat="55.7040225" lon="37.9712290"/>
 <node id="13337832662" visible="true" version="1" changeset="175227367" timestamp="2025-11-28T08:02:13Z" user="literan" uid="830106" lat="55.7040871" lon="37.9713517"/>
 <node id="13337832663" visible="true" version="1" changeset="175227367" timestamp="2025-11-28T08:02:13Z" user="literan" uid="830106" lat="55.7042321" lon="37.9718373"/>
 <node id="13337832664" visible="true" version="1" changeset="175227367" timestamp="2025-11-28T08:02:13Z" user="literan" uid="830106" lat="55.7040569" lon="37.9715046"/>
 <node id="13337832665" visible="true" version="1" changeset="175227367" timestamp="2025-11-28T08:02:13Z" user="literan" uid="830106" lat="55.7041281" lon="37.9713866"/>
 <node id="13337832666" visible="true" version="1" changeset="175227367" timestamp="2025-11-28T08:02:13Z" user="literan" uid="830106" lat="55.7043032" lon="37.9717192"/>
 <node id="13337832667" visible="true" version="1" changeset="175227367" timestamp="2025-11-28T08:02:13Z" user="literan" uid="830106" lat="55.7038107" lon="37.9722016"/>
 <node id="13337832668" visible="true" version="1" changeset="175227367" timestamp="2025-11-28T08:02:13Z" user="literan" uid="830106" lat="55.7037304" lon="37.9720491"/>
 <node id="13337832669" visible="true" version="1" changeset="175227367" timestamp="2025-11-28T08:02:13Z" user="literan" uid="830106" lat="55.7039161" lon="37.9717411"/>
 <node id="13337832670" visible="true" version="1" changeset="175227367" timestamp="2025-11-28T08:02:13Z" user="literan" uid="830106" lat="55.7039964" lon="37.9718935"/>
 <node id="13337832794" visible="true" version="1" changeset="175227367" timestamp="2025-11-28T08:02:13Z" user="literan" uid="830106" lat="55.7019440" lon="37.9704022"/>
 <node id="13337832795" visible="true" version="1" changeset="175227367" timestamp="2025-11-28T08:02:13Z" user="literan" uid="830106" lat="55.7011913" lon="37.9706436"/>
 <node id="13337832796" visible="true" version="1" changeset="175227367" timestamp="2025-11-28T08:02:13Z" user="literan" uid="830106" lat="55.7012155" lon="37.9705685"/>
 <node id="13337832797" visible="true" version="1" changeset="175227367" timestamp="2025-11-28T08:02:13Z" user="literan" uid="830106" lat="55.7013001" lon="37.9704237"/>
 <node id="13337832798" visible="true" version="1" changeset="175227367" timestamp="2025-11-28T08:02:13Z" user="literan" uid="830106" lat="55.7011913" lon="37.9703593"/>
 <node id="13337832799" visible="true" version="1" changeset="175227367" timestamp="2025-11-28T08:02:13Z" user="literan" uid="830106" lat="55.7010643" lon="37.9703808"/>
 <node id="13337832800" visible="true" version="1" changeset="175227367" timestamp="2025-11-28T08:02:13Z" user="literan" uid="830106" lat="55.7007893" lon="37.9707134"/>
 <node id="13337832801" visible="true" version="1" changeset="175227367" timestamp="2025-11-28T08:02:13Z" user="literan" uid="830106" lat="55.7004537" lon="37.9703218"/>
 <node id="13337832802" visible="true" version="1" changeset="175227367" timestamp="2025-11-28T08:02:13Z" user="literan" uid="830106" lat="55.7004507" lon="37.9704934"/>
 <node id="13337832803" visible="true" version="1" changeset="175227367" timestamp="2025-11-28T08:02:13Z" user="literan" uid="830106" lat="55.7004084" lon="37.9707992"/>
 <node id="13337832804" visible="true" version="1" changeset="175227367" timestamp="2025-11-28T08:02:13Z" user="literan" uid="830106" lat="55.7004839" lon="37.9709172"/>
 <node id="13337832805" visible="true" version="1" changeset="175227367" timestamp="2025-11-28T08:02:13Z" user="literan" uid="830106" lat="55.7005988" lon="37.9708528"/>
 <node id="13337832806" visible="true" version="1" changeset="175227367" timestamp="2025-11-28T08:02:13Z" user="literan" uid="830106" lat="55.7006230" lon="37.9701287"/>
 <node id="13337832807" visible="true" version="1" changeset="175227367" timestamp="2025-11-28T08:02:13Z" user="literan" uid="830106" lat="55.7007681" lon="37.9701716"/>
 <node id="13337832808" visible="true" version="1" changeset="175227367" timestamp="2025-11-28T08:02:13Z" user="literan" uid="830106" lat="55.7008497" lon="37.9701018"/>
 <node id="13337832809" visible="true" version="1" changeset="175227367" timestamp="2025-11-28T08:02:13Z" user="literan" uid="830106" lat="55.7009495" lon="37.9700106"/>
 <node id="13337832810" visible="true" version="1" changeset="175227367" timestamp="2025-11-28T08:02:13Z" user="literan" uid="830106" lat="55.7011732" lon="37.9700267"/>
 <node id="13337832811" visible="true" version="1" changeset="175227367" timestamp="2025-11-28T08:02:13Z" user="literan" uid="830106" lat="55.7012850" lon="37.9701072"/>
 <node id="13337832812" visible="true" version="1" changeset="175227367" timestamp="2025-11-28T08:02:13Z" user="literan" uid="830106" lat="55.7014815" lon="37.9699248"/>
 <node id="13337832832" visible="true" version="1" changeset="175227367" timestamp="2025-11-28T08:02:13Z" user="literan" uid="830106" lat="55.7017280" lon="37.9718147"/>
 <node id="13337832855" visible="true" version="1" changeset="175227367" timestamp="2025-11-28T08:02:13Z" user="literan" uid="830106" lat="55.7023041" lon="37.9715976"/>
 <node id="13337832858" visible="true" version="1" changeset="175227367" timestamp="2025-11-28T08:02:13Z" user="literan" uid="830106" lat="55.7027163" lon="37.9714422"/>
 <node id="13337832859" visible="true" version="1" changeset="175227367" timestamp="2025-11-28T08:02:13Z" user="literan" uid="830106" lat="55.7051632" lon="37.9693025"/>
 <node id="13337832860" visible="true" version="1" changeset="175227367" timestamp="2025-11-28T08:02:13Z" user="literan" uid="830106" lat="55.7048367" lon="37.9694635"/>
 <node id="13337832861" visible="true" version="1" changeset="175227367" timestamp="2025-11-28T08:02:13Z" user="literan" uid="830106" lat="55.7045980" lon="37.9694849"/>
 <node id="13337832862" visible="true" version="1" changeset="175227367" timestamp="2025-11-28T08:02:13Z" user="literan" uid="830106" lat="55.7045254" lon="37.9694420"/>
 <node id="13337832863" visible="true" version="1" changeset="175227367" timestamp="2025-11-28T08:02:13Z" user="literan" uid="830106" lat="55.7043713" lon="37.9692382"/>
 <node id="13337832864" visible="true" version="1" changeset="175227367" timestamp="2025-11-28T08:02:13Z" user="literan" uid="830106" lat="55.7041385" lon="37.9691952"/>
 <node id="13337832865" visible="true" version="1" changeset="175227367" timestamp="2025-11-28T08:02:13Z" user="literan" uid="830106" lat="55.7039420" lon="37.9694152"/>
 <node id="13337832866" visible="true" version="1" changeset="175227367" timestamp="2025-11-28T08:02:13Z" user="literan" uid="830106" lat="55.7035430" lon="37.9693240"/>
 <node id="13337832868" visible="true" version="1" changeset="175227367" timestamp="2025-11-28T08:02:13Z" user="literan" uid="830106" lat="55.7048748" lon="37.9699048"/>
 <node id="13337832869" visible="true" version="1" changeset="175227367" timestamp="2025-11-28T08:02:13Z" user="literan" uid="830106" lat="55.7047690" lon="37.9699478"/>
 <node id="13337832870" visible="true" version="1" changeset="175227367" timestamp="2025-11-28T08:02:13Z" user="literan" uid="830106" lat="55.7047536" lon="37.9698282"/>
 <node id="13337832871" visible="true" version="1" changeset="175227367" timestamp="2025-11-28T08:02:13Z" user="literan" uid="830106" lat="55.7048594" lon="37.9697853"/>
 <node id="13337832872" visible="true" version="1" changeset="175227367" timestamp="2025-11-28T08:02:13Z" user="literan" uid="830106" lat="55.7067651" lon="37.9690772"/>
 <node id="13337832873" visible="true" version="1" changeset="175227367" timestamp="2025-11-28T08:02:13Z" user="literan" uid="830106" lat="55.7051239" lon="37.9689538"/>
 <node id="13337832874" visible="true" version="1" changeset="175227367" timestamp="2025-11-28T08:02:13Z" user="literan" uid="830106" lat="55.7040055" lon="37.9688546"/>
 <node id="13622153327" visible="true" version="1" changeset="179430220" timestamp="2026-03-06T07:29:05Z" user="literan" uid="830106" lat="55.7078018" lon="37.9683933"/>
 <node id="13804974137" visible="true" version="1" changeset="182316542" timestamp="2026-05-06T23:54:11Z" user="neo-plan" uid="363136" lat="55.7096070" lon="37.9703485"/>
 <node id="13804984747" visible="true" version="1" changeset="182316243" timestamp="2026-05-06T23:37:37Z" user="neo-plan" uid="363136" lat="55.7027497" lon="37.9704221"/>
 <node id="13820578371" visible="true" version="2" changeset="182727798" timestamp="2026-05-16T06:52:25Z" user="neo-plan" uid="363136" lat="55.7071159" lon="37.9686979"/>
 <node id="13833414132" visible="true" version="2" changeset="183522420" timestamp="2026-06-01T23:43:11Z" user="neo-plan" uid="363136" lat="55.7051094" lon="37.9682975"/>
 <node id="13939179253" visible="true" version="1" changeset="184111023" timestamp="2026-06-14T20:51:46Z" user="SniperS88" uid="20386805" lat="55.7047875" lon="37.9729065"/>
 <node id="13939179254" visible="true" version="1" changeset="184111023" timestamp="2026-06-14T20:51:46Z" user="SniperS88" uid="20386805" lat="55.7047348" lon="37.9722008"/>
 <node id="13939179255" visible="true" version="1" changeset="184111023" timestamp="2026-06-14T20:51:46Z" user="SniperS88" uid="20386805" lat="55.7048239" lon="37.9725185"/>
 <node id="13939179256" visible="true" version="1" changeset="184111023" timestamp="2026-06-14T20:51:46Z" user="SniperS88" uid="20386805" lat="55.7048201" lon="37.9728095"/>
 <node id="13939179257" visible="true" version="1" changeset="184111023" timestamp="2026-06-14T20:51:46Z" user="SniperS88" uid="20386805" lat="55.7047770" lon="37.9730134"/>
 <node id="13939179258" visible="true" version="1" changeset="184111023" timestamp="2026-06-14T20:51:46Z" user="SniperS88" uid="20386805" lat="55.7047302" lon="37.9731475"/>
 <node id="13939179259" visible="true" version="1" changeset="184111023" timestamp="2026-06-14T20:51:46Z" user="SniperS88" uid="20386805" lat="55.7047211" lon="37.9734251"/>
 <node id="13939179260" visible="true" version="1" changeset="184111023" timestamp="2026-06-14T20:51:46Z" user="SniperS88" uid="20386805" lat="55.7046833" lon="37.9735887"/>
 <node id="13939179261" visible="true" version="1" changeset="184111023" timestamp="2026-06-14T20:51:46Z" user="SniperS88" uid="20386805" lat="55.7046924" lon="37.9736826"/>
 <node id="13939179262" visible="true" version="1" changeset="184111023" timestamp="2026-06-14T20:51:46Z" user="SniperS88" uid="20386805" lat="55.7047204" lon="37.9738730"/>
 <node id="13939179263" visible="true" version="1" changeset="184111023" timestamp="2026-06-14T20:51:46Z" user="SniperS88" uid="20386805" lat="55.7047166" lon="37.9741104"/>
 <node id="13939179264" visible="true" version="1" changeset="184111023" timestamp="2026-06-14T20:51:46Z" user="SniperS88" uid="20386805" lat="55.7047347" lon="37.9742150"/>
 <node id="13939179265" visible="true" version="1" changeset="184111023" timestamp="2026-06-14T20:51:46Z" user="SniperS88" uid="20386805" lat="55.7048005" lon="37.9743183"/>
 <node id="13939179266" visible="true" version="1" changeset="184111023" timestamp="2026-06-14T20:51:46Z" user="SniperS88" uid="20386805" lat="55.7048775" lon="37.9746683"/>
 <node id="13939179267" visible="true" version="1" changeset="184111023" timestamp="2026-06-14T20:51:46Z" user="SniperS88" uid="20386805" lat="55.7050272" lon="37.9749861"/>
 <node id="13939179268" visible="true" version="1" changeset="184111023" timestamp="2026-06-14T20:51:46Z" user="SniperS88" uid="20386805" lat="55.7053649" lon="37.9752520"/>
 <node id="13939179269" visible="true" version="1" changeset="184111023" timestamp="2026-06-14T20:51:46Z" user="SniperS88" uid="20386805" lat="55.7055246" lon="37.9754485"/>
 <node id="13939179270" visible="true" version="1" changeset="184111023" timestamp="2026-06-14T20:51:46Z" user="SniperS88" uid="20386805" lat="55.7055410" lon="37.9755108"/>
 <node id="13939179271" visible="true" version="1" changeset="184111023" timestamp="2026-06-14T20:51:46Z" user="SniperS88" uid="20386805" lat="55.7055227" lon="37.9756691"/>
 <node id="13939179272" visible="true" version="1" changeset="184111023" timestamp="2026-06-14T20:51:46Z" user="SniperS88" uid="20386805" lat="55.7055591" lon="37.9757801"/>
 <node id="13939179273" visible="true" version="1" changeset="184111023" timestamp="2026-06-14T20:51:46Z" user="SniperS88" uid="20386805" lat="55.7055427" lon="37.9760195"/>
 <way id="24245960" visible="true" version="34" changeset="175227367" timestamp="2025-11-28T08:02:13Z" user="literan" uid="830106">
  <nd ref="1212042060"/>
  <nd ref="262508546"/>
  <nd ref="262508547"/>
  <nd ref="1212041579"/>
  <nd ref="1341684363"/>
  <nd ref="13337832872"/>
  <nd ref="262508548"/>
  <nd ref="262508549"/>
  <nd ref="262508551"/>
  <nd ref="262508552"/>
  <nd ref="1212041705"/>
  <nd ref="13337832873"/>
  <nd ref="262508553"/>
  <nd ref="13337832874"/>
  <nd ref="262509157"/>
  <nd ref="11811212006"/>
  <nd ref="262509159"/>
  <nd ref="262509161"/>
  <nd ref="262509164"/>
  <nd ref="262509166"/>
  <nd ref="262509168"/>
  <nd ref="262509170"/>
  <nd ref="262509173"/>
  <nd ref="262509175"/>
  <nd ref="262509177"/>
  <nd ref="262509179"/>
  <nd ref="262509182"/>
  <nd ref="262509184"/>
  <nd ref="262509189"/>
  <nd ref="262509191"/>
  <nd ref="262509194"/>
  <nd ref="262509196"/>
  <nd ref="262509198"/>
  <nd ref="262509201"/>
  <nd ref="262509203"/>
  <nd ref="262509205"/>
  <nd ref="262509207"/>
  <nd ref="262509209"/>
  <nd ref="1212041657"/>
  <nd ref="262509211"/>
  <nd ref="262509214"/>
  <nd ref="262509216"/>
  <nd ref="262509218"/>
  <nd ref="262509221"/>
  <nd ref="1341684362"/>
  <nd ref="1212041192"/>
  <nd ref="262509223"/>
  <nd ref="262509225"/>
  <nd ref="262509227"/>
  <nd ref="1212041762"/>
  <nd ref="262509231"/>
  <nd ref="262509233"/>
  <nd ref="262509236"/>
  <nd ref="262509238"/>
  <nd ref="1212041336"/>
  <nd ref="262509240"/>
  <nd ref="262509242"/>
  <nd ref="262509245"/>
  <nd ref="1212041278"/>
  <nd ref="1212041656"/>
  <nd ref="262509247"/>
  <nd ref="1212042115"/>
  <nd ref="262509249"/>
  <nd ref="1212041129"/>
  <nd ref="262509252"/>
  <nd ref="7600795608"/>
  <tag k="motorboat" v="no"/>
  <tag k="name" v="Пехорка"/>
  <tag k="name:da" v="Pekhorka"/>
  <tag k="name:en" v="Pekhorka River"/>
  <tag k="name:eo" v="Peĥorka"/>
  <tag k="name:hy" v="Պեխորկա (գետ)"/>
  <tag k="name:nn" v="Pekhorka"/>
  <tag k="name:no" v="Pekhorka"/>
  <tag k="name:ru" v="Пехорка"/>
  <tag k="name:zh" v="佩霍爾卡河"/>
  <tag k="waterway" v="river"/>
 </way>
 <way id="102858109" visible="true" version="8" changeset="182316542" timestamp="2026-05-06T23:54:11Z" user="neo-plan" uid="363136">
  <nd ref="1187794350"/>
  <nd ref="1187792016"/>
  <nd ref="1187793393"/>
  <nd ref="1187793684"/>
  <nd ref="1187794421"/>
  <nd ref="1187792876"/>
  <nd ref="1187794085"/>
  <nd ref="1187791755"/>
  <nd ref="1187794552"/>
  <nd ref="1187791564"/>
  <nd ref="1187792527"/>
  <nd ref="1187794370"/>
  <nd ref="1187791961"/>
  <nd ref="1187792454"/>
  <nd ref="1187794062"/>
  <nd ref="1187794714"/>
  <nd ref="1187793577"/>
  <nd ref="1187794339"/>
  <nd ref="1187794517"/>
  <nd ref="1187792189"/>
  <nd ref="1187794172"/>
  <nd ref="1187791670"/>
  <nd ref="1187791923"/>
  <nd ref="1187793164"/>
  <nd ref="1187793064"/>
  <nd ref="1187794137"/>
  <nd ref="1187794313"/>
  <nd ref="1187791867"/>
  <nd ref="1187793995"/>
  <nd ref="1187794642"/>
  <nd ref="1187791636"/>
  <nd ref="1187792641"/>
  <nd ref="1187794441"/>
  <nd ref="1187792059"/>
  <nd ref="1187792350"/>
  <nd ref="1187793716"/>
  <nd ref="1187791802"/>
  <nd ref="1187792959"/>
  <nd ref="1187793455"/>
  <nd ref="1187794279"/>
  <nd ref="1187791853"/>
  <nd ref="1187793032"/>
  <nd ref="1187793481"/>
  <nd ref="1187794302"/>
  <nd ref="1187792612"/>
  <nd ref="1187793976"/>
  <nd ref="1187794127"/>
  <nd ref="1187791627"/>
  <nd ref="1187793711"/>
  <nd ref="1187794439"/>
  <nd ref="1187794635"/>
  <nd ref="1187792324"/>
  <nd ref="1187794270"/>
  <nd ref="1187791793"/>
  <nd ref="1187792051"/>
  <nd ref="1187793428"/>
  <nd ref="1187791589"/>
  <nd ref="1187792543"/>
  <nd ref="1187792932"/>
  <nd ref="1187794104"/>
  <nd ref="1187792261"/>
  <nd ref="1187793641"/>
  <nd ref="1187793899"/>
  <nd ref="1187794578"/>
  <nd ref="1187793315"/>
  <nd ref="1187794233"/>
  <nd ref="13804974137"/>
  <nd ref="12787591594"/>
  <nd ref="1187793987"/>
  <nd ref="1187794290"/>
  <nd ref="9465277981"/>
  <nd ref="9465277982"/>
  <nd ref="9465277983"/>
  <nd ref="1187793468"/>
  <nd ref="1187794659"/>
  <nd ref="1187794026"/>
  <nd ref="1187793740"/>
  <nd ref="1187792377"/>
  <nd ref="1187794150"/>
  <nd ref="1187793107"/>
  <nd ref="1187792664"/>
  <nd ref="1187791649"/>
  <nd ref="1187793523"/>
  <nd ref="1187792144"/>
  <nd ref="1187791885"/>
  <nd ref="1187794316"/>
  <nd ref="1187792434"/>
  <nd ref="1187794702"/>
  <nd ref="1187794495"/>
  <nd ref="1187793790"/>
  <nd ref="1187791690"/>
  <nd ref="1187794192"/>
  <nd ref="1187794052"/>
  <nd ref="1187792740"/>
  <nd ref="1187792054"/>
  <nd ref="1187794350"/>
  <tag k="natural" v="wood"/>
 </way>
 <way id="168459760" visible="true" version="12" changeset="182316243" timestamp="2026-05-06T23:37:37Z" user="neo-plan" uid="363136">
  <nd ref="1187793931"/>
  <nd ref="1187794107"/>
  <nd ref="1187791604"/>
  <nd ref="1187794099"/>
  <nd ref="1187792796"/>
  <nd ref="1187793287"/>
  <nd ref="1187794228"/>
  <nd ref="1187792477"/>
  <nd ref="1187793865"/>
  <nd ref="1187794064"/>
  <nd ref="1187794723"/>
  <nd ref="1187793586"/>
  <nd ref="1797218183"/>
  <nd ref="1797218155"/>
  <nd ref="1797218131"/>
  <nd ref="13804984747"/>
  <nd ref="1797218117"/>
  <nd ref="13268627810"/>
  <nd ref="13337832794"/>
  <nd ref="12898163665"/>
  <nd ref="1797218158"/>
  <nd ref="13337832795"/>
  <nd ref="13337832796"/>
  <nd ref="13337832797"/>
  <nd ref="13337832798"/>
  <nd ref="13337832799"/>
  <nd ref="13337832800"/>
  <nd ref="13337832805"/>
  <nd ref="13337832804"/>
  <nd ref="13337832803"/>
  <nd ref="13337832802"/>
  <nd ref="13337832801"/>
  <nd ref="13337832806"/>
  <nd ref="13337832807"/>
  <nd ref="13337832808"/>
  <nd ref="13337832809"/>
  <nd ref="13337832810"/>
  <nd ref="13337832811"/>
  <nd ref="13337832812"/>
  <nd ref="1797218119"/>
  <nd ref="1797218118"/>
  <nd ref="10725054415"/>
 </way>
 <way id="168462899" visible="true" version="2" changeset="20033232" timestamp="2014-01-16T13:11:50Z" user="neo-plan" uid="363136">
  <nd ref="1797270188"/>
  <nd ref="1797270175"/>
  <nd ref="1797270192"/>
  <nd ref="1797270312"/>
  <nd ref="2624648532"/>
  <nd ref="250063993"/>
  <tag k="highway" v="track"/>
 </way>
 <way id="168462901" visible="true" version="4" changeset="122051577" timestamp="2022-06-07T05:36:38Z" user="neo-plan" uid="363136">
  <nd ref="1797270098"/>
  <nd ref="1797270314"/>
  <nd ref="1797270237"/>
  <nd ref="1797270222"/>
  <nd ref="1797270102"/>
  <nd ref="1797270099"/>
  <nd ref="1797270181"/>
  <nd ref="1797270196"/>
  <nd ref="677696513"/>
  <nd ref="1797270086"/>
  <nd ref="4982090497"/>
  <nd ref="1797270166"/>
  <nd ref="1797270115"/>
  <nd ref="1797270098"/>
  <tag k="amenity" v="social_facility"/>
  <tag k="barrier" v="wall"/>
 </way>
 <way id="256835124" visible="true" version="1" changeset="20033232" timestamp="2014-01-16T13:12:56Z" user="neo-plan" uid="363136">
  <nd ref="2624651611"/>
  <nd ref="2624651610"/>
  <nd ref="2624651628"/>
  <nd ref="2624651624"/>
  <nd ref="2624651611"/>
  <tag k="building" v="yes"/>
 </way>
 <way id="256836420" visible="true" version="13" changeset="175227367" timestamp="2025-11-28T08:02:13Z" user="literan" uid="830106">
  <nd ref="250200596"/>
  <nd ref="1187793435"/>
  <nd ref="13337832832"/>
  <nd ref="13337832855"/>
  <nd ref="13337832858"/>
  <nd ref="1797226452"/>
  <nd ref="1187793328"/>
  <nd ref="250063990"/>
  <nd ref="1187792872"/>
  <nd ref="250063991"/>
  <nd ref="250063992"/>
  <nd ref="250063993"/>
  <nd ref="1187794084"/>
  <nd ref="1187794532"/>
  <nd ref="1187794549"/>
  <nd ref="1187791544"/>
  <nd ref="250063994"/>
  <nd ref="1187792493"/>
  <nd ref="250063995"/>
  <nd ref="1187794515"/>
  <nd ref="6476629030"/>
  <nd ref="1187793607"/>
  <nd ref="250063996"/>
  <nd ref="1187792188"/>
  <nd ref="1187792451"/>
  <nd ref="250063998"/>
  <nd ref="1187793840"/>
  <nd ref="250063999"/>
  <nd ref="250064000"/>
  <nd ref="1187792175"/>
  <nd ref="1187793551"/>
  <nd ref="250064001"/>
  <nd ref="1187791660"/>
  <nd ref="250064002"/>
  <nd ref="1187794162"/>
  <nd ref="2901567860"/>
  <nd ref="1187792389"/>
  <nd ref="3446995991"/>
  <nd ref="1187793755"/>
  <nd ref="250064004"/>
  <nd ref="9465277978"/>
  <nd ref="8941496123"/>
  <nd ref="1187792609"/>
  <tag k="highway" v="secondary"/>
  <tag k="lanes" v="2"/>
  <tag k="lit" v="yes"/>
  <tag k="maxspeed" v="60"/>
  <tag k="name" v="Зенинское шоссе"/>
  <tag k="oneway" v="no"/>
  <tag k="ref" v="46К-9643"/>
  <tag k="surface" v="asphalt"/>
 </way>
 <way id="690333199" visible="true" version="2" changeset="184111023" timestamp="2026-06-14T20:51:46Z" user="SniperS88" uid="20386805">
  <nd ref="1187793847"/>
  <nd ref="6476629021"/>
  <nd ref="6476629022"/>
  <nd ref="6476629023"/>
  <nd ref="6476629024"/>
  <nd ref="6476629025"/>
  <nd ref="6476629026"/>
  <nd ref="6476629027"/>
  <nd ref="6476629028"/>
  <nd ref="13939179253"/>
  <tag k="highway" v="footway"/>
  <tag k="surface" v="ground"/>
 </way>
 <way id="706212903" visible="true" version="2" changeset="96283529" timestamp="2020-12-22T22:45:37Z" user="tealeaf6" uid="11399589">
  <nd ref="6635677683"/>
  <nd ref="6635677673"/>
  <nd ref="6635677680"/>
  <nd ref="6635677678"/>
  <nd ref="6635677672"/>
  <nd ref="6635677682"/>
  <nd ref="6635677675"/>
  <nd ref="6635677679"/>
  <nd ref="8253079497"/>
  <nd ref="6635677677"/>
  <nd ref="6635677671"/>
  <nd ref="6635677674"/>
  <nd ref="6635677681"/>
  <nd ref="6635677676"/>
  <nd ref="6635677683"/>
  <tag k="barrier" v="wall"/>
  <tag k="landuse" v="industrial"/>
 </way>
 <way id="887674974" visible="true" version="1" changeset="96283529" timestamp="2020-12-22T22:45:37Z" user="tealeaf6" uid="11399589">
  <nd ref="1187791544"/>
  <nd ref="8253079497"/>
  <nd ref="8253079496"/>
  <nd ref="8253079486"/>
  <nd ref="8253079495"/>
  <nd ref="8253079494"/>
  <nd ref="8253079493"/>
  <nd ref="8253079492"/>
  <nd ref="8253079491"/>
  <nd ref="8253079490"/>
  <nd ref="8253079489"/>
  <nd ref="8253079488"/>
  <nd ref="8253079487"/>
  <tag k="highway" v="service"/>
 </way>
 <way id="1153129032" visible="true" version="4" changeset="175227367" timestamp="2025-11-28T08:02:13Z" user="literan" uid="830106">
  <nd ref="10725054411"/>
  <nd ref="10725054410"/>
  <nd ref="10725054409"/>
  <nd ref="10725054408"/>
  <nd ref="10725054407"/>
  <nd ref="10725054406"/>
  <nd ref="10725054405"/>
  <nd ref="10725049004"/>
 </way>
 <way id="1443966212" visible="true" version="7" changeset="183616836" timestamp="2026-06-03T23:13:08Z" user="neo-plan" uid="363136">
  <nd ref="10741576645"/>
  <nd ref="10741576641"/>
  <nd ref="13833414132"/>
  <nd ref="13820578371"/>
  <nd ref="10741576631"/>
  <nd ref="10741576630"/>
  <nd ref="10741576629"/>
  <nd ref="13622153327"/>
  <nd ref="10741576628"/>
  <nd ref="10741576627"/>
  <nd ref="10741576625"/>
  <tag k="highway" v="secondary"/>
  <tag k="maxspeed" v="60"/>
  <tag k="oneway" v="yes"/>
  <tag k="surface" v="asphalt"/>
 </way>
 <way id="1454360829" visible="true" version="1" changeset="175227367" timestamp="2025-11-28T08:02:13Z" user="literan" uid="830106">
  <nd ref="13337832630"/>
  <nd ref="13337832627"/>
  <nd ref="13337832628"/>
  <nd ref="13337832629"/>
  <nd ref="13337832630"/>
  <tag k="building" v="yes"/>
 </way>
 <way id="1454360830" visible="true" version="1" changeset="175227367" timestamp="2025-11-28T08:02:13Z" user="literan" uid="830106">
  <nd ref="13337832634"/>
  <nd ref="13337832631"/>
  <nd ref="13337832632"/>
  <nd ref="13337832633"/>
  <nd ref="13337832634"/>
  <tag k="building" v="yes"/>
 </way>
 <way id="1454360833" visible="true" version="1" changeset="175227367" timestamp="2025-11-28T08:02:13Z" user="literan" uid="830106">
  <nd ref="13337832646"/>
  <nd ref="13337832643"/>
  <nd ref="13337832644"/>
  <nd ref="13337832645"/>
  <nd ref="13337832646"/>
  <tag k="building" v="yes"/>
 </way>
 <way id="1454360834" visible="true" version="1" changeset="175227367" timestamp="2025-11-28T08:02:13Z" user="literan" uid="830106">
  <nd ref="13337832650"/>
  <nd ref="13337832647"/>
  <nd ref="13337832648"/>
  <nd ref="13337832649"/>
  <nd ref="13337832650"/>
  <tag k="building" v="yes"/>
 </way>
 <way id="1454360835" visible="true" version="1" changeset="175227367" timestamp="2025-11-28T08:02:13Z" user="literan" uid="830106">
  <nd ref="13337832654"/>
  <nd ref="13337832651"/>
  <nd ref="13337832652"/>
  <nd ref="13337832653"/>
  <nd ref="13337832654"/>
  <tag k="building" v="yes"/>
 </way>
 <way id="1454360836" visible="true" version="1" changeset="175227367" timestamp="2025-11-28T08:02:13Z" user="literan" uid="830106">
  <nd ref="13337832658"/>
  <nd ref="13337832655"/>
  <nd ref="13337832656"/>
  <nd ref="13337832657"/>
  <nd ref="13337832658"/>
  <tag k="building" v="yes"/>
 </way>
 <way id="1454360837" visible="true" version="1" changeset="175227367" timestamp="2025-11-28T08:02:13Z" user="literan" uid="830106">
  <nd ref="13337832662"/>
  <nd ref="13337832659"/>
  <nd ref="13337832660"/>
  <nd ref="13337832661"/>
  <nd ref="13337832662"/>
  <tag k="building" v="yes"/>
 </way>
 <way id="1454360838" visible="true" version="1" changeset="175227367" timestamp="2025-11-28T08:02:13Z" user="literan" uid="830106">
  <nd ref="13337832666"/>
  <nd ref="13337832663"/>
  <nd ref="13337832664"/>
  <nd ref="13337832665"/>
  <nd ref="13337832666"/>
  <tag k="building" v="yes"/>
 </way>
 <way id="1454360839" visible="true" version="1" changeset="175227367" timestamp="2025-11-28T08:02:13Z" user="literan" uid="830106">
  <nd ref="13337832670"/>
  <nd ref="13337832667"/>
  <nd ref="13337832668"/>
  <nd ref="13337832669"/>
  <nd ref="13337832670"/>
  <tag k="building" v="yes"/>
 </way>
 <way id="1454360874" visible="true" version="1" changeset="175227367" timestamp="2025-11-28T08:02:13Z" user="literan" uid="830106">
  <nd ref="10725054415"/>
  <nd ref="10725054414"/>
 </way>
 <way id="1454360876" visible="true" version="1" changeset="175227367" timestamp="2025-11-28T08:02:13Z" user="literan" uid="830106">
  <nd ref="10725054414"/>
  <nd ref="13337832866"/>
  <nd ref="13337832865"/>
  <nd ref="13337832864"/>
  <nd ref="13337832863"/>
  <nd ref="13337832862"/>
  <nd ref="13337832861"/>
  <nd ref="13337832860"/>
  <nd ref="13337832859"/>
  <nd ref="10725054411"/>
 </way>
 <way id="1454360877" visible="true" version="1" changeset="175227367" timestamp="2025-11-28T08:02:13Z" user="literan" uid="830106">
  <nd ref="13337832871"/>
  <nd ref="13337832868"/>
  <nd ref="13337832869"/>
  <nd ref="13337832870"/>
  <nd ref="13337832871"/>
  <tag k="building" v="yes"/>
 </way>
 <way id="1529468502" visible="true" version="1" changeset="184111023" timestamp="2026-06-14T20:51:46Z" user="SniperS88" uid="20386805">
  <nd ref="13939179254"/>
  <nd ref="6476629030"/>
  <tag k="highway" v="footway"/>
  <tag k="surface" v="ground"/>
 </way>
 <way id="1529468503" visible="true" version="1" changeset="184111023" timestamp="2026-06-14T20:51:46Z" user="SniperS88" uid="20386805">
  <nd ref="1187792472"/>
  <nd ref="13939179273"/>
  <nd ref="13939179272"/>
  <nd ref="13939179271"/>
  <nd ref="13939179270"/>
  <nd ref="13939179269"/>
  <nd ref="13939179268"/>
  <nd ref="13939179267"/>
  <nd ref="13939179266"/>
  <nd ref="13939179265"/>
  <nd ref="13939179264"/>
  <nd ref="13939179263"/>
  <nd ref="13939179262"/>
  <nd ref="13939179261"/>
  <nd ref="13939179260"/>
  <nd ref="13939179259"/>
  <nd ref="13939179258"/>
  <nd ref="13939179257"/>
  <nd ref="13939179253"/>
  <nd ref="13939179256"/>
  <nd ref="13939179255"/>
  <nd ref="13939179254"/>
  <tag k="highway" v="path"/>
  <tag k="surface" v="ground"/>
 </way>
 <relation id="1653741" visible="true" version="45" changeset="187438951" timestamp="2026-08-14T12:09:00Z" user="addr:" uid="22514144">
  <member type="node" ref="191858851" role="label"/>
  <member type="way" ref="962242087" role="outer"/>
  <member type="way" ref="962242095" role="outer"/>
  <member type="way" ref="962242093" role="outer"/>
  <member type="way" ref="962242092" role="outer"/>
  <member type="way" ref="962242091" role="outer"/>
  <member type="way" ref="456992547" role="outer"/>
  <member type="way" ref="962242085" role="outer"/>
  <member type="way" ref="24245960" role="outer"/>
  <member type="way" ref="962242089" role="outer"/>
  <member type="way" ref="966030223" role="outer"/>
  <member type="way" ref="1067933755" role="outer"/>
  <member type="way" ref="142418334" role="outer"/>
  <member type="way" ref="1549613399" role="outer"/>
  <member type="way" ref="456992548" role="outer"/>
  <member type="way" ref="142418339" role="outer"/>
  <member type="way" ref="142418337" role="outer"/>
  <member type="way" ref="1120542315" role="outer"/>
  <member type="way" ref="1120542311" role="outer"/>
  <member type="way" ref="142418345" role="outer"/>
  <member type="way" ref="1279270458" role="outer"/>
  <member type="way" ref="1549613397" role="outer"/>
  <member type="way" ref="1147226209" role="outer"/>
  <member type="way" ref="1147226208" role="outer"/>
  <member type="way" ref="1068256191" role="outer"/>
  <member type="way" ref="1121184107" role="outer"/>
  <member type="way" ref="978869014" role="outer"/>
  <member type="way" ref="1068256190" role="outer"/>
  <member type="way" ref="124033118" role="outer"/>
  <member type="way" ref="813714135" role="outer"/>
  <member type="way" ref="813694552" role="outer"/>
  <member type="way" ref="813694556" role="outer"/>
  <member type="way" ref="1014002949" role="outer"/>
  <member type="way" ref="813714163" role="outer"/>
  <member type="way" ref="810279213" role="outer"/>
  <member type="way" ref="124031275" role="outer"/>
  <member type="way" ref="124032980" role="outer"/>
  <member type="way" ref="1065819872" role="outer"/>
  <member type="way" ref="124033022" role="outer"/>
  <member type="way" ref="123959223" role="outer"/>
  <member type="way" ref="124032877" role="outer"/>
  <member type="way" ref="124025301" role="outer"/>
  <member type="way" ref="124064236" role="outer"/>
  <member type="way" ref="124024395" role="outer"/>
  <tag k="addr:country" v="RU"/>
  <tag k="addr:district" v="городской округ Люберцы"/>
  <tag k="addr:region" v="Московская область"/>
  <tag k="name" v="Люберцы"/>
  <tag k="name:ar" v="ليوبارتسي"/>
  <tag k="name:az" v="Lyubertsı"/>
  <tag k="name:be" v="Люберцы"/>
  <tag k="name:bg" v="Люберци"/>
  <tag k="name:ca" v="Liúbertsi"/>
  <tag k="name:cs" v="Ljubercy"/>
  <tag k="name:de" v="Ljuberzy"/>
  <tag k="name:en" v="Lyubertsy"/>
  <tag k="name:eo" v="Luberci"/>
  <tag k="name:es" v="Liúbertsy"/>
  <tag k="name:et" v="Ljubertsõ"/>
  <tag k="name:fa" v="لیوبرتسی"/>
  <tag k="name:fi" v="Ljubertsy"/>
  <tag k="name:fr" v="Lioubertsy"/>
  <tag k="name:hr" v="Ljuberci"/>
  <tag k="name:it" v="Ljubercy"/>
  <tag k="name:ja" v="リュベルツィ"/>
  <tag k="name:ka" v="ლიუბერცი"/>
  <tag k="name:ko" v="류베르치"/>
  <tag k="name:lt" v="Liubercai"/>
  <tag k="name:lv" v="Ļuberci"/>
  <tag k="name:nl" v="Ljoebertsy"/>
  <tag k="name:nn" v="Ljubertsy"/>
  <tag k="name:no" v="Ljubertsy"/>
  <tag k="name:pl" v="Lubiercy"/>
  <tag k="name:pt" v="Liubertsi"/>
  <tag k="name:ro" v="Liuberțî"/>
  <tag k="name:ru" v="Люберцы"/>
  <tag k="name:sr" v="Љуберци"/>
  <tag k="name:sv" v="Ljubertsy"/>
  <tag k="name:tl" v="Lyubertsy"/>
  <tag k="name:tr" v="Lyubertsi"/>
  <tag k="name:uk" v="Люберці"/>
  <tag k="name:vi" v="Lyubertsy"/>
  <tag k="name:zh" v="柳別爾齊"/>
  <tag k="place" v="city"/>
  <tag k="population" v="208397"/>
  <tag k="population:date" v="2021-01-01"/>
  <tag k="start_date" v="1623"/>
  <tag k="type" v="multipolygon"/>
  <tag k="wikidata" v="Q141358"/>
  <tag k="wikipedia" v="ru:Люберцы"/>
 </relation>
 <relation id="3150275" visible="true" version="18" changeset="182585788" timestamp="2026-05-13T07:11:35Z" user="literan" uid="830106">
  <member type="way" ref="1447690585" role=""/>
  <member type="way" ref="23148415" role=""/>
  <member type="way" ref="233966606" role=""/>
  <member type="way" ref="23148383" role=""/>
  <member type="way" ref="23148384" role=""/>
  <member type="way" ref="705835435" role=""/>
  <member type="way" ref="23148387" role=""/>
  <member type="way" ref="256836589" role=""/>
  <member type="way" ref="256836420" role=""/>
  <member type="way" ref="23148416" role=""/>
  <member type="way" ref="23149003" role=""/>
  <member type="way" ref="962242095" role=""/>
  <member type="way" ref="962242094" role=""/>
  <member type="way" ref="531949960" role=""/>
  <member type="way" ref="754828489" role=""/>
  <member type="way" ref="778664750" role=""/>
  <member type="way" ref="1032472349" role=""/>
  <member type="way" ref="233966609" role=""/>
  <member type="way" ref="256837174" role=""/>
  <member type="way" ref="256837175" role=""/>
  <member type="way" ref="102858156" role=""/>
  <member type="way" ref="102858103" role=""/>
  <member type="way" ref="23130888" role=""/>
  <tag k="network" v="Московская область"/>
  <tag k="ref" v="31*"/>
  <tag k="route" v="bus"/>
  <tag k="type" v="route"/>
 </relation>
 <relation id="3162260" visible="true" version="13" changeset="182585788" timestamp="2026-05-13T07:11:35Z" user="literan" uid="830106">
  <member type="way" ref="233966609" role=""/>
  <member type="way" ref="256837174" role=""/>
  <member type="way" ref="256837175" role=""/>
  <member type="way" ref="102858156" role=""/>
  <member type="way" ref="102858103" role=""/>
  <member type="way" ref="23130888" role=""/>
  <member type="way" ref="23148387" role=""/>
  <member type="way" ref="256836589" role=""/>
  <member type="way" ref="256836420" role=""/>
  <member type="way" ref="778664750" role=""/>
  <member type="way" ref="1032472349" role=""/>
  <tag k="ref" v="31"/>
  <tag k="route" v="bus"/>
  <tag k="type" v="route"/>
 </relation>
 <relation id="6628479" visible="true" version="31" changeset="183501278" timestamp="2026-06-01T13:57:38Z" user="neo-plan" uid="363136">
  <member type="way" ref="1153129031" role="outer"/>
  <member type="way" ref="1153129032" role="outer"/>
  <member type="way" ref="1454360874" role="outer"/>
  <member type="way" ref="168459760" role="outer"/>
  <member type="way" ref="1133108478" role="outer"/>
  <member type="way" ref="1153129033" role="outer"/>
  <member type="way" ref="1153129035" role="outer"/>
  <member type="way" ref="1454360876" role="outer"/>
  <tag k="name" v="Зенинский парк"/>
  <tag k="natural" v="wood"/>
  <tag k="type" v="multipolygon"/>
 </relation>
 <relation id="13036210" visible="true" version="21" changeset="141361374" timestamp="2023-09-16T23:02:43Z" user="traveleditor" uid="8726248">
  <member type="way" ref="256836420" role=""/>
  <member type="way" ref="256836589" role=""/>
  <member type="way" ref="23148387" role=""/>
  <tag k="distance" v="1.627 km"/>
  <tag k="name" v="Марусино - Зенино - Некрасовка. Участок 2"/>
  <tag k="network" v="ru:regional"/>
  <tag k="ref" v="46К-9643"/>
  <tag k="route" v="road"/>
  <tag k="type" v="route"/>
 </relation>
 <relation id="15886380" visible="true" version="42" changeset="142766253" timestamp="2023-10-18T14:15:52Z" user="ZinaidaZ" uid="9465790">
  <member type="way" ref="45857992" role="main_stream"/>
  <member type="way" ref="890850674" role="main_stream"/>
  <member type="way" ref="601096203" role="main_stream"/>
  <member type="way" ref="601096202" role="main_stream"/>
  <member type="way" ref="45959443" role="main_stream"/>
  <member type="way" ref="45959439" role="main_stream"/>
  <member type="way" ref="24246644" role="main_stream"/>
  <member type="way" ref="35610017" role="main_stream"/>
  <member type="way" ref="407528567" role="main_stream"/>
  <member type="way" ref="23936922" role="main_stream"/>
  <member type="way" ref="23936924" role="main_stream"/>
  <member type="way" ref="104706781" role="main_stream"/>
  <member type="way" ref="104706779" role="main_stream"/>
  <member type="way" ref="104706780" role="main_stream"/>
  <member type="way" ref="104706775" role="main_stream"/>
  <member type="way" ref="23899726" role="main_stream"/>
  <member type="way" ref="32034075" role="main_stream"/>
  <member type="way" ref="23899958" role="main_stream"/>
  <member type="way" ref="24256243" role="main_stream"/>
  <member type="way" ref="46048208" role="main_stream"/>
  <member type="way" ref="32064719" role="main_stream"/>
  <member type="way" ref="23936621" role="main_stream"/>
  <member type="way" ref="43072655" role="main_stream"/>
  <member type="way" ref="43072654" role="main_stream"/>
  <member type="way" ref="32064721" role="main_stream"/>
  <member type="way" ref="32064720" role="main_stream"/>
  <member type="way" ref="23936623" role="main_stream"/>
  <member type="way" ref="23936622" role="main_stream"/>
  <member type="way" ref="23464237" role="main_stream"/>
  <member type="way" ref="24238598" role="main_stream"/>
  <member type="way" ref="24238597" role="main_stream"/>
  <member type="way" ref="24238600" role="main_stream"/>
  <member type="way" ref="24238601" role="main_stream"/>
  <member type="way" ref="314914404" role="main_stream"/>
  <member type="way" ref="314914403" role="main_stream"/>
  <member type="way" ref="314914401" role="main_stream"/>
  <member type="way" ref="314914402" role="main_stream"/>
  <member type="way" ref="962242090" role="main_stream"/>
  <member type="way" ref="24245960" role="main_stream"/>
  <member type="way" ref="962242084" role="main_stream"/>
  <member type="way" ref="962242091" role="main_stream"/>
  <member type="way" ref="962242092" role="main_stream"/>
  <member type="way" ref="24245877" role="main_stream"/>
  <member type="way" ref="24246160" role="main_stream"/>
  <member type="way" ref="24246420" role="main_stream"/>
  <member type="way" ref="23640376" role="main_stream"/>
  <member type="way" ref="23640332" role="main_stream"/>
  <member type="way" ref="1066879463" role="side_stream"/>
  <member type="way" ref="612607234" role="side_stream"/>
  <member type="way" ref="1066879462" role="side_stream"/>
  <member type="way" ref="1066126609" role="side_stream"/>
  <member type="way" ref="24238596" role="side_stream"/>
  <tag k="alt_name" v="Пехра"/>
  <tag k="name" v="Пехорка"/>
  <tag k="name:da" v="Pekhorka"/>
  <tag k="name:en" v="Pekhorka River"/>
  <tag k="name:eo" v="Peĥorka"/>
  <tag k="name:hy" v="Պեխորկա (գետ)"/>
  <tag k="name:nn" v="Pekhorka"/>
  <tag k="name:no" v="Pekhorka"/>
  <tag k="name:ru" v="Пехорка"/>
  <tag k="name:zh" v="佩霍爾卡河"/>
  <tag k="type" v="waterway"/>
  <tag k="waterway" v="river"/>
  <tag k="wikidata" v="Q2623421"/>
  <tag k="wikipedia" v="ru:Пехорка"/>
 </relation>
</osm>
