<?xml version="1.0" encoding="UTF-8"?>
<osm version="0.6" generator="openstreetmap-cgimap 2.1.0 (244697 spike-07.openstreetmap.org)" copyright="OpenStreetMap and contributors" attribution="http://www.openstreetmap.org/copyright" license="http://opendatacommons.org/licenses/odbl/1-0/">
 <bounds minlat="55.7189238" minlon="37.9276076" maxlat="55.7216188" maxlon="37.9323924"/>
 <node id="1462103567" visible="true" version="2" changeset="32050296" timestamp="2015-06-18T12:51:34Z" user="Gumeg" uid="467526" lat="55.7196855" lon="37.9332207"/>
 <node id="2494094112" visible="true" version="2" changeset="39506701" timestamp="2016-05-23T11:12:51Z" user="literan" uid="830106" lat="55.7179621" lon="37.9273001"/>
 <node id="2494094113" visible="true" version="2" changeset="39506701" timestamp="2016-05-23T11:12:51Z" user="literan" uid="830106" lat="55.7180871" lon="37.9302612"/>
 <node id="2901620772" visible="true" version="2" changeset="182361837" timestamp="2026-05-08T01:24:35Z" user="neo-plan" uid="363136" lat="55.7212152" lon="37.9400637"/>
 <node id="2901620773" visible="true" version="2" changeset="134474748" timestamp="2023-04-04T00:49:37Z" user="neo-plan" uid="363136" lat="55.7200051" lon="37.9403069"/>
 <node id="3602641696" visible="true" version="1" changeset="32050296" timestamp="2015-06-18T12:51:27Z" user="Gumeg" uid="467526" lat="55.7196213" lon="37.9318580"/>
 <node id="3602641697" visible="true" version="1" changeset="32050296" timestamp="2015-06-18T12:51:27Z" user="Gumeg" uid="467526" lat="55.7208464" lon="37.9316865"/>
 <node id="3612899530" visible="true" version="3" changeset="48617420" timestamp="2017-05-12T09:05:15Z" user="Gumeg" uid="467526" lat="55.7222099" lon="37.9336882"/>
 <node id="3612899533" visible="true" version="3" changeset="48617420" timestamp="2017-05-12T09:05:15Z" user="Gumeg" uid="467526" lat="55.7213488" lon="37.9271704"/>
 <node id="3612899534" visible="true" version="3" changeset="48617420" timestamp="2017-05-12T09:05:15Z" user="Gumeg" uid="467526" lat="55.7210437" lon="37.9236245"/>
 <node id="3612899535" visible="true" version="1" changeset="32161853" timestamp="2015-06-23T13:42:07Z" user="RFuser11" uid="421938" lat="55.7214913" lon="37.9211789"/>
 <node id="3612899538" visible="true" version="3" changeset="48617420" timestamp="2017-05-12T09:05:15Z" user="Gumeg" uid="467526" lat="55.7213518" lon="37.9301584"/>
 <node id="3612899540" visible="true" version="2" changeset="48617420" timestamp="2017-05-12T09:05:15Z" user="Gumeg" uid="467526" lat="55.7212975" lon="37.9284847"/>
 <node id="3612899542" visible="true" version="1" changeset="32161853" timestamp="2015-06-23T13:42:07Z" user="RFuser11" uid="421938" lat="55.7213463" lon="37.9215222"/>
 <node id="3617613204" visible="true" version="3" changeset="134457830" timestamp="2023-04-03T14:31:45Z" user="neo-plan" uid="363136" lat="55.7214701" lon="37.9208327"/>
 <node id="3688571454" visible="true" version="1" changeset="33227567" timestamp="2015-08-09T21:15:56Z" user="neo-plan" uid="363136" lat="55.7220115" lon="37.9274938"/>
 <node id="3688571455" visible="true" version="1" changeset="33227567" timestamp="2015-08-09T21:15:56Z" user="neo-plan" uid="363136" lat="55.7221873" lon="37.9301385"/>
 <node id="3688571456" visible="true" version="1" changeset="33227567" timestamp="2015-08-09T21:15:56Z" user="neo-plan" uid="363136" lat="55.7222290" lon="37.9276091"/>
 <node id="3688571457" visible="true" version="2" changeset="48617420" timestamp="2017-05-12T09:05:15Z" user="Gumeg" uid="467526" lat="55.7214062" lon="37.9314029"/>
 <node id="3688571458" visible="true" version="3" changeset="134474748" timestamp="2023-04-04T00:49:37Z" user="neo-plan" uid="363136" lat="55.7214568" lon="37.9336023"/>
 <node id="3688571459" visible="true" version="2" changeset="48617420" timestamp="2017-05-12T09:05:15Z" user="Gumeg" uid="467526" lat="55.7214183" lon="37.9324114"/>
 <node id="4320195250" visible="true" version="2" changeset="48617420" timestamp="2017-05-12T09:05:15Z" user="Gumeg" uid="467526" lat="55.7200143" lon="37.9319931"/>
 <node id="4320195254" visible="true" version="2" changeset="48617420" timestamp="2017-05-12T09:05:15Z" user="Gumeg" uid="467526" lat="55.7201297" lon="37.9350609"/>
 <node id="4320195266" visible="true" version="2" changeset="48617420" timestamp="2017-05-12T09:05:15Z" user="Gumeg" uid="467526" lat="55.7207281" lon="37.9319085"/>
 <node id="4320195269" visible="true" version="2" changeset="48617420" timestamp="2017-05-12T09:05:15Z" user="Gumeg" uid="467526" lat="55.7208434" lon="37.9349763"/>
 <node id="4849274816" visible="true" version="1" changeset="48617420" timestamp="2017-05-12T09:05:13Z" user="Gumeg" uid="467526" lat="55.7199590" lon="37.9333865"/>
 <node id="4849274817" visible="true" version="1" changeset="48617420" timestamp="2017-05-12T09:05:13Z" user="Gumeg" uid="467526" lat="55.7199734" lon="37.9337702"/>
 <node id="4849274818" visible="true" version="1" changeset="48617420" timestamp="2017-05-12T09:05:13Z" user="Gumeg" uid="467526" lat="55.7200807" lon="37.9337574"/>
 <node id="4849274819" visible="true" version="1" changeset="48617420" timestamp="2017-05-12T09:05:13Z" user="Gumeg" uid="467526" lat="55.7200662" lon="37.9333738"/>
 <node id="4849275026" visible="true" version="3" changeset="113221458" timestamp="2021-11-01T07:46:49Z" user="literan" uid="830106" lat="55.7192141" lon="37.9368542"/>
 <node id="4849275027" visible="true" version="2" changeset="182361568" timestamp="2026-05-08T01:06:42Z" user="neo-plan" uid="363136" lat="55.7193032" lon="37.9391356"/>
 <node id="4849275045" visible="true" version="3" changeset="138279269" timestamp="2023-07-08T22:21:18Z" user="neo-plan" uid="363136" lat="55.7217474" lon="37.9415536"/>
 <node id="4849275046" visible="true" version="2" changeset="138279269" timestamp="2023-07-08T22:21:18Z" user="neo-plan" uid="363136" lat="55.7217774" lon="37.9417221"/>
 <node id="4849275047" visible="true" version="1" changeset="48617420" timestamp="2017-05-12T09:05:13Z" user="Gumeg" uid="467526" lat="55.7218715" lon="37.9416275"/>
 <node id="4849275048" visible="true" version="2" changeset="134457444" timestamp="2023-04-03T14:21:06Z" user="neo-plan" uid="363136" lat="55.7216371" lon="37.9409561"/>
 <node id="4849275049" visible="true" version="1" changeset="48617420" timestamp="2017-05-12T09:05:14Z" user="Gumeg" uid="467526" lat="55.7219622" lon="37.9409301"/>
 <node id="4849275052" visible="true" version="1" changeset="48617420" timestamp="2017-05-12T09:05:14Z" user="Gumeg" uid="467526" lat="55.7218413" lon="37.9385376"/>
 <node id="4849275053" visible="true" version="1" changeset="48617420" timestamp="2017-05-12T09:05:14Z" user="Gumeg" uid="467526" lat="55.7220347" lon="37.9395676"/>
 <node id="4849275054" visible="true" version="2" changeset="134457444" timestamp="2023-04-03T14:21:06Z" user="neo-plan" uid="363136" lat="55.7216231" lon="37.9395960"/>
 <node id="4849275055" visible="true" version="2" changeset="134457444" timestamp="2023-04-03T14:21:06Z" user="neo-plan" uid="363136" lat="55.7215487" lon="37.9382478"/>
 <node id="4849275056" visible="true" version="1" changeset="48617420" timestamp="2017-05-12T09:05:14Z" user="Gumeg" uid="467526" lat="55.7219259" lon="37.9379582"/>
 <node id="4849275057" visible="true" version="1" changeset="48617420" timestamp="2017-05-12T09:05:14Z" user="Gumeg" uid="467526" lat="55.7220347" lon="37.9371750"/>
 <node id="4849275058" visible="true" version="1" changeset="48617420" timestamp="2017-05-12T09:05:14Z" user="Gumeg" uid="467526" lat="55.7218655" lon="37.9360592"/>
 <node id="4849275059" visible="true" version="1" changeset="48617420" timestamp="2017-05-12T09:05:14Z" user="Gumeg" uid="467526" lat="55.7216359" lon="37.9372501"/>
 <node id="4849275060" visible="true" version="1" changeset="48617420" timestamp="2017-05-12T09:05:14Z" user="Gumeg" uid="467526" lat="55.7215271" lon="37.9354584"/>
 <node id="4849275061" visible="true" version="1" changeset="48617420" timestamp="2017-05-12T09:05:14Z" user="Gumeg" uid="467526" lat="55.7220588" lon="37.9347718"/>
 <node id="4849275062" visible="true" version="1" changeset="48617420" timestamp="2017-05-12T09:05:14Z" user="Gumeg" uid="467526" lat="55.7212824" lon="37.9265642"/>
 <node id="4849275063" visible="true" version="1" changeset="48617420" timestamp="2017-05-12T09:05:14Z" user="Gumeg" uid="467526" lat="55.7215664" lon="37.9274923"/>
 <node id="7650603698" visible="true" version="5" changeset="137494244" timestamp="2023-06-18T22:02:43Z" user="neo-plan" uid="363136" lat="55.7215151" lon="37.9353171"/>
 <node id="7650603714" visible="true" version="3" changeset="134457444" timestamp="2023-04-03T14:21:06Z" user="neo-plan" uid="363136" lat="55.7215920" lon="37.9400826"/>
 <node id="7650603716" visible="true" version="1" changeset="87105377" timestamp="2020-06-24T22:02:06Z" user="neo-plan" uid="363136" lat="55.7219001" lon="37.9358286"/>
 <node id="8849345392" visible="true" version="2" changeset="134474748" timestamp="2023-04-04T00:49:37Z" user="neo-plan" uid="363136" lat="55.7202539" lon="37.9402717"/>
 <node id="8849347801" visible="true" version="2" changeset="134457444" timestamp="2023-04-03T14:21:06Z" user="neo-plan" uid="363136" lat="55.7215166" lon="37.9419130"/>
 <node id="9047487813" visible="true" version="4" changeset="167332049" timestamp="2025-06-08T00:54:06Z" user="neo-plan" uid="363136" lat="55.7210941" lon="37.9299942">
  <tag k="highway" v="traffic_signals"/>
  <tag k="traffic_signals" v="signal"/>
 </node>
 <node id="9047487814" visible="true" version="2" changeset="134474976" timestamp="2023-04-04T01:05:34Z" user="neo-plan" uid="363136" lat="55.7172341" lon="37.9305270"/>
 <node id="9047487815" visible="true" version="3" changeset="182362015" timestamp="2026-05-08T01:37:09Z" user="neo-plan" uid="363136" lat="55.7168829" lon="37.9303201"/>
 <node id="9047487816" visible="true" version="5" changeset="182362015" timestamp="2026-05-08T01:37:09Z" user="neo-plan" uid="363136" lat="55.7162907" lon="37.9299642"/>
 <node id="9047528120" visible="true" version="4" changeset="165451449" timestamp="2025-04-26T07:15:49Z" user="neo-plan" uid="363136" lat="55.7209353" lon="37.9264167">
  <tag k="highway" v="traffic_signals"/>
  <tag k="traffic_signals" v="signal"/>
 </node>
 <node id="9048798261" visible="true" version="4" changeset="165451449" timestamp="2025-04-26T07:15:49Z" user="neo-plan" uid="363136" lat="55.7213765" lon="37.9352218"/>
 <node id="9215637811" visible="true" version="2" changeset="182362015" timestamp="2026-05-08T01:37:09Z" user="neo-plan" uid="363136" lat="55.7174821" lon="37.9310650"/>
 <node id="9215637812" visible="true" version="2" changeset="167332049" timestamp="2025-06-08T00:54:06Z" user="neo-plan" uid="363136" lat="55.7207855" lon="37.9301937"/>
 <node id="9215674732" visible="true" version="1" changeset="113221458" timestamp="2021-11-01T07:46:49Z" user="literan" uid="830106" lat="55.7207745" lon="37.9299113"/>
 <node id="9215674733" visible="true" version="2" changeset="136806616" timestamp="2023-05-31T21:36:35Z" user="neo-plan" uid="363136" lat="55.7206642" lon="37.9268951"/>
 <node id="10563250501" visible="true" version="2" changeset="134457444" timestamp="2023-04-03T14:21:06Z" user="neo-plan" uid="363136" lat="55.7209529" lon="37.9431647"/>
 <node id="10563250503" visible="true" version="2" changeset="134457444" timestamp="2023-04-03T14:21:06Z" user="neo-plan" uid="363136" lat="55.7213163" lon="37.9424447"/>
 <node id="10563250504" visible="true" version="2" changeset="134457444" timestamp="2023-04-03T14:21:06Z" user="neo-plan" uid="363136" lat="55.7213993" lon="37.9422614"/>
 <node id="10563250506" visible="true" version="2" changeset="134457444" timestamp="2023-04-03T14:21:06Z" user="neo-plan" uid="363136" lat="55.7215543" lon="37.9417222"/>
 <node id="10563250507" visible="true" version="3" changeset="134474748" timestamp="2023-04-04T00:49:37Z" user="neo-plan" uid="363136" lat="55.7216036" lon="37.9411949"/>
 <node id="10563250508" visible="true" version="2" changeset="134457444" timestamp="2023-04-03T14:21:06Z" user="neo-plan" uid="363136" lat="55.7216114" lon="37.9408418"/>
 <node id="10563258221" visible="true" version="9" changeset="167332049" timestamp="2025-06-08T00:54:06Z" user="neo-plan" uid="363136" lat="55.7209488" lon="37.9268316">
  <tag k="button_operated" v="no"/>
  <tag k="crossing" v="traffic_signals"/>
  <tag k="crossing:island" v="yes"/>
  <tag k="highway" v="crossing"/>
  <tag k="tactile_paving" v="yes"/>
  <tag k="traffic_signals:sound" v="yes"/>
 </node>
 <node id="10563258926" visible="true" version="3" changeset="165451449" timestamp="2025-04-26T07:15:49Z" user="neo-plan" uid="363136" lat="55.7208758" lon="37.9268465"/>
 <node id="10563258927" visible="true" version="5" changeset="167332049" timestamp="2025-06-08T00:54:06Z" user="neo-plan" uid="363136" lat="55.7210327" lon="37.9268144"/>
 <node id="10563258928" visible="true" version="5" changeset="167332049" timestamp="2025-06-08T00:54:06Z" user="neo-plan" uid="363136" lat="55.7209944" lon="37.9258750"/>
 <node id="10563286651" visible="true" version="3" changeset="143335331" timestamp="2023-10-29T23:04:17Z" user="neo-plan" uid="363136" lat="55.7205279" lon="37.9439191"/>
 <node id="10563286652" visible="true" version="5" changeset="167332116" timestamp="2025-06-08T00:59:26Z" user="neo-plan" uid="363136" lat="55.7207890" lon="37.9434761"/>
 <node id="10573311010" visible="true" version="3" changeset="182362015" timestamp="2026-05-08T01:37:09Z" user="neo-plan" uid="363136" lat="55.7163606" lon="37.9300088">
  <tag k="crossing" v="uncontrolled"/>
  <tag k="highway" v="crossing"/>
 </node>
 <node id="10573311449" visible="true" version="11" changeset="165451449" timestamp="2025-04-26T07:15:49Z" user="neo-plan" uid="363136" lat="55.7208859" lon="37.9279898">
  <tag k="bench" v="yes"/>
  <tag k="bin" v="yes"/>
  <tag k="bus" v="yes"/>
  <tag k="highway" v="bus_stop"/>
  <tag k="lit" v="yes"/>
  <tag k="name" v="Проектируемый проезд № 265"/>
  <tag k="name:uk" v="Проектований проїзд № 265"/>
  <tag k="public_transport" v="platform"/>
  <tag k="shelter" v="yes"/>
  <tag k="tactile_paving" v="yes"/>
  <tag k="timetable" v="yes"/>
 </node>
 <node id="10573311451" visible="true" version="7" changeset="167332049" timestamp="2025-06-08T00:54:06Z" user="neo-plan" uid="363136" lat="55.7211049" lon="37.9301979">
  <tag k="button_operated" v="no"/>
  <tag k="crossing" v="traffic_signals"/>
  <tag k="crossing:island" v="yes"/>
  <tag k="highway" v="crossing"/>
  <tag k="tactile_paving" v="yes"/>
  <tag k="traffic_signals:sound" v="yes"/>
 </node>
 <node id="10573311452" visible="true" version="8" changeset="182362015" timestamp="2026-05-08T01:37:09Z" user="neo-plan" uid="363136" lat="55.7209381" lon="37.9300124">
  <tag k="button_operated" v="no"/>
  <tag k="crossing" v="traffic_signals"/>
  <tag k="crossing:island" v="no"/>
  <tag k="highway" v="crossing"/>
  <tag k="tactile_paving" v="yes"/>
  <tag k="traffic_signals:sound" v="yes"/>
 </node>
 <node id="10573311453" visible="true" version="4" changeset="167332049" timestamp="2025-06-08T00:54:06Z" user="neo-plan" uid="363136" lat="55.7211731" lon="37.9301838"/>
 <node id="10573311454" visible="true" version="2" changeset="165451449" timestamp="2025-04-26T07:15:49Z" user="neo-plan" uid="363136" lat="55.7209346" lon="37.9299432"/>
 <node id="10573311455" visible="true" version="3" changeset="167332049" timestamp="2025-06-08T00:54:06Z" user="neo-plan" uid="363136" lat="55.7210169" lon="37.9302082"/>
 <node id="10573311457" visible="true" version="12" changeset="165451449" timestamp="2025-04-26T07:15:49Z" user="neo-plan" uid="363136" lat="55.7213095" lon="37.9321913">
  <tag k="bench" v="yes"/>
  <tag k="bin" v="yes"/>
  <tag k="bus" v="yes"/>
  <tag k="highway" v="bus_stop"/>
  <tag k="lit" v="yes"/>
  <tag k="name" v="Индустриальный парк «Руднёво»"/>
  <tag k="name:uk" v="Індустріальний парк «Руднево»"/>
  <tag k="public_transport" v="platform"/>
  <tag k="shelter" v="yes"/>
  <tag k="tactile_paving" v="yes"/>
  <tag k="timetable" v="yes"/>
 </node>
 <node id="10573311459" visible="true" version="8" changeset="167332049" timestamp="2025-06-08T00:54:06Z" user="neo-plan" uid="363136" lat="55.7212286" lon="37.9331152">
  <tag k="button_operated" v="yes"/>
  <tag k="crossing" v="traffic_signals"/>
  <tag k="crossing:island" v="yes"/>
  <tag k="highway" v="crossing"/>
  <tag k="tactile_paving" v="yes"/>
  <tag k="traffic_signals:sound" v="yes"/>
 </node>
 <node id="10573311460" visible="true" version="4" changeset="165451449" timestamp="2025-04-26T07:15:49Z" user="neo-plan" uid="363136" lat="55.7213058" lon="37.9331060"/>
 <node id="10573311461" visible="true" version="4" changeset="167332049" timestamp="2025-06-08T00:54:06Z" user="neo-plan" uid="363136" lat="55.7211446" lon="37.9331252"/>
 <node id="10695345112" visible="true" version="2" changeset="134457444" timestamp="2023-04-03T14:21:06Z" user="neo-plan" uid="363136" lat="55.7209670" lon="37.9250068"/>
 <node id="10695345113" visible="true" version="4" changeset="165451449" timestamp="2025-04-26T07:15:49Z" user="neo-plan" uid="363136" lat="55.7210386" lon="37.9265230"/>
 <node id="10695345114" visible="true" version="3" changeset="165451449" timestamp="2025-04-26T07:15:49Z" user="neo-plan" uid="363136" lat="55.7211727" lon="37.9292826"/>
 <node id="10695345115" visible="true" version="3" changeset="134474748" timestamp="2023-04-04T00:49:37Z" user="neo-plan" uid="363136" lat="55.7213043" lon="37.9320951"/>
 <node id="10780592965" visible="true" version="1" changeset="134431617" timestamp="2023-04-02T22:38:29Z" user="neo-plan" uid="363136" lat="55.7204726" lon="37.9271566"/>
 <node id="10780592966" visible="true" version="1" changeset="134431617" timestamp="2023-04-02T22:38:29Z" user="neo-plan" uid="363136" lat="55.7200248" lon="37.9271964"/>
 <node id="10780592967" visible="true" version="1" changeset="134431617" timestamp="2023-04-02T22:38:29Z" user="neo-plan" uid="363136" lat="55.7200405" lon="37.9277509"/>
 <node id="10780592968" visible="true" version="1" changeset="134431617" timestamp="2023-04-02T22:38:29Z" user="neo-plan" uid="363136" lat="55.7204883" lon="37.9277109"/>
 <node id="10780592969" visible="true" version="1" changeset="134431617" timestamp="2023-04-02T22:38:29Z" user="neo-plan" uid="363136" lat="55.7205073" lon="37.9279885"/>
 <node id="10780592970" visible="true" version="1" changeset="134431617" timestamp="2023-04-02T22:38:29Z" user="neo-plan" uid="363136" lat="55.7200595" lon="37.9280283"/>
 <node id="10780592971" visible="true" version="1" changeset="134431617" timestamp="2023-04-02T22:38:29Z" user="neo-plan" uid="363136" lat="55.7200752" lon="37.9285828"/>
 <node id="10780592972" visible="true" version="1" changeset="134431617" timestamp="2023-04-02T22:38:29Z" user="neo-plan" uid="363136" lat="55.7205230" lon="37.9285428"/>
 <node id="10780592973" visible="true" version="1" changeset="134431617" timestamp="2023-04-02T22:38:29Z" user="neo-plan" uid="363136" lat="55.7205420" lon="37.9288080"/>
 <node id="10780592974" visible="true" version="1" changeset="134431617" timestamp="2023-04-02T22:38:29Z" user="neo-plan" uid="363136" lat="55.7200942" lon="37.9288479"/>
 <node id="10780592975" visible="true" version="1" changeset="134431617" timestamp="2023-04-02T22:38:29Z" user="neo-plan" uid="363136" lat="55.7201099" lon="37.9294023"/>
 <node id="10780592976" visible="true" version="1" changeset="134431617" timestamp="2023-04-02T22:38:29Z" user="neo-plan" uid="363136" lat="55.7205577" lon="37.9293623"/>
 <node id="10781917763" visible="true" version="1" changeset="134457444" timestamp="2023-04-03T14:21:06Z" user="neo-plan" uid="363136" lat="55.7214364" lon="37.9369431"/>
 <node id="10781917764" visible="true" version="1" changeset="134457444" timestamp="2023-04-03T14:21:06Z" user="neo-plan" uid="363136" lat="55.7211559" lon="37.9427453"/>
 <node id="10781938945" visible="true" version="1" changeset="134457830" timestamp="2023-04-03T14:31:45Z" user="neo-plan" uid="363136" lat="55.7208610" lon="37.9214490"/>
 <node id="10781938946" visible="true" version="1" changeset="134457830" timestamp="2023-04-03T14:31:45Z" user="neo-plan" uid="363136" lat="55.7207709" lon="37.9209583"/>
 <node id="10781938947" visible="true" version="1" changeset="134457830" timestamp="2023-04-03T14:31:45Z" user="neo-plan" uid="363136" lat="55.7211653" lon="37.9207467"/>
 <node id="10781938948" visible="true" version="1" changeset="134457830" timestamp="2023-04-03T14:31:45Z" user="neo-plan" uid="363136" lat="55.7209468" lon="37.9207091"/>
 <node id="10781938949" visible="true" version="1" changeset="134457830" timestamp="2023-04-03T14:31:45Z" user="neo-plan" uid="363136" lat="55.7207283" lon="37.9208256"/>
 <node id="10783161583" visible="true" version="1" changeset="134474748" timestamp="2023-04-04T00:49:37Z" user="neo-plan" uid="363136" lat="55.7213408" lon="37.9423906"/>
 <node id="10783161588" visible="true" version="1" changeset="134474748" timestamp="2023-04-04T00:49:37Z" user="neo-plan" uid="363136" lat="55.7215700" lon="37.9415772"/>
 <node id="10783308589" visible="true" version="2" changeset="165451449" timestamp="2025-04-26T07:15:49Z" user="neo-plan" uid="363136" lat="55.7210791" lon="37.9282254"/>
 <node id="10783383089" visible="true" version="1" changeset="134474841" timestamp="2023-04-04T00:56:05Z" user="neo-plan" uid="363136" lat="55.7202696" lon="37.9444192"/>
 <node id="10783383090" visible="true" version="1" changeset="134474841" timestamp="2023-04-04T00:56:05Z" user="neo-plan" uid="363136" lat="55.7200247" lon="37.9448680"/>
 <node id="10783383091" visible="true" version="1" changeset="134474841" timestamp="2023-04-04T00:56:05Z" user="neo-plan" uid="363136" lat="55.7196666" lon="37.9455204"/>
 <node id="10783383092" visible="true" version="2" changeset="183523115" timestamp="2026-06-02T00:30:13Z" user="neo-plan" uid="363136" lat="55.7193397" lon="37.9461326"/>
 <node id="10783383093" visible="true" version="3" changeset="187737187" timestamp="2026-08-20T11:12:03Z" user="neo-plan" uid="363136" lat="55.7190192" lon="37.9465910"/>
 <node id="10814451821" visible="true" version="4" changeset="165451449" timestamp="2025-04-26T07:15:49Z" user="neo-plan" uid="363136" lat="55.7211855" lon="37.9322885">
  <tag k="bus" v="yes"/>
  <tag k="name" v="Индустриальный парк «Руднёво»"/>
  <tag k="public_transport" v="stop_position"/>
 </node>
 <node id="10814451822" visible="true" version="4" changeset="165451449" timestamp="2025-04-26T07:15:49Z" user="neo-plan" uid="363136" lat="55.7212659" lon="37.9340419">
  <tag k="bus" v="yes"/>
  <tag k="name" v="Индустриальный парк «Руднёво»"/>
  <tag k="public_transport" v="stop_position"/>
 </node>
 <node id="10814451823" visible="true" version="4" changeset="165451449" timestamp="2025-04-26T07:15:49Z" user="neo-plan" uid="363136" lat="55.7209913" lon="37.9279896">
  <tag k="bus" v="yes"/>
  <tag k="name" v="Проектируемый проезд № 265"/>
  <tag k="public_transport" v="stop_position"/>
 </node>
 <node id="10870989660" visible="true" version="2" changeset="182362015" timestamp="2026-05-08T01:37:09Z" user="neo-plan" uid="363136" lat="55.7206178" lon="37.9270236"/>
 <node id="10870989661" visible="true" version="2" changeset="182362015" timestamp="2026-05-08T01:37:09Z" user="neo-plan" uid="363136" lat="55.7207295" lon="37.9296875"/>
 <node id="10870989662" visible="true" version="1" changeset="135746230" timestamp="2023-05-05T15:11:36Z" user="neo-plan" uid="363136" lat="55.7182580" lon="37.9300443"/>
 <node id="10871006551" visible="true" version="1" changeset="135746138" timestamp="2023-05-05T15:08:49Z" user="neo-plan" uid="363136" lat="55.7198980" lon="37.9288020"/>
 <node id="10871006552" visible="true" version="1" changeset="135746138" timestamp="2023-05-05T15:08:49Z" user="neo-plan" uid="363136" lat="55.7196227" lon="37.9288364"/>
 <node id="10871006553" visible="true" version="1" changeset="135746138" timestamp="2023-05-05T15:08:49Z" user="neo-plan" uid="363136" lat="55.7196492" lon="37.9295049"/>
 <node id="10871006554" visible="true" version="1" changeset="135746138" timestamp="2023-05-05T15:08:49Z" user="neo-plan" uid="363136" lat="55.7199245" lon="37.9294705"/>
 <node id="10871006555" visible="true" version="1" changeset="135746138" timestamp="2023-05-05T15:08:49Z" user="neo-plan" uid="363136" lat="55.7195126" lon="37.9288686"/>
 <node id="10871006556" visible="true" version="1" changeset="135746138" timestamp="2023-05-05T15:08:49Z" user="neo-plan" uid="363136" lat="55.7182851" lon="37.9290394"/>
 <node id="10871006557" visible="true" version="1" changeset="135746138" timestamp="2023-05-05T15:08:49Z" user="neo-plan" uid="363136" lat="55.7183244" lon="37.9299320"/>
 <node id="10871006558" visible="true" version="1" changeset="135746138" timestamp="2023-05-05T15:08:49Z" user="neo-plan" uid="363136" lat="55.7195520" lon="37.9297614"/>
 <node id="10871006559" visible="true" version="1" changeset="135746138" timestamp="2023-05-05T15:08:49Z" user="neo-plan" uid="363136" lat="55.7199055" lon="37.9273059"/>
 <node id="10871006560" visible="true" version="1" changeset="135746138" timestamp="2023-05-05T15:08:49Z" user="neo-plan" uid="363136" lat="55.7195531" lon="37.9273452"/>
 <node id="10871006561" visible="true" version="1" changeset="135746138" timestamp="2023-05-05T15:08:49Z" user="neo-plan" uid="363136" lat="55.7195928" lon="37.9284619"/>
 <node id="10871006562" visible="true" version="1" changeset="135746138" timestamp="2023-05-05T15:08:49Z" user="neo-plan" uid="363136" lat="55.7199450" lon="37.9284226"/>
 <node id="10871041907" visible="true" version="1" changeset="135746434" timestamp="2023-05-05T15:17:59Z" user="neo-plan" uid="363136" lat="55.7193918" lon="37.9273675"/>
 <node id="10871041908" visible="true" version="1" changeset="135746434" timestamp="2023-05-05T15:17:59Z" user="neo-plan" uid="363136" lat="55.7190394" lon="37.9274068"/>
 <node id="10871041909" visible="true" version="1" changeset="135746434" timestamp="2023-05-05T15:17:59Z" user="neo-plan" uid="363136" lat="55.7190791" lon="37.9285235"/>
 <node id="10871041910" visible="true" version="1" changeset="135746434" timestamp="2023-05-05T15:17:59Z" user="neo-plan" uid="363136" lat="55.7194313" lon="37.9284842"/>
 <node id="10871041911" visible="true" version="1" changeset="135746434" timestamp="2023-05-05T15:17:59Z" user="neo-plan" uid="363136" lat="55.7189580" lon="37.9274168"/>
 <node id="10871041912" visible="true" version="1" changeset="135746434" timestamp="2023-05-05T15:17:59Z" user="neo-plan" uid="363136" lat="55.7186056" lon="37.9274561"/>
 <node id="10871041913" visible="true" version="1" changeset="135746434" timestamp="2023-05-05T15:17:59Z" user="neo-plan" uid="363136" lat="55.7186453" lon="37.9285728"/>
 <node id="10871041914" visible="true" version="1" changeset="135746434" timestamp="2023-05-05T15:17:59Z" user="neo-plan" uid="363136" lat="55.7189975" lon="37.9285335"/>
 <node id="10927254900" visible="true" version="2" changeset="167332049" timestamp="2025-06-08T00:54:06Z" user="neo-plan" uid="363136" lat="55.7207130" lon="37.9265876"/>
 <node id="10942892066" visible="true" version="2" changeset="183523115" timestamp="2026-06-02T00:30:13Z" user="neo-plan" uid="363136" lat="55.7195802" lon="37.9456822"/>
 <node id="10985247559" visible="true" version="1" changeset="137494280" timestamp="2023-06-18T22:04:54Z" user="neo-plan" uid="363136" lat="55.7215814" lon="37.9414474"/>
 <node id="11034879627" visible="true" version="1" changeset="138279269" timestamp="2023-07-08T22:21:18Z" user="neo-plan" uid="363136" lat="55.7216796" lon="37.9414385"/>
 <node id="11034879628" visible="true" version="1" changeset="138279269" timestamp="2023-07-08T22:21:18Z" user="neo-plan" uid="363136" lat="55.7216208" lon="37.9413873"/>
 <node id="11034879629" visible="true" version="1" changeset="138279269" timestamp="2023-07-08T22:21:18Z" user="neo-plan" uid="363136" lat="55.7213092" lon="37.9269885"/>
 <node id="11158581416" visible="true" version="2" changeset="182361273" timestamp="2026-05-08T00:46:52Z" user="neo-plan" uid="363136" lat="55.7192202" lon="37.9369926"/>
 <node id="11940700900" visible="true" version="2" changeset="182362015" timestamp="2026-05-08T01:37:09Z" user="neo-plan" uid="363136" lat="55.7164107" lon="37.9300337">
  <tag k="direction" v="backward"/>
  <tag k="highway" v="give_way"/>
 </node>
 <node id="11940700901" visible="true" version="2" changeset="182362015" timestamp="2026-05-08T01:37:09Z" user="neo-plan" uid="363136" lat="55.7163599" lon="37.9301125"/>
 <node id="11940700902" visible="true" version="1" changeset="151966041" timestamp="2024-05-28T23:08:01Z" user="neo-plan" uid="363136" lat="55.7167633" lon="37.9303240"/>
 <node id="11940700903" visible="true" version="1" changeset="151966041" timestamp="2024-05-28T23:08:01Z" user="neo-plan" uid="363136" lat="55.7170633" lon="37.9304906"/>
 <node id="11940700904" visible="true" version="2" changeset="182362015" timestamp="2026-05-08T01:37:09Z" user="neo-plan" uid="363136" lat="55.7172381" lon="37.9305639"/>
 <node id="11940700905" visible="true" version="2" changeset="182362015" timestamp="2026-05-08T01:37:09Z" user="neo-plan" uid="363136" lat="55.7174293" lon="37.9305455"/>
 <node id="11940700906" visible="true" version="2" changeset="182362015" timestamp="2026-05-08T01:37:09Z" user="neo-plan" uid="363136" lat="55.7182348" lon="37.9304287"/>
 <node id="11940700907" visible="true" version="1" changeset="151966041" timestamp="2024-05-28T23:08:01Z" user="neo-plan" uid="363136" lat="55.7172833" lon="37.9304297"/>
 <node id="11940700908" visible="true" version="1" changeset="151966041" timestamp="2024-05-28T23:08:01Z" user="neo-plan" uid="363136" lat="55.7171825" lon="37.9304215"/>
 <node id="11940700909" visible="true" version="1" changeset="151966041" timestamp="2024-05-28T23:08:01Z" user="neo-plan" uid="363136" lat="55.7164349" lon="37.9299662"/>
 <node id="11940700910" visible="true" version="1" changeset="151966041" timestamp="2024-05-28T23:08:01Z" user="neo-plan" uid="363136" lat="55.7163611" lon="37.9299212"/>
 <node id="12645469059" visible="true" version="1" changeset="163366191" timestamp="2025-03-08T14:20:43Z" user="neo-plan" uid="363136" lat="55.7189746" lon="37.9318101"/>
 <node id="12645469060" visible="true" version="1" changeset="163366191" timestamp="2025-03-08T14:20:43Z" user="neo-plan" uid="363136" lat="55.7186421" lon="37.9318522"/>
 <node id="12645469061" visible="true" version="1" changeset="163366191" timestamp="2025-03-08T14:20:43Z" user="neo-plan" uid="363136" lat="55.7186878" lon="37.9329943"/>
 <node id="12645469062" visible="true" version="1" changeset="163366191" timestamp="2025-03-08T14:20:43Z" user="neo-plan" uid="363136" lat="55.7190205" lon="37.9329522"/>
 <node id="12645469063" visible="true" version="1" changeset="163366191" timestamp="2025-03-08T14:20:43Z" user="neo-plan" uid="363136" lat="55.7194339" lon="37.9317457"/>
 <node id="12645469064" visible="true" version="1" changeset="163366191" timestamp="2025-03-08T14:20:43Z" user="neo-plan" uid="363136" lat="55.7191013" lon="37.9317878"/>
 <node id="12645469065" visible="true" version="1" changeset="163366191" timestamp="2025-03-08T14:20:43Z" user="neo-plan" uid="363136" lat="55.7191471" lon="37.9329299"/>
 <node id="12645469066" visible="true" version="1" changeset="163366191" timestamp="2025-03-08T14:20:43Z" user="neo-plan" uid="363136" lat="55.7194798" lon="37.9328878"/>
 <node id="12645469071" visible="true" version="1" changeset="163366191" timestamp="2025-03-08T14:20:43Z" user="neo-plan" uid="363136" lat="55.7206260" lon="37.9305344"/>
 <node id="12645469072" visible="true" version="1" changeset="163366191" timestamp="2025-03-08T14:20:43Z" user="neo-plan" uid="363136" lat="55.7196545" lon="37.9306547"/>
 <node id="12645469073" visible="true" version="1" changeset="163366191" timestamp="2025-03-08T14:20:43Z" user="neo-plan" uid="363136" lat="55.7196849" lon="37.9314271"/>
 <node id="12645469074" visible="true" version="1" changeset="163366191" timestamp="2025-03-08T14:20:43Z" user="neo-plan" uid="363136" lat="55.7206564" lon="37.9313065"/>
 <node id="12645469075" visible="true" version="1" changeset="163366191" timestamp="2025-03-08T14:20:43Z" user="neo-plan" uid="363136" lat="55.7194957" lon="37.9306968"/>
 <node id="12645469076" visible="true" version="1" changeset="163366191" timestamp="2025-03-08T14:20:43Z" user="neo-plan" uid="363136" lat="55.7181703" lon="37.9308684"/>
 <node id="12645469077" visible="true" version="1" changeset="163366191" timestamp="2025-03-08T14:20:43Z" user="neo-plan" uid="363136" lat="55.7182020" lon="37.9316402"/>
 <node id="12645469078" visible="true" version="1" changeset="163366191" timestamp="2025-03-08T14:20:43Z" user="neo-plan" uid="363136" lat="55.7195274" lon="37.9314684"/>
 <node id="12787573723" visible="true" version="1" changeset="165450919" timestamp="2025-04-26T06:56:06Z" user="neo-plan" uid="363136" lat="55.7204750" lon="37.9440216"/>
 <node id="12787573791" visible="true" version="1" changeset="165451449" timestamp="2025-04-26T07:15:49Z" user="neo-plan" uid="363136" lat="55.7211855" lon="37.9340009"/>
 <node id="12787573792" visible="true" version="2" changeset="167332049" timestamp="2025-06-08T00:54:06Z" user="neo-plan" uid="363136" lat="55.7209415" lon="37.9300785"/>
 <node id="12787573793" visible="true" version="1" changeset="165451449" timestamp="2025-04-26T07:15:49Z" user="neo-plan" uid="363136" lat="55.7210046" lon="37.9298729"/>
 <node id="12787573796" visible="true" version="1" changeset="165451449" timestamp="2025-04-26T07:15:49Z" user="neo-plan" uid="363136" lat="55.7207822" lon="37.9266011"/>
 <node id="12787573797" visible="true" version="1" changeset="165451449" timestamp="2025-04-26T07:15:49Z" user="neo-plan" uid="363136" lat="55.7208609" lon="37.9266955"/>
 <node id="12895913016" visible="true" version="1" changeset="167332049" timestamp="2025-06-08T00:54:06Z" user="neo-plan" uid="363136" lat="55.7209858" lon="37.9301053"/>
 <node id="12895913017" visible="true" version="1" changeset="167332049" timestamp="2025-06-08T00:54:06Z" user="neo-plan" uid="363136" lat="55.7210066" lon="37.9301452"/>
 <node id="12895913018" visible="true" version="1" changeset="167332049" timestamp="2025-06-08T00:54:06Z" user="neo-plan" uid="363136" lat="55.7211668" lon="37.9318037"/>
 <node id="12895913019" visible="true" version="1" changeset="167332049" timestamp="2025-06-08T00:54:06Z" user="neo-plan" uid="363136" lat="55.7210029" lon="37.9318193">
  <tag k="crossing" v="unmarked"/>
  <tag k="highway" v="crossing"/>
 </node>
 <node id="12895913020" visible="true" version="1" changeset="167332049" timestamp="2025-06-08T00:54:06Z" user="neo-plan" uid="363136" lat="55.7208515" lon="37.9318435">
  <tag k="barrier" v="gate"/>
 </node>
 <node id="12895913021" visible="true" version="1" changeset="167332049" timestamp="2025-06-08T00:54:06Z" user="neo-plan" uid="363136" lat="55.7210885" lon="37.9316813"/>
 <node id="12895913022" visible="true" version="1" changeset="167332049" timestamp="2025-06-08T00:54:06Z" user="neo-plan" uid="363136" lat="55.7210061" lon="37.9318916"/>
 <node id="12895913023" visible="true" version="1" changeset="167332049" timestamp="2025-06-08T00:54:06Z" user="neo-plan" uid="363136" lat="55.7210454" lon="37.9318862"/>
 <node id="12895913024" visible="true" version="1" changeset="167332049" timestamp="2025-06-08T00:54:06Z" user="neo-plan" uid="363136" lat="55.7210794" lon="37.9319118"/>
 <node id="12895913025" visible="true" version="1" changeset="167332049" timestamp="2025-06-08T00:54:06Z" user="neo-plan" uid="363136" lat="55.7210974" lon="37.9319737"/>
 <node id="12895913026" visible="true" version="1" changeset="167332049" timestamp="2025-06-08T00:54:06Z" user="neo-plan" uid="363136" lat="55.7210004" lon="37.9317621"/>
 <node id="12895913027" visible="true" version="1" changeset="167332049" timestamp="2025-06-08T00:54:06Z" user="neo-plan" uid="363136" lat="55.7210670" lon="37.9317417"/>
 <node id="12895944842" visible="true" version="1" changeset="167332116" timestamp="2025-06-08T00:59:26Z" user="neo-plan" uid="363136" lat="55.7214354" lon="37.9399098"/>
 <node id="12895944843" visible="true" version="1" changeset="167332116" timestamp="2025-06-08T00:59:26Z" user="neo-plan" uid="363136" lat="55.7214274" lon="37.9399742"/>
 <node id="12895944849" visible="true" version="1" changeset="167332116" timestamp="2025-06-08T00:59:26Z" user="neo-plan" uid="363136" lat="55.7212822" lon="37.9401153"/>
 <node id="12895944850" visible="true" version="1" changeset="167332116" timestamp="2025-06-08T00:59:26Z" user="neo-plan" uid="363136" lat="55.7214039" lon="37.9400305"/>
 <node id="12895944851" visible="true" version="1" changeset="167332116" timestamp="2025-06-08T00:59:26Z" user="neo-plan" uid="363136" lat="55.7213696" lon="37.9400670"/>
 <node id="12895944856" visible="true" version="1" changeset="167332116" timestamp="2025-06-08T00:59:26Z" user="neo-plan" uid="363136" lat="55.7215762" lon="37.9415062"/>
 <node id="12897311919" visible="true" version="1" changeset="167361262" timestamp="2025-06-08T17:08:55Z" user="neo-plan" uid="363136" lat="55.7209800" lon="37.9299296"/>
 <node id="13807348411" visible="true" version="1" changeset="182362015" timestamp="2026-05-08T01:37:09Z" user="neo-plan" uid="363136" lat="55.7175609" lon="37.9310422"/>
 <node id="13807348412" visible="true" version="1" changeset="182362015" timestamp="2026-05-08T01:37:09Z" user="neo-plan" uid="363136" lat="55.7175423" lon="37.9306035"/>
 <node id="13807348414" visible="true" version="1" changeset="182362015" timestamp="2026-05-08T01:37:09Z" user="neo-plan" uid="363136" lat="55.7175529" lon="37.9308517">
  <tag k="access" v="private"/>
  <tag k="barrier" v="gate"/>
 </node>
 <node id="13807348418" visible="true" version="1" changeset="182362015" timestamp="2026-05-08T01:37:09Z" user="neo-plan" uid="363136" lat="55.7173466" lon="37.9305534">
  <tag k="crossing" v="unmarked"/>
  <tag k="crossing:markings" v="no"/>
  <tag k="highway" v="crossing"/>
 </node>
 <node id="13807348419" visible="true" version="1" changeset="182362015" timestamp="2026-05-08T01:37:09Z" user="neo-plan" uid="363136" lat="55.7173451" lon="37.9305116"/>
 <node id="13807348429" visible="true" version="1" changeset="182362015" timestamp="2026-05-08T01:37:09Z" user="neo-plan" uid="363136" lat="55.7170816" lon="37.9303601">
  <tag k="crossing" v="unmarked"/>
  <tag k="crossing:markings" v="no"/>
  <tag k="highway" v="crossing"/>
 </node>
 <node id="13807348430" visible="true" version="1" changeset="182362015" timestamp="2026-05-08T01:37:09Z" user="neo-plan" uid="363136" lat="55.7170826" lon="37.9304378"/>
 <node id="13807348434" visible="true" version="1" changeset="182362015" timestamp="2026-05-08T01:37:09Z" user="neo-plan" uid="363136" lat="55.7170248" lon="37.9303244">
  <tag k="crossing" v="unmarked"/>
  <tag k="crossing:markings" v="no"/>
  <tag k="highway" v="crossing"/>
 </node>
 <node id="13807348435" visible="true" version="1" changeset="182362015" timestamp="2026-05-08T01:37:09Z" user="neo-plan" uid="363136" lat="55.7170264" lon="37.9304046"/>
 <node id="13807348442" visible="true" version="2" changeset="182362062" timestamp="2026-05-08T01:40:26Z" user="neo-plan" uid="363136" lat="55.7207408" lon="37.9269808"/>
 <node id="13807348443" visible="true" version="3" changeset="182362445" timestamp="2026-05-08T02:02:37Z" user="neo-plan" uid="363136" lat="55.7208456" lon="37.9299550">
  <tag k="crossing" v="unmarked"/>
  <tag k="crossing:markings" v="no"/>
  <tag k="highway" v="crossing"/>
 </node>
 <node id="13807348444" visible="true" version="1" changeset="182362015" timestamp="2026-05-08T01:37:09Z" user="neo-plan" uid="363136" lat="55.7207415" lon="37.9299156">
  <tag k="access" v="private"/>
  <tag k="barrier" v="gate"/>
 </node>
 <node id="13807348445" visible="true" version="1" changeset="182362015" timestamp="2026-05-08T01:37:09Z" user="neo-plan" uid="363136" lat="55.7207449" lon="37.9299685">
  <tag k="crossing" v="unmarked"/>
  <tag k="crossing:markings" v="no"/>
  <tag k="highway" v="crossing"/>
 </node>
 <node id="13807348446" visible="true" version="1" changeset="182362015" timestamp="2026-05-08T01:37:09Z" user="neo-plan" uid="363136" lat="55.7207495" lon="37.9300386"/>
 <node id="13807348447" visible="true" version="1" changeset="182362015" timestamp="2026-05-08T01:37:09Z" user="neo-plan" uid="363136" lat="55.7207434" lon="37.9299454">
  <tag k="direction" v="forward"/>
  <tag k="highway" v="give_way"/>
 </node>
 <node id="13807348448" visible="true" version="1" changeset="182362015" timestamp="2026-05-08T01:37:09Z" user="neo-plan" uid="363136" lat="55.7209062" lon="37.9289015">
  <tag k="power" v="transformer"/>
 </node>
 <node id="13807348449" visible="true" version="1" changeset="182362015" timestamp="2026-05-08T01:37:09Z" user="neo-plan" uid="363136" lat="55.7209630" lon="37.9288954"/>
 <node id="13807348450" visible="true" version="1" changeset="182362015" timestamp="2026-05-08T01:37:09Z" user="neo-plan" uid="363136" lat="55.7210373" lon="37.9288874"/>
 <node id="13807352216" visible="true" version="1" changeset="182362062" timestamp="2026-05-08T01:40:26Z" user="neo-plan" uid="363136" lat="55.7209095" lon="37.9298995"/>
 <node id="13807352217" visible="true" version="1" changeset="182362062" timestamp="2026-05-08T01:40:26Z" user="neo-plan" uid="363136" lat="55.7208098" lon="37.9268754"/>
 <node id="13807352218" visible="true" version="1" changeset="182362062" timestamp="2026-05-08T01:40:26Z" user="neo-plan" uid="363136" lat="55.7208775" lon="37.9289648"/>
 <node id="13807352219" visible="true" version="1" changeset="182362062" timestamp="2026-05-08T01:40:26Z" user="neo-plan" uid="363136" lat="55.7208481" lon="37.9300249"/>
 <node id="13807352220" visible="true" version="1" changeset="182362062" timestamp="2026-05-08T01:40:26Z" user="neo-plan" uid="363136" lat="55.7208943" lon="37.9300185">
  <tag k="direction" v="forward"/>
  <tag k="highway" v="give_way"/>
 </node>
 <node id="13807352221" visible="true" version="1" changeset="182362062" timestamp="2026-05-08T01:40:26Z" user="neo-plan" uid="363136" lat="55.7207519" lon="37.9301031">
  <tag k="crossing" v="unmarked"/>
  <tag k="crossing:markings" v="no"/>
  <tag k="highway" v="crossing"/>
 </node>
 <node id="13807352222" visible="true" version="1" changeset="182362062" timestamp="2026-05-08T01:40:26Z" user="neo-plan" uid="363136" lat="55.7207554" lon="37.9301975">
  <tag k="access" v="private"/>
  <tag k="barrier" v="gate"/>
 </node>
 <node id="13807352223" visible="true" version="1" changeset="182362062" timestamp="2026-05-08T01:40:26Z" user="neo-plan" uid="363136" lat="55.7207534" lon="37.9301454">
  <tag k="direction" v="backward"/>
  <tag k="highway" v="give_way"/>
 </node>
 <node id="13807379383" visible="true" version="1" changeset="182362445" timestamp="2026-05-08T02:02:37Z" user="neo-plan" uid="363136" lat="55.7208439" lon="37.9299052"/>
 <node id="13903160649" visible="true" version="1" changeset="183523115" timestamp="2026-06-02T00:30:13Z" user="neo-plan" uid="363136" lat="55.7192428" lon="37.9462931"/>
 <node id="13903160650" visible="true" version="1" changeset="183523115" timestamp="2026-06-02T00:30:13Z" user="neo-plan" uid="363136" lat="55.7191369" lon="37.9464330"/>
 <node id="14106307396" visible="true" version="2" changeset="187736812" timestamp="2026-08-20T11:03:51Z" user="neo-plan" uid="363136" lat="55.7185555" lon="37.9469225"/>
 <node id="14107226687" visible="true" version="1" changeset="187737187" timestamp="2026-08-20T11:12:03Z" user="neo-plan" uid="363136" lat="55.7189133" lon="37.9466975"/>
 <way id="286483677" visible="true" version="12" changeset="182361837" timestamp="2026-05-08T01:24:35Z" user="neo-plan" uid="363136">
  <nd ref="4849275026"/>
  <nd ref="11158581416"/>
  <nd ref="4849275027"/>
  <nd ref="2901620773"/>
  <nd ref="8849345392"/>
  <nd ref="2901620772"/>
  <nd ref="12895913020"/>
  <nd ref="3602641697"/>
  <tag k="barrier" v="fence"/>
 </way>
 <way id="355749709" visible="true" version="15" changeset="138279269" timestamp="2023-07-08T22:21:18Z" user="neo-plan" uid="363136">
  <nd ref="3617613204"/>
  <nd ref="3612899535"/>
  <nd ref="3612899542"/>
  <nd ref="4849275062"/>
  <nd ref="11034879629"/>
  <nd ref="3612899533"/>
  <nd ref="4849275063"/>
  <nd ref="3688571454"/>
  <nd ref="3688571456"/>
  <nd ref="3688571455"/>
  <nd ref="3612899530"/>
  <nd ref="4849275061"/>
  <nd ref="7650603716"/>
  <nd ref="4849275058"/>
  <nd ref="4849275057"/>
  <nd ref="4849275056"/>
  <nd ref="4849275052"/>
  <nd ref="4849275053"/>
  <nd ref="4849275049"/>
  <nd ref="4849275047"/>
  <nd ref="4849275046"/>
  <nd ref="4849275045"/>
  <nd ref="11034879627"/>
  <nd ref="11034879628"/>
  <nd ref="4849275048"/>
  <nd ref="4849275054"/>
  <nd ref="4849275055"/>
  <nd ref="4849275059"/>
  <nd ref="4849275060"/>
  <nd ref="7650603698"/>
  <nd ref="3688571458"/>
  <nd ref="3688571459"/>
  <nd ref="3688571457"/>
  <nd ref="3612899538"/>
  <nd ref="3612899540"/>
  <nd ref="3612899534"/>
  <nd ref="10781938945"/>
  <nd ref="10781938946"/>
  <nd ref="10781938949"/>
  <nd ref="10781938948"/>
  <nd ref="10781938947"/>
  <nd ref="3617613204"/>
 </way>
 <way id="433143938" visible="true" version="5" changeset="167360904" timestamp="2025-06-08T17:00:07Z" user="neo-plan" uid="363136">
  <nd ref="4320195250"/>
  <nd ref="4320195266"/>
  <nd ref="4320195269"/>
  <nd ref="4320195254"/>
  <nd ref="4849274818"/>
  <nd ref="4849274817"/>
  <nd ref="4849274816"/>
  <nd ref="4849274819"/>
  <nd ref="4320195250"/>
  <tag k="building" v="warehouse"/>
 </way>
 <way id="977798838" visible="true" version="8" changeset="182362062" timestamp="2026-05-08T01:40:26Z" user="neo-plan" uid="363136">
  <nd ref="9047487816"/>
  <nd ref="10573311010"/>
  <nd ref="11940700900"/>
  <nd ref="9047487815"/>
  <nd ref="13807348435"/>
  <nd ref="13807348430"/>
  <nd ref="9047487814"/>
  <nd ref="13807348419"/>
  <nd ref="13807348446"/>
  <nd ref="13807352219"/>
  <nd ref="13807352220"/>
  <nd ref="10573311452"/>
  <nd ref="9047487813"/>
  <tag k="highway" v="residential"/>
  <tag k="lanes" v="2"/>
  <tag k="lit" v="yes"/>
  <tag k="surface" v="asphalt"/>
 </way>
 <way id="998090717" visible="true" version="1" changeset="113221458" timestamp="2021-11-01T07:46:49Z" user="literan" uid="830106">
  <nd ref="3602641697"/>
  <nd ref="3602641696"/>
  <nd ref="1462103567"/>
  <tag k="barrier" v="wall"/>
 </way>
 <way id="998090719" visible="true" version="3" changeset="182362062" timestamp="2026-05-08T01:40:26Z" user="neo-plan" uid="363136">
  <nd ref="3602641697"/>
  <nd ref="9215637812"/>
  <nd ref="13807352222"/>
  <nd ref="13807348412"/>
  <nd ref="13807348414"/>
  <nd ref="13807348411"/>
  <nd ref="9215637811"/>
 </way>
 <way id="998090724" visible="true" version="4" changeset="182362015" timestamp="2026-05-08T01:37:09Z" user="neo-plan" uid="363136">
  <nd ref="2494094112"/>
  <nd ref="9215674733"/>
  <nd ref="9215674732"/>
  <nd ref="13807348444"/>
  <nd ref="2494094113"/>
  <nd ref="2494094112"/>
  <tag k="barrier" v="fence"/>
  <tag k="landuse" v="industrial"/>
 </way>
 <way id="1132955071" visible="true" version="6" changeset="187737187" timestamp="2026-08-20T11:12:03Z" user="neo-plan" uid="363136">
  <nd ref="10563258928"/>
  <nd ref="10563258927"/>
  <nd ref="10783308589"/>
  <nd ref="10573311453"/>
  <nd ref="10573311460"/>
  <nd ref="9048798261"/>
  <nd ref="10781917763"/>
  <nd ref="7650603714"/>
  <nd ref="10563250508"/>
  <nd ref="10563250507"/>
  <nd ref="10985247559"/>
  <nd ref="12895944856"/>
  <nd ref="10783161588"/>
  <nd ref="10563250506"/>
  <nd ref="8849347801"/>
  <nd ref="10563250504"/>
  <nd ref="10783161583"/>
  <nd ref="10563250503"/>
  <nd ref="10781917764"/>
  <nd ref="10563250501"/>
  <nd ref="10563286652"/>
  <nd ref="10563286651"/>
  <nd ref="12787573723"/>
  <nd ref="10783383089"/>
  <nd ref="10783383090"/>
  <nd ref="10783383091"/>
  <nd ref="10942892066"/>
  <nd ref="10783383092"/>
  <nd ref="13903160649"/>
  <nd ref="13903160650"/>
  <nd ref="10783383093"/>
  <nd ref="14107226687"/>
  <nd ref="14106307396"/>
  <tag k="footway" v="sidewalk"/>
  <tag k="highway" v="footway"/>
  <tag k="surface" v="asphalt"/>
 </way>
 <way id="1134115719" visible="true" version="4" changeset="165451449" timestamp="2025-04-26T07:15:49Z" user="neo-plan" uid="363136">
  <nd ref="10573311455"/>
  <nd ref="10573311451"/>
  <nd ref="10573311453"/>
  <tag k="footway" v="crossing"/>
  <tag k="highway" v="footway"/>
  <tag k="surface" v="asphalt"/>
 </way>
 <way id="1134115720" visible="true" version="5" changeset="167361262" timestamp="2025-06-08T17:08:55Z" user="neo-plan" uid="363136">
  <nd ref="12895944849"/>
  <nd ref="12895944851"/>
  <nd ref="12895944850"/>
  <nd ref="12895944843"/>
  <nd ref="12895944842"/>
  <nd ref="12787573791"/>
  <nd ref="10573311461"/>
  <nd ref="12895913025"/>
  <nd ref="12895913024"/>
  <nd ref="12895913023"/>
  <nd ref="12895913022"/>
  <tag k="footway" v="sidewalk"/>
  <tag k="highway" v="footway"/>
  <tag k="surface" v="asphalt"/>
 </way>
 <way id="1149705060" visible="true" version="2" changeset="134434811" timestamp="2023-04-03T02:38:26Z" user="neo-plan" uid="363136">
  <nd ref="10695345112"/>
  <nd ref="10695345113"/>
  <nd ref="10695345114"/>
  <nd ref="10695345115"/>
  <tag k="barrier" v="wall"/>
  <tag k="wall" v="noise_barrier"/>
 </way>
 <way id="1159259598" visible="true" version="4" changeset="171578946" timestamp="2025-09-07T11:06:55Z" user="Sailas" uid="23246826">
  <nd ref="10780592965"/>
  <nd ref="10780592966"/>
  <nd ref="10780592967"/>
  <nd ref="10780592968"/>
  <nd ref="10780592965"/>
  <tag k="addr:housenumber" v="1Г с3"/>
  <tag k="addr:street" v="Пехорская улица"/>
  <tag k="building" v="industrial"/>
  <tag k="name" v="Корпус 1"/>
  <tag k="ref" v="1"/>
 </way>
 <way id="1159259599" visible="true" version="4" changeset="171184171" timestamp="2025-08-29T13:21:15Z" user="Ozon OSM4" uid="22440403">
  <nd ref="10780592969"/>
  <nd ref="10780592970"/>
  <nd ref="10780592971"/>
  <nd ref="10780592972"/>
  <nd ref="10780592969"/>
  <tag k="addr:housenumber" v="1Г с2"/>
  <tag k="addr:street" v="Пехорская улица"/>
  <tag k="building" v="industrial"/>
  <tag k="name" v="Корпус 2"/>
  <tag k="ref" v="2"/>
 </way>
 <way id="1159259600" visible="true" version="6" changeset="175544850" timestamp="2025-12-05T12:03:24Z" user="Ozon OSM7" uid="22471995">
  <nd ref="10780592973"/>
  <nd ref="10780592974"/>
  <nd ref="10780592975"/>
  <nd ref="10780592976"/>
  <nd ref="10780592973"/>
  <tag k="addr:housenumber" v="1Г с1"/>
  <tag k="addr:street" v="Пехорская улица"/>
  <tag k="alt_name" v="Беспилотные авиационные системы (БАС)"/>
  <tag k="building" v="industrial"/>
  <tag k="name" v="Корпус 3"/>
  <tag k="ref" v="3"/>
 </way>
 <way id="1159536007" visible="true" version="5" changeset="182362015" timestamp="2026-05-08T01:37:09Z" user="neo-plan" uid="363136">
  <nd ref="10927254900"/>
  <nd ref="12787573796"/>
  <nd ref="12787573797"/>
  <nd ref="10563258926"/>
  <nd ref="13807348449"/>
  <nd ref="12787573793"/>
  <nd ref="12897311919"/>
  <nd ref="10573311454"/>
  <tag k="footway" v="sidewalk"/>
  <tag k="highway" v="footway"/>
  <tag k="surface" v="asphalt"/>
 </way>
 <way id="1162797409" visible="true" version="31" changeset="182362015" timestamp="2026-05-08T01:37:09Z" user="neo-plan" uid="363136">
  <nd ref="9047528120"/>
  <nd ref="10563258221"/>
  <nd ref="10814451823"/>
  <nd ref="13807348450"/>
  <tag k="highway" v="residential"/>
  <tag k="lanes" v="4"/>
  <tag k="name" v="Проектируемый проезд № 287"/>
  <tag k="name:uk" v="Проектований проїзд № 287"/>
  <tag k="surface" v="asphalt"/>
 </way>
 <way id="1169024041" visible="true" version="3" changeset="170514999" timestamp="2025-08-16T09:54:38Z" user="Ozon OSM6" uid="22458389">
  <nd ref="10871006551"/>
  <nd ref="10871006552"/>
  <nd ref="10871006553"/>
  <nd ref="10871006554"/>
  <nd ref="10871006551"/>
  <tag k="addr:housenumber" v="1Г с4"/>
  <tag k="addr:street" v="Пехорская улица"/>
  <tag k="building" v="yes"/>
  <tag k="name" v="Корпус 8"/>
  <tag k="ref" v="8"/>
 </way>
 <way id="1169024042" visible="true" version="2" changeset="168912987" timestamp="2025-07-14T11:44:33Z" user="Ozon OSM13" uid="22779724">
  <nd ref="10871006555"/>
  <nd ref="10871006556"/>
  <nd ref="10871006557"/>
  <nd ref="10871006558"/>
  <nd ref="10871006555"/>
  <tag k="addr:housenumber" v="1Д с1"/>
  <tag k="addr:street" v="Пехорская улица"/>
  <tag k="building" v="industrial"/>
  <tag k="name" v="Корпус 9"/>
  <tag k="ref" v="9"/>
 </way>
 <way id="1169024043" visible="true" version="3" changeset="167435221" timestamp="2025-06-10T09:33:07Z" user="Ozon OSM7" uid="22471995">
  <nd ref="10871006559"/>
  <nd ref="10871006560"/>
  <nd ref="10871006561"/>
  <nd ref="10871006562"/>
  <nd ref="10871006559"/>
  <tag k="addr:housenumber" v="1Г с5"/>
  <tag k="addr:street" v="Пехорская улица"/>
  <tag k="building" v="industrial"/>
  <tag k="name" v="Корпус 4"/>
  <tag k="ref" v="4"/>
 </way>
 <way id="1169024633" visible="true" version="1" changeset="135746230" timestamp="2023-05-05T15:11:36Z" user="neo-plan" uid="363136">
  <nd ref="10870989660"/>
  <nd ref="10870989661"/>
  <nd ref="10870989662"/>
  <tag k="highway" v="service"/>
 </way>
 <way id="1169025934" visible="true" version="2" changeset="174681910" timestamp="2025-11-15T10:59:59Z" user="Ozon OSM13" uid="22779724">
  <nd ref="10871041907"/>
  <nd ref="10871041908"/>
  <nd ref="10871041909"/>
  <nd ref="10871041910"/>
  <nd ref="10871041907"/>
  <tag k="addr:housenumber" v="1Д с2"/>
  <tag k="addr:street" v="Пехорская улица"/>
  <tag k="building" v="industrial"/>
  <tag k="name" v="Корпус 5"/>
  <tag k="ref" v="5"/>
 </way>
 <way id="1169025935" visible="true" version="2" changeset="167681428" timestamp="2025-06-16T08:24:31Z" user="Ozon OSM6" uid="22458389">
  <nd ref="10871041911"/>
  <nd ref="10871041912"/>
  <nd ref="10871041913"/>
  <nd ref="10871041914"/>
  <nd ref="10871041911"/>
  <tag k="addr:housenumber" v="1Д с3"/>
  <tag k="addr:street" v="Пехорская улица"/>
  <tag k="building" v="industrial"/>
  <tag k="name" v="Корпус 6"/>
  <tag k="ref" v="6"/>
 </way>
 <way id="1176035558" visible="true" version="3" changeset="167361262" timestamp="2025-06-08T17:08:55Z" user="neo-plan" uid="363136">
  <nd ref="12787573792"/>
  <nd ref="12895913016"/>
  <nd ref="12895913017"/>
  <nd ref="10573311455"/>
  <nd ref="12895913021"/>
  <nd ref="12895913027"/>
  <nd ref="12895913026"/>
  <tag k="footway" v="sidewalk"/>
  <tag k="highway" v="footway"/>
 </way>
 <way id="1287523820" visible="true" version="6" changeset="182362062" timestamp="2026-05-08T01:40:26Z" user="neo-plan" uid="363136">
  <nd ref="11940700901"/>
  <nd ref="11940700902"/>
  <nd ref="11940700903"/>
  <nd ref="11940700904"/>
  <nd ref="13807348418"/>
  <nd ref="11940700905"/>
  <nd ref="11940700906"/>
  <nd ref="13807352221"/>
  <nd ref="12787573792"/>
  <tag k="footway" v="sidewalk"/>
  <tag k="highway" v="footway"/>
 </way>
 <way id="1287523821" visible="true" version="2" changeset="182362015" timestamp="2026-05-08T01:37:09Z" user="neo-plan" uid="363136">
  <nd ref="10573311454"/>
  <nd ref="13807348443"/>
  <nd ref="13807348445"/>
  <nd ref="11940700907"/>
  <nd ref="11940700908"/>
  <nd ref="13807348429"/>
  <nd ref="13807348434"/>
  <nd ref="11940700909"/>
  <nd ref="11940700910"/>
  <tag k="footway" v="sidewalk"/>
  <tag k="highway" v="footway"/>
 </way>
 <way id="1365537868" visible="true" version="1" changeset="163366191" timestamp="2025-03-08T14:20:43Z" user="neo-plan" uid="363136">
  <nd ref="12645469059"/>
  <nd ref="12645469060"/>
  <nd ref="12645469061"/>
  <nd ref="12645469062"/>
  <nd ref="12645469059"/>
  <tag k="building" v="yes"/>
 </way>
 <way id="1365537869" visible="true" version="1" changeset="163366191" timestamp="2025-03-08T14:20:43Z" user="neo-plan" uid="363136">
  <nd ref="12645469063"/>
  <nd ref="12645469064"/>
  <nd ref="12645469065"/>
  <nd ref="12645469066"/>
  <nd ref="12645469063"/>
  <tag k="building" v="yes"/>
 </way>
 <way id="1365537871" visible="true" version="2" changeset="167360904" timestamp="2025-06-08T17:00:07Z" user="neo-plan" uid="363136">
  <nd ref="12645469071"/>
  <nd ref="12645469072"/>
  <nd ref="12645469073"/>
  <nd ref="12645469074"/>
  <nd ref="12645469071"/>
  <tag k="building" v="yes"/>
  <tag k="name" v="Корпус 10"/>
  <tag k="ref" v="10"/>
 </way>
 <way id="1365537872" visible="true" version="1" changeset="163366191" timestamp="2025-03-08T14:20:43Z" user="neo-plan" uid="363136">
  <nd ref="12645469075"/>
  <nd ref="12645469076"/>
  <nd ref="12645469077"/>
  <nd ref="12645469078"/>
  <nd ref="12645469075"/>
  <tag k="building" v="yes"/>
 </way>
 <way id="1381321578" visible="true" version="1" changeset="165451449" timestamp="2025-04-26T07:15:49Z" user="neo-plan" uid="363136">
  <nd ref="10573311454"/>
  <nd ref="10573311452"/>
  <nd ref="12787573792"/>
  <tag k="footway" v="crossing"/>
  <tag k="highway" v="footway"/>
  <tag k="surface" v="asphalt"/>
 </way>
 <way id="1393155720" visible="true" version="1" changeset="167332049" timestamp="2025-06-08T00:54:06Z" user="neo-plan" uid="363136">
  <nd ref="12895913018"/>
  <nd ref="12895913019"/>
  <nd ref="12895913020"/>
  <tag k="highway" v="service"/>
 </way>
 <way id="1393155722" visible="true" version="1" changeset="167332049" timestamp="2025-06-08T00:54:06Z" user="neo-plan" uid="363136">
  <nd ref="12895913026"/>
  <nd ref="12895913019"/>
  <nd ref="12895913022"/>
  <tag k="footway" v="crossing"/>
  <tag k="highway" v="footway"/>
 </way>
 <way id="1510415241" visible="true" version="3" changeset="182362445" timestamp="2026-05-08T02:02:37Z" user="neo-plan" uid="363136">
  <nd ref="13807348442"/>
  <nd ref="13807379383"/>
  <nd ref="13807348443"/>
  <nd ref="13807352219"/>
  <tag k="highway" v="service"/>
  <tag k="service" v="parking_aisle"/>
 </way>
 <way id="1510415242" visible="true" version="1" changeset="182362015" timestamp="2026-05-08T01:37:09Z" user="neo-plan" uid="363136">
  <nd ref="13807348444"/>
  <nd ref="13807348447"/>
  <nd ref="13807348445"/>
  <nd ref="13807348446"/>
  <tag k="highway" v="service"/>
 </way>
 <way id="1510415243" visible="true" version="1" changeset="182362015" timestamp="2026-05-08T01:37:09Z" user="neo-plan" uid="363136">
  <nd ref="13807348444"/>
  <nd ref="10870989661"/>
  <tag k="highway" v="service"/>
 </way>
 <way id="1510415244" visible="true" version="1" changeset="182362015" timestamp="2026-05-08T01:37:09Z" user="neo-plan" uid="363136">
  <nd ref="13807348448"/>
  <nd ref="13807348449"/>
  <nd ref="13807348450"/>
  <tag k="access" v="destination"/>
  <tag k="highway" v="service"/>
 </way>
 <way id="1510415245" visible="true" version="1" changeset="182362015" timestamp="2026-05-08T01:37:09Z" user="neo-plan" uid="363136">
  <nd ref="13807348450"/>
  <nd ref="9047487813"/>
  <nd ref="10573311451"/>
  <nd ref="12895913018"/>
  <nd ref="10814451821"/>
  <nd ref="10573311459"/>
  <nd ref="10814451822"/>
  <tag k="highway" v="residential"/>
  <tag k="lanes" v="4"/>
  <tag k="name" v="Проектируемый проезд № 287"/>
  <tag k="name:uk" v="Проектований проїзд № 287"/>
  <tag k="surface" v="asphalt"/>
 </way>
 <way id="1510415503" visible="true" version="2" changeset="182362445" timestamp="2026-05-08T02:02:37Z" user="neo-plan" uid="363136">
  <nd ref="9215674732"/>
  <nd ref="13807379383"/>
  <nd ref="13807352216"/>
  <nd ref="13807352218"/>
  <nd ref="13807352217"/>
  <nd ref="9215674733"/>
  <nd ref="9215674732"/>
  <tag k="amenity" v="parking"/>
  <tag k="surface" v="asphalt"/>
 </way>
 <way id="1510415504" visible="true" version="1" changeset="182362062" timestamp="2026-05-08T01:40:26Z" user="neo-plan" uid="363136">
  <nd ref="13807348446"/>
  <nd ref="13807352221"/>
  <nd ref="13807352223"/>
  <nd ref="13807352222"/>
  <tag k="highway" v="service"/>
 </way>
 <relation id="2780451" visible="true" version="15" changeset="156302251" timestamp="2024-09-07T08:01:55Z" user="Bobropiton" uid="2055718">
  <member type="relation" ref="15821450" role=""/>
  <member type="relation" ref="2780449" role=""/>
  <member type="relation" ref="2780450" role=""/>
  <tag k="bus_class:length" v="4"/>
  <tag k="colour" v="#ff9ad2"/>
  <tag k="name" v="Автобус 849: 9-й микрорайон Кожухова &lt;=&gt; Некрасовская улица"/>
  <tag k="network" v="Московский транспорт"/>
  <tag k="operator" v="ГУП «Мосгортранс»"/>
  <tag k="ref" v="849"/>
  <tag k="route_master" v="bus"/>
  <tag k="source" v="Реестр смежных маршрутов города Москвы"/>
  <tag k="type" v="route_master"/>
  <tag k="website" v="https://transport.mos.ru/transport/schedule/route/277"/>
 </relation>
 <relation id="13392994" visible="true" version="2" changeset="167332049" timestamp="2025-06-08T00:54:06Z" user="neo-plan" uid="363136">
  <member type="way" ref="998090717" role="outer"/>
  <member type="way" ref="998090718" role="outer"/>
  <member type="way" ref="998090719" role="outer"/>
  <tag k="barrier" v="fence"/>
  <tag k="landuse" v="industrial"/>
  <tag k="type" v="multipolygon"/>
 </relation>
 <relation id="13392995" visible="true" version="1" changeset="113221458" timestamp="2021-11-01T07:46:49Z" user="literan" uid="830106">
  <member type="way" ref="998090723" role="outer"/>
  <member type="way" ref="286483677" role="outer"/>
  <member type="way" ref="998090717" role="outer"/>
  <tag k="landuse" v="industrial"/>
  <tag k="type" v="multipolygon"/>
 </relation>
 <relation id="15677441" visible="true" version="3" changeset="149464705" timestamp="2024-04-02T06:55:46Z" user="literan" uid="830106">
  <member type="way" ref="355749709" role="outer"/>
  <tag k="natural" v="wood"/>
  <tag k="type" v="multipolygon"/>
 </relation>
 <relation id="15727148" visible="true" version="50" changeset="187736475" timestamp="2026-08-20T10:56:33Z" user="neo-plan" uid="363136">
  <member type="node" ref="10814451822" role="stop"/>
  <member type="node" ref="10573311458" role="platform"/>
  <member type="node" ref="11380306708" role="stop"/>
  <member type="node" ref="10563286644" role="platform"/>
  <member type="node" ref="14077536895" role="stop"/>
  <member type="node" ref="13904626607" role="platform"/>
  <member type="node" ref="10814451819" role="stop"/>
  <member type="node" ref="10573303910" role="platform"/>
  <member type="node" ref="10814451820" role="stop"/>
  <member type="node" ref="10563258222" role="platform"/>
  <member type="node" ref="12161478787" role="stop"/>
  <member type="node" ref="10573311447" role="platform"/>
  <member type="node" ref="11978053366" role="stop"/>
  <member type="node" ref="10573313266" role="platform"/>
  <member type="node" ref="10735352431" role="stop"/>
  <member type="node" ref="1255373195" role="platform"/>
  <member type="node" ref="10735352433" role="stop_exit_only"/>
  <member type="node" ref="6541061125" role="platform_exit_only"/>
  <member type="way" ref="1162797412" role=""/>
  <member type="way" ref="1159409038" role=""/>
  <member type="way" ref="1159538182" role=""/>
  <member type="way" ref="1510413024" role=""/>
  <member type="way" ref="1551030818" role=""/>
  <member type="way" ref="1551030819" role=""/>
  <member type="way" ref="1159259602" role=""/>
  <member type="way" ref="857090757" role=""/>
  <member type="way" ref="1162797411" role=""/>
  <member type="way" ref="857090730" role=""/>
  <member type="way" ref="1134113116" role=""/>
  <member type="way" ref="1162797410" role=""/>
  <member type="way" ref="977798840" role=""/>
  <member type="way" ref="1149706850" role=""/>
  <member type="way" ref="1134114560" role=""/>
  <member type="way" ref="1134114561" role=""/>
  <member type="way" ref="977798841" role=""/>
  <member type="way" ref="857090755" role=""/>
  <member type="way" ref="857090753" role=""/>
  <member type="way" ref="857090739" role=""/>
  <member type="way" ref="857090750" role=""/>
  <member type="way" ref="857090749" role=""/>
  <member type="way" ref="1132932573" role=""/>
  <member type="way" ref="857090748" role=""/>
  <member type="way" ref="1133079700" role=""/>
  <member type="way" ref="1132935705" role=""/>
  <member type="way" ref="180725020" role=""/>
  <member type="way" ref="180725014" role=""/>
  <member type="way" ref="494225050" role=""/>
  <member type="way" ref="494225059" role=""/>
  <member type="way" ref="818470130" role=""/>
  <member type="way" ref="843632466" role=""/>
  <member type="way" ref="818470132" role=""/>
  <member type="way" ref="694497813" role=""/>
  <member type="way" ref="1255917002" role=""/>
  <member type="way" ref="1335183297" role=""/>
  <member type="way" ref="1333575381" role=""/>
  <member type="way" ref="1500887544" role=""/>
  <member type="way" ref="1500887543" role=""/>
  <tag k="air_conditioning" v="yes"/>
  <tag k="bicycle" v="yes"/>
  <tag k="blind" v="limited"/>
  <tag k="bus_class:length" v="4"/>
  <tag k="charge:all-in-one" v="90 RUB"/>
  <tag k="charge:cards" v="83 RUB"/>
  <tag k="charge:sbp" v="83 RUB"/>
  <tag k="charge:troika" v="75 RUB"/>
  <tag k="charge:troika_qr" v="75 RUB"/>
  <tag k="check_date" v="2026-04-19"/>
  <tag k="colour" v="#c2e6ff"/>
  <tag k="deaf" v="yes"/>
  <tag k="description" v="Маршрут обслуживается электробусами"/>
  <tag k="electric_bus" v="yes"/>
  <tag k="electric_bus:type" v="OC"/>
  <tag k="fee" v="yes"/>
  <tag k="fine:ticketless" v="5000 RUB"/>
  <tag k="from" v="Индустриальный парк «Руднёво»"/>
  <tag k="name" v="Автобус 663: Индустриальный парк «Руднёво» =&gt; Метро «Лухмановская»"/>
  <tag k="name:uk" v="Автобус 663: Індустріальний парк «Руднево» =&gt; Метро «Лухманівська»"/>
  <tag k="network" v="Московский транспорт"/>
  <tag k="operator" v="ГУП «Мосгортранс»"/>
  <tag k="payment:cards" v="yes"/>
  <tag k="payment:cash" v="no"/>
  <tag k="payment:contactless" v="yes"/>
  <tag k="payment:maestro" v="no"/>
  <tag k="payment:mastercard" v="no"/>
  <tag k="payment:mir" v="yes"/>
  <tag k="payment:nfc" v="yes"/>
  <tag k="payment:podorozhnik" v="no"/>
  <tag k="payment:sbp" v="yes"/>
  <tag k="payment:social_cards" v="yes"/>
  <tag k="payment:strelka" v="no"/>
  <tag k="payment:troika" v="yes"/>
  <tag k="payment:visa" v="no"/>
  <tag k="public_transport:version" v="2"/>
  <tag k="ref" v="663"/>
  <tag k="route" v="bus"/>
  <tag k="source" v="Реестр маршрутов города Москвы"/>
  <tag k="source:description" v="https://mosgortrans.ru/electrobus/map/"/>
  <tag k="to" v="Метро «Лухмановская»"/>
  <tag k="type" v="route"/>
  <tag k="website" v="https://transport.mos.ru/transport/schedule/route/141509739"/>
  <tag k="wheelchair" v="yes"/>
 </relation>
 <relation id="15727149" visible="true" version="49" changeset="182362015" timestamp="2026-05-08T01:37:09Z" user="neo-plan" uid="363136">
  <member type="node" ref="10735352432" role="stop_entry_only"/>
  <member type="node" ref="6403977136" role="platform_entry_only"/>
  <member type="node" ref="11181479830" role="stop"/>
  <member type="node" ref="6520748842" role="platform"/>
  <member type="node" ref="11978053367" role="stop"/>
  <member type="node" ref="10573313268" role="platform"/>
  <member type="node" ref="12161478788" role="stop"/>
  <member type="node" ref="10573311448" role="platform"/>
  <member type="node" ref="10814451823" role="stop"/>
  <member type="node" ref="10573311449" role="platform"/>
  <member type="node" ref="10814451822" role="stop"/>
  <member type="node" ref="10573311458" role="platform"/>
  <member type="way" ref="1500887544" role=""/>
  <member type="way" ref="1333575369" role=""/>
  <member type="way" ref="1334006022" role=""/>
  <member type="way" ref="1333572830" role=""/>
  <member type="way" ref="1333572827" role=""/>
  <member type="way" ref="1206254985" role=""/>
  <member type="way" ref="1206254986" role=""/>
  <member type="way" ref="1206254983" role=""/>
  <member type="way" ref="883254853" role=""/>
  <member type="way" ref="1206254982" role=""/>
  <member type="way" ref="883254852" role=""/>
  <member type="way" ref="883254850" role=""/>
  <member type="way" ref="883254849" role=""/>
  <member type="way" ref="857090743" role=""/>
  <member type="way" ref="857090760" role=""/>
  <member type="way" ref="1149710708" role=""/>
  <member type="way" ref="857090759" role=""/>
  <member type="way" ref="857090740" role=""/>
  <member type="way" ref="857090764" role=""/>
  <member type="way" ref="857090755" role=""/>
  <member type="way" ref="977798841" role=""/>
  <member type="way" ref="1134114561" role=""/>
  <member type="way" ref="1134114560" role=""/>
  <member type="way" ref="1149706850" role=""/>
  <member type="way" ref="1162797409" role=""/>
  <member type="way" ref="1510415245" role=""/>
  <tag k="air_conditioning" v="yes"/>
  <tag k="bicycle" v="yes"/>
  <tag k="blind" v="limited"/>
  <tag k="bus_class:length" v="4"/>
  <tag k="charge:all-in-one" v="90 RUB"/>
  <tag k="charge:cards" v="83 RUB"/>
  <tag k="charge:sbp" v="83 RUB"/>
  <tag k="charge:troika" v="75 RUB"/>
  <tag k="charge:troika_qr" v="75 RUB"/>
  <tag k="check_date" v="2026-04-19"/>
  <tag k="colour" v="#c2e6ff"/>
  <tag k="deaf" v="yes"/>
  <tag k="description" v="Маршрут обслуживается электробусами"/>
  <tag k="electric_bus" v="yes"/>
  <tag k="electric_bus:type" v="OC"/>
  <tag k="fee" v="yes"/>
  <tag k="fine:ticketless" v="5000 RUB"/>
  <tag k="from" v="Метро «Лухмановская»"/>
  <tag k="name" v="Автобус 663: Метро «Лухмановская» =&gt; Индустриальный парк «Руднёво»"/>
  <tag k="name:uk" v="Автобус 663: Метро «Лухманівська» =&gt; Індустріальний парк «Руднево»"/>
  <tag k="network" v="Московский транспорт"/>
  <tag k="operator" v="ГУП «Мосгортранс»"/>
  <tag k="payment:cards" v="yes"/>
  <tag k="payment:cash" v="no"/>
  <tag k="payment:contactless" v="yes"/>
  <tag k="payment:maestro" v="no"/>
  <tag k="payment:mastercard" v="no"/>
  <tag k="payment:mir" v="yes"/>
  <tag k="payment:nfc" v="yes"/>
  <tag k="payment:podorozhnik" v="no"/>
  <tag k="payment:sbp" v="yes"/>
  <tag k="payment:social_cards" v="yes"/>
  <tag k="payment:strelka" v="no"/>
  <tag k="payment:troika" v="yes"/>
  <tag k="payment:visa" v="no"/>
  <tag k="public_transport:version" v="2"/>
  <tag k="ref" v="663"/>
  <tag k="route" v="bus"/>
  <tag k="source" v="Реестр маршрутов города Москвы"/>
  <tag k="source:description" v="https://mosgortrans.ru/electrobus/map/"/>
  <tag k="to" v="Индустриальный парк «Руднёво»"/>
  <tag k="type" v="route"/>
  <tag k="website" v="https://transport.mos.ru/transport/schedule/route/141509739"/>
  <tag k="wheelchair" v="yes"/>
 </relation>
 <relation id="15727152" visible="true" version="1" changeset="134940221" timestamp="2023-04-15T13:23:07Z" user="Bobropiton" uid="2055718">
  <member type="node" ref="10814451821" role="stop"/>
  <member type="node" ref="10573311457" role="platform"/>
  <tag k="name" v="Индустриальный парк «Руднёво»"/>
  <tag k="public_transport" v="stop_area"/>
  <tag k="type" v="public_transport"/>
 </relation>
 <relation id="15727153" visible="true" version="1" changeset="134940221" timestamp="2023-04-15T13:23:07Z" user="Bobropiton" uid="2055718">
  <member type="node" ref="10814451822" role="stop"/>
  <member type="node" ref="10573311458" role="platform"/>
  <tag k="name" v="Индустриальный парк «Руднёво»"/>
  <tag k="public_transport" v="stop_area"/>
  <tag k="type" v="public_transport"/>
 </relation>
 <relation id="15727154" visible="true" version="1" changeset="134940221" timestamp="2023-04-15T13:23:07Z" user="Bobropiton" uid="2055718">
  <member type="node" ref="10814451823" role="stop"/>
  <member type="node" ref="10573311449" role="platform"/>
  <tag k="name" v="Проектируемый проезд № 265"/>
  <tag k="public_transport" v="stop_area"/>
  <tag k="type" v="public_transport"/>
 </relation>
 <relation id="15727155" visible="true" version="4" changeset="181536745" timestamp="2026-04-19T12:53:34Z" user="Bobropiton" uid="2055718">
  <member type="relation" ref="15727148" role=""/>
  <member type="relation" ref="15727149" role=""/>
  <tag k="bus_class:length" v="4"/>
  <tag k="colour" v="#c2e6ff"/>
  <tag k="name" v="Автобус 663: Метро «Лухмановская» &lt;=&gt; Индустриальный парк «Руднёво»"/>
  <tag k="network" v="Московский транспорт"/>
  <tag k="operator" v="ГУП «Мосгортранс»"/>
  <tag k="ref" v="663"/>
  <tag k="route_master" v="bus"/>
  <tag k="source" v="Реестр маршрутов города Москвы"/>
  <tag k="type" v="route_master"/>
  <tag k="website" v="https://transport.mos.ru/transport/schedule/route/141509739"/>
 </relation>
 <relation id="15821450" visible="true" version="63" changeset="187736475" timestamp="2026-08-20T10:56:33Z" user="neo-plan" uid="363136">
  <member type="node" ref="10814451822" role="stop"/>
  <member type="node" ref="10573311458" role="platform"/>
  <member type="node" ref="11380306708" role="stop"/>
  <member type="node" ref="10563286644" role="platform"/>
  <member type="node" ref="14077536895" role="stop"/>
  <member type="node" ref="13904626607" role="platform"/>
  <member type="node" ref="10814451819" role="stop"/>
  <member type="node" ref="10573303910" role="platform"/>
  <member type="node" ref="10814451820" role="stop"/>
  <member type="node" ref="10563258222" role="platform"/>
  <member type="node" ref="12161478787" role="stop"/>
  <member type="node" ref="10573311447" role="platform"/>
  <member type="node" ref="11978053366" role="stop"/>
  <member type="node" ref="10573313266" role="platform"/>
  <member type="node" ref="10735807111" role="stop"/>
  <member type="node" ref="1918464023" role="platform"/>
  <member type="node" ref="10735807113" role="stop"/>
  <member type="node" ref="1918464002" role="platform"/>
  <member type="node" ref="10735807119" role="stop"/>
  <member type="node" ref="2480037448" role="platform"/>
  <member type="node" ref="10731765316" role="stop_exit_only"/>
  <member type="node" ref="677022202" role="platform_exit_only"/>
  <member type="way" ref="1162797412" role=""/>
  <member type="way" ref="1159409038" role=""/>
  <member type="way" ref="1159538182" role=""/>
  <member type="way" ref="1510413024" role=""/>
  <member type="way" ref="1551030818" role=""/>
  <member type="way" ref="1551030819" role=""/>
  <member type="way" ref="1159259602" role=""/>
  <member type="way" ref="857090757" role=""/>
  <member type="way" ref="1162797411" role=""/>
  <member type="way" ref="857090730" role=""/>
  <member type="way" ref="1134113116" role=""/>
  <member type="way" ref="1162797410" role=""/>
  <member type="way" ref="977798840" role=""/>
  <member type="way" ref="1149706850" role=""/>
  <member type="way" ref="1134114560" role=""/>
  <member type="way" ref="1134114561" role=""/>
  <member type="way" ref="977798841" role=""/>
  <member type="way" ref="857090755" role=""/>
  <member type="way" ref="857090753" role=""/>
  <member type="way" ref="857090739" role=""/>
  <member type="way" ref="857090750" role=""/>
  <member type="way" ref="857090749" role=""/>
  <member type="way" ref="1132932573" role=""/>
  <member type="way" ref="857090748" role=""/>
  <member type="way" ref="1133079700" role=""/>
  <member type="way" ref="1132935705" role=""/>
  <member type="way" ref="180725020" role=""/>
  <member type="way" ref="331559786" role=""/>
  <member type="way" ref="109731297" role=""/>
  <member type="way" ref="1195035855" role=""/>
  <member type="way" ref="210278821" role=""/>
  <member type="way" ref="206826812" role=""/>
  <member type="way" ref="210278820" role=""/>
  <member type="way" ref="206837077" role=""/>
  <member type="way" ref="372458540" role=""/>
  <member type="way" ref="139694813" role=""/>
  <member type="way" ref="1272487144" role=""/>
  <member type="way" ref="970934045" role=""/>
  <member type="way" ref="546090885" role=""/>
  <member type="way" ref="140294190" role=""/>
  <member type="way" ref="1459855474" role=""/>
  <member type="way" ref="456244818" role=""/>
  <member type="way" ref="249518968" role=""/>
  <member type="way" ref="363284483" role=""/>
  <member type="way" ref="363289353" role=""/>
  <member type="way" ref="363283577" role=""/>
  <member type="way" ref="1546197071" role=""/>
  <member type="way" ref="50249590" role=""/>
  <member type="way" ref="47066708" role=""/>
  <member type="way" ref="206837070" role=""/>
  <member type="way" ref="253142122" role=""/>
  <member type="way" ref="533052220" role=""/>
  <member type="way" ref="1228716782" role=""/>
  <member type="way" ref="1357068350" role=""/>
  <tag k="air_conditioning" v="yes"/>
  <tag k="bicycle" v="yes"/>
  <tag k="blind" v="limited"/>
  <tag k="bus_class:length" v="4"/>
  <tag k="charge:all-in-one" v="90 RUB"/>
  <tag k="charge:cards" v="83 RUB"/>
  <tag k="charge:sbp" v="83 RUB"/>
  <tag k="charge:troika" v="75 RUB"/>
  <tag k="charge:troika_qr" v="75 RUB"/>
  <tag k="check_date" v="2023-05-07"/>
  <tag k="colour" v="#ff9ad2"/>
  <tag k="deaf" v="yes"/>
  <tag k="fee" v="yes"/>
  <tag k="fine:ticketless" v="5000 RUB"/>
  <tag k="from" v="Индустриальный парк «Руднёво»"/>
  <tag k="name" v="Автобус 849р: Индустриальный парк «Руднёво» =&gt; МЦД Люберцы"/>
  <tag k="network" v="Московский транспорт"/>
  <tag k="operator" v="ГУП «Мосгортранс»"/>
  <tag k="payment:cards" v="yes"/>
  <tag k="payment:cash" v="no"/>
  <tag k="payment:contactless" v="yes"/>
  <tag k="payment:maestro" v="no"/>
  <tag k="payment:mastercard" v="no"/>
  <tag k="payment:mir" v="yes"/>
  <tag k="payment:nfc" v="yes"/>
  <tag k="payment:podorozhnik" v="no"/>
  <tag k="payment:sbp" v="yes"/>
  <tag k="payment:social_cards" v="yes"/>
  <tag k="payment:strelka" v="no"/>
  <tag k="payment:troika" v="yes"/>
  <tag k="payment:visa" v="no"/>
  <tag k="public_transport:version" v="2"/>
  <tag k="ref" v="849р"/>
  <tag k="route" v="bus"/>
  <tag k="source" v="Реестр смежных маршрутов города Москвы"/>
  <tag k="to" v="МЦД Люберцы"/>
  <tag k="type" v="route"/>
  <tag k="website" v="https://transport.mos.ru/transport/schedule/route/141503748"/>
  <tag k="wheelchair" v="yes"/>
 </relation>
 <relation id="17712611" visible="true" version="8" changeset="186684526" timestamp="2026-07-31T04:33:15Z" user="Fujisamhei" uid="23587068">
  <member type="node" ref="10731765317" role="stop_entry_only"/>
  <member type="node" ref="673425615" role="platform_entry_only"/>
  <member type="node" ref="10735807115" role="stop"/>
  <member type="node" ref="10735807118" role="platform"/>
  <member type="node" ref="10735807114" role="stop"/>
  <member type="node" ref="1918464009" role="platform"/>
  <member type="node" ref="10735807112" role="stop"/>
  <member type="node" ref="1911821025" role="platform"/>
  <member type="node" ref="11978053367" role="stop"/>
  <member type="node" ref="10573313268" role="platform"/>
  <member type="node" ref="12161478788" role="stop"/>
  <member type="node" ref="10573311448" role="platform"/>
  <member type="node" ref="10814451823" role="stop"/>
  <member type="node" ref="10573311449" role="platform"/>
  <member type="node" ref="10814451822" role="stop"/>
  <member type="node" ref="10573311458" role="platform"/>
  <member type="way" ref="1228716783" role=""/>
  <member type="way" ref="533052220" role=""/>
  <member type="way" ref="253142122" role=""/>
  <member type="way" ref="206837070" role=""/>
  <member type="way" ref="1546197072" role=""/>
  <member type="way" ref="363283576" role=""/>
  <member type="way" ref="449081120" role=""/>
  <member type="way" ref="174091639" role=""/>
  <member type="way" ref="197052289" role=""/>
  <member type="way" ref="249518967" role=""/>
  <member type="way" ref="456242494" role=""/>
  <member type="way" ref="473295527" role=""/>
  <member type="way" ref="192432445" role=""/>
  <member type="way" ref="970934046" role=""/>
  <member type="way" ref="546090884" role=""/>
  <member type="way" ref="150888893" role=""/>
  <member type="way" ref="1272487143" role=""/>
  <member type="way" ref="180725055" role=""/>
  <member type="way" ref="372458541" role=""/>
  <member type="way" ref="1188420206" role=""/>
  <member type="way" ref="206837074" role=""/>
  <member type="way" ref="1188420203" role=""/>
  <member type="way" ref="1188420205" role=""/>
  <member type="way" ref="206826814" role=""/>
  <member type="way" ref="551402860" role=""/>
  <member type="way" ref="965708927" role=""/>
  <member type="way" ref="499629691" role=""/>
  <member type="way" ref="143006476" role=""/>
  <member type="way" ref="331559785" role=""/>
  <member type="way" ref="857090765" role=""/>
  <member type="way" ref="857090741" role=""/>
  <member type="way" ref="857090754" role=""/>
  <member type="way" ref="857090740" role=""/>
  <member type="way" ref="857090764" role=""/>
  <member type="way" ref="857090755" role=""/>
  <member type="way" ref="977798841" role=""/>
  <member type="way" ref="1134114561" role=""/>
  <member type="way" ref="1134114560" role=""/>
  <member type="way" ref="1149706850" role=""/>
  <member type="way" ref="1162797409" role=""/>
  <member type="way" ref="1510415245" role=""/>
  <tag k="air_conditioning" v="yes"/>
  <tag k="bicycle" v="yes"/>
  <tag k="blind" v="limited"/>
  <tag k="bus_class:length" v="4"/>
  <tag k="charge:all-in-one" v="90 RUB"/>
  <tag k="charge:cards" v="83 RUB"/>
  <tag k="charge:sbp" v="83 RUB"/>
  <tag k="charge:troika" v="75 RUB"/>
  <tag k="charge:troika_qr" v="75 RUB"/>
  <tag k="check_date" v="2023-05-07"/>
  <tag k="colour" v="#ff9ad2"/>
  <tag k="deaf" v="yes"/>
  <tag k="fee" v="yes"/>
  <tag k="fine:ticketless" v="5000 RUB"/>
  <tag k="from" v="МЦД Люберцы"/>
  <tag k="name" v="Автобус 849р: МЦД Люберцы =&gt; Индустриальный парк «Руднёво»"/>
  <tag k="network" v="Московский транспорт"/>
  <tag k="operator" v="ГУП «Мосгортранс»"/>
  <tag k="payment:cards" v="yes"/>
  <tag k="payment:cash" v="no"/>
  <tag k="payment:contactless" v="yes"/>
  <tag k="payment:maestro" v="no"/>
  <tag k="payment:mastercard" v="no"/>
  <tag k="payment:mir" v="yes"/>
  <tag k="payment:nfc" v="yes"/>
  <tag k="payment:podorozhnik" v="no"/>
  <tag k="payment:sbp" v="yes"/>
  <tag k="payment:social_cards" v="yes"/>
  <tag k="payment:strelka" v="no"/>
  <tag k="payment:troika" v="yes"/>
  <tag k="payment:visa" v="no"/>
  <tag k="public_transport:version" v="2"/>
  <tag k="ref" v="849р"/>
  <tag k="route" v="bus"/>
  <tag k="source" v="Реестр смежных маршрутов города Москвы"/>
  <tag k="to" v="Индустриальный парк «Руднёво»"/>
  <tag k="type" v="route"/>
  <tag k="website" v="https://transport.mos.ru/transport/schedule/route/141503748"/>
  <tag k="wheelchair" v="yes"/>
 </relation>
 <relation id="20658588" visible="true" version="1" changeset="182362015" timestamp="2026-05-08T01:37:09Z" user="neo-plan" uid="363136">
  <member type="way" ref="1510415244" role="from"/>
  <member type="node" ref="13807348450" role="via"/>
  <member type="way" ref="1510415245" role="to"/>
  <tag k="restriction" v="only_right_turn"/>
  <tag k="type" v="restriction"/>
 </relation>
 <relation id="20658591" visible="true" version="1" changeset="182362062" timestamp="2026-05-08T01:40:26Z" user="neo-plan" uid="363136">
  <member type="way" ref="1510415245" role="from"/>
  <member type="node" ref="13807348450" role="via"/>
  <member type="way" ref="1162797409" role="to"/>
  <tag k="restriction" v="only_straight_on"/>
  <tag k="type" v="restriction"/>
 </relation>
</osm>
