<?xml version="1.0" encoding="UTF-8"?>
<osm version="0.6" generator="openstreetmap-cgimap 2.1.0 (244692 spike-07.openstreetmap.org)" copyright="OpenStreetMap and contributors" attribution="http://www.openstreetmap.org/copyright" license="http://opendatacommons.org/licenses/odbl/1-0/">
 <bounds minlat="55.5885595" minlon="37.5081271" maxlat="55.5912544" maxlon="37.5128960"/>
 <node id="664908037" visible="true" version="1" changeset="4110955" timestamp="2010-03-13T00:21:48Z" user="gps-Max" uid="200618" lat="55.5816752" lon="37.5096805"/>
 <node id="664908038" visible="true" version="1" changeset="4110955" timestamp="2010-03-13T00:21:48Z" user="gps-Max" uid="200618" lat="55.5822470" lon="37.5099791"/>
 <node id="664908081" visible="true" version="1" changeset="4110955" timestamp="2010-03-13T00:21:49Z" user="gps-Max" uid="200618" lat="55.5857309" lon="37.5104760"/>
 <node id="664908084" visible="true" version="1" changeset="4110955" timestamp="2010-03-13T00:21:49Z" user="gps-Max" uid="200618" lat="55.5897697" lon="37.5125582"/>
 <node id="664908085" visible="true" version="2" changeset="14634714" timestamp="2013-01-13T14:01:03Z" user="Torx" uid="131244" lat="55.5881898" lon="37.5108977"/>
 <node id="664908086" visible="true" version="1" changeset="4110955" timestamp="2010-03-13T00:21:49Z" user="gps-Max" uid="200618" lat="55.5884816" lon="37.5110391"/>
 <node id="664908088" visible="true" version="1" changeset="4110955" timestamp="2010-03-13T00:21:49Z" user="gps-Max" uid="200618" lat="55.5886938" lon="37.5112124"/>
 <node id="664908121" visible="true" version="1" changeset="4110955" timestamp="2010-03-13T00:21:49Z" user="gps-Max" uid="200618" lat="55.5902536" lon="37.5148573"/>
 <node id="664908127" visible="true" version="1" changeset="4110955" timestamp="2010-03-13T00:21:50Z" user="gps-Max" uid="200618" lat="55.5901329" lon="37.5144656"/>
 <node id="664949425" visible="true" version="2" changeset="163066869" timestamp="2025-02-28T19:38:51Z" user="ad47" uid="696711" lat="55.5906401" lon="37.5113486"/>
 <node id="664949429" visible="true" version="1" changeset="4111140" timestamp="2010-03-13T01:08:46Z" user="gps-Max" uid="200618" lat="55.5903618" lon="37.5118594"/>
 <node id="664949436" visible="true" version="1" changeset="4111140" timestamp="2010-03-13T01:08:46Z" user="gps-Max" uid="200618" lat="55.5906783" lon="37.5087842"/>
 <node id="664949488" visible="true" version="1" changeset="4111140" timestamp="2010-03-13T01:08:47Z" user="gps-Max" uid="200618" lat="55.5911740" lon="37.5069334"/>
 <node id="664949489" visible="true" version="1" changeset="4111140" timestamp="2010-03-13T01:08:47Z" user="gps-Max" uid="200618" lat="55.5929119" lon="37.5071629"/>
 <node id="664949491" visible="true" version="1" changeset="4111140" timestamp="2010-03-13T01:08:47Z" user="gps-Max" uid="200618" lat="55.5927914" lon="37.5067859"/>
 <node id="664949492" visible="true" version="1" changeset="4111140" timestamp="2010-03-13T01:08:47Z" user="gps-Max" uid="200618" lat="55.5934307" lon="37.5048336"/>
 <node id="664949493" visible="true" version="1" changeset="4111140" timestamp="2010-03-13T01:08:48Z" user="gps-Max" uid="200618" lat="55.5938259" lon="37.5044355"/>
 <node id="664949495" visible="true" version="1" changeset="4111140" timestamp="2010-03-13T01:08:48Z" user="gps-Max" uid="200618" lat="55.5939149" lon="37.5041784"/>
 <node id="664949496" visible="true" version="1" changeset="4111140" timestamp="2010-03-13T01:08:48Z" user="gps-Max" uid="200618" lat="55.5937913" lon="37.5036666"/>
 <node id="664949498" visible="true" version="1" changeset="4111140" timestamp="2010-03-13T01:08:48Z" user="gps-Max" uid="200618" lat="55.5937085" lon="37.5030473"/>
 <node id="664949504" visible="true" version="1" changeset="4111140" timestamp="2010-03-13T01:08:48Z" user="gps-Max" uid="200618" lat="55.5939441" lon="37.5024601"/>
 <node id="664949505" visible="true" version="2" changeset="163066869" timestamp="2025-02-28T19:38:51Z" user="ad47" uid="696711" lat="55.5942764" lon="37.5035704"/>
 <node id="664949507" visible="true" version="2" changeset="163066869" timestamp="2025-02-28T19:38:51Z" user="ad47" uid="696711" lat="55.5944668" lon="37.5038196"/>
 <node id="664949508" visible="true" version="1" changeset="4111140" timestamp="2010-03-13T01:08:48Z" user="gps-Max" uid="200618" lat="55.5945197" lon="37.5039474"/>
 <node id="664949510" visible="true" version="1" changeset="4111140" timestamp="2010-03-13T01:08:48Z" user="gps-Max" uid="200618" lat="55.5946627" lon="37.5044303"/>
 <node id="664949513" visible="true" version="1" changeset="4111140" timestamp="2010-03-13T01:08:48Z" user="gps-Max" uid="200618" lat="55.5935955" lon="37.5048030"/>
 <node id="664949514" visible="true" version="1" changeset="4111140" timestamp="2010-03-13T01:08:48Z" user="gps-Max" uid="200618" lat="55.5940125" lon="37.5055884"/>
 <node id="664949516" visible="true" version="1" changeset="4111140" timestamp="2010-03-13T01:08:48Z" user="gps-Max" uid="200618" lat="55.5942962" lon="37.5054375"/>
 <node id="664949519" visible="true" version="1" changeset="4111140" timestamp="2010-03-13T01:08:48Z" user="gps-Max" uid="200618" lat="55.5952030" lon="37.5053442"/>
 <node id="664949536" visible="true" version="1" changeset="4111140" timestamp="2010-03-13T01:08:49Z" user="gps-Max" uid="200618" lat="55.5910224" lon="37.5096353"/>
 <node id="664949537" visible="true" version="1" changeset="4111140" timestamp="2010-03-13T01:08:49Z" user="gps-Max" uid="200618" lat="55.5926152" lon="37.5084702"/>
 <node id="664949539" visible="true" version="1" changeset="4111140" timestamp="2010-03-13T01:08:49Z" user="gps-Max" uid="200618" lat="55.5929181" lon="37.5081673"/>
 <node id="664949540" visible="true" version="1" changeset="4111140" timestamp="2010-03-13T01:08:49Z" user="gps-Max" uid="200618" lat="55.5928346" lon="37.5074782"/>
 <node id="664949541" visible="true" version="1" changeset="4111140" timestamp="2010-03-13T01:08:49Z" user="gps-Max" uid="200618" lat="55.5908255" lon="37.5103705"/>
 <node id="664949542" visible="true" version="1" changeset="4111140" timestamp="2010-03-13T01:08:49Z" user="gps-Max" uid="200618" lat="55.5913242" lon="37.5111021"/>
 <node id="664949543" visible="true" version="1" changeset="4111140" timestamp="2010-03-13T01:08:49Z" user="gps-Max" uid="200618" lat="55.5915113" lon="37.5116151"/>
 <node id="664949544" visible="true" version="1" changeset="4111140" timestamp="2010-03-13T01:08:49Z" user="gps-Max" uid="200618" lat="55.5915415" lon="37.5120437"/>
 <node id="664949545" visible="true" version="1" changeset="4111140" timestamp="2010-03-13T01:08:49Z" user="gps-Max" uid="200618" lat="55.5916924" lon="37.5119169"/>
 <node id="664949546" visible="true" version="1" changeset="4111140" timestamp="2010-03-13T01:08:49Z" user="gps-Max" uid="200618" lat="55.5916260" lon="37.5113375"/>
 <node id="664949547" visible="true" version="1" changeset="4111140" timestamp="2010-03-13T01:08:49Z" user="gps-Max" uid="200618" lat="55.5916260" lon="37.5108123"/>
 <node id="664949548" visible="true" version="1" changeset="4111140" timestamp="2010-03-13T01:08:49Z" user="gps-Max" uid="200618" lat="55.5910087" lon="37.5130670"/>
 <node id="1279196558" visible="true" version="2" changeset="9771080" timestamp="2011-11-08T07:32:54Z" user="iWowik" uid="481934" lat="55.5920083" lon="37.5194189"/>
 <node id="1279196566" visible="true" version="1" changeset="8102024" timestamp="2011-05-10T13:00:14Z" user="mikles" uid="448257" lat="55.5922185" lon="37.5242220"/>
 <node id="1279196576" visible="true" version="2" changeset="9771080" timestamp="2011-11-08T07:32:54Z" user="iWowik" uid="481934" lat="55.5924266" lon="37.5190863"/>
 <node id="1279196585" visible="true" version="2" changeset="32239292" timestamp="2015-06-27T09:12:07Z" user="LexIgnatov" uid="316868" lat="55.5890394" lon="37.5267223"/>
 <node id="1279196586" visible="true" version="2" changeset="9771080" timestamp="2011-11-08T07:32:54Z" user="iWowik" uid="481934" lat="55.5914263" lon="37.5184748"/>
 <node id="1279196589" visible="true" version="1" changeset="8102024" timestamp="2011-05-10T13:00:15Z" user="mikles" uid="448257" lat="55.5899571" lon="37.5274406"/>
 <node id="1279196597" visible="true" version="2" changeset="9771080" timestamp="2011-11-08T07:32:54Z" user="iWowik" uid="481934" lat="55.5928752" lon="37.5182441"/>
 <node id="1279196598" visible="true" version="2" changeset="9771080" timestamp="2011-11-08T07:32:54Z" user="iWowik" uid="481934" lat="55.5926812" lon="37.5185177"/>
 <node id="1279196599" visible="true" version="2" changeset="9771080" timestamp="2011-11-08T07:32:54Z" user="iWowik" uid="481934" lat="55.5921720" lon="37.5194618"/>
 <node id="1279196601" visible="true" version="2" changeset="9771080" timestamp="2011-11-08T07:32:54Z" user="iWowik" uid="481934" lat="55.5918082" lon="37.5192580"/>
 <node id="1279196603" visible="true" version="2" changeset="9771080" timestamp="2011-11-08T07:32:54Z" user="iWowik" uid="481934" lat="55.5923114" lon="37.5193545"/>
 <node id="1279196604" visible="true" version="2" changeset="9771080" timestamp="2011-11-08T07:32:54Z" user="iWowik" uid="481934" lat="55.5930990" lon="37.5186220"/>
 <node id="1279196606" visible="true" version="2" changeset="9771080" timestamp="2011-11-08T07:32:54Z" user="iWowik" uid="481934" lat="55.5927782" lon="37.5183299"/>
 <node id="1279196607" visible="true" version="4" changeset="153084806" timestamp="2024-06-23T20:32:31Z" user="ad47" uid="696711" lat="55.5890883" lon="37.5275653"/>
 <node id="1279196613" visible="true" version="1" changeset="8102024" timestamp="2011-05-10T13:00:16Z" user="mikles" uid="448257" lat="55.5928672" lon="37.5215398"/>
 <node id="1279196617" visible="true" version="2" changeset="9771080" timestamp="2011-11-08T07:32:54Z" user="iWowik" uid="481934" lat="55.5935295" lon="37.5188366"/>
 <node id="1279196618" visible="true" version="2" changeset="9771080" timestamp="2011-11-08T07:32:54Z" user="iWowik" uid="481934" lat="55.5931627" lon="37.5181982"/>
 <node id="1279196620" visible="true" version="2" changeset="175653466" timestamp="2025-12-08T08:31:11Z" user="literan" uid="830106" lat="55.5903693" lon="37.5130427"/>
 <node id="1279196622" visible="true" version="1" changeset="8102024" timestamp="2011-05-10T13:00:17Z" user="mikles" uid="448257" lat="55.5906058" lon="37.5268076"/>
 <node id="1279196624" visible="true" version="1" changeset="8102024" timestamp="2011-05-10T13:00:17Z" user="mikles" uid="448257" lat="55.5919700" lon="37.5253914"/>
 <node id="1279196629" visible="true" version="2" changeset="9771080" timestamp="2011-11-08T07:32:55Z" user="iWowik" uid="481934" lat="55.5930202" lon="37.5181178"/>
 <node id="1279196630" visible="true" version="1" changeset="8102024" timestamp="2011-05-10T13:00:17Z" user="mikles" uid="448257" lat="55.5911272" lon="37.5172268"/>
 <node id="1495125806" visible="true" version="1" changeset="9771080" timestamp="2011-11-08T07:32:38Z" user="iWowik" uid="481934" lat="55.5931285" lon="37.5184258">
  <tag k="barrier" v="gate"/>
 </node>
 <node id="1495125828" visible="true" version="1" changeset="9771080" timestamp="2011-11-08T07:32:39Z" user="iWowik" uid="481934" lat="55.5953944" lon="37.5051481"/>
 <node id="1587203150" visible="true" version="1" changeset="10370866" timestamp="2012-01-12T16:40:19Z" user="Urtchuk" uid="570066" lat="55.5781077" lon="37.5102275"/>
 <node id="1587203239" visible="true" version="1" changeset="10370866" timestamp="2012-01-12T16:40:26Z" user="Urtchuk" uid="570066" lat="55.5786629" lon="37.5102876"/>
 <node id="1587203321" visible="true" version="1" changeset="10370866" timestamp="2012-01-12T16:40:32Z" user="Urtchuk" uid="570066" lat="55.5792520" lon="37.5103077"/>
 <node id="1587203399" visible="true" version="1" changeset="10370866" timestamp="2012-01-12T16:40:38Z" user="Urtchuk" uid="570066" lat="55.5796486" lon="37.5099669"/>
 <node id="1587203560" visible="true" version="1" changeset="10370866" timestamp="2012-01-12T16:40:43Z" user="Urtchuk" uid="570066" lat="55.5802037" lon="37.5095059"/>
 <node id="1587203662" visible="true" version="1" changeset="10370866" timestamp="2012-01-12T16:40:47Z" user="Urtchuk" uid="570066" lat="55.5806569" lon="37.5093456"/>
 <node id="1587203728" visible="true" version="1" changeset="10370866" timestamp="2012-01-12T16:40:49Z" user="Urtchuk" uid="570066" lat="55.5807780" lon="37.5093734"/>
 <node id="1587203905" visible="true" version="1" changeset="10370866" timestamp="2012-01-12T16:40:53Z" user="Urtchuk" uid="570066" lat="55.5812687" lon="37.5094859"/>
 <node id="1838774121" visible="true" version="2" changeset="161499401" timestamp="2025-01-18T17:16:57Z" user="Urtchuk" uid="570066" lat="55.5948169" lon="37.5056150"/>
 <node id="2108731854" visible="true" version="1" changeset="14633400" timestamp="2013-01-13T12:09:31Z" user="Torx" uid="131244" lat="55.5753254" lon="37.5184948"/>
 <node id="2108731855" visible="true" version="1" changeset="14633400" timestamp="2013-01-13T12:09:31Z" user="Torx" uid="131244" lat="55.5753419" lon="37.5187053"/>
 <node id="2108731856" visible="true" version="1" changeset="14633400" timestamp="2013-01-13T12:09:31Z" user="Torx" uid="131244" lat="55.5753446" lon="37.5182228"/>
 <node id="2108731861" visible="true" version="1" changeset="14633400" timestamp="2013-01-13T12:09:31Z" user="Torx" uid="131244" lat="55.5753821" lon="37.5188997"/>
 <node id="2108731864" visible="true" version="1" changeset="14633400" timestamp="2013-01-13T12:09:31Z" user="Torx" uid="131244" lat="55.5753885" lon="37.5180236"/>
 <node id="2108731874" visible="true" version="3" changeset="98127290" timestamp="2021-01-25T13:59:54Z" user="SerPo" uid="2222034" lat="55.5753838" lon="37.5189324"/>
 <node id="2108731875" visible="true" version="1" changeset="14633400" timestamp="2013-01-13T12:09:32Z" user="Torx" uid="131244" lat="55.5754920" lon="37.5177467"/>
 <node id="2108731876" visible="true" version="1" changeset="14633400" timestamp="2013-01-13T12:09:32Z" user="Torx" uid="131244" lat="55.5756385" lon="37.5174293"/>
 <node id="2108731877" visible="true" version="1" changeset="14633400" timestamp="2013-01-13T12:09:32Z" user="Torx" uid="131244" lat="55.5757117" lon="37.5174131"/>
 <node id="2108731878" visible="true" version="1" changeset="14633400" timestamp="2013-01-13T12:09:32Z" user="Torx" uid="131244" lat="55.5757199" lon="37.5172512"/>
 <node id="2108731879" visible="true" version="1" changeset="14633400" timestamp="2013-01-13T12:09:32Z" user="Torx" uid="131244" lat="55.5757337" lon="37.5173240"/>
 <node id="2108731880" visible="true" version="1" changeset="14633400" timestamp="2013-01-13T12:09:32Z" user="Torx" uid="131244" lat="55.5763311" lon="37.5161367"/>
 <node id="2108731881" visible="true" version="1" changeset="14633400" timestamp="2013-01-13T12:09:33Z" user="Torx" uid="131244" lat="55.5763723" lon="37.5161431"/>
 <node id="2108731882" visible="true" version="1" changeset="14633400" timestamp="2013-01-13T12:09:33Z" user="Torx" uid="131244" lat="55.5764062" lon="37.5160492"/>
 <node id="2108731883" visible="true" version="1" changeset="14633400" timestamp="2013-01-13T12:09:33Z" user="Torx" uid="131244" lat="55.5764444" lon="37.5159094"/>
 <node id="2108731884" visible="true" version="1" changeset="14633400" timestamp="2013-01-13T12:09:33Z" user="Torx" uid="131244" lat="55.5773458" lon="37.5142406"/>
 <node id="2108731885" visible="true" version="1" changeset="14633400" timestamp="2013-01-13T12:09:33Z" user="Torx" uid="131244" lat="55.5773737" lon="37.5139869"/>
 <node id="2108731886" visible="true" version="1" changeset="14633400" timestamp="2013-01-13T12:09:33Z" user="Torx" uid="131244" lat="55.5774100" lon="37.5135975"/>
 <node id="2108731889" visible="true" version="1" changeset="14633400" timestamp="2013-01-13T12:09:34Z" user="Torx" uid="131244" lat="55.5775433" lon="37.5134143"/>
 <node id="2108731898" visible="true" version="1" changeset="14633400" timestamp="2013-01-13T12:09:34Z" user="Torx" uid="131244" lat="55.5775475" lon="37.5131526"/>
 <node id="2108913558" visible="true" version="3" changeset="79753154" timestamp="2020-01-19T12:06:16Z" user="literan" uid="830106" lat="55.5748320" lon="37.5263557"/>
 <node id="2108913574" visible="true" version="4" changeset="98127290" timestamp="2021-01-25T13:59:54Z" user="SerPo" uid="2222034" lat="55.5748512" lon="37.5209226"/>
 <node id="2108913611" visible="true" version="1" changeset="14634714" timestamp="2013-01-13T14:00:36Z" user="Torx" uid="131244" lat="55.5761954" lon="37.5101308"/>
 <node id="2108913630" visible="true" version="1" changeset="14634714" timestamp="2013-01-13T14:00:36Z" user="Torx" uid="131244" lat="55.5764790" lon="37.5091349"/>
 <node id="2108913644" visible="true" version="1" changeset="14634714" timestamp="2013-01-13T14:00:36Z" user="Torx" uid="131244" lat="55.5765052" lon="37.5090553"/>
 <node id="2108913660" visible="true" version="1" changeset="14634714" timestamp="2013-01-13T14:00:37Z" user="Torx" uid="131244" lat="55.5765168" lon="37.5087941"/>
 <node id="2108913678" visible="true" version="5" changeset="187264631" timestamp="2026-08-11T05:57:58Z" user="ad47" uid="696711" lat="55.5748811" lon="37.5303837"/>
 <node id="2108913697" visible="true" version="1" changeset="14634714" timestamp="2013-01-13T14:00:37Z" user="Torx" uid="131244" lat="55.5770350" lon="37.5110117"/>
 <node id="2108913714" visible="true" version="1" changeset="14634714" timestamp="2013-01-13T14:00:37Z" user="Torx" uid="131244" lat="55.5774461" lon="37.5117338"/>
 <node id="2108913726" visible="true" version="1" changeset="14634714" timestamp="2013-01-13T14:00:37Z" user="Torx" uid="131244" lat="55.5774982" lon="37.5080976"/>
 <node id="2108913746" visible="true" version="2" changeset="38100637" timestamp="2016-03-27T14:18:10Z" user="Atakua" uid="509569" lat="55.5775447" lon="37.5133270">
  <tag k="barrier" v="gate"/>
 </node>
 <node id="2108913816" visible="true" version="1" changeset="14634714" timestamp="2013-01-13T14:00:38Z" user="Torx" uid="131244" lat="55.5807267" lon="37.5048872"/>
 <node id="2108913840" visible="true" version="3" changeset="79753154" timestamp="2020-01-19T12:06:16Z" user="literan" uid="830106" lat="55.5800234" lon="37.5349363"/>
 <node id="2108913864" visible="true" version="2" changeset="127653142" timestamp="2022-10-17T07:08:06Z" user="literan" uid="830106" lat="55.5821983" lon="37.5054027"/>
 <node id="2108913897" visible="true" version="2" changeset="79753154" timestamp="2020-01-19T12:06:16Z" user="literan" uid="830106" lat="55.5852820" lon="37.5361169"/>
 <node id="2108913935" visible="true" version="2" changeset="127653142" timestamp="2022-10-17T07:08:06Z" user="literan" uid="830106" lat="55.5841709" lon="37.5046533"/>
 <node id="2108914011" visible="true" version="2" changeset="127653142" timestamp="2022-10-17T07:08:06Z" user="literan" uid="830106" lat="55.5854256" lon="37.5048858"/>
 <node id="2108914022" visible="true" version="3" changeset="153084806" timestamp="2024-06-23T20:32:31Z" user="ad47" uid="696711" lat="55.5882766" lon="37.5301512"/>
 <node id="2108914042" visible="true" version="2" changeset="127653142" timestamp="2022-10-17T07:08:06Z" user="literan" uid="830106" lat="55.5874756" lon="37.5053288"/>
 <node id="2108914066" visible="true" version="3" changeset="153084806" timestamp="2024-06-23T20:32:31Z" user="ad47" uid="696711" lat="55.5888664" lon="37.5274256"/>
 <node id="4081259792" visible="true" version="3" changeset="98127290" timestamp="2021-01-25T13:59:54Z" user="SerPo" uid="2222034" lat="55.5753705" lon="37.5190618">
  <tag k="barrier" v="gate"/>
 </node>
 <node id="5253745006" visible="true" version="2" changeset="79753154" timestamp="2020-01-19T12:06:16Z" user="literan" uid="830106" lat="55.5806658" lon="37.5341081"/>
 <node id="5253745007" visible="true" version="2" changeset="79753154" timestamp="2020-01-19T12:06:16Z" user="literan" uid="830106" lat="55.5810461" lon="37.5351706"/>
 <node id="5253745008" visible="true" version="3" changeset="188268987" timestamp="2026-08-30T19:53:13Z" user="ad47" uid="696711" lat="55.5836781" lon="37.5364844"/>
 <node id="6441520172" visible="true" version="2" changeset="69800162" timestamp="2019-05-02T11:36:21Z" user="literan" uid="830106" lat="55.5889827" lon="37.5269519">
  <tag k="access" v="private"/>
  <tag k="barrier" v="gate"/>
 </node>
 <node id="7142576158" visible="true" version="3" changeset="189044145" timestamp="2026-09-15T07:10:57Z" user="ad47" uid="696711" lat="55.5782885" lon="37.5330788"/>
 <node id="7142576159" visible="true" version="1" changeset="79753154" timestamp="2020-01-19T12:06:16Z" user="literan" uid="830106" lat="55.5807917" lon="37.5342321"/>
 <node id="7142576160" visible="true" version="2" changeset="153084806" timestamp="2024-06-23T20:32:31Z" user="ad47" uid="696711" lat="55.5883655" lon="37.5297998"/>
 <node id="7142576161" visible="true" version="1" changeset="79753154" timestamp="2020-01-19T12:06:16Z" user="literan" uid="830106" lat="55.5861402" lon="37.5351387"/>
 <node id="7142576162" visible="true" version="1" changeset="79753154" timestamp="2020-01-19T12:06:16Z" user="literan" uid="830106" lat="55.5841210" lon="37.5361687"/>
 <node id="8360962291" visible="true" version="2" changeset="98127290" timestamp="2021-01-25T13:59:54Z" user="SerPo" uid="2222034" lat="55.5753582" lon="37.5191818"/>
 <node id="8360992377" visible="true" version="1" changeset="98127290" timestamp="2021-01-25T13:59:54Z" user="SerPo" uid="2222034" lat="55.5752849" lon="37.5209870"/>
 <node id="8360992384" visible="true" version="1" changeset="98127290" timestamp="2021-01-25T13:59:54Z" user="SerPo" uid="2222034" lat="55.5753374" lon="37.5194085"/>
 <node id="8360992385" visible="true" version="1" changeset="98127290" timestamp="2021-01-25T13:59:54Z" user="SerPo" uid="2222034" lat="55.5753109" lon="37.5194024"/>
 <node id="8360992386" visible="true" version="1" changeset="98127290" timestamp="2021-01-25T13:59:54Z" user="SerPo" uid="2222034" lat="55.5753181" lon="37.5193051"/>
 <node id="8360992388" visible="true" version="1" changeset="98127290" timestamp="2021-01-25T13:59:54Z" user="SerPo" uid="2222034" lat="55.5753294" lon="37.5195168"/>
 <node id="8360992389" visible="true" version="1" changeset="98127290" timestamp="2021-01-25T13:59:54Z" user="SerPo" uid="2222034" lat="55.5753668" lon="37.5195254"/>
 <node id="8363528692" visible="true" version="1" changeset="98156087" timestamp="2021-01-26T07:52:45Z" user="SerPo" uid="2222034" lat="55.5753490" lon="37.5193086"/>
 <node id="8602958069" visible="true" version="1" changeset="102490659" timestamp="2021-04-07T14:33:20Z" user="Вепрь" uid="5669859" lat="55.5748334" lon="37.5266225"/>
 <node id="10107989671" visible="true" version="1" changeset="127653142" timestamp="2022-10-17T07:08:06Z" user="literan" uid="830106" lat="55.5881138" lon="37.5064069"/>
 <node id="10107989672" visible="true" version="1" changeset="127653142" timestamp="2022-10-17T07:08:06Z" user="literan" uid="830106" lat="55.5837207" lon="37.5047439"/>
 <node id="12004080931" visible="true" version="1" changeset="153084806" timestamp="2024-06-23T20:32:31Z" user="ad47" uid="696711" lat="55.5891537" lon="37.5271779"/>
 <node id="12626300093" visible="true" version="1" changeset="163066869" timestamp="2025-02-28T19:38:51Z" user="ad47" uid="696711" lat="55.5906846" lon="37.5108701"/>
 <node id="12626338928" visible="true" version="1" changeset="163066869" timestamp="2025-02-28T19:38:51Z" user="ad47" uid="696711" lat="55.5945737" lon="37.5056505"/>
 <node id="12626338929" visible="true" version="1" changeset="163066869" timestamp="2025-02-28T19:38:51Z" user="ad47" uid="696711" lat="55.5943009" lon="37.5059617"/>
 <node id="12626338930" visible="true" version="1" changeset="163066869" timestamp="2025-02-28T19:38:51Z" user="ad47" uid="696711" lat="55.5947101" lon="37.5051463"/>
 <node id="13361023891" visible="true" version="1" changeset="175653466" timestamp="2025-12-08T08:31:11Z" user="literan" uid="830106" lat="55.5957986" lon="37.5039525"/>
 <node id="13361023934" visible="true" version="1" changeset="175653466" timestamp="2025-12-08T08:31:11Z" user="literan" uid="830106" lat="55.5913515" lon="37.5148773"/>
 <node id="13361023937" visible="true" version="1" changeset="175653466" timestamp="2025-12-08T08:31:11Z" user="literan" uid="830106" lat="55.5912545" lon="37.5132036"/>
 <node id="13361023938" visible="true" version="1" changeset="175653466" timestamp="2025-12-08T08:31:11Z" user="literan" uid="830106" lat="55.5914970" lon="37.5130963"/>
 <node id="13361023939" visible="true" version="1" changeset="175653466" timestamp="2025-12-08T08:31:11Z" user="literan" uid="830106" lat="55.5917031" lon="37.5131714"/>
 <node id="13361023940" visible="true" version="1" changeset="175653466" timestamp="2025-12-08T08:31:11Z" user="literan" uid="830106" lat="55.5917819" lon="37.5129032"/>
 <node id="13361023941" visible="true" version="1" changeset="175653466" timestamp="2025-12-08T08:31:11Z" user="literan" uid="830106" lat="55.5918547" lon="37.5125921"/>
 <node id="13361023942" visible="true" version="1" changeset="175653466" timestamp="2025-12-08T08:31:11Z" user="literan" uid="830106" lat="55.5918911" lon="37.5123560"/>
 <node id="13361023943" visible="true" version="1" changeset="175653466" timestamp="2025-12-08T08:31:11Z" user="literan" uid="830106" lat="55.5920366" lon="37.5122058"/>
 <node id="13361023944" visible="true" version="1" changeset="175653466" timestamp="2025-12-08T08:31:11Z" user="literan" uid="830106" lat="55.5921154" lon="37.5120878"/>
 <node id="13361023945" visible="true" version="1" changeset="175653466" timestamp="2025-12-08T08:31:11Z" user="literan" uid="830106" lat="55.5922851" lon="37.5119483"/>
 <node id="13361023946" visible="true" version="1" changeset="175653466" timestamp="2025-12-08T08:31:11Z" user="literan" uid="830106" lat="55.5925458" lon="37.5121951"/>
 <node id="13361023947" visible="true" version="1" changeset="175653466" timestamp="2025-12-08T08:31:11Z" user="literan" uid="830106" lat="55.5925398" lon="37.5125170"/>
 <node id="13361023948" visible="true" version="1" changeset="175653466" timestamp="2025-12-08T08:31:11Z" user="literan" uid="830106" lat="55.5923882" lon="37.5128281"/>
 <node id="13361023949" visible="true" version="1" changeset="175653466" timestamp="2025-12-08T08:31:11Z" user="literan" uid="830106" lat="55.5922063" lon="37.5132036"/>
 <node id="13361023950" visible="true" version="1" changeset="175653466" timestamp="2025-12-08T08:31:11Z" user="literan" uid="830106" lat="55.5920123" lon="37.5136328"/>
 <node id="13361023951" visible="true" version="1" changeset="175653466" timestamp="2025-12-08T08:31:11Z" user="literan" uid="830106" lat="55.5918547" lon="37.5139439"/>
 <node id="13361023952" visible="true" version="1" changeset="175653466" timestamp="2025-12-08T08:31:11Z" user="literan" uid="830106" lat="55.5917334" lon="37.5144911"/>
 <node id="13361023953" visible="true" version="1" changeset="175653466" timestamp="2025-12-08T08:31:11Z" user="literan" uid="830106" lat="55.5916061" lon="37.5146627"/>
 <node id="13361023954" visible="true" version="1" changeset="175653466" timestamp="2025-12-08T08:31:11Z" user="literan" uid="830106" lat="55.5918426" lon="37.5120771"/>
 <node id="13361023955" visible="true" version="1" changeset="175653466" timestamp="2025-12-08T08:31:11Z" user="literan" uid="830106" lat="55.5917819" lon="37.5121415"/>
 <node id="13361023956" visible="true" version="1" changeset="175653466" timestamp="2025-12-08T08:31:11Z" user="literan" uid="830106" lat="55.5898570" lon="37.5112724"/>
 <node id="13361023957" visible="true" version="1" changeset="175653466" timestamp="2025-12-08T08:31:11Z" user="literan" uid="830106" lat="55.5896478" lon="37.5122219"/>
 <node id="13361023958" visible="true" version="1" changeset="175653466" timestamp="2025-12-08T08:31:11Z" user="literan" uid="830106" lat="55.5898327" lon="37.5123990"/>
 <node id="13361023959" visible="true" version="1" changeset="175653466" timestamp="2025-12-08T08:31:11Z" user="literan" uid="830106" lat="55.5899237" lon="37.5126886"/>
 <node id="13361023960" visible="true" version="1" changeset="175653466" timestamp="2025-12-08T08:31:11Z" user="literan" uid="830106" lat="55.5909907" lon="37.5142389"/>
 <node id="13361023961" visible="true" version="1" changeset="175653466" timestamp="2025-12-08T08:31:11Z" user="literan" uid="830106" lat="55.5911059" lon="37.5142765"/>
 <node id="13361023962" visible="true" version="1" changeset="175653466" timestamp="2025-12-08T08:31:11Z" user="literan" uid="830106" lat="55.5913363" lon="37.5151348"/>
 <node id="13361023963" visible="true" version="1" changeset="175653466" timestamp="2025-12-08T08:31:11Z" user="literan" uid="830106" lat="55.5914788" lon="37.5153869"/>
 <node id="13361023964" visible="true" version="1" changeset="175653466" timestamp="2025-12-08T08:31:11Z" user="literan" uid="830106" lat="55.5915212" lon="37.5155801"/>
 <node id="13361023965" visible="true" version="1" changeset="175653466" timestamp="2025-12-08T08:31:11Z" user="literan" uid="830106" lat="55.5912545" lon="37.5158966"/>
 <node id="14135741073" visible="true" version="1" changeset="188268987" timestamp="2026-08-30T19:53:13Z" user="ad47" uid="696711" lat="55.5818909" lon="37.5353882"/>
 <way id="52218299" visible="true" version="5" changeset="129087698" timestamp="2022-11-18T13:40:54Z" user="Дмитрий-Максим" uid="2787987">
  <nd ref="664908121"/>
  <nd ref="664908127"/>
  <nd ref="664908084"/>
  <nd ref="664908088"/>
  <nd ref="664908086"/>
  <nd ref="664908085"/>
  <nd ref="664908081"/>
  <nd ref="664908038"/>
  <nd ref="664908037"/>
  <nd ref="1587203905"/>
  <nd ref="1587203728"/>
  <nd ref="1587203662"/>
  <nd ref="1587203560"/>
  <nd ref="1587203399"/>
  <nd ref="1587203321"/>
  <nd ref="1587203239"/>
  <nd ref="1587203150"/>
  <tag k="access" v="private"/>
  <tag k="highway" v="residential"/>
  <tag k="surface" v="asphalt"/>
 </way>
 <way id="200909949" visible="true" version="41" changeset="188268987" timestamp="2026-08-30T19:53:13Z" user="ad47" uid="696711">
  <nd ref="1279196620"/>
  <nd ref="13361023960"/>
  <nd ref="13361023961"/>
  <nd ref="13361023962"/>
  <nd ref="13361023963"/>
  <nd ref="13361023964"/>
  <nd ref="13361023965"/>
  <nd ref="1279196630"/>
  <nd ref="1279196586"/>
  <nd ref="1279196601"/>
  <nd ref="1279196558"/>
  <nd ref="1279196599"/>
  <nd ref="1279196603"/>
  <nd ref="1279196576"/>
  <nd ref="1279196598"/>
  <nd ref="1279196606"/>
  <nd ref="1279196597"/>
  <nd ref="1279196629"/>
  <nd ref="1279196618"/>
  <nd ref="1495125806"/>
  <nd ref="1279196604"/>
  <nd ref="1279196617"/>
  <nd ref="1279196613"/>
  <nd ref="1279196566"/>
  <nd ref="1279196624"/>
  <nd ref="1279196622"/>
  <nd ref="1279196589"/>
  <nd ref="1279196585"/>
  <nd ref="6441520172"/>
  <nd ref="12004080931"/>
  <nd ref="1279196607"/>
  <nd ref="2108914066"/>
  <nd ref="7142576160"/>
  <nd ref="2108914022"/>
  <nd ref="7142576161"/>
  <nd ref="2108913897"/>
  <nd ref="7142576162"/>
  <nd ref="5253745008"/>
  <nd ref="14135741073"/>
  <nd ref="5253745007"/>
  <nd ref="7142576159"/>
  <nd ref="5253745006"/>
  <nd ref="2108913840"/>
  <nd ref="7142576158"/>
  <nd ref="2108913678"/>
  <nd ref="8602958069"/>
  <nd ref="2108913558"/>
  <nd ref="2108913574"/>
  <nd ref="8360992377"/>
  <nd ref="8360992389"/>
  <nd ref="8360992388"/>
  <nd ref="8360992384"/>
  <nd ref="8360992385"/>
  <nd ref="8360992386"/>
  <nd ref="8363528692"/>
  <nd ref="8360962291"/>
  <nd ref="4081259792"/>
  <nd ref="2108731874"/>
  <nd ref="2108731861"/>
  <nd ref="2108731855"/>
  <nd ref="2108731854"/>
  <nd ref="2108731856"/>
  <nd ref="2108731864"/>
  <nd ref="2108731875"/>
  <nd ref="2108731876"/>
  <nd ref="2108731877"/>
  <nd ref="2108731879"/>
  <nd ref="2108731878"/>
  <nd ref="2108731880"/>
  <nd ref="2108731881"/>
  <nd ref="2108731882"/>
  <nd ref="2108731883"/>
  <nd ref="2108731884"/>
  <nd ref="2108731885"/>
  <nd ref="2108731886"/>
  <nd ref="2108731889"/>
  <nd ref="2108913746"/>
  <nd ref="2108731898"/>
  <nd ref="2108913714"/>
  <nd ref="2108913697"/>
  <nd ref="2108913611"/>
  <nd ref="2108913630"/>
  <nd ref="2108913644"/>
  <nd ref="2108913660"/>
  <nd ref="2108913726"/>
  <nd ref="2108913816"/>
  <nd ref="2108913864"/>
  <nd ref="10107989672"/>
  <nd ref="2108913935"/>
  <nd ref="2108914011"/>
  <nd ref="2108914042"/>
  <nd ref="10107989671"/>
  <nd ref="13361023956"/>
  <nd ref="13361023957"/>
  <nd ref="13361023958"/>
  <nd ref="13361023959"/>
  <nd ref="1279196620"/>
  <tag k="access" v="private"/>
  <tag k="barrier" v="fence"/>
  <tag k="landuse" v="military"/>
  <tag k="name" v="Штаб-квартира Службы внешней разведки Российской Федерации"/>
  <tag k="name:ca" v="Seu del Servei d'Inteligència Exterior de la Federació Russa"/>
  <tag k="name:de" v="Hauptsitz des Dienstes der Außenaufklärung der Russischen Föderation"/>
  <tag k="name:en" v="Headquarters of The Foreign Intelligence Service of the Russian Federation"/>
  <tag k="name:uk" v="Штаб-квартира Служби зовнішньої розвідки Російської Федерації"/>
  <tag k="wikidata" v="Q863254"/>
 </way>
 <way id="1456845389" visible="true" version="1" changeset="175653466" timestamp="2025-12-08T08:31:11Z" user="literan" uid="830106">
  <nd ref="13361023891"/>
  <nd ref="1495125828"/>
  <nd ref="664949519"/>
  <nd ref="1838774121"/>
  <nd ref="12626338930"/>
  <nd ref="664949510"/>
  <nd ref="664949508"/>
  <nd ref="664949507"/>
  <nd ref="664949505"/>
  <nd ref="664949504"/>
  <nd ref="664949498"/>
  <nd ref="664949496"/>
  <nd ref="664949495"/>
  <nd ref="664949493"/>
  <nd ref="664949516"/>
  <nd ref="12626338928"/>
  <nd ref="12626338929"/>
  <nd ref="664949514"/>
  <nd ref="664949513"/>
  <nd ref="664949492"/>
  <nd ref="664949491"/>
  <nd ref="664949489"/>
  <nd ref="664949540"/>
  <nd ref="664949539"/>
  <nd ref="664949537"/>
  <nd ref="664949488"/>
  <nd ref="664949436"/>
  <nd ref="664949536"/>
  <nd ref="664949547"/>
  <nd ref="664949546"/>
  <nd ref="664949545"/>
  <nd ref="13361023954"/>
  <nd ref="13361023955"/>
  <nd ref="664949544"/>
  <nd ref="664949543"/>
  <nd ref="664949542"/>
  <nd ref="664949541"/>
  <nd ref="12626300093"/>
  <nd ref="664949425"/>
  <nd ref="664949429"/>
  <nd ref="664949548"/>
  <nd ref="13361023937"/>
  <nd ref="13361023938"/>
  <nd ref="13361023939"/>
  <nd ref="13361023940"/>
  <nd ref="13361023941"/>
  <nd ref="13361023942"/>
  <nd ref="13361023943"/>
  <nd ref="13361023944"/>
  <nd ref="13361023945"/>
  <nd ref="13361023946"/>
  <nd ref="13361023947"/>
  <nd ref="13361023948"/>
  <nd ref="13361023949"/>
  <nd ref="13361023950"/>
  <nd ref="13361023951"/>
  <nd ref="13361023952"/>
  <nd ref="13361023953"/>
  <nd ref="13361023934"/>
 </way>
 <relation id="11323748" visible="true" version="42" changeset="175653466" timestamp="2025-12-08T08:31:11Z" user="literan" uid="830106">
  <member type="way" ref="339307529" role="inner"/>
  <member type="way" ref="37998063" role="outer"/>
  <member type="way" ref="52219923" role="outer"/>
  <member type="way" ref="1456845387" role="outer"/>
  <member type="way" ref="1456845389" role="outer"/>
  <member type="way" ref="836862943" role="outer"/>
  <member type="way" ref="1102673530" role="outer"/>
  <member type="way" ref="836862939" role="outer"/>
  <member type="way" ref="1102673532" role="outer"/>
  <member type="way" ref="1102673531" role="outer"/>
  <member type="way" ref="37998064" role="inner"/>
  <member type="way" ref="1104591662" role="inner"/>
  <member type="way" ref="37998066" role="inner"/>
  <member type="way" ref="37998065" role="inner"/>
  <tag k="name" v="Бутовский лесопарк"/>
  <tag k="natural" v="wood"/>
  <tag k="type" v="multipolygon"/>
 </relation>
 <relation id="19932741" visible="true" version="1" changeset="175653466" timestamp="2025-12-08T08:31:11Z" user="literan" uid="830106">
  <member type="way" ref="1456845383" role="outer"/>
  <member type="way" ref="1456845379" role="outer"/>
  <member type="way" ref="1456845381" role="outer"/>
  <member type="way" ref="1456845388" role="outer"/>
  <member type="way" ref="1456845382" role="outer"/>
  <member type="way" ref="1456845389" role="outer"/>
  <member type="way" ref="1456845386" role="inner"/>
  <member type="way" ref="1456845385" role="inner"/>
  <member type="way" ref="1456845378" role="inner"/>
  <member type="way" ref="1456845377" role="inner"/>
  <member type="way" ref="145294446" role="inner"/>
  <member type="way" ref="145294889" role="inner"/>
  <member type="way" ref="1456845376" role="inner"/>
  <member type="way" ref="1456845375" role="inner"/>
  <member type="way" ref="1456845374" role="inner"/>
  <tag k="natural" v="grassland"/>
  <tag k="type" v="multipolygon"/>
 </relation>
</osm>
