<?xml version="1.0" encoding="UTF-8"?>
<osm version="0.6" generator="openstreetmap-cgimap 2.1.0 (244699 spike-07.openstreetmap.org)" copyright="OpenStreetMap and contributors" attribution="http://www.openstreetmap.org/copyright" license="http://opendatacommons.org/licenses/odbl/1-0/">
 <bounds minlat="55.6883812" minlon="37.9411610" maxlat="55.6910762" maxlon="37.9459420"/>
 <node id="659576058" visible="true" version="2" changeset="121952827" timestamp="2022-06-04T20:28:23Z" user="neo-plan" uid="363136" lat="55.6868952" lon="37.9487192">
  <tag k="railway" v="switch"/>
 </node>
 <node id="659576070" visible="true" version="1" changeset="4020596" timestamp="2010-03-02T21:29:22Z" user="Alexey Guseynov" uid="205137" lat="55.6873851" lon="37.9483974"/>
 <node id="659576072" visible="true" version="1" changeset="4020596" timestamp="2010-03-02T21:29:23Z" user="Alexey Guseynov" uid="205137" lat="55.6877540" lon="37.9479897"/>
 <node id="659576073" visible="true" version="1" changeset="4020596" timestamp="2010-03-02T21:29:23Z" user="Alexey Guseynov" uid="205137" lat="55.6880927" lon="37.9472923"/>
 <node id="659576074" visible="true" version="1" changeset="4020596" timestamp="2010-03-02T21:29:23Z" user="Alexey Guseynov" uid="205137" lat="55.6889454" lon="37.9444706"/>
 <node id="954993125" visible="true" version="1" changeset="6070666" timestamp="2010-10-17T19:17:59Z" user="krysha" uid="75360" lat="55.6889377" lon="37.9454933"/>
 <node id="954993131" visible="true" version="1" changeset="6070666" timestamp="2010-10-17T19:17:59Z" user="krysha" uid="75360" lat="55.6872839" lon="37.9610561"/>
 <node id="954993157" visible="true" version="3" changeset="32208180" timestamp="2015-06-25T15:50:59Z" user="Gumeg" uid="467526" lat="55.6803239" lon="37.9601494"/>
 <node id="954993160" visible="true" version="1" changeset="6070666" timestamp="2010-10-17T19:17:59Z" user="krysha" uid="75360" lat="55.6909485" lon="37.9525553"/>
 <node id="954993180" visible="true" version="1" changeset="6070666" timestamp="2010-10-17T19:18:00Z" user="krysha" uid="75360" lat="55.6875682" lon="37.9377410"/>
 <node id="954993183" visible="true" version="1" changeset="6070666" timestamp="2010-10-17T19:18:00Z" user="krysha" uid="75360" lat="55.6841847" lon="37.9608433"/>
 <node id="954993229" visible="true" version="1" changeset="6070666" timestamp="2010-10-17T19:18:00Z" user="krysha" uid="75360" lat="55.6835207" lon="37.9605199"/>
 <node id="954993233" visible="true" version="1" changeset="6070666" timestamp="2010-10-17T19:18:00Z" user="krysha" uid="75360" lat="55.6878122" lon="37.9373081"/>
 <node id="954993239" visible="true" version="1" changeset="6070666" timestamp="2010-10-17T19:18:00Z" user="krysha" uid="75360" lat="55.6870761" lon="37.9612013"/>
 <node id="954993247" visible="true" version="1" changeset="6070666" timestamp="2010-10-17T19:18:01Z" user="krysha" uid="75360" lat="55.6887961" lon="37.9383274"/>
 <node id="954993267" visible="true" version="1" changeset="6070666" timestamp="2010-10-17T19:18:01Z" user="krysha" uid="75360" lat="55.6898341" lon="37.9556942"/>
 <node id="954993269" visible="true" version="1" changeset="6070666" timestamp="2010-10-17T19:18:01Z" user="krysha" uid="75360" lat="55.6826549" lon="37.9598733"/>
 <node id="954993271" visible="true" version="1" changeset="6070666" timestamp="2010-10-17T19:18:01Z" user="krysha" uid="75360" lat="55.6866236" lon="37.9372523"/>
 <node id="954993277" visible="true" version="1" changeset="6070666" timestamp="2010-10-17T19:18:01Z" user="krysha" uid="75360" lat="55.6849728" lon="37.9606986"/>
 <node id="954993287" visible="true" version="1" changeset="6070666" timestamp="2010-10-17T19:18:01Z" user="krysha" uid="75360" lat="55.6892296" lon="37.9576044"/>
 <node id="954993307" visible="true" version="1" changeset="6070666" timestamp="2010-10-17T19:18:02Z" user="krysha" uid="75360" lat="55.6887070" lon="37.9457860"/>
 <node id="954993309" visible="true" version="1" changeset="6070666" timestamp="2010-10-17T19:18:02Z" user="krysha" uid="75360" lat="55.6889336" lon="37.9589113"/>
 <node id="954993316" visible="true" version="1" changeset="6070666" timestamp="2010-10-17T19:18:02Z" user="krysha" uid="75360" lat="55.6876680" lon="37.9491260"/>
 <node id="954993335" visible="true" version="1" changeset="6070666" timestamp="2010-10-17T19:18:02Z" user="krysha" uid="75360" lat="55.6877813" lon="37.9605646"/>
 <node id="954993347" visible="true" version="1" changeset="6070666" timestamp="2010-10-17T19:18:02Z" user="krysha" uid="75360" lat="55.6811966" lon="37.9599772"/>
 <node id="954993348" visible="true" version="1" changeset="6070666" timestamp="2010-10-17T19:18:02Z" user="krysha" uid="75360" lat="55.6909170" lon="37.9523766"/>
 <node id="954993356" visible="true" version="3" changeset="152489111" timestamp="2024-06-10T09:50:46Z" user="literan" uid="830106" lat="55.6803114" lon="37.9616915"/>
 <node id="954993358" visible="true" version="2" changeset="32223047" timestamp="2015-06-26T10:40:41Z" user="Gumeg" uid="467526" lat="55.6874448" lon="37.9377398"/>
 <node id="954993359" visible="true" version="1" changeset="6070666" timestamp="2010-10-17T19:18:02Z" user="krysha" uid="75360" lat="55.6846274" lon="37.9607047"/>
 <node id="954993383" visible="true" version="1" changeset="6070666" timestamp="2010-10-17T19:18:03Z" user="krysha" uid="75360" lat="55.6859237" lon="37.9609779"/>
 <node id="954993399" visible="true" version="1" changeset="6070666" timestamp="2010-10-17T19:18:03Z" user="krysha" uid="75360" lat="55.6894689" lon="37.9567554"/>
 <node id="954993401" visible="true" version="1" changeset="6070666" timestamp="2010-10-17T19:18:03Z" user="krysha" uid="75360" lat="55.6838007" lon="37.9608664"/>
 <node id="954993406" visible="true" version="1" changeset="6070666" timestamp="2010-10-17T19:18:03Z" user="krysha" uid="75360" lat="55.6875288" lon="37.9372942"/>
 <node id="954993426" visible="true" version="1" changeset="6070666" timestamp="2010-10-17T19:18:03Z" user="krysha" uid="75360" lat="55.6891351" lon="37.9583975"/>
 <node id="954993430" visible="true" version="1" changeset="6070666" timestamp="2010-10-17T19:18:04Z" user="krysha" uid="75360" lat="55.6834556" lon="37.9597116"/>
 <node id="954993435" visible="true" version="1" changeset="6070666" timestamp="2010-10-17T19:18:04Z" user="krysha" uid="75360" lat="55.6905937" lon="37.9402544"/>
 <node id="954993437" visible="true" version="1" changeset="6070666" timestamp="2010-10-17T19:18:04Z" user="krysha" uid="75360" lat="55.6883355" lon="37.9598273"/>
 <node id="954993449" visible="true" version="2" changeset="32223047" timestamp="2015-06-26T10:40:42Z" user="Gumeg" uid="467526" lat="55.6872970" lon="37.9371983"/>
 <node id="1126969589" visible="true" version="3" changeset="91248131" timestamp="2020-09-21T20:09:58Z" user="stargunru" uid="9133906" lat="55.6910544" lon="37.9519584"/>
 <node id="1126969609" visible="true" version="1" changeset="7128042" timestamp="2011-01-29T22:11:41Z" user="krysha" uid="75360" lat="55.6883613" lon="37.9492065">
  <tag k="power" v="tower"/>
 </node>
 <node id="1610409700" visible="true" version="1" changeset="10530020" timestamp="2012-01-29T14:09:58Z" user="Amigo" uid="206282" lat="55.6922152" lon="37.9461316"/>
 <node id="1610409704" visible="true" version="1" changeset="10530020" timestamp="2012-01-29T14:09:58Z" user="Amigo" uid="206282" lat="55.6926264" lon="37.9448174"/>
 <node id="1610409707" visible="true" version="1" changeset="10530020" timestamp="2012-01-29T14:09:58Z" user="Amigo" uid="206282" lat="55.6926929" lon="37.9446993"/>
 <node id="1610409774" visible="true" version="1" changeset="10530020" timestamp="2012-01-29T14:09:59Z" user="Amigo" uid="206282" lat="55.6920398" lon="37.9415826"/>
 <node id="1610409915" visible="true" version="2" changeset="91248131" timestamp="2020-09-21T20:09:58Z" user="stargunru" uid="9133906" lat="55.6928246" lon="37.9467769"/>
 <node id="1610463029" visible="true" version="2" changeset="65611958" timestamp="2018-12-19T13:50:17Z" user="RFuser11" uid="421938" lat="55.6916981" lon="37.9412232">
  <tag k="barrier" v="gate"/>
 </node>
 <node id="1610463041" visible="true" version="1" changeset="10530020" timestamp="2012-01-29T14:23:12Z" user="Amigo" uid="206282" lat="55.6906308" lon="37.9445813"/>
 <node id="1610463082" visible="true" version="1" changeset="10530020" timestamp="2012-01-29T14:23:12Z" user="Amigo" uid="206282" lat="55.6904372" lon="37.9453645"/>
 <node id="1610463091" visible="true" version="1" changeset="10530020" timestamp="2012-01-29T14:23:13Z" user="Amigo" uid="206282" lat="55.6900321" lon="37.9466788"/>
 <node id="1610463134" visible="true" version="2" changeset="117670570" timestamp="2022-02-21T09:06:59Z" user="literan" uid="830106" lat="55.6911672" lon="37.9387052"/>
 <node id="1610463149" visible="true" version="1" changeset="10530020" timestamp="2012-01-29T14:23:14Z" user="Amigo" uid="206282" lat="55.6911418" lon="37.9391472"/>
 <node id="1610463156" visible="true" version="1" changeset="10530020" timestamp="2012-01-29T14:23:14Z" user="Amigo" uid="206282" lat="55.6909362" lon="37.9400269"/>
 <node id="1610463162" visible="true" version="1" changeset="10530020" timestamp="2012-01-29T14:23:14Z" user="Amigo" uid="206282" lat="55.6908213" lon="37.9403488"/>
 <node id="1610463172" visible="true" version="1" changeset="10530020" timestamp="2012-01-29T14:23:14Z" user="Amigo" uid="206282" lat="55.6891340" lon="37.9454986"/>
 <node id="1610463182" visible="true" version="1" changeset="10530020" timestamp="2012-01-29T14:23:14Z" user="Amigo" uid="206282" lat="55.6891249" lon="37.9456542"/>
 <node id="1610463218" visible="true" version="1" changeset="10530020" timestamp="2012-01-29T14:23:15Z" user="Amigo" uid="206282" lat="55.6891642" lon="37.9458205"/>
 <node id="1610463224" visible="true" version="1" changeset="10530020" timestamp="2012-01-29T14:23:15Z" user="Amigo" uid="206282" lat="55.6905310" lon="37.9471670"/>
 <node id="1610463234" visible="true" version="1" changeset="10530020" timestamp="2012-01-29T14:23:15Z" user="Amigo" uid="206282" lat="55.6906459" lon="37.9472045"/>
 <node id="1610463238" visible="true" version="1" changeset="10530020" timestamp="2012-01-29T14:23:15Z" user="Amigo" uid="206282" lat="55.6907366" lon="37.9471616"/>
 <node id="1610463244" visible="true" version="1" changeset="10530020" timestamp="2012-01-29T14:23:15Z" user="Amigo" uid="206282" lat="55.6910299" lon="37.9468076"/>
 <node id="1610463251" visible="true" version="1" changeset="10530020" timestamp="2012-01-29T14:23:15Z" user="Amigo" uid="206282" lat="55.6911418" lon="37.9465018"/>
 <node id="1610463255" visible="true" version="1" changeset="10530020" timestamp="2012-01-29T14:23:15Z" user="Amigo" uid="206282" lat="55.6913988" lon="37.9467646"/>
 <node id="1610463257" visible="true" version="1" changeset="10530020" timestamp="2012-01-29T14:23:16Z" user="Amigo" uid="206282" lat="55.6917828" lon="37.9455952"/>
 <node id="1610463371" visible="true" version="1" changeset="10530020" timestamp="2012-01-29T14:23:17Z" user="Amigo" uid="206282" lat="55.6906912" lon="37.9402093"/>
 <node id="1832854696" visible="true" version="2" changeset="32223047" timestamp="2015-06-26T10:40:41Z" user="Gumeg" uid="467526" lat="55.6874323" lon="37.9373884"/>
 <node id="1832854747" visible="true" version="2" changeset="167374529" timestamp="2025-06-09T00:37:43Z" user="neo-plan" uid="363136" lat="55.6874399" lon="37.9376023"/>
 <node id="1832854775" visible="true" version="1" changeset="12403945" timestamp="2012-07-21T08:43:01Z" user="Vnuks" uid="247467" lat="55.6866865" lon="37.9372509"/>
 <node id="3619440930" visible="true" version="1" changeset="32223047" timestamp="2015-06-26T10:40:04Z" user="Gumeg" uid="467526" lat="55.6880589" lon="37.9421177"/>
 <node id="3619440931" visible="true" version="1" changeset="32223047" timestamp="2015-06-26T10:40:04Z" user="Gumeg" uid="467526" lat="55.6881142" lon="37.9424870"/>
 <node id="3619440933" visible="true" version="1" changeset="32223047" timestamp="2015-06-26T10:40:04Z" user="Gumeg" uid="467526" lat="55.6881888" lon="37.9422423"/>
 <node id="3619440935" visible="true" version="1" changeset="32223047" timestamp="2015-06-26T10:40:04Z" user="Gumeg" uid="467526" lat="55.6882661" lon="37.9426326"/>
 <node id="3619440936" visible="true" version="1" changeset="32223047" timestamp="2015-06-26T10:40:04Z" user="Gumeg" uid="467526" lat="55.6882866" lon="37.9413704"/>
 <node id="3619440937" visible="true" version="1" changeset="32223047" timestamp="2015-06-26T10:40:04Z" user="Gumeg" uid="467526" lat="55.6883299" lon="37.9414119"/>
 <node id="3619440938" visible="true" version="1" changeset="32223047" timestamp="2015-06-26T10:40:04Z" user="Gumeg" uid="467526" lat="55.6883465" lon="37.9423686"/>
 <node id="3619440939" visible="true" version="1" changeset="32223047" timestamp="2015-06-26T10:40:04Z" user="Gumeg" uid="467526" lat="55.6884549" lon="37.9424726"/>
 <node id="3619440941" visible="true" version="1" changeset="32223047" timestamp="2015-06-26T10:40:04Z" user="Gumeg" uid="467526" lat="55.6885584" lon="37.9411074"/>
 <node id="3619440943" visible="true" version="1" changeset="32223047" timestamp="2015-06-26T10:40:04Z" user="Gumeg" uid="467526" lat="55.6886637" lon="37.9417321"/>
 <node id="3619440944" visible="true" version="1" changeset="32223047" timestamp="2015-06-26T10:40:04Z" user="Gumeg" uid="467526" lat="55.6886768" lon="37.9417447"/>
 <node id="3619440947" visible="true" version="1" changeset="32223047" timestamp="2015-06-26T10:40:04Z" user="Gumeg" uid="467526" lat="55.6887567" lon="37.9400118"/>
 <node id="3619440948" visible="true" version="1" changeset="32223047" timestamp="2015-06-26T10:40:04Z" user="Gumeg" uid="467526" lat="55.6887872" lon="37.9413269"/>
 <node id="3619440951" visible="true" version="1" changeset="32223047" timestamp="2015-06-26T10:40:04Z" user="Gumeg" uid="467526" lat="55.6888616" lon="37.9401125"/>
 <node id="6147613769" visible="true" version="1" changeset="65611958" timestamp="2018-12-19T13:50:15Z" user="RFuser11" uid="421938" lat="55.6914068" lon="37.9427362"/>
 <node id="6147613770" visible="true" version="1" changeset="65611958" timestamp="2018-12-19T13:50:15Z" user="RFuser11" uid="421938" lat="55.6916807" lon="37.9430245"/>
 <node id="6147613771" visible="true" version="1" changeset="65611958" timestamp="2018-12-19T13:50:15Z" user="RFuser11" uid="421938" lat="55.6916168" lon="37.9432155"/>
 <node id="6147613772" visible="true" version="1" changeset="65611958" timestamp="2018-12-19T13:50:15Z" user="RFuser11" uid="421938" lat="55.6916745" lon="37.9432763"/>
 <node id="6147613773" visible="true" version="1" changeset="65611958" timestamp="2018-12-19T13:50:15Z" user="RFuser11" uid="421938" lat="55.6916511" lon="37.9433463"/>
 <node id="6147613774" visible="true" version="1" changeset="65611958" timestamp="2018-12-19T13:50:15Z" user="RFuser11" uid="421938" lat="55.6916944" lon="37.9433920"/>
 <node id="6147613775" visible="true" version="1" changeset="65611958" timestamp="2018-12-19T13:50:15Z" user="RFuser11" uid="421938" lat="55.6916080" lon="37.9436504"/>
 <node id="6147613776" visible="true" version="1" changeset="65611958" timestamp="2018-12-19T13:50:15Z" user="RFuser11" uid="421938" lat="55.6917360" lon="37.9437850"/>
 <node id="6147613777" visible="true" version="1" changeset="65611958" timestamp="2018-12-19T13:50:15Z" user="RFuser11" uid="421938" lat="55.6914561" lon="37.9446219"/>
 <node id="6147613778" visible="true" version="1" changeset="65611958" timestamp="2018-12-19T13:50:15Z" user="RFuser11" uid="421938" lat="55.6912588" lon="37.9444142"/>
 <node id="6147613779" visible="true" version="1" changeset="65611958" timestamp="2018-12-19T13:50:15Z" user="RFuser11" uid="421938" lat="55.6913161" lon="37.9442429"/>
 <node id="6147613780" visible="true" version="1" changeset="65611958" timestamp="2018-12-19T13:50:15Z" user="RFuser11" uid="421938" lat="55.6910025" lon="37.9439129"/>
 <node id="6147613781" visible="true" version="1" changeset="65611958" timestamp="2018-12-19T13:50:15Z" user="RFuser11" uid="421938" lat="55.6912809" lon="37.9430804"/>
 <node id="6147613782" visible="true" version="1" changeset="65611958" timestamp="2018-12-19T13:50:15Z" user="RFuser11" uid="421938" lat="55.6912387" lon="37.9430360"/>
 <node id="6147613783" visible="true" version="1" changeset="65611958" timestamp="2018-12-19T13:50:15Z" user="RFuser11" uid="421938" lat="55.6912918" lon="37.9428772"/>
 <node id="6147613784" visible="true" version="1" changeset="65611958" timestamp="2018-12-19T13:50:15Z" user="RFuser11" uid="421938" lat="55.6913420" lon="37.9429300"/>
 <node id="6147618789" visible="true" version="1" changeset="65611958" timestamp="2018-12-19T13:50:15Z" user="RFuser11" uid="421938" lat="55.6907673" lon="37.9453170"/>
 <node id="6147618790" visible="true" version="1" changeset="65611958" timestamp="2018-12-19T13:50:15Z" user="RFuser11" uid="421938" lat="55.6906217" lon="37.9451671"/>
 <node id="6147618791" visible="true" version="1" changeset="65611958" timestamp="2018-12-19T13:50:15Z" user="RFuser11" uid="421938" lat="55.6901912" lon="37.9464832"/>
 <node id="6147618792" visible="true" version="1" changeset="65611958" timestamp="2018-12-19T13:50:15Z" user="RFuser11" uid="421938" lat="55.6903434" lon="37.9466399"/>
 <node id="6147618793" visible="true" version="1" changeset="65611958" timestamp="2018-12-19T13:50:15Z" user="RFuser11" uid="421938" lat="55.6904776" lon="37.9462297"/>
 <node id="6147618794" visible="true" version="1" changeset="65611958" timestamp="2018-12-19T13:50:15Z" user="RFuser11" uid="421938" lat="55.6905479" lon="37.9463022"/>
 <node id="6147618795" visible="true" version="1" changeset="65611958" timestamp="2018-12-19T13:50:15Z" user="RFuser11" uid="421938" lat="55.6907434" lon="37.9457046"/>
 <node id="6147618796" visible="true" version="1" changeset="65611958" timestamp="2018-12-19T13:50:15Z" user="RFuser11" uid="421938" lat="55.6906664" lon="37.9456254"/>
 <node id="6147618813" visible="true" version="1" changeset="65611958" timestamp="2018-12-19T13:50:16Z" user="RFuser11" uid="421938" lat="55.6913506" lon="37.9420287"/>
 <node id="6147618814" visible="true" version="1" changeset="65611958" timestamp="2018-12-19T13:50:16Z" user="RFuser11" uid="421938" lat="55.6910439" lon="37.9417079"/>
 <node id="6147618815" visible="true" version="1" changeset="65611958" timestamp="2018-12-19T13:50:16Z" user="RFuser11" uid="421938" lat="55.6908437" lon="37.9423102"/>
 <node id="6147618816" visible="true" version="1" changeset="65611958" timestamp="2018-12-19T13:50:16Z" user="RFuser11" uid="421938" lat="55.6911505" lon="37.9426310"/>
 <node id="6147618817" visible="true" version="1" changeset="65611958" timestamp="2018-12-19T13:50:16Z" user="RFuser11" uid="421938" lat="55.6911004" lon="37.9428268"/>
 <node id="6147618818" visible="true" version="1" changeset="65611958" timestamp="2018-12-19T13:50:16Z" user="RFuser11" uid="421938" lat="55.6908299" lon="37.9425577"/>
 <node id="6147618819" visible="true" version="1" changeset="65611958" timestamp="2018-12-19T13:50:16Z" user="RFuser11" uid="421938" lat="55.6907472" lon="37.9428192"/>
 <node id="6147618820" visible="true" version="1" changeset="65611958" timestamp="2018-12-19T13:50:16Z" user="RFuser11" uid="421938" lat="55.6910177" lon="37.9430884"/>
 <node id="6147618821" visible="true" version="1" changeset="65611958" timestamp="2018-12-19T13:50:16Z" user="RFuser11" uid="421938" lat="55.6911416" lon="37.9455829"/>
 <node id="6147618822" visible="true" version="1" changeset="65611958" timestamp="2018-12-19T13:50:16Z" user="RFuser11" uid="421938" lat="55.6909546" lon="37.9453881"/>
 <node id="6147618823" visible="true" version="1" changeset="65611958" timestamp="2018-12-19T13:50:16Z" user="RFuser11" uid="421938" lat="55.6907043" lon="37.9461441"/>
 <node id="6147618824" visible="true" version="1" changeset="65611958" timestamp="2018-12-19T13:50:16Z" user="RFuser11" uid="421938" lat="55.6907757" lon="37.9462185"/>
 <node id="6147618825" visible="true" version="1" changeset="65611958" timestamp="2018-12-19T13:50:16Z" user="RFuser11" uid="421938" lat="55.6908130" lon="37.9461058"/>
 <node id="6147618826" visible="true" version="1" changeset="65611958" timestamp="2018-12-19T13:50:16Z" user="RFuser11" uid="421938" lat="55.6909285" lon="37.9462263"/>
 <node id="6147618831" visible="true" version="1" changeset="65611958" timestamp="2018-12-19T13:50:16Z" user="RFuser11" uid="421938" lat="55.6916785" lon="37.9412110"/>
 <node id="6147618832" visible="true" version="1" changeset="65611958" timestamp="2018-12-19T13:50:16Z" user="RFuser11" uid="421938" lat="55.6915989" lon="37.9411333"/>
 <node id="7929271525" visible="true" version="1" changeset="91248131" timestamp="2020-09-21T20:09:58Z" user="stargunru" uid="9133906" lat="55.6924020" lon="37.9478486"/>
 <node id="7929271527" visible="true" version="1" changeset="91248131" timestamp="2020-09-21T20:09:58Z" user="stargunru" uid="9133906" lat="55.6926969" lon="37.9471584"/>
 <node id="7929271528" visible="true" version="1" changeset="91248131" timestamp="2020-09-21T20:09:58Z" user="stargunru" uid="9133906" lat="55.6924873" lon="37.9479350"/>
 <node id="7929271529" visible="true" version="1" changeset="91248131" timestamp="2020-09-21T20:09:58Z" user="stargunru" uid="9133906" lat="55.6927315" lon="37.9471994"/>
 <node id="9469015262" visible="true" version="1" changeset="116919980" timestamp="2022-02-02T15:55:37Z" user="lossev artom" uid="14998786" lat="55.6910511" lon="37.9416246"/>
 <node id="9469015263" visible="true" version="1" changeset="116919980" timestamp="2022-02-02T15:55:37Z" user="lossev artom" uid="14998786" lat="55.6909811" lon="37.9415537"/>
 <node id="9469015264" visible="true" version="1" changeset="116919980" timestamp="2022-02-02T15:55:37Z" user="lossev artom" uid="14998786" lat="55.6907177" lon="37.9423522"/>
 <node id="9469015265" visible="true" version="1" changeset="116919980" timestamp="2022-02-02T15:55:37Z" user="lossev artom" uid="14998786" lat="55.6907911" lon="37.9424173"/>
 <node id="9702760550" visible="true" version="1" changeset="120343418" timestamp="2022-04-29T11:05:14Z" user="Spjasshka" uid="7714489" lat="55.6908863" lon="37.9461823"/>
 <node id="10582098256" visible="true" version="1" changeset="131702123" timestamp="2023-01-25T16:11:44Z" user="neo-plan" uid="363136" lat="55.6911609" lon="37.9388144">
  <tag k="crossing" v="uncontrolled"/>
  <tag k="highway" v="crossing"/>
 </node>
 <node id="11343688447" visible="true" version="1" changeset="143939379" timestamp="2023-11-12T16:06:37Z" user="Clacking" uid="16534415" lat="55.6866058" lon="37.9370030"/>
 <node id="12685722911" visible="true" version="1" changeset="163881325" timestamp="2025-03-20T21:14:50Z" user="neo-plan" uid="363136" lat="55.6914705" lon="37.9419392">
  <tag k="crossing" v="uncontrolled"/>
  <tag k="highway" v="crossing"/>
 </node>
 <node id="12898386538" visible="true" version="1" changeset="167374529" timestamp="2025-06-09T00:37:43Z" user="neo-plan" uid="363136" lat="55.6875219" lon="37.9377405">
  <tag k="barrier" v="lift_gate"/>
 </node>
 <node id="14006802707" visible="true" version="1" changeset="185606005" timestamp="2026-07-12T18:13:20Z" user="Ozon_OSM11" uid="22500096" lat="55.6901373" lon="37.9431820"/>
 <node id="14006802708" visible="true" version="1" changeset="185606005" timestamp="2026-07-12T18:13:20Z" user="Ozon_OSM11" uid="22500096" lat="55.6895325" lon="37.9449781"/>
 <node id="14006802709" visible="true" version="1" changeset="185606005" timestamp="2026-07-12T18:13:20Z" user="Ozon_OSM11" uid="22500096" lat="55.6893729" lon="37.9448090"/>
 <node id="14006802710" visible="true" version="1" changeset="185606005" timestamp="2026-07-12T18:13:20Z" user="Ozon_OSM11" uid="22500096" lat="55.6899775" lon="37.9430127"/>
 <way id="51576057" visible="true" version="4" changeset="120343418" timestamp="2022-04-29T11:05:14Z" user="Spjasshka" uid="7714489">
  <nd ref="659576058"/>
  <nd ref="659576070"/>
  <nd ref="659576072"/>
  <nd ref="659576073"/>
  <nd ref="659576074"/>
  <tag k="electrified" v="no"/>
  <tag k="gauge" v="1520"/>
  <tag k="railway" v="rail"/>
  <tag k="service" v="spur"/>
 </way>
 <way id="147917508" visible="true" version="2" changeset="163881325" timestamp="2025-03-20T21:14:50Z" user="neo-plan" uid="363136">
  <nd ref="1610463029"/>
  <nd ref="12685722911"/>
  <nd ref="1610463041"/>
  <nd ref="1610463082"/>
  <nd ref="1610463091"/>
  <tag k="highway" v="service"/>
 </way>
 <way id="147917516" visible="true" version="3" changeset="143130124" timestamp="2023-10-25T18:43:18Z" user="Guzalia" uid="16739048">
  <nd ref="1610463134"/>
  <nd ref="10582098256"/>
  <nd ref="1610463149"/>
  <nd ref="1610463156"/>
  <nd ref="1610463162"/>
  <nd ref="1610463172"/>
  <nd ref="1610463182"/>
  <nd ref="1610463218"/>
  <nd ref="1610463091"/>
  <nd ref="1610463224"/>
  <nd ref="1610463234"/>
  <nd ref="1610463238"/>
  <nd ref="1610463244"/>
  <nd ref="1610463251"/>
  <nd ref="1610463255"/>
  <nd ref="1610463257"/>
  <tag k="highway" v="service"/>
  <tag k="surface" v="asphalt"/>
 </way>
 <way id="356529660" visible="true" version="1" changeset="32223047" timestamp="2015-06-26T10:40:05Z" user="Gumeg" uid="467526">
  <nd ref="3619440937"/>
  <nd ref="3619440947"/>
  <nd ref="3619440951"/>
  <nd ref="3619440941"/>
  <nd ref="3619440948"/>
  <nd ref="3619440943"/>
  <nd ref="3619440944"/>
  <nd ref="3619440939"/>
  <nd ref="3619440938"/>
  <nd ref="3619440935"/>
  <nd ref="3619440931"/>
  <nd ref="3619440933"/>
  <nd ref="3619440930"/>
  <nd ref="3619440936"/>
  <nd ref="3619440937"/>
  <tag k="building" v="industrial"/>
 </way>
 <way id="656245091" visible="true" version="3" changeset="148971479" timestamp="2024-03-21T16:00:56Z" user="Gleb Shatko" uid="20485735">
  <nd ref="6147613769"/>
  <nd ref="6147613770"/>
  <nd ref="6147613771"/>
  <nd ref="6147613772"/>
  <nd ref="6147613773"/>
  <nd ref="6147613774"/>
  <nd ref="6147613775"/>
  <nd ref="6147613776"/>
  <nd ref="6147613777"/>
  <nd ref="6147613778"/>
  <nd ref="6147613779"/>
  <nd ref="6147613780"/>
  <nd ref="6147613781"/>
  <nd ref="6147613782"/>
  <nd ref="6147613783"/>
  <nd ref="6147613784"/>
  <nd ref="6147613769"/>
  <tag k="addr:city" v="Москва"/>
  <tag k="addr:housenumber" v="34 с8"/>
  <tag k="addr:street" v="2-я Вольская улица"/>
  <tag k="building" v="warehouse"/>
 </way>
 <way id="656245093" visible="true" version="2" changeset="116919980" timestamp="2022-02-02T15:55:37Z" user="lossev artom" uid="14998786">
  <nd ref="6147618789"/>
  <nd ref="6147618790"/>
  <nd ref="6147618791"/>
  <nd ref="6147618792"/>
  <nd ref="6147618793"/>
  <nd ref="6147618794"/>
  <nd ref="6147618795"/>
  <nd ref="6147618796"/>
  <nd ref="6147618789"/>
  <tag k="addr:housenumber" v="34 с5"/>
  <tag k="addr:street" v="2-я Вольская улица"/>
  <tag k="building" v="warehouse"/>
 </way>
 <way id="656245096" visible="true" version="2" changeset="91248131" timestamp="2020-09-21T20:09:58Z" user="stargunru" uid="9133906">
  <nd ref="1610463371"/>
  <nd ref="6147618832"/>
  <nd ref="6147618831"/>
  <nd ref="1610409774"/>
  <nd ref="1610409707"/>
  <nd ref="1610409704"/>
  <nd ref="1610409700"/>
  <nd ref="1610409915"/>
  <nd ref="7929271527"/>
  <nd ref="7929271529"/>
  <nd ref="7929271528"/>
  <nd ref="7929271525"/>
  <nd ref="1126969589"/>
  <nd ref="1126969609"/>
  <nd ref="954993316"/>
  <nd ref="954993307"/>
  <nd ref="954993125"/>
  <nd ref="954993435"/>
  <nd ref="1610463371"/>
  <tag k="landuse" v="industrial"/>
 </way>
 <way id="656245099" visible="true" version="3" changeset="148971479" timestamp="2024-03-21T16:00:56Z" user="Gleb Shatko" uid="20485735">
  <nd ref="6147618813"/>
  <nd ref="6147618814"/>
  <nd ref="6147618815"/>
  <nd ref="6147618816"/>
  <nd ref="6147618813"/>
  <tag k="addr:city" v="Москва"/>
  <tag k="addr:housenumber" v="34 с4"/>
  <tag k="addr:street" v="2-я Вольская улица"/>
  <tag k="building" v="yes"/>
 </way>
 <way id="656245100" visible="true" version="3" changeset="148971479" timestamp="2024-03-21T16:00:56Z" user="Gleb Shatko" uid="20485735">
  <nd ref="6147618817"/>
  <nd ref="6147618818"/>
  <nd ref="6147618819"/>
  <nd ref="6147618820"/>
  <nd ref="6147618817"/>
  <tag k="addr:city" v="Москва"/>
  <tag k="addr:housenumber" v="34 с6"/>
  <tag k="addr:street" v="2-я Вольская улица"/>
  <tag k="building" v="yes"/>
 </way>
 <way id="656245101" visible="true" version="4" changeset="148971479" timestamp="2024-03-21T16:00:56Z" user="Gleb Shatko" uid="20485735">
  <nd ref="6147618821"/>
  <nd ref="6147618822"/>
  <nd ref="6147618823"/>
  <nd ref="6147618824"/>
  <nd ref="6147618825"/>
  <nd ref="9702760550"/>
  <nd ref="6147618826"/>
  <nd ref="6147618821"/>
  <tag k="addr:city" v="Москва"/>
  <tag k="addr:housenumber" v="34 с10"/>
  <tag k="addr:street" v="2-я Вольская улица"/>
  <tag k="building" v="yes"/>
 </way>
 <way id="1027065583" visible="true" version="2" changeset="148971479" timestamp="2024-03-21T16:00:56Z" user="Gleb Shatko" uid="20485735">
  <nd ref="9469015262"/>
  <nd ref="9469015263"/>
  <nd ref="9469015264"/>
  <nd ref="9469015265"/>
  <nd ref="9469015262"/>
  <tag k="addr:city" v="Москва"/>
  <tag k="addr:housenumber" v="34"/>
  <tag k="addr:street" v="2-я Вольская улица"/>
  <tag k="building" v="industrial"/>
 </way>
 <way id="1222977462" visible="true" version="3" changeset="167374529" timestamp="2025-06-09T00:37:43Z" user="neo-plan" uid="363136">
  <nd ref="11343688447"/>
  <nd ref="954993271"/>
  <nd ref="1832854775"/>
  <nd ref="954993449"/>
  <nd ref="1832854696"/>
  <nd ref="1832854747"/>
  <nd ref="954993358"/>
  <nd ref="12898386538"/>
  <nd ref="954993180"/>
  <nd ref="954993406"/>
  <nd ref="954993233"/>
  <nd ref="954993247"/>
  <nd ref="954993435"/>
  <nd ref="954993125"/>
  <nd ref="954993307"/>
  <nd ref="954993316"/>
  <nd ref="954993348"/>
  <nd ref="954993160"/>
  <nd ref="954993267"/>
  <nd ref="954993399"/>
  <nd ref="954993287"/>
  <nd ref="954993426"/>
  <nd ref="954993309"/>
  <nd ref="954993437"/>
  <nd ref="954993335"/>
  <nd ref="954993131"/>
  <nd ref="954993239"/>
  <nd ref="954993383"/>
  <nd ref="954993277"/>
  <nd ref="954993359"/>
  <nd ref="954993183"/>
  <nd ref="954993401"/>
  <nd ref="954993229"/>
  <nd ref="954993430"/>
  <nd ref="954993269"/>
  <nd ref="954993347"/>
  <nd ref="954993157"/>
  <nd ref="954993356"/>
  <tag k="barrier" v="wall"/>
 </way>
 <way id="1537746297" visible="true" version="1" changeset="185606005" timestamp="2026-07-12T18:13:20Z" user="Ozon_OSM11" uid="22500096">
  <nd ref="14006802707"/>
  <nd ref="14006802708"/>
  <nd ref="14006802709"/>
  <nd ref="14006802710"/>
  <nd ref="14006802707"/>
  <tag k="building" v="yes"/>
 </way>
 <relation id="16686507" visible="true" version="2" changeset="152489111" timestamp="2024-06-10T09:50:46Z" user="literan" uid="830106">
  <member type="way" ref="1290875744" role="outer"/>
  <member type="way" ref="81960997" role="outer"/>
  <member type="way" ref="1222977463" role="outer"/>
  <member type="way" ref="1222977462" role="outer"/>
  <member type="way" ref="1290875733" role="outer"/>
  <member type="way" ref="1290875739" role="outer"/>
  <member type="way" ref="1290875740" role="outer"/>
  <member type="way" ref="1155777817" role="outer"/>
  <tag k="landuse" v="industrial"/>
  <tag k="man_made" v="wastewater_plant"/>
  <tag k="name" v="Люберецкая станция аэрации"/>
  <tag k="name:uk" v="Люберецька станція аерації"/>
  <tag k="operator" v="АО «Мосводоканал»"/>
  <tag k="type" v="multipolygon"/>
 </relation>
</osm>
