<?xml version="1.0" encoding="UTF-8"?>
<osm version="0.6" generator="openstreetmap-cgimap 2.1.0 (244707 spike-07.openstreetmap.org)" copyright="OpenStreetMap and contributors" attribution="http://www.openstreetmap.org/copyright" license="http://opendatacommons.org/licenses/odbl/1-0/">
 <bounds minlat="55.7112882" minlon="37.9411596" maxlat="55.7139831" maxlon="37.9459434"/>
 <node id="5003696101" visible="true" version="4" changeset="135719132" timestamp="2023-05-04T22:32:30Z" user="neo-plan" uid="363136" lat="55.7087916" lon="37.9425732"/>
 <node id="6150747810" visible="true" version="8" changeset="100890566" timestamp="2021-03-12T08:20:09Z" user="literan" uid="830106" lat="55.7130976" lon="37.9426355"/>
 <node id="6150747811" visible="true" version="4" changeset="83194897" timestamp="2020-04-07T11:36:47Z" user="et2t7121" uid="3097362" lat="55.7126369" lon="37.9443420"/>
 <node id="6150747812" visible="true" version="5" changeset="83194897" timestamp="2020-04-07T11:36:47Z" user="et2t7121" uid="3097362" lat="55.7122169" lon="37.9459161"/>
 <node id="6150747816" visible="true" version="5" changeset="83194897" timestamp="2020-04-07T11:36:47Z" user="et2t7121" uid="3097362" lat="55.7128241" lon="37.9436406"/>
 <node id="6150747817" visible="true" version="7" changeset="117507067" timestamp="2022-02-17T07:57:31Z" user="literan" uid="830106" lat="55.7120999" lon="37.9463558"/>
 <node id="6150747825" visible="true" version="5" changeset="83194897" timestamp="2020-04-07T11:36:47Z" user="et2t7121" uid="3097362" lat="55.7136676" lon="37.9449671"/>
 <node id="6150747826" visible="true" version="5" changeset="109596825" timestamp="2021-08-12T22:57:34Z" user="neo-plan" uid="363136" lat="55.7124573" lon="37.9494021"/>
 <node id="6414191896" visible="true" version="3" changeset="83155912" timestamp="2020-04-06T16:01:37Z" user="et2t7121" uid="3097362" lat="55.7140762" lon="37.9426520"/>
 <node id="6414191897" visible="true" version="3" changeset="83155912" timestamp="2020-04-06T16:01:37Z" user="et2t7121" uid="3097362" lat="55.7140365" lon="37.9427975"/>
 <node id="6414191898" visible="true" version="3" changeset="83155912" timestamp="2020-04-06T16:01:37Z" user="et2t7121" uid="3097362" lat="55.7137806" lon="37.9421900"/>
 <node id="6414191900" visible="true" version="3" changeset="83155912" timestamp="2020-04-06T16:01:37Z" user="et2t7121" uid="3097362" lat="55.7134138" lon="37.9418891"/>
 <node id="6414191901" visible="true" version="3" changeset="83155912" timestamp="2020-04-06T16:01:37Z" user="et2t7121" uid="3097362" lat="55.7132042" lon="37.9427167"/>
 <node id="6414191902" visible="true" version="4" changeset="100890566" timestamp="2021-03-12T08:20:09Z" user="literan" uid="830106" lat="55.7128053" lon="37.9411559"/>
 <node id="6414191903" visible="true" version="4" changeset="100890566" timestamp="2021-03-12T08:20:09Z" user="literan" uid="830106" lat="55.7129761" lon="37.9411388"/>
 <node id="6414191905" visible="true" version="3" changeset="83155912" timestamp="2020-04-06T16:01:37Z" user="et2t7121" uid="3097362" lat="55.7138210" lon="37.9424327"/>
 <node id="6414191906" visible="true" version="3" changeset="83155912" timestamp="2020-04-06T16:01:37Z" user="et2t7121" uid="3097362" lat="55.7132661" lon="37.9429840"/>
 <node id="6414191907" visible="true" version="4" changeset="100890566" timestamp="2021-03-12T08:20:09Z" user="literan" uid="830106" lat="55.7127138" lon="37.9416375"/>
 <node id="6414191909" visible="true" version="3" changeset="83155912" timestamp="2020-04-06T16:01:37Z" user="et2t7121" uid="3097362" lat="55.7131138" lon="37.9430406"/>
 <node id="6414191912" visible="true" version="3" changeset="83155912" timestamp="2020-04-06T16:01:37Z" user="et2t7121" uid="3097362" lat="55.7135417" lon="37.9430137"/>
 <node id="6414191913" visible="true" version="3" changeset="83155912" timestamp="2020-04-06T16:01:37Z" user="et2t7121" uid="3097362" lat="55.7134649" lon="37.9416927"/>
 <node id="6414191914" visible="true" version="3" changeset="83155912" timestamp="2020-04-06T16:01:37Z" user="et2t7121" uid="3097362" lat="55.7138317" lon="37.9419935"/>
 <node id="6414191915" visible="true" version="4" changeset="100890566" timestamp="2021-03-12T08:20:09Z" user="literan" uid="830106" lat="55.7126274" lon="37.9414943"/>
 <node id="6414191917" visible="true" version="3" changeset="83155912" timestamp="2020-04-06T16:01:37Z" user="et2t7121" uid="3097362" lat="55.7141395" lon="37.9428861"/>
 <node id="6414191921" visible="true" version="3" changeset="83155912" timestamp="2020-04-06T16:01:37Z" user="et2t7121" uid="3097362" lat="55.7138732" lon="37.9422413"/>
 <node id="6414191922" visible="true" version="3" changeset="83155912" timestamp="2020-04-06T16:01:37Z" user="et2t7121" uid="3097362" lat="55.7142314" lon="37.9425492"/>
 <node id="6414193434" visible="true" version="3" changeset="117507067" timestamp="2022-02-17T07:57:31Z" user="literan" uid="830106" lat="55.7117534" lon="37.9386583"/>
 <node id="6414193437" visible="true" version="4" changeset="117507067" timestamp="2022-02-17T07:57:31Z" user="literan" uid="830106" lat="55.7144407" lon="37.9424107"/>
 <node id="6414193438" visible="true" version="3" changeset="117507067" timestamp="2022-02-17T07:57:31Z" user="literan" uid="830106" lat="55.7130755" lon="37.9406834"/>
 <node id="6414193440" visible="true" version="5" changeset="117507067" timestamp="2022-02-17T07:57:31Z" user="literan" uid="830106" lat="55.7124598" lon="37.9495977"/>
 <node id="6440884000" visible="true" version="4" changeset="117507067" timestamp="2022-02-17T07:57:31Z" user="literan" uid="830106" lat="55.7130546" lon="37.9452711"/>
 <node id="6440884006" visible="true" version="4" changeset="117507067" timestamp="2022-02-17T07:57:31Z" user="literan" uid="830106" lat="55.7126480" lon="37.9451716"/>
 <node id="6440884007" visible="true" version="4" changeset="117507067" timestamp="2022-02-17T07:57:31Z" user="literan" uid="830106" lat="55.7125009" lon="37.9452258"/>
 <node id="6440884011" visible="true" version="4" changeset="117507067" timestamp="2022-02-17T07:57:31Z" user="literan" uid="830106" lat="55.7129280" lon="37.9451904"/>
 <node id="6440884026" visible="true" version="4" changeset="117507067" timestamp="2022-02-17T07:57:31Z" user="literan" uid="830106" lat="55.7125911" lon="37.9448981"/>
 <node id="6440884033" visible="true" version="4" changeset="117507067" timestamp="2022-02-17T07:57:31Z" user="literan" uid="830106" lat="55.7126076" lon="37.9453183"/>
 <node id="6440884035" visible="true" version="4" changeset="117507067" timestamp="2022-02-17T07:57:31Z" user="literan" uid="830106" lat="55.7129820" lon="37.9467075"/>
 <node id="6440884036" visible="true" version="4" changeset="117507067" timestamp="2022-02-17T07:57:31Z" user="literan" uid="830106" lat="55.7130292" lon="37.9470088"/>
 <node id="6440884039" visible="true" version="4" changeset="117507067" timestamp="2022-02-17T07:57:31Z" user="literan" uid="830106" lat="55.7130042" lon="37.9454542"/>
 <node id="6440884040" visible="true" version="3" changeset="117507067" timestamp="2022-02-17T07:57:31Z" user="literan" uid="830106" lat="55.7125917" lon="37.9463935"/>
 <node id="6440884041" visible="true" version="4" changeset="117507067" timestamp="2022-02-17T07:57:31Z" user="literan" uid="830106" lat="55.7132648" lon="37.9456802"/>
 <node id="6440884045" visible="true" version="4" changeset="117507067" timestamp="2022-02-17T07:57:31Z" user="literan" uid="830106" lat="55.7127943" lon="37.9468050"/>
 <node id="6440884046" visible="true" version="3" changeset="117507067" timestamp="2022-02-17T07:57:31Z" user="literan" uid="830106" lat="55.7125404" lon="37.9465799"/>
 <node id="6440884047" visible="true" version="4" changeset="117507067" timestamp="2022-02-17T07:57:31Z" user="literan" uid="830106" lat="55.7128782" lon="37.9453713"/>
 <node id="6440884048" visible="true" version="4" changeset="117507067" timestamp="2022-02-17T07:57:31Z" user="literan" uid="830106" lat="55.7128521" lon="37.9465948"/>
 <node id="6440884049" visible="true" version="3" changeset="117507067" timestamp="2022-02-17T07:57:31Z" user="literan" uid="830106" lat="55.7123480" lon="37.9461820"/>
 <node id="6440884051" visible="true" version="3" changeset="117507067" timestamp="2022-02-17T07:57:31Z" user="literan" uid="830106" lat="55.7121910" lon="37.9462768"/>
 <node id="6440884052" visible="true" version="4" changeset="117507067" timestamp="2022-02-17T07:57:31Z" user="literan" uid="830106" lat="55.7134203" lon="37.9455883"/>
 <node id="6440884053" visible="true" version="3" changeset="117507067" timestamp="2022-02-17T07:57:31Z" user="literan" uid="830106" lat="55.7123826" lon="37.9455811"/>
 <node id="6440884054" visible="true" version="3" changeset="117507067" timestamp="2022-02-17T07:57:31Z" user="literan" uid="830106" lat="55.7124882" lon="37.9456727"/>
 <node id="6603451526" visible="true" version="2" changeset="83155912" timestamp="2020-04-06T16:01:37Z" user="et2t7121" uid="3097362" lat="55.7136365" lon="37.9430904"/>
 <node id="6603451527" visible="true" version="2" changeset="83155912" timestamp="2020-04-06T16:01:37Z" user="et2t7121" uid="3097362" lat="55.7139888" lon="37.9433889"/>
 <node id="6603451528" visible="true" version="2" changeset="83155912" timestamp="2020-04-06T16:01:37Z" user="et2t7121" uid="3097362" lat="55.7136250" lon="37.9447420"/>
 <node id="6603451529" visible="true" version="2" changeset="83155912" timestamp="2020-04-06T16:01:37Z" user="et2t7121" uid="3097362" lat="55.7135696" lon="37.9444834"/>
 <node id="6603451530" visible="true" version="2" changeset="83155912" timestamp="2020-04-06T16:01:37Z" user="et2t7121" uid="3097362" lat="55.7138375" lon="37.9434874"/>
 <node id="6603451531" visible="true" version="2" changeset="83155912" timestamp="2020-04-06T16:01:37Z" user="et2t7121" uid="3097362" lat="55.7135869" lon="37.9432750"/>
 <node id="6700745097" visible="true" version="4" changeset="83194897" timestamp="2020-04-07T11:36:47Z" user="et2t7121" uid="3097362" lat="55.7129431" lon="37.9476823"/>
 <node id="6700745098" visible="true" version="4" changeset="83194897" timestamp="2020-04-07T11:36:47Z" user="et2t7121" uid="3097362" lat="55.7119651" lon="37.9468600"/>
 <node id="7372748980" visible="true" version="3" changeset="83194897" timestamp="2020-04-07T11:36:47Z" user="et2t7121" uid="3097362" lat="55.7137308" lon="37.9424741"/>
 <node id="7372748981" visible="true" version="2" changeset="83194897" timestamp="2020-04-07T11:36:47Z" user="et2t7121" uid="3097362" lat="55.7139598" lon="37.9426690"/>
 <node id="7372748982" visible="true" version="2" changeset="83194897" timestamp="2020-04-07T11:36:47Z" user="et2t7121" uid="3097362" lat="55.7139148" lon="37.9428356"/>
 <node id="7372748983" visible="true" version="3" changeset="83194897" timestamp="2020-04-07T11:36:47Z" user="et2t7121" uid="3097362" lat="55.7141775" lon="37.9430592"/>
 <node id="7372748984" visible="true" version="3" changeset="83194897" timestamp="2020-04-07T11:36:47Z" user="et2t7121" uid="3097362" lat="55.7138774" lon="37.9419313"/>
 <node id="7372780185" visible="true" version="3" changeset="83194897" timestamp="2020-04-07T11:36:47Z" user="et2t7121" uid="3097362" lat="55.7137561" lon="37.9423804"/>
 <node id="7372780186" visible="true" version="3" changeset="83194897" timestamp="2020-04-07T11:36:47Z" user="et2t7121" uid="3097362" lat="55.7132778" lon="37.9419734"/>
 <node id="7372780187" visible="true" version="3" changeset="117507067" timestamp="2022-02-17T07:57:31Z" user="literan" uid="830106" lat="55.7124950" lon="37.9461104"/>
 <node id="7372780188" visible="true" version="3" changeset="117507067" timestamp="2022-02-17T07:57:31Z" user="literan" uid="830106" lat="55.7126077" lon="37.9467963"/>
 <node id="7372780189" visible="true" version="3" changeset="117507067" timestamp="2022-02-17T07:57:31Z" user="literan" uid="830106" lat="55.7127384" lon="37.9463215"/>
 <node id="7372780190" visible="true" version="3" changeset="117507067" timestamp="2022-02-17T07:57:31Z" user="literan" uid="830106" lat="55.7129024" lon="37.9464638"/>
 <node id="7372780191" visible="true" version="3" changeset="117507067" timestamp="2022-02-17T07:57:31Z" user="literan" uid="830106" lat="55.7130994" lon="37.9457483"/>
 <node id="7372780192" visible="true" version="3" changeset="117507067" timestamp="2022-02-17T07:57:31Z" user="literan" uid="830106" lat="55.7126920" lon="37.9453950"/>
 <node id="7372780193" visible="true" version="3" changeset="117507067" timestamp="2022-02-17T07:57:31Z" user="literan" uid="830106" lat="55.7126479" lon="37.9455552"/>
 <node id="7372780194" visible="true" version="4" changeset="117507067" timestamp="2022-02-17T07:57:31Z" user="literan" uid="830106" lat="55.7123761" lon="37.9453194"/>
 <node id="7372780195" visible="true" version="4" changeset="117507067" timestamp="2022-02-17T07:57:31Z" user="literan" uid="830106" lat="55.7130722" lon="37.9471981"/>
 <node id="7372780196" visible="true" version="3" changeset="83194897" timestamp="2020-04-07T11:36:47Z" user="et2t7121" uid="3097362" lat="55.7129681" lon="37.9431007"/>
 <node id="7372780197" visible="true" version="3" changeset="100890566" timestamp="2021-03-12T08:20:09Z" user="literan" uid="830106" lat="55.7132452" lon="37.9433364"/>
 <node id="7372780198" visible="true" version="2" changeset="83194897" timestamp="2020-04-07T11:36:47Z" user="et2t7121" uid="3097362" lat="55.7132973" lon="37.9446521"/>
 <node id="7372780199" visible="true" version="2" changeset="83194897" timestamp="2020-04-07T11:36:47Z" user="et2t7121" uid="3097362" lat="55.7134188" lon="37.9442021"/>
 <node id="7372780200" visible="true" version="3" changeset="100890566" timestamp="2021-03-12T08:20:09Z" user="literan" uid="830106" lat="55.7130876" lon="37.9439202"/>
 <node id="7372780201" visible="true" version="3" changeset="100890566" timestamp="2021-03-12T08:20:09Z" user="literan" uid="830106" lat="55.7132944" lon="37.9431463"/>
 <node id="7372780202" visible="true" version="3" changeset="83194897" timestamp="2020-04-07T11:36:47Z" user="et2t7121" uid="3097362" lat="55.7135323" lon="37.9433488"/>
 <node id="7372780203" visible="true" version="3" changeset="83194897" timestamp="2020-04-07T11:36:47Z" user="et2t7121" uid="3097362" lat="55.7136467" lon="37.9429251"/>
 <node id="7372780204" visible="true" version="3" changeset="83194897" timestamp="2020-04-07T11:36:47Z" user="et2t7121" uid="3097362" lat="55.7141078" lon="37.9433174"/>
 <node id="7372780205" visible="true" version="3" changeset="83194897" timestamp="2020-04-07T11:36:47Z" user="et2t7121" uid="3097362" lat="55.7131378" lon="37.9424920"/>
 <node id="7372780206" visible="true" version="2" changeset="83194897" timestamp="2020-04-07T11:36:47Z" user="et2t7121" uid="3097362" lat="55.7133991" lon="37.9415243"/>
 <node id="7372780207" visible="true" version="2" changeset="83194996" timestamp="2020-04-07T11:38:33Z" user="et2t7121" uid="3097362" lat="55.7126055" lon="37.9421805"/>
 <node id="7372780208" visible="true" version="2" changeset="100890566" timestamp="2021-03-12T08:20:09Z" user="literan" uid="830106" lat="55.7131269" lon="37.9411608"/>
 <node id="7372780209" visible="true" version="3" changeset="83194897" timestamp="2020-04-07T11:36:47Z" user="et2t7121" uid="3097362" lat="55.7143691" lon="37.9423498"/>
 <node id="7372780211" visible="true" version="3" changeset="83194897" timestamp="2020-04-07T11:36:47Z" user="et2t7121" uid="3097362" lat="55.7126917" lon="37.9441368"/>
 <node id="7372780212" visible="true" version="3" changeset="117507067" timestamp="2022-02-17T07:57:31Z" user="literan" uid="830106" lat="55.7117247" lon="37.9491833"/>
 <node id="7372780218" visible="true" version="2" changeset="83194996" timestamp="2020-04-07T11:38:33Z" user="et2t7121" uid="3097362" lat="55.7120956" lon="37.9412090"/>
 <node id="7372780219" visible="true" version="4" changeset="106648528" timestamp="2021-06-19T23:08:35Z" user="neo-plan" uid="363136" lat="55.7112001" lon="37.9394849"/>
 <node id="7372796109" visible="true" version="1" changeset="83155912" timestamp="2020-04-06T16:01:37Z" user="et2t7121" uid="3097362" lat="55.7134835" lon="37.9444104"/>
 <node id="7372796110" visible="true" version="1" changeset="83155912" timestamp="2020-04-06T16:01:37Z" user="et2t7121" uid="3097362" lat="55.7134371" lon="37.9445828"/>
 <node id="7372796111" visible="true" version="1" changeset="83155912" timestamp="2020-04-06T16:01:37Z" user="et2t7121" uid="3097362" lat="55.7134940" lon="37.9431845"/>
 <node id="7372796112" visible="true" version="1" changeset="83155912" timestamp="2020-04-06T16:01:37Z" user="et2t7121" uid="3097362" lat="55.7132234" lon="37.9431370"/>
 <node id="7375176226" visible="true" version="3" changeset="117507067" timestamp="2022-02-17T07:57:31Z" user="literan" uid="830106" lat="55.7135242" lon="37.9455041"/>
 <node id="7375176227" visible="true" version="3" changeset="117507067" timestamp="2022-02-17T07:57:31Z" user="literan" uid="830106" lat="55.7125520" lon="37.9446608"/>
 <node id="7375176228" visible="true" version="3" changeset="100890566" timestamp="2021-03-12T08:20:09Z" user="literan" uid="830106" lat="55.7116850" lon="37.9404295"/>
 <node id="7375176231" visible="true" version="3" changeset="100890566" timestamp="2021-03-12T08:20:09Z" user="literan" uid="830106" lat="55.7115108" lon="37.9400966"/>
 <node id="7375176232" visible="true" version="2" changeset="83194996" timestamp="2020-04-07T11:38:33Z" user="et2t7121" uid="3097362" lat="55.7121759" lon="37.9413619"/>
 <node id="7375176233" visible="true" version="1" changeset="83193060" timestamp="2020-04-07T11:02:43Z" user="et2t7121" uid="3097362" lat="55.7124621" lon="37.9408336"/>
 <node id="7375176234" visible="true" version="1" changeset="83193060" timestamp="2020-04-07T11:02:43Z" user="et2t7121" uid="3097362" lat="55.7126736" lon="37.9411930"/>
 <node id="7375176235" visible="true" version="2" changeset="83194996" timestamp="2020-04-07T11:38:33Z" user="et2t7121" uid="3097362" lat="55.7123889" lon="37.9417679"/>
 <node id="7577179305" visible="true" version="2" changeset="141711686" timestamp="2023-09-25T04:42:47Z" user="Dmitriy Nikolin" uid="20137446" lat="55.7136022" lon="37.9413466"/>
 <node id="7577179306" visible="true" version="4" changeset="131666184" timestamp="2023-01-24T19:19:43Z" user="literan" uid="830106" lat="55.7127763" lon="37.9400450"/>
 <node id="7625708973" visible="true" version="3" changeset="117507067" timestamp="2022-02-17T07:57:31Z" user="literan" uid="830106" lat="55.7095774" lon="37.9453933"/>
 <node id="7629429025" visible="true" version="4" changeset="117507067" timestamp="2022-02-17T07:57:31Z" user="literan" uid="830106" lat="55.7125913" lon="37.9400161"/>
 <node id="7668849534" visible="true" version="1" changeset="87332679" timestamp="2020-06-30T07:52:15Z" user="cservice_ltd" uid="10852429" lat="55.7130011" lon="37.9433439"/>
 <node id="7668849535" visible="true" version="1" changeset="87332679" timestamp="2020-06-30T07:52:15Z" user="cservice_ltd" uid="10852429" lat="55.7131339" lon="37.9434589"/>
 <node id="7668849536" visible="true" version="1" changeset="87332679" timestamp="2020-06-30T07:52:15Z" user="cservice_ltd" uid="10852429" lat="55.7129892" lon="37.9439853"/>
 <node id="7668849537" visible="true" version="1" changeset="87332679" timestamp="2020-06-30T07:52:15Z" user="cservice_ltd" uid="10852429" lat="55.7132389" lon="37.9442016"/>
 <node id="7668849538" visible="true" version="1" changeset="87332679" timestamp="2020-06-30T07:52:15Z" user="cservice_ltd" uid="10852429" lat="55.7131834" lon="37.9444032"/>
 <node id="7668849539" visible="true" version="1" changeset="87332679" timestamp="2020-06-30T07:52:15Z" user="cservice_ltd" uid="10852429" lat="55.7128009" lon="37.9440717"/>
 <node id="7991068266" visible="true" version="3" changeset="141711686" timestamp="2023-09-25T04:42:47Z" user="Dmitriy Nikolin" uid="20137446" lat="55.7145369" lon="37.9421875"/>
 <node id="8509481237" visible="true" version="3" changeset="135719132" timestamp="2023-05-04T22:32:30Z" user="neo-plan" uid="363136" lat="55.7107364" lon="37.9404751"/>
 <node id="8509481239" visible="true" version="2" changeset="117507067" timestamp="2022-02-17T07:57:31Z" user="literan" uid="830106" lat="55.7099960" lon="37.9465789"/>
 <node id="8509481242" visible="true" version="1" changeset="100890566" timestamp="2021-03-12T08:20:09Z" user="literan" uid="830106" lat="55.7138307" lon="37.9428920"/>
 <node id="8509481243" visible="true" version="1" changeset="100890566" timestamp="2021-03-12T08:20:09Z" user="literan" uid="830106" lat="55.7137857" lon="37.9428533"/>
 <node id="8509481244" visible="true" version="1" changeset="100890566" timestamp="2021-03-12T08:20:09Z" user="literan" uid="830106" lat="55.7138094" lon="37.9427663"/>
 <node id="8509481245" visible="true" version="1" changeset="100890566" timestamp="2021-03-12T08:20:09Z" user="literan" uid="830106" lat="55.7138544" lon="37.9428050"/>
 <node id="8509481246" visible="true" version="1" changeset="100890566" timestamp="2021-03-12T08:20:09Z" user="literan" uid="830106" lat="55.7124243" lon="37.9400137"/>
 <node id="8509481247" visible="true" version="1" changeset="100890566" timestamp="2021-03-12T08:20:09Z" user="literan" uid="830106" lat="55.7119475" lon="37.9409323"/>
 <node id="8509481248" visible="true" version="1" changeset="100890566" timestamp="2021-03-12T08:20:09Z" user="literan" uid="830106" lat="55.7118788" lon="37.9407963"/>
 <node id="8509481249" visible="true" version="1" changeset="100890566" timestamp="2021-03-12T08:20:09Z" user="literan" uid="830106" lat="55.7123505" lon="37.9398876"/>
 <node id="8509481250" visible="true" version="1" changeset="100890566" timestamp="2021-03-12T08:20:09Z" user="literan" uid="830106" lat="55.7112997" lon="37.9396859"/>
 <node id="8509481251" visible="true" version="1" changeset="100890566" timestamp="2021-03-12T08:20:09Z" user="literan" uid="830106" lat="55.7116824" lon="37.9389533"/>
 <node id="8509481252" visible="true" version="1" changeset="100890566" timestamp="2021-03-12T08:20:09Z" user="literan" uid="830106" lat="55.7117760" lon="37.9389507"/>
 <node id="8509481253" visible="true" version="2" changeset="117507067" timestamp="2022-02-17T07:57:31Z" user="literan" uid="830106" lat="55.7134669" lon="37.9412332"/>
 <node id="8509481265" visible="true" version="1" changeset="100890566" timestamp="2021-03-12T08:20:09Z" user="literan" uid="830106" lat="55.7127386" lon="37.9410454"/>
 <node id="8509481266" visible="true" version="1" changeset="100890566" timestamp="2021-03-12T08:20:09Z" user="literan" uid="830106" lat="55.7128229" lon="37.9408850"/>
 <node id="8849365180" visible="true" version="3" changeset="135719132" timestamp="2023-05-04T22:32:30Z" user="neo-plan" uid="363136" lat="55.7124834" lon="37.9494185"/>
 <node id="8849443585" visible="true" version="2" changeset="141711686" timestamp="2023-09-25T04:42:47Z" user="Dmitriy Nikolin" uid="20137446" lat="55.7134056" lon="37.9411063"/>
 <node id="9002482305" visible="true" version="1" changeset="109596763" timestamp="2021-08-12T22:55:47Z" user="neo-plan" uid="363136" lat="55.7130634" lon="37.9407897"/>
 <node id="9002482306" visible="true" version="1" changeset="109596763" timestamp="2021-08-12T22:55:47Z" user="neo-plan" uid="363136" lat="55.7132213" lon="37.9410455"/>
 <node id="9002482307" visible="true" version="1" changeset="109596763" timestamp="2021-08-12T22:55:47Z" user="neo-plan" uid="363136" lat="55.7133542" lon="37.9412119"/>
 <node id="9002482308" visible="true" version="1" changeset="109596763" timestamp="2021-08-12T22:55:47Z" user="neo-plan" uid="363136" lat="55.7135520" lon="37.9414368"/>
 <node id="9002482309" visible="true" version="1" changeset="109596763" timestamp="2021-08-12T22:55:47Z" user="neo-plan" uid="363136" lat="55.7140973" lon="37.9419004"/>
 <node id="9002482310" visible="true" version="1" changeset="109596763" timestamp="2021-08-12T22:55:47Z" user="neo-plan" uid="363136" lat="55.7143526" lon="37.9421161"/>
 <node id="9002482311" visible="true" version="1" changeset="109596763" timestamp="2021-08-12T22:55:47Z" user="neo-plan" uid="363136" lat="55.7143874" lon="37.9421623"/>
 <node id="9002482312" visible="true" version="1" changeset="109596763" timestamp="2021-08-12T22:55:47Z" user="neo-plan" uid="363136" lat="55.7144125" lon="37.9422317"/>
 <node id="9002482313" visible="true" version="1" changeset="109596763" timestamp="2021-08-12T22:55:47Z" user="neo-plan" uid="363136" lat="55.7144264" lon="37.9423102"/>
 <node id="9002482314" visible="true" version="1" changeset="109596763" timestamp="2021-08-12T22:55:47Z" user="neo-plan" uid="363136" lat="55.7144290" lon="37.9423811"/>
 <node id="9002482315" visible="true" version="1" changeset="109596763" timestamp="2021-08-12T22:55:47Z" user="neo-plan" uid="363136" lat="55.7141585" lon="37.9433633"/>
 <node id="9002482316" visible="true" version="2" changeset="109596825" timestamp="2021-08-12T22:57:34Z" user="neo-plan" uid="363136" lat="55.7125097" lon="37.9493626"/>
 <node id="9002501376" visible="true" version="1" changeset="109596633" timestamp="2021-08-12T22:47:47Z" user="neo-plan" uid="363136" lat="55.7142030" lon="37.9434036"/>
 <node id="9002520717" visible="true" version="1" changeset="109596763" timestamp="2021-08-12T22:55:47Z" user="neo-plan" uid="363136" lat="55.7144252" lon="37.9423950"/>
 <node id="9513049051" visible="true" version="1" changeset="117507067" timestamp="2022-02-17T07:57:31Z" user="literan" uid="830106" lat="55.7144150" lon="37.9421224"/>
 <node id="9513049052" visible="true" version="1" changeset="117507067" timestamp="2022-02-17T07:57:31Z" user="literan" uid="830106" lat="55.7144399" lon="37.9421975"/>
 <node id="9513049053" visible="true" version="1" changeset="117507067" timestamp="2022-02-17T07:57:31Z" user="literan" uid="830106" lat="55.7144505" lon="37.9422685"/>
 <node id="9513049054" visible="true" version="1" changeset="117507067" timestamp="2022-02-17T07:57:31Z" user="literan" uid="830106" lat="55.7144505" lon="37.9423423"/>
 <node id="9513049055" visible="true" version="1" changeset="117507067" timestamp="2022-02-17T07:57:31Z" user="literan" uid="830106" lat="55.7143825" lon="37.9420781"/>
 <node id="9513049056" visible="true" version="1" changeset="117507067" timestamp="2022-02-17T07:57:31Z" user="literan" uid="830106" lat="55.7138416" lon="37.9416302"/>
 <node id="9513049057" visible="true" version="1" changeset="117507067" timestamp="2022-02-17T07:57:31Z" user="literan" uid="830106" lat="55.7125588" lon="37.9398170"/>
 <node id="9513049058" visible="true" version="1" changeset="117507067" timestamp="2022-02-17T07:57:31Z" user="literan" uid="830106" lat="55.7117802" lon="37.9386335"/>
 <node id="9513049059" visible="true" version="1" changeset="117507067" timestamp="2022-02-17T07:57:31Z" user="literan" uid="830106" lat="55.7118021" lon="37.9386308"/>
 <node id="9513049060" visible="true" version="1" changeset="117507067" timestamp="2022-02-17T07:57:31Z" user="literan" uid="830106" lat="55.7118278" lon="37.9386362"/>
 <node id="9513049061" visible="true" version="1" changeset="117507067" timestamp="2022-02-17T07:57:31Z" user="literan" uid="830106" lat="55.7118471" lon="37.9386556"/>
 <node id="9513049072" visible="true" version="1" changeset="117507067" timestamp="2022-02-17T07:57:31Z" user="literan" uid="830106" lat="55.7096923" lon="37.9457635"/>
 <node id="9513049073" visible="true" version="1" changeset="117507067" timestamp="2022-02-17T07:57:31Z" user="literan" uid="830106" lat="55.7096741" lon="37.9459029"/>
 <node id="9513049074" visible="true" version="1" changeset="117507067" timestamp="2022-02-17T07:57:31Z" user="literan" uid="830106" lat="55.7098630" lon="37.9463750"/>
 <node id="9513049075" visible="true" version="1" changeset="117507067" timestamp="2022-02-17T07:57:31Z" user="literan" uid="830106" lat="55.7102408" lon="37.9470134"/>
 <node id="9513049076" visible="true" version="1" changeset="117507067" timestamp="2022-02-17T07:57:31Z" user="literan" uid="830106" lat="55.7103345" lon="37.9472360"/>
 <node id="9513049077" visible="true" version="1" changeset="117507067" timestamp="2022-02-17T07:57:31Z" user="literan" uid="830106" lat="55.7104614" lon="37.9474372"/>
 <node id="9513049078" visible="true" version="1" changeset="117507067" timestamp="2022-02-17T07:57:31Z" user="literan" uid="830106" lat="55.7107092" lon="37.9478422"/>
 <node id="9513049079" visible="true" version="1" changeset="117507067" timestamp="2022-02-17T07:57:31Z" user="literan" uid="830106" lat="55.7107153" lon="37.9477268"/>
 <node id="9513049080" visible="true" version="1" changeset="117507067" timestamp="2022-02-17T07:57:31Z" user="literan" uid="830106" lat="55.7112593" lon="37.9485342"/>
 <node id="9513049081" visible="true" version="1" changeset="117507067" timestamp="2022-02-17T07:57:31Z" user="literan" uid="830106" lat="55.7112683" lon="37.9486603"/>
 <node id="9513049082" visible="true" version="1" changeset="117507067" timestamp="2022-02-17T07:57:31Z" user="literan" uid="830106" lat="55.7114708" lon="37.9489151"/>
 <node id="9513049083" visible="true" version="1" changeset="117507067" timestamp="2022-02-17T07:57:31Z" user="literan" uid="830106" lat="55.7122724" lon="37.9496942"/>
 <node id="9513049084" visible="true" version="1" changeset="117507067" timestamp="2022-02-17T07:57:31Z" user="literan" uid="830106" lat="55.7123329" lon="37.9497170"/>
 <node id="9513049085" visible="true" version="1" changeset="117507067" timestamp="2022-02-17T07:57:31Z" user="literan" uid="830106" lat="55.7123699" lon="37.9497090"/>
 <node id="9513049086" visible="true" version="1" changeset="117507067" timestamp="2022-02-17T07:57:31Z" user="literan" uid="830106" lat="55.7124046" lon="37.9496862"/>
 <node id="9513049087" visible="true" version="1" changeset="117507067" timestamp="2022-02-17T07:57:31Z" user="literan" uid="830106" lat="55.7124356" lon="37.9496527"/>
 <node id="9513049088" visible="true" version="1" changeset="117507067" timestamp="2022-02-17T07:57:31Z" user="literan" uid="830106" lat="55.7125165" lon="37.9494113"/>
 <node id="9513049089" visible="true" version="1" changeset="117507067" timestamp="2022-02-17T07:57:31Z" user="literan" uid="830106" lat="55.7127591" lon="37.9447496"/>
 <node id="9513049090" visible="true" version="1" changeset="117507067" timestamp="2022-02-17T07:57:31Z" user="literan" uid="830106" lat="55.7127204" lon="37.9447161"/>
 <node id="9513049091" visible="true" version="1" changeset="117507067" timestamp="2022-02-17T07:57:31Z" user="literan" uid="830106" lat="55.7127400" lon="37.9446450"/>
 <node id="9513049092" visible="true" version="1" changeset="117507067" timestamp="2022-02-17T07:57:31Z" user="literan" uid="830106" lat="55.7127786" lon="37.9446785"/>
 <node id="9513049093" visible="true" version="1" changeset="117507067" timestamp="2022-02-17T07:57:31Z" user="literan" uid="830106" lat="55.7128394" lon="37.9446761"/>
 <node id="9513049094" visible="true" version="1" changeset="117507067" timestamp="2022-02-17T07:57:31Z" user="literan" uid="830106" lat="55.7128048" lon="37.9448018"/>
 <node id="9513049095" visible="true" version="1" changeset="117507067" timestamp="2022-02-17T07:57:31Z" user="literan" uid="830106" lat="55.7134347" lon="37.9453483"/>
 <node id="9513049096" visible="true" version="1" changeset="117507067" timestamp="2022-02-17T07:57:31Z" user="literan" uid="830106" lat="55.7127176" lon="37.9445705"/>
 <node id="9513049097" visible="true" version="1" changeset="117507067" timestamp="2022-02-17T07:57:31Z" user="literan" uid="830106" lat="55.7127888" lon="37.9443118"/>
 <node id="9513049098" visible="true" version="1" changeset="117507067" timestamp="2022-02-17T07:57:31Z" user="literan" uid="830106" lat="55.7135406" lon="37.9449639"/>
 <node id="9513050932" visible="true" version="1" changeset="117507067" timestamp="2022-02-17T07:57:31Z" user="literan" uid="830106" lat="55.7118909" lon="37.9440308"/>
 <node id="9513050933" visible="true" version="1" changeset="117507067" timestamp="2022-02-17T07:57:31Z" user="literan" uid="830106" lat="55.7118178" lon="37.9437778"/>
 <node id="9513050934" visible="true" version="1" changeset="117507067" timestamp="2022-02-17T07:57:31Z" user="literan" uid="830106" lat="55.7120476" lon="37.9439758"/>
 <node id="9513050935" visible="true" version="1" changeset="117507067" timestamp="2022-02-17T07:57:31Z" user="literan" uid="830106" lat="55.7123905" lon="37.9428038"/>
 <node id="9513050936" visible="true" version="1" changeset="117507067" timestamp="2022-02-17T07:57:31Z" user="literan" uid="830106" lat="55.7123068" lon="37.9427317"/>
 <node id="9513050937" visible="true" version="1" changeset="117507067" timestamp="2022-02-17T07:57:31Z" user="literan" uid="830106" lat="55.7124348" lon="37.9426415"/>
 <node id="9513050938" visible="true" version="1" changeset="117507067" timestamp="2022-02-17T07:57:31Z" user="literan" uid="830106" lat="55.7122077" lon="37.9430940"/>
 <node id="9513050939" visible="true" version="1" changeset="117507067" timestamp="2022-02-17T07:57:31Z" user="literan" uid="830106" lat="55.7124419" lon="37.9432958"/>
 <node id="9513050940" visible="true" version="1" changeset="117507067" timestamp="2022-02-17T07:57:31Z" user="literan" uid="830106" lat="55.7120443" lon="37.9423050"/>
 <node id="9513050941" visible="true" version="1" changeset="117507067" timestamp="2022-02-17T07:57:31Z" user="literan" uid="830106" lat="55.7117574" lon="37.9433542"/>
 <node id="9513050942" visible="true" version="1" changeset="117507067" timestamp="2022-02-17T07:57:31Z" user="literan" uid="830106" lat="55.7122985" lon="37.9438204"/>
 <node id="9513050943" visible="true" version="1" changeset="117507067" timestamp="2022-02-17T07:57:31Z" user="literan" uid="830106" lat="55.7124429" lon="37.9440804"/>
 <node id="9513050944" visible="true" version="1" changeset="117507067" timestamp="2022-02-17T07:57:31Z" user="literan" uid="830106" lat="55.7123224" lon="37.9439765"/>
 <node id="9513050945" visible="true" version="1" changeset="117507067" timestamp="2022-02-17T07:57:31Z" user="literan" uid="830106" lat="55.7114611" lon="37.9434705"/>
 <node id="9513050946" visible="true" version="1" changeset="117507067" timestamp="2022-02-17T07:57:31Z" user="literan" uid="830106" lat="55.7123907" lon="37.9442714"/>
 <node id="9513050947" visible="true" version="1" changeset="117507067" timestamp="2022-02-17T07:57:31Z" user="literan" uid="830106" lat="55.7123524" lon="37.9438668"/>
 <node id="9513050948" visible="true" version="1" changeset="117507067" timestamp="2022-02-17T07:57:31Z" user="literan" uid="830106" lat="55.7115433" lon="37.9431698"/>
 <node id="9513050949" visible="true" version="1" changeset="117507067" timestamp="2022-02-17T07:57:31Z" user="literan" uid="830106" lat="55.7116417" lon="37.9452142"/>
 <node id="9513050950" visible="true" version="1" changeset="117507067" timestamp="2022-02-17T07:57:31Z" user="literan" uid="830106" lat="55.7116259" lon="37.9452719"/>
 <node id="9513050951" visible="true" version="1" changeset="117507067" timestamp="2022-02-17T07:57:31Z" user="literan" uid="830106" lat="55.7112901" lon="37.9449827"/>
 <node id="9513050952" visible="true" version="1" changeset="117507067" timestamp="2022-02-17T07:57:31Z" user="literan" uid="830106" lat="55.7118946" lon="37.9454321"/>
 <node id="9513050953" visible="true" version="1" changeset="117507067" timestamp="2022-02-17T07:57:31Z" user="literan" uid="830106" lat="55.7117724" lon="37.9458790"/>
 <node id="9513050954" visible="true" version="1" changeset="117507067" timestamp="2022-02-17T07:57:31Z" user="literan" uid="830106" lat="55.7111837" lon="37.9453719"/>
 <node id="9513050961" visible="true" version="1" changeset="117507067" timestamp="2022-02-17T07:57:31Z" user="literan" uid="830106" lat="55.7113650" lon="37.9423783"/>
 <node id="9513050962" visible="true" version="1" changeset="117507067" timestamp="2022-02-17T07:57:31Z" user="literan" uid="830106" lat="55.7114107" lon="37.9422110"/>
 <node id="9513050963" visible="true" version="1" changeset="117507067" timestamp="2022-02-17T07:57:31Z" user="literan" uid="830106" lat="55.7110495" lon="37.9418998"/>
 <node id="9513050964" visible="true" version="1" changeset="117507067" timestamp="2022-02-17T07:57:31Z" user="literan" uid="830106" lat="55.7115205" lon="37.9425123"/>
 <node id="9513050965" visible="true" version="1" changeset="117507067" timestamp="2022-02-17T07:57:31Z" user="literan" uid="830106" lat="55.7116627" lon="37.9419923"/>
 <node id="9513050966" visible="true" version="1" changeset="117507067" timestamp="2022-02-17T07:57:31Z" user="literan" uid="830106" lat="55.7111459" lon="37.9415470"/>
 <node id="9513050967" visible="true" version="1" changeset="117507067" timestamp="2022-02-17T07:57:31Z" user="literan" uid="830106" lat="55.7129285" lon="37.9420322"/>
 <node id="9513050968" visible="true" version="1" changeset="117507067" timestamp="2022-02-17T07:57:31Z" user="literan" uid="830106" lat="55.7129140" lon="37.9420859"/>
 <node id="9513050969" visible="true" version="1" changeset="117507067" timestamp="2022-02-17T07:57:31Z" user="literan" uid="830106" lat="55.7131539" lon="37.9422910"/>
 <node id="9513050970" visible="true" version="1" changeset="117507067" timestamp="2022-02-17T07:57:31Z" user="literan" uid="830106" lat="55.7133535" lon="37.9415551"/>
 <node id="9513050971" visible="true" version="1" changeset="117507067" timestamp="2022-02-17T07:57:31Z" user="literan" uid="830106" lat="55.7131526" lon="37.9413083"/>
 <node id="9513050972" visible="true" version="1" changeset="117507067" timestamp="2022-02-17T07:57:31Z" user="literan" uid="830106" lat="55.7128474" lon="37.9419628"/>
 <node id="10869358402" visible="true" version="1" changeset="135719563" timestamp="2023-05-04T22:56:21Z" user="neo-plan" uid="363136" lat="55.7113404" lon="37.9397650"/>
 <node id="10869440393" visible="true" version="1" changeset="135719679" timestamp="2023-05-04T23:02:19Z" user="neo-plan" uid="363136" lat="55.7127646" lon="37.9424288"/>
 <node id="10869440394" visible="true" version="1" changeset="135719679" timestamp="2023-05-04T23:02:19Z" user="neo-plan" uid="363136" lat="55.7127299" lon="37.9425582"/>
 <node id="10869440395" visible="true" version="1" changeset="135719679" timestamp="2023-05-04T23:02:19Z" user="neo-plan" uid="363136" lat="55.7120425" lon="37.9420345"/>
 <node id="10869440396" visible="true" version="2" changeset="164428243" timestamp="2025-04-02T15:59:07Z" user="neo-plan" uid="363136" lat="55.7114437" lon="37.9410670"/>
 <node id="10869440397" visible="true" version="2" changeset="164428243" timestamp="2025-04-02T15:59:07Z" user="neo-plan" uid="363136" lat="55.7116989" lon="37.9406818"/>
 <node id="10869440398" visible="true" version="1" changeset="135719679" timestamp="2023-05-04T23:02:19Z" user="neo-plan" uid="363136" lat="55.7123341" lon="37.9419790"/>
 <node id="10869440399" visible="true" version="1" changeset="135719679" timestamp="2023-05-04T23:02:19Z" user="neo-plan" uid="363136" lat="55.7125945" lon="37.9422871"/>
 <node id="10869467325" visible="true" version="1" changeset="135719596" timestamp="2023-05-04T22:59:03Z" user="neo-plan" uid="363136" lat="55.7128996" lon="37.9428400"/>
 <node id="10869467326" visible="true" version="2" changeset="167032694" timestamp="2025-06-01T01:01:12Z" user="neo-plan" uid="363136" lat="55.7118291" lon="37.9419078"/>
 <node id="10869467327" visible="true" version="2" changeset="167032694" timestamp="2025-06-01T01:01:12Z" user="neo-plan" uid="363136" lat="55.7108913" lon="37.9453440"/>
 <node id="10869467328" visible="true" version="2" changeset="167032694" timestamp="2025-06-01T01:01:12Z" user="neo-plan" uid="363136" lat="55.7119897" lon="37.9462844"/>
 <node id="10869467330" visible="true" version="2" changeset="167032694" timestamp="2025-06-01T01:01:12Z" user="neo-plan" uid="363136" lat="55.7111548" lon="37.9413260"/>
 <node id="10869467331" visible="true" version="1" changeset="135719596" timestamp="2023-05-04T22:59:03Z" user="neo-plan" uid="363136" lat="55.7101989" lon="37.9447441"/>
 <node id="10869469129" visible="true" version="2" changeset="164428243" timestamp="2025-04-02T15:59:07Z" user="neo-plan" uid="363136" lat="55.7112237" lon="37.9407310"/>
 <node id="10869471808" visible="true" version="4" changeset="167032694" timestamp="2025-06-01T01:01:12Z" user="neo-plan" uid="363136" lat="55.7117592" lon="37.9418424">
  <tag k="barrier" v="gate"/>
 </node>
 <node id="10869471809" visible="true" version="1" changeset="135719563" timestamp="2023-05-04T22:56:21Z" user="neo-plan" uid="363136" lat="55.7109815" lon="37.9402435"/>
 <node id="10869471810" visible="true" version="1" changeset="135719563" timestamp="2023-05-04T22:56:21Z" user="neo-plan" uid="363136" lat="55.7122177" lon="37.9419229"/>
 <node id="10869471811" visible="true" version="1" changeset="135719563" timestamp="2023-05-04T22:56:21Z" user="neo-plan" uid="363136" lat="55.7120295" lon="37.9415466"/>
 <node id="10869471812" visible="true" version="1" changeset="135719563" timestamp="2023-05-04T22:56:21Z" user="neo-plan" uid="363136" lat="55.7119384" lon="37.9416901"/>
 <node id="10869471813" visible="true" version="1" changeset="135719563" timestamp="2023-05-04T22:56:21Z" user="neo-plan" uid="363136" lat="55.7121265" lon="37.9420665"/>
 <node id="10869472149" visible="true" version="1" changeset="135719612" timestamp="2023-05-04T22:59:33Z" user="neo-plan" uid="363136" lat="55.7104802" lon="37.9437244">
  <tag k="barrier" v="gate"/>
 </node>
 <node id="11255168593" visible="true" version="5" changeset="172907353" timestamp="2025-10-06T10:52:37Z" user="kate_rocketdata" uid="12100948" lat="55.7130540" lon="37.9454580">
  <tag k="brand" v="Ozon"/>
  <tag k="brand:wikidata" v="Q2365235"/>
  <tag k="brand:wikipedia" v="ru:Ozon.ru"/>
  <tag k="contact:facebook" v="https://www.facebook.com/ozon.ru"/>
  <tag k="contact:instagram" v="https://www.instagram.com/ozonru"/>
  <tag k="contact:phone" v="+7 495 2321000"/>
  <tag k="contact:twitter" v="https://twitter.com/Ozon_ru"/>
  <tag k="contact:vk" v="https://vk.com/ozon"/>
  <tag k="contact:website" v="https://www.ozon.ru"/>
  <tag k="name" v="Ozon"/>
  <tag k="opening_hours" v="Mo-Su 10:00-22:00"/>
  <tag k="shop" v="outpost"/>
 </node>
 <node id="11498217832" visible="true" version="1" changeset="146006775" timestamp="2024-01-07T21:21:09Z" user="RFuser11" uid="421938" lat="55.7151452" lon="37.9423805"/>
 <node id="11498217833" visible="true" version="1" changeset="146006775" timestamp="2024-01-07T21:21:09Z" user="RFuser11" uid="421938" lat="55.7151062" lon="37.9425510"/>
 <node id="11498217834" visible="true" version="1" changeset="146006775" timestamp="2024-01-07T21:21:09Z" user="RFuser11" uid="421938" lat="55.7135506" lon="37.9411910"/>
 <node id="11498217835" visible="true" version="1" changeset="146006775" timestamp="2024-01-07T21:21:09Z" user="RFuser11" uid="421938" lat="55.7131911" lon="37.9406276"/>
 <node id="11498217836" visible="true" version="1" changeset="146006775" timestamp="2024-01-07T21:21:09Z" user="RFuser11" uid="421938" lat="55.7136150" lon="37.9410238"/>
 <node id="12031982866" visible="true" version="1" changeset="153521730" timestamp="2024-07-03T22:25:58Z" user="neo-plan" uid="363136" lat="55.7089114" lon="37.9430032"/>
 <node id="12032102638" visible="true" version="1" changeset="153522492" timestamp="2024-07-03T23:10:05Z" user="neo-plan" uid="363136" lat="55.7121777" lon="37.9495958"/>
 <node id="12032102639" visible="true" version="1" changeset="153522492" timestamp="2024-07-03T23:10:05Z" user="neo-plan" uid="363136" lat="55.7119007" lon="37.9493475"/>
 <node id="12032102640" visible="true" version="1" changeset="153522492" timestamp="2024-07-03T23:10:05Z" user="neo-plan" uid="363136" lat="55.7118898" lon="37.9492140"/>
 <node id="12032102641" visible="true" version="1" changeset="153522492" timestamp="2024-07-03T23:10:05Z" user="neo-plan" uid="363136" lat="55.7121710" lon="37.9494549"/>
 <node id="12032114772" visible="true" version="1" changeset="153521730" timestamp="2024-07-03T22:25:58Z" user="neo-plan" uid="363136" lat="55.7115972" lon="37.9391164">
  <tag k="emergency" v="ladder_site"/>
 </node>
 <node id="12032114773" visible="true" version="1" changeset="153521730" timestamp="2024-07-03T22:25:58Z" user="neo-plan" uid="363136" lat="55.7114484" lon="37.9394012">
  <tag k="emergency" v="ladder_site"/>
 </node>
 <node id="12723670120" visible="true" version="2" changeset="167032694" timestamp="2025-06-01T01:01:12Z" user="neo-plan" uid="363136" lat="55.7109815" lon="37.9419422">
  <tag k="barrier" v="gate"/>
 </node>
 <node id="12723670121" visible="true" version="1" changeset="164428243" timestamp="2025-04-02T15:59:07Z" user="neo-plan" uid="363136" lat="55.7115914" lon="37.9415666"/>
 <node id="12723670122" visible="true" version="2" changeset="167032694" timestamp="2025-06-01T01:01:12Z" user="neo-plan" uid="363136" lat="55.7117923" lon="37.9417249"/>
 <node id="12723670127" visible="true" version="1" changeset="164428243" timestamp="2025-04-02T15:59:07Z" user="neo-plan" uid="363136" lat="55.7116490" lon="37.9414612"/>
 <node id="12723670128" visible="true" version="1" changeset="164428243" timestamp="2025-04-02T15:59:07Z" user="neo-plan" uid="363136" lat="55.7119460" lon="37.9417785"/>
 <node id="12723670135" visible="true" version="1" changeset="164428243" timestamp="2025-04-02T15:59:07Z" user="neo-plan" uid="363136" lat="55.7127285" lon="37.9426904"/>
 <node id="12723670136" visible="true" version="1" changeset="164428243" timestamp="2025-04-02T15:59:07Z" user="neo-plan" uid="363136" lat="55.7128126" lon="37.9423720"/>
 <node id="12723670137" visible="true" version="1" changeset="164428243" timestamp="2025-04-02T15:59:07Z" user="neo-plan" uid="363136" lat="55.7135548" lon="37.9416568">
  <tag k="emergency" v="ladder_site"/>
 </node>
 <node id="12878131561" visible="true" version="1" changeset="167032694" timestamp="2025-06-01T01:01:12Z" user="neo-plan" uid="363136" lat="55.7113093" lon="37.9414570"/>
 <node id="12878131562" visible="true" version="1" changeset="167032694" timestamp="2025-06-01T01:01:12Z" user="neo-plan" uid="363136" lat="55.7113299" lon="37.9413871"/>
 <node id="12878131563" visible="true" version="1" changeset="167032694" timestamp="2025-06-01T01:01:12Z" user="neo-plan" uid="363136" lat="55.7117730" lon="37.9417946"/>
 <node id="12878131564" visible="true" version="1" changeset="167032694" timestamp="2025-06-01T01:01:12Z" user="neo-plan" uid="363136" lat="55.7115628" lon="37.9415957"/>
 <node id="12878131565" visible="true" version="1" changeset="167032694" timestamp="2025-06-01T01:01:12Z" user="neo-plan" uid="363136" lat="55.7113042" lon="37.9410035"/>
 <node id="12878131566" visible="true" version="1" changeset="167032694" timestamp="2025-06-01T01:01:12Z" user="neo-plan" uid="363136" lat="55.7112725" lon="37.9409794"/>
 <node id="12878131567" visible="true" version="1" changeset="167032694" timestamp="2025-06-01T01:01:12Z" user="neo-plan" uid="363136" lat="55.7112302" lon="37.9409901"/>
 <node id="12878131568" visible="true" version="1" changeset="167032694" timestamp="2025-06-01T01:01:12Z" user="neo-plan" uid="363136" lat="55.7112030" lon="37.9410411"/>
 <node id="12878131569" visible="true" version="1" changeset="167032694" timestamp="2025-06-01T01:01:12Z" user="neo-plan" uid="363136" lat="55.7111531" lon="37.9412342"/>
 <node id="12878131570" visible="true" version="1" changeset="167032694" timestamp="2025-06-01T01:01:12Z" user="neo-plan" uid="363136" lat="55.7114478" lon="37.9413322"/>
 <node id="12878131571" visible="true" version="1" changeset="167032694" timestamp="2025-06-01T01:01:12Z" user="neo-plan" uid="363136" lat="55.7119867" lon="37.9444917"/>
 <node id="12878131572" visible="true" version="1" changeset="167032694" timestamp="2025-06-01T01:01:12Z" user="neo-plan" uid="363136" lat="55.7113378" lon="37.9439304"/>
 <node id="12878131573" visible="true" version="1" changeset="167032694" timestamp="2025-06-01T01:01:12Z" user="neo-plan" uid="363136" lat="55.7111963" lon="37.9444457"/>
 <node id="12878131574" visible="true" version="1" changeset="167032694" timestamp="2025-06-01T01:01:12Z" user="neo-plan" uid="363136" lat="55.7118452" lon="37.9450072"/>
 <node id="12878131575" visible="true" version="1" changeset="167032694" timestamp="2025-06-01T01:01:12Z" user="neo-plan" uid="363136" lat="55.7128574" lon="37.9442778">
  <tag k="emergency" v="ladder_site"/>
 </node>
 <node id="12895965234" visible="true" version="1" changeset="167332684" timestamp="2025-06-08T01:47:49Z" user="neo-plan" uid="363136" lat="55.7112301" lon="37.9395454"/>
 <node id="12895965244" visible="true" version="1" changeset="167332684" timestamp="2025-06-08T01:47:49Z" user="neo-plan" uid="363136" lat="55.7114921" lon="37.9410227"/>
 <node id="12895965245" visible="true" version="1" changeset="167332684" timestamp="2025-06-08T01:47:49Z" user="neo-plan" uid="363136" lat="55.7114332" lon="37.9411031"/>
 <node id="12895965246" visible="true" version="1" changeset="167332684" timestamp="2025-06-08T01:47:49Z" user="neo-plan" uid="363136" lat="55.7116145" lon="37.9414840"/>
 <node id="12895965247" visible="true" version="1" changeset="167332684" timestamp="2025-06-08T01:47:49Z" user="neo-plan" uid="363136" lat="55.7118215" lon="37.9416868"/>
 <node id="12895965248" visible="true" version="1" changeset="167332684" timestamp="2025-06-08T01:47:49Z" user="neo-plan" uid="363136" lat="55.7119907" lon="37.9417511"/>
 <node id="12895965249" visible="true" version="1" changeset="167332684" timestamp="2025-06-08T01:47:49Z" user="neo-plan" uid="363136" lat="55.7120376" lon="37.9416975"/>
 <node id="12895965250" visible="true" version="1" changeset="167332684" timestamp="2025-06-08T01:47:49Z" user="neo-plan" uid="363136" lat="55.7120557" lon="37.9416465"/>
 <node id="12895965251" visible="true" version="1" changeset="167332684" timestamp="2025-06-08T01:47:49Z" user="neo-plan" uid="363136" lat="55.7120723" lon="37.9415688"/>
 <node id="12895965252" visible="true" version="1" changeset="167332684" timestamp="2025-06-08T01:47:49Z" user="neo-plan" uid="363136" lat="55.7120633" lon="37.9414776"/>
 <node id="12895965253" visible="true" version="1" changeset="167332684" timestamp="2025-06-08T01:47:49Z" user="neo-plan" uid="363136" lat="55.7119968" lon="37.9413944"/>
 <node id="12895965254" visible="true" version="1" changeset="167332684" timestamp="2025-06-08T01:47:49Z" user="neo-plan" uid="363136" lat="55.7118457" lon="37.9412818"/>
 <node id="12895965255" visible="true" version="1" changeset="167332684" timestamp="2025-06-08T01:47:49Z" user="neo-plan" uid="363136" lat="55.7116885" lon="37.9412174"/>
 <node id="12895965256" visible="true" version="1" changeset="167332684" timestamp="2025-06-08T01:47:49Z" user="neo-plan" uid="363136" lat="55.7114895" lon="37.9412214"/>
 <node id="12895965257" visible="true" version="1" changeset="167332684" timestamp="2025-06-08T01:47:49Z" user="neo-plan" uid="363136" lat="55.7111233" lon="37.9402229"/>
 <node id="12895965258" visible="true" version="1" changeset="167332684" timestamp="2025-06-08T01:47:49Z" user="neo-plan" uid="363136" lat="55.7119518" lon="37.9413609"/>
 <node id="12895965259" visible="true" version="1" changeset="167332684" timestamp="2025-06-08T01:47:49Z" user="neo-plan" uid="363136" lat="55.7118744" lon="37.9413730"/>
 <node id="12895965260" visible="true" version="1" changeset="167332684" timestamp="2025-06-08T01:47:49Z" user="neo-plan" uid="363136" lat="55.7118260" lon="37.9414132"/>
 <node id="12895965261" visible="true" version="1" changeset="167332684" timestamp="2025-06-08T01:47:49Z" user="neo-plan" uid="363136" lat="55.7117837" lon="37.9414829"/>
 <node id="12895965262" visible="true" version="1" changeset="167332684" timestamp="2025-06-08T01:47:49Z" user="neo-plan" uid="363136" lat="55.7117467" lon="37.9416135"/>
 <node id="12895965264" visible="true" version="1" changeset="167332684" timestamp="2025-06-08T01:47:49Z" user="neo-plan" uid="363136" lat="55.7117232" lon="37.9389305"/>
 <node id="14131059185" visible="true" version="1" changeset="188144381" timestamp="2026-08-28T12:17:09Z" user="Titova Kseniya" uid="23975226" lat="55.7135763" lon="37.9453090"/>
 <node id="14131059186" visible="true" version="1" changeset="188144381" timestamp="2026-08-28T12:17:09Z" user="Titova Kseniya" uid="23975226" lat="55.7126030" lon="37.9444694"/>
 <node id="14131059187" visible="true" version="1" changeset="188144381" timestamp="2026-08-28T12:17:09Z" user="Titova Kseniya" uid="23975226" lat="55.7129555" lon="37.9462710"/>
 <node id="14131059188" visible="true" version="1" changeset="188144381" timestamp="2026-08-28T12:17:09Z" user="Titova Kseniya" uid="23975226" lat="55.7127912" lon="37.9461268"/>
 <node id="14131059189" visible="true" version="1" changeset="188144381" timestamp="2026-08-28T12:17:09Z" user="Titova Kseniya" uid="23975226" lat="55.7128989" lon="37.9457300"/>
 <node id="14131059190" visible="true" version="1" changeset="188144381" timestamp="2026-08-28T12:17:09Z" user="Titova Kseniya" uid="23975226" lat="55.7126781" lon="37.9458359"/>
 <node id="14131059191" visible="true" version="1" changeset="188144381" timestamp="2026-08-28T12:17:09Z" user="Titova Kseniya" uid="23975226" lat="55.7125911" lon="37.9457614"/>
 <node id="14131059192" visible="true" version="1" changeset="188144381" timestamp="2026-08-28T12:17:09Z" user="Titova Kseniya" uid="23975226" lat="55.7129328" lon="37.9456050"/>
 <node id="14131059193" visible="true" version="1" changeset="188144381" timestamp="2026-08-28T12:17:09Z" user="Titova Kseniya" uid="23975226" lat="55.7128966" lon="37.9455725"/>
 <node id="14131059194" visible="true" version="1" changeset="188144381" timestamp="2026-08-28T12:17:09Z" user="Titova Kseniya" uid="23975226" lat="55.7130347" lon="37.9450795"/>
 <way id="656626018" visible="true" version="8" changeset="188144381" timestamp="2026-08-28T12:17:09Z" user="Titova Kseniya" uid="23975226">
  <nd ref="6150747810"/>
  <nd ref="7372780196"/>
  <nd ref="6150747816"/>
  <nd ref="7372780211"/>
  <nd ref="6150747811"/>
  <nd ref="14131059186"/>
  <nd ref="7375176227"/>
  <nd ref="7372780194"/>
  <nd ref="6150747812"/>
  <nd ref="6150747817"/>
  <nd ref="6700745098"/>
  <tag k="highway" v="service"/>
  <tag k="surface" v="concrete:plates"/>
 </way>
 <way id="684585943" visible="true" version="4" changeset="150936424" timestamp="2024-05-05T19:41:03Z" user="Dmitry2013" uid="1185631">
  <nd ref="6414191914"/>
  <nd ref="6414191913"/>
  <nd ref="6414191900"/>
  <nd ref="6414191898"/>
  <nd ref="6414191914"/>
  <tag k="addr:housenumber" v="12 к1"/>
  <tag k="addr:street" v="улица Маресьева"/>
  <tag k="building" v="apartments"/>
  <tag k="building:flats" v="116"/>
  <tag k="building:levels" v="17"/>
  <tag k="start_date" v="2019"/>
 </way>
 <way id="684585945" visible="true" version="4" changeset="150936424" timestamp="2024-05-05T19:41:03Z" user="Dmitry2013" uid="1185631">
  <nd ref="6414191922"/>
  <nd ref="6414191921"/>
  <nd ref="6414191905"/>
  <nd ref="6414191896"/>
  <nd ref="6414191897"/>
  <nd ref="6414191917"/>
  <nd ref="6414191922"/>
  <tag k="addr:housenumber" v="12 к2"/>
  <tag k="addr:street" v="улица Маресьева"/>
  <tag k="building" v="apartments"/>
  <tag k="building:flats" v="128"/>
  <tag k="building:levels" v="17"/>
  <tag k="start_date" v="2019"/>
 </way>
 <way id="684585946" visible="true" version="4" changeset="150936424" timestamp="2024-05-05T19:41:03Z" user="Dmitry2013" uid="1185631">
  <nd ref="8509481265"/>
  <nd ref="6414191902"/>
  <nd ref="6414191915"/>
  <nd ref="6414191907"/>
  <nd ref="6414191903"/>
  <nd ref="8509481266"/>
  <nd ref="8509481265"/>
  <tag k="addr:housenumber" v="10 к3"/>
  <tag k="addr:street" v="улица Маресьева"/>
  <tag k="building" v="apartments"/>
  <tag k="building:flats" v="130"/>
  <tag k="building:levels" v="14"/>
  <tag k="start_date" v="2019"/>
 </way>
 <way id="684585947" visible="true" version="5" changeset="150936424" timestamp="2024-05-05T19:41:03Z" user="Dmitry2013" uid="1185631">
  <nd ref="6414191912"/>
  <nd ref="6414191901"/>
  <nd ref="6414191909"/>
  <nd ref="7372796112"/>
  <nd ref="6414191906"/>
  <nd ref="7372796111"/>
  <nd ref="6414191912"/>
  <tag k="addr:housenumber" v="12 к3"/>
  <tag k="addr:street" v="улица Маресьева"/>
  <tag k="building" v="apartments"/>
  <tag k="building:flats" v="119"/>
  <tag k="building:levels" v="17"/>
  <tag k="start_date" v="2019"/>
 </way>
 <way id="687166558" visible="true" version="4" changeset="150936424" timestamp="2024-05-05T19:41:03Z" user="Dmitry2013" uid="1185631">
  <nd ref="6440884040"/>
  <nd ref="6440884049"/>
  <nd ref="6440884054"/>
  <nd ref="6440884053"/>
  <nd ref="6440884051"/>
  <nd ref="6440884046"/>
  <nd ref="6440884040"/>
  <tag k="addr:housenumber" v="5 к3"/>
  <tag k="addr:street" v="улица Маршала Ерёменко"/>
  <tag k="building" v="apartments"/>
  <tag k="building:flats" v="182"/>
  <tag k="building:levels" v="14"/>
  <tag k="start_date" v="2019"/>
 </way>
 <way id="687166559" visible="true" version="4" changeset="150936424" timestamp="2024-05-05T19:41:03Z" user="Dmitry2013" uid="1185631">
  <nd ref="6440884011"/>
  <nd ref="6440884026"/>
  <nd ref="6440884007"/>
  <nd ref="6440884033"/>
  <nd ref="6440884006"/>
  <nd ref="6440884047"/>
  <nd ref="6440884011"/>
  <tag k="addr:housenumber" v="5 к5"/>
  <tag k="addr:street" v="улица Маршала Ерёменко"/>
  <tag k="building" v="apartments"/>
  <tag k="building:flats" v="145"/>
  <tag k="building:levels" v="17"/>
  <tag k="start_date" v="2018"/>
 </way>
 <way id="687166561" visible="true" version="4" changeset="150936424" timestamp="2024-05-05T19:41:03Z" user="Dmitry2013" uid="1185631">
  <nd ref="6440884052"/>
  <nd ref="6440884000"/>
  <nd ref="6440884039"/>
  <nd ref="6440884041"/>
  <nd ref="6440884035"/>
  <nd ref="6440884048"/>
  <nd ref="6440884045"/>
  <nd ref="6440884036"/>
  <nd ref="6440884052"/>
  <tag k="addr:housenumber" v="5 к4"/>
  <tag k="addr:street" v="улица Маршала Ерёменко"/>
  <tag k="building" v="apartments"/>
  <tag k="building:flats" v="372"/>
  <tag k="building:levels" v="17"/>
  <tag k="start_date" v="2019"/>
 </way>
 <way id="703158692" visible="true" version="5" changeset="150936424" timestamp="2024-05-05T19:41:03Z" user="Dmitry2013" uid="1185631">
  <nd ref="6603451526"/>
  <nd ref="6603451527"/>
  <nd ref="6603451528"/>
  <nd ref="7372796110"/>
  <nd ref="7372796109"/>
  <nd ref="6603451529"/>
  <nd ref="6603451530"/>
  <nd ref="6603451531"/>
  <nd ref="6603451526"/>
  <tag k="addr:housenumber" v="12 к4"/>
  <tag k="addr:street" v="улица Маресьева"/>
  <tag k="building" v="apartments"/>
  <tag k="building:flats" v="311"/>
  <tag k="building:levels" v="17"/>
  <tag k="start_date" v="2019"/>
 </way>
 <way id="712682620" visible="true" version="9" changeset="188144381" timestamp="2026-08-28T12:17:09Z" user="Titova Kseniya" uid="23975226">
  <nd ref="6150747825"/>
  <nd ref="14131059185"/>
  <nd ref="7375176226"/>
  <nd ref="7372780195"/>
  <nd ref="6700745097"/>
  <nd ref="6150747826"/>
  <tag k="highway" v="service"/>
 </way>
 <way id="788592520" visible="true" version="2" changeset="109596633" timestamp="2021-08-12T22:47:47Z" user="neo-plan" uid="363136">
  <nd ref="7372748983"/>
  <nd ref="7372748982"/>
  <nd ref="7372748981"/>
  <nd ref="7372748980"/>
  <nd ref="7372780185"/>
  <tag k="highway" v="service"/>
  <tag k="maxspeed" v="20"/>
 </way>
 <way id="788592521" visible="true" version="2" changeset="109596633" timestamp="2021-08-12T22:47:47Z" user="neo-plan" uid="363136">
  <nd ref="7372780186"/>
  <nd ref="7372780185"/>
  <nd ref="7372748984"/>
  <tag k="highway" v="service"/>
  <tag k="maxspeed" v="20"/>
 </way>
 <way id="788592522" visible="true" version="5" changeset="188144381" timestamp="2026-08-28T12:17:09Z" user="Titova Kseniya" uid="23975226">
  <nd ref="7372780193"/>
  <nd ref="14131059191"/>
  <nd ref="7372780187"/>
  <nd ref="7372780189"/>
  <tag k="highway" v="service"/>
  <tag k="living_street" v="yes"/>
  <tag k="maxspeed" v="RU:living_street"/>
 </way>
 <way id="788592523" visible="true" version="5" changeset="188144381" timestamp="2026-08-28T12:17:09Z" user="Titova Kseniya" uid="23975226">
  <nd ref="7372780194"/>
  <nd ref="7372780193"/>
  <nd ref="7372780192"/>
  <nd ref="14131059193"/>
  <nd ref="14131059192"/>
  <nd ref="7372780191"/>
  <nd ref="14131059187"/>
  <nd ref="7372780190"/>
  <nd ref="7372780189"/>
  <nd ref="7372780188"/>
  <tag k="highway" v="service"/>
  <tag k="living_street" v="yes"/>
  <tag k="maxspeed" v="RU:living_street"/>
 </way>
 <way id="788592525" visible="true" version="2" changeset="109596633" timestamp="2021-08-12T22:47:47Z" user="neo-plan" uid="363136">
  <nd ref="7372780197"/>
  <nd ref="7372780196"/>
  <tag k="highway" v="service"/>
  <tag k="maxspeed" v="20"/>
 </way>
 <way id="788592526" visible="true" version="2" changeset="109596633" timestamp="2021-08-12T22:47:47Z" user="neo-plan" uid="363136">
  <nd ref="7372780203"/>
  <nd ref="7372780202"/>
  <nd ref="7372780201"/>
  <nd ref="7372780197"/>
  <nd ref="7372780200"/>
  <nd ref="7372780199"/>
  <nd ref="7372780198"/>
  <tag k="highway" v="service"/>
  <tag k="maxspeed" v="20"/>
 </way>
 <way id="788592527" visible="true" version="3" changeset="109596763" timestamp="2021-08-12T22:55:47Z" user="neo-plan" uid="363136">
  <nd ref="7372780205"/>
  <nd ref="7372780203"/>
  <nd ref="7372780204"/>
  <nd ref="9002482315"/>
  <nd ref="9002501376"/>
  <tag k="highway" v="service"/>
  <tag k="maxspeed" v="20"/>
 </way>
 <way id="788592528" visible="true" version="2" changeset="83193060" timestamp="2020-04-07T11:02:43Z" user="et2t7121" uid="3097362">
  <nd ref="6150747810"/>
  <nd ref="7372780205"/>
  <nd ref="7372780186"/>
  <nd ref="7372780206"/>
  <tag k="highway" v="service"/>
  <tag k="living_street" v="yes"/>
  <tag k="maxspeed" v="RU:living_street"/>
 </way>
 <way id="788592529" visible="true" version="6" changeset="167032694" timestamp="2025-06-01T01:01:12Z" user="neo-plan" uid="363136">
  <nd ref="7372780211"/>
  <nd ref="12878131575"/>
  <nd ref="7372780198"/>
  <nd ref="6150747825"/>
  <nd ref="7372780204"/>
  <nd ref="7372748983"/>
  <nd ref="7372780209"/>
  <nd ref="7372748984"/>
  <nd ref="12723670137"/>
  <nd ref="7372780206"/>
  <tag k="highway" v="service"/>
  <tag k="living_street" v="yes"/>
  <tag k="maxspeed" v="RU:living_street"/>
 </way>
 <way id="788847472" visible="true" version="5" changeset="188144381" timestamp="2026-08-28T12:17:09Z" user="Titova Kseniya" uid="23975226">
  <nd ref="7375176227"/>
  <nd ref="14131059194"/>
  <nd ref="7375176226"/>
  <tag k="highway" v="service"/>
  <tag k="living_street" v="yes"/>
  <tag k="maxspeed" v="RU:living_street"/>
 </way>
 <way id="788847474" visible="true" version="1" changeset="83193060" timestamp="2020-04-07T11:02:43Z" user="et2t7121" uid="3097362">
  <nd ref="7375176235"/>
  <nd ref="7375176234"/>
  <nd ref="7375176233"/>
  <nd ref="7375176232"/>
  <tag k="highway" v="service"/>
  <tag k="living_street" v="yes"/>
  <tag k="maxspeed" v="RU:living_street"/>
 </way>
 <way id="788859071" visible="true" version="8" changeset="167332684" timestamp="2025-06-08T01:47:49Z" user="neo-plan" uid="363136">
  <nd ref="6150747810"/>
  <nd ref="12723670136"/>
  <nd ref="7372780207"/>
  <nd ref="7375176235"/>
  <nd ref="7375176232"/>
  <nd ref="7372780218"/>
  <nd ref="8509481247"/>
  <nd ref="8509481248"/>
  <nd ref="7375176228"/>
  <nd ref="7375176231"/>
  <nd ref="10869358402"/>
  <nd ref="8509481250"/>
  <nd ref="12895965234"/>
  <nd ref="7372780219"/>
  <tag k="highway" v="service"/>
  <tag k="living_street" v="yes"/>
  <tag k="maxspeed" v="RU:living_street"/>
  <tag k="surface" v="asphalt"/>
 </way>
 <way id="788859072" visible="true" version="1" changeset="83194897" timestamp="2020-04-07T11:36:47Z" user="et2t7121" uid="3097362">
  <nd ref="7372780206"/>
  <nd ref="7372780208"/>
  <nd ref="7372780207"/>
  <tag k="highway" v="service"/>
  <tag k="living_street" v="yes"/>
  <tag k="maxspeed" v="RU:living_street"/>
 </way>
 <way id="821336533" visible="true" version="3" changeset="150936424" timestamp="2024-05-05T19:41:03Z" user="Dmitry2013" uid="1185631">
  <nd ref="7668849534"/>
  <nd ref="7668849535"/>
  <nd ref="7668849536"/>
  <nd ref="7668849537"/>
  <nd ref="7668849538"/>
  <nd ref="7668849539"/>
  <nd ref="7668849534"/>
  <tag k="addr:housenumber" v="12 к5"/>
  <tag k="addr:street" v="улица Маресьева"/>
  <tag k="building" v="apartments"/>
  <tag k="building:flats" v="156"/>
  <tag k="building:levels" v="14"/>
  <tag k="start_date" v="2019"/>
 </way>
 <way id="916147069" visible="true" version="1" changeset="100890566" timestamp="2021-03-12T08:20:09Z" user="literan" uid="830106">
  <nd ref="8509481245"/>
  <nd ref="8509481242"/>
  <nd ref="8509481243"/>
  <nd ref="8509481244"/>
  <nd ref="8509481245"/>
  <tag k="building" v="yes"/>
 </way>
 <way id="916147072" visible="true" version="4" changeset="167332684" timestamp="2025-06-08T01:47:49Z" user="neo-plan" uid="363136">
  <nd ref="7372780208"/>
  <nd ref="8509481246"/>
  <nd ref="8509481249"/>
  <nd ref="8509481252"/>
  <nd ref="12895965264"/>
  <nd ref="8509481251"/>
  <nd ref="12032114772"/>
  <nd ref="12032114773"/>
  <nd ref="8509481250"/>
  <tag k="highway" v="service"/>
  <tag k="living_street" v="yes"/>
  <tag k="maxspeed" v="RU:living_street"/>
  <tag k="surface" v="asphalt"/>
 </way>
 <way id="972695293" visible="true" version="2" changeset="109596825" timestamp="2021-08-12T22:57:34Z" user="neo-plan" uid="363136">
  <nd ref="8849365180"/>
  <nd ref="9002482316"/>
  <nd ref="9002482315"/>
  <nd ref="9002520717"/>
  <nd ref="9002482314"/>
  <nd ref="9002482313"/>
  <nd ref="9002482312"/>
  <nd ref="9002482311"/>
  <nd ref="9002482310"/>
  <nd ref="9002482309"/>
  <nd ref="9002482308"/>
  <nd ref="9002482307"/>
  <nd ref="9002482306"/>
  <nd ref="9002482305"/>
  <nd ref="7629429025"/>
  <tag k="highway" v="footway"/>
 </way>
 <way id="1032479556" visible="true" version="1" changeset="117507067" timestamp="2022-02-17T07:57:31Z" user="literan" uid="830106">
  <nd ref="9513049092"/>
  <nd ref="9513049089"/>
  <nd ref="9513049090"/>
  <nd ref="9513049091"/>
  <nd ref="9513049092"/>
  <tag k="building" v="yes"/>
 </way>
 <way id="1032479557" visible="true" version="1" changeset="117507067" timestamp="2022-02-17T07:57:31Z" user="literan" uid="830106">
  <nd ref="9513049098"/>
  <nd ref="9513049097"/>
  <nd ref="9513049096"/>
  <nd ref="9513049093"/>
  <nd ref="9513049094"/>
  <nd ref="9513049095"/>
  <nd ref="9513049098"/>
  <tag k="amenity" v="parking"/>
  <tag k="parking" v="surface"/>
 </way>
 <way id="1032479563" visible="true" version="4" changeset="153522492" timestamp="2024-07-03T23:10:05Z" user="neo-plan" uid="363136">
  <nd ref="5003696101"/>
  <nd ref="12031982866"/>
  <nd ref="7625708973"/>
  <nd ref="9513049072"/>
  <nd ref="9513049073"/>
  <nd ref="9513049074"/>
  <nd ref="8509481239"/>
  <nd ref="9513049075"/>
  <nd ref="9513049076"/>
  <nd ref="9513049077"/>
  <nd ref="9513049078"/>
  <nd ref="9513049079"/>
  <nd ref="9513049080"/>
  <nd ref="9513049081"/>
  <nd ref="9513049082"/>
  <nd ref="7372780212"/>
  <nd ref="12032102639"/>
  <nd ref="12032102640"/>
  <nd ref="12032102641"/>
  <nd ref="12032102638"/>
  <nd ref="9513049083"/>
  <nd ref="9513049084"/>
  <nd ref="9513049085"/>
  <nd ref="9513049086"/>
  <nd ref="9513049087"/>
  <nd ref="6414193440"/>
  <nd ref="9513049088"/>
  <nd ref="6414193437"/>
  <nd ref="9513049054"/>
  <nd ref="9513049053"/>
  <nd ref="9513049052"/>
  <nd ref="9513049051"/>
  <nd ref="9513049055"/>
  <nd ref="9513049056"/>
  <nd ref="8509481253"/>
  <nd ref="6414193438"/>
  <nd ref="9513049057"/>
  <nd ref="9513049061"/>
  <nd ref="9513049060"/>
  <nd ref="9513049059"/>
  <nd ref="9513049058"/>
  <nd ref="6414193434"/>
  <nd ref="8509481237"/>
 </way>
 <way id="1032479565" visible="true" version="4" changeset="135745586" timestamp="2023-05-05T14:50:35Z" user="neo-plan" uid="363136">
  <nd ref="9513050948"/>
  <nd ref="9513050941"/>
  <nd ref="9513050940"/>
  <nd ref="9513050937"/>
  <nd ref="9513050935"/>
  <nd ref="9513050936"/>
  <nd ref="9513050938"/>
  <nd ref="9513050939"/>
  <nd ref="9513050942"/>
  <nd ref="9513050947"/>
  <nd ref="9513050944"/>
  <nd ref="9513050943"/>
  <nd ref="9513050946"/>
  <nd ref="9513050934"/>
  <nd ref="9513050932"/>
  <nd ref="9513050933"/>
  <nd ref="9513050945"/>
  <nd ref="9513050948"/>
  <tag k="addr:housenumber" v="12А"/>
  <tag k="addr:street" v="улица Маресьева"/>
  <tag k="building" v="school"/>
 </way>
 <way id="1032479566" visible="true" version="3" changeset="135745544" timestamp="2023-05-05T14:49:35Z" user="neo-plan" uid="363136">
  <nd ref="9513050954"/>
  <nd ref="9513050951"/>
  <nd ref="9513050950"/>
  <nd ref="9513050949"/>
  <nd ref="9513050952"/>
  <nd ref="9513050953"/>
  <nd ref="9513050954"/>
  <tag k="addr:housenumber" v="5А"/>
  <tag k="addr:street" v="улица Маршала Ерёменко"/>
  <tag k="building" v="yes"/>
 </way>
 <way id="1032479568" visible="true" version="3" changeset="135745544" timestamp="2023-05-05T14:49:35Z" user="neo-plan" uid="363136">
  <nd ref="9513050966"/>
  <nd ref="9513050965"/>
  <nd ref="9513050964"/>
  <nd ref="9513050961"/>
  <nd ref="9513050962"/>
  <nd ref="9513050963"/>
  <nd ref="9513050966"/>
  <tag k="addr:housenumber" v="10А"/>
  <tag k="addr:street" v="улица Маресьева"/>
  <tag k="building" v="yes"/>
 </way>
 <way id="1032479569" visible="true" version="1" changeset="117507067" timestamp="2022-02-17T07:57:31Z" user="literan" uid="830106">
  <nd ref="9513050972"/>
  <nd ref="9513050971"/>
  <nd ref="9513050970"/>
  <nd ref="9513050969"/>
  <nd ref="9513050968"/>
  <nd ref="9513050967"/>
  <nd ref="9513050972"/>
  <tag k="amenity" v="parking"/>
  <tag k="parking" v="surface"/>
 </way>
 <way id="1134944979" visible="true" version="13" changeset="149016667" timestamp="2024-03-22T14:36:06Z" user="NikHasl1997" uid="20895276">
  <nd ref="7577179306"/>
  <nd ref="8849443585"/>
  <nd ref="7577179305"/>
  <nd ref="7991068266"/>
  <tag k="destination" v="Зенинское шоссе"/>
  <tag k="destination:ref" v="М12"/>
  <tag k="highway" v="tertiary_link"/>
  <tag k="lanes" v="2"/>
  <tag k="maxspeed" v="ru:urban"/>
  <tag k="name" v="улица Маресьева"/>
  <tag k="name:uk" v="вулиця Маресьєва"/>
  <tag k="oneway" v="yes"/>
  <tag k="surface" v="asphalt"/>
 </way>
 <way id="1168831866" visible="true" version="4" changeset="167032694" timestamp="2025-06-01T01:01:12Z" user="neo-plan" uid="363136">
  <nd ref="10869471808"/>
  <nd ref="12878131563"/>
  <nd ref="12723670122"/>
  <nd ref="12723670121"/>
  <nd ref="10869469129"/>
  <nd ref="10869471809"/>
  <tag k="highway" v="service"/>
 </way>
 <way id="1168831867" visible="true" version="1" changeset="135719563" timestamp="2023-05-04T22:56:21Z" user="neo-plan" uid="363136">
  <nd ref="10869471810"/>
  <nd ref="10869471811"/>
  <nd ref="10869471812"/>
  <nd ref="10869471813"/>
  <nd ref="10869471810"/>
  <tag k="barrier" v="fence"/>
  <tag k="leisure" v="dog_park"/>
 </way>
 <way id="1168832109" visible="true" version="4" changeset="167032694" timestamp="2025-06-01T01:01:12Z" user="neo-plan" uid="363136">
  <nd ref="10869467325"/>
  <nd ref="12723670135"/>
  <nd ref="10869467326"/>
  <nd ref="10869467327"/>
  <nd ref="10869467328"/>
  <nd ref="10869467325"/>
  <tag k="amenity" v="school"/>
  <tag k="barrier" v="fence"/>
 </way>
 <way id="1168832111" visible="true" version="44" changeset="167032694" timestamp="2025-06-01T01:01:12Z" user="neo-plan" uid="363136">
  <nd ref="10869467327"/>
  <nd ref="10869467326"/>
  <nd ref="10869471808"/>
  <nd ref="12878131561"/>
  <nd ref="10869467330"/>
  <nd ref="12723670120"/>
  <nd ref="10869472149"/>
  <nd ref="10869467331"/>
  <nd ref="10869467327"/>
  <tag k="amenity" v="kindergarten"/>
  <tag k="barrier" v="fence"/>
  <tag k="name" v="Школа №1366 (дошкольное отделение)"/>
  <tag k="preschool" v="yes"/>
 </way>
 <way id="1168832311" visible="true" version="2" changeset="164428243" timestamp="2025-04-02T15:59:07Z" user="neo-plan" uid="363136">
  <nd ref="10869440393"/>
  <nd ref="10869440394"/>
  <nd ref="10869440395"/>
  <nd ref="12723670128"/>
  <nd ref="12723670127"/>
  <nd ref="10869440396"/>
  <nd ref="10869440397"/>
  <nd ref="10869440398"/>
  <nd ref="10869440399"/>
  <nd ref="10869440393"/>
  <tag k="leisure" v="park"/>
 </way>
 <way id="1237884861" visible="true" version="1" changeset="146006775" timestamp="2024-01-07T21:21:09Z" user="RFuser11" uid="421938">
  <nd ref="11498217832"/>
  <nd ref="11498217833"/>
  <nd ref="11498217834"/>
  <nd ref="11498217835"/>
  <nd ref="11498217836"/>
  <nd ref="11498217832"/>
  <tag k="landuse" v="grass"/>
 </way>
 <way id="1374196379" visible="true" version="1" changeset="164428243" timestamp="2025-04-02T15:59:07Z" user="neo-plan" uid="363136">
  <nd ref="12723670135"/>
  <nd ref="12723670136"/>
  <tag k="highway" v="service"/>
 </way>
 <way id="1391271154" visible="true" version="1" changeset="167032694" timestamp="2025-06-01T01:01:12Z" user="neo-plan" uid="363136">
  <nd ref="12878131561"/>
  <nd ref="12878131562"/>
  <nd ref="12878131564"/>
  <nd ref="12878131563"/>
  <tag k="highway" v="footway"/>
 </way>
 <way id="1391271155" visible="true" version="1" changeset="167032694" timestamp="2025-06-01T01:01:12Z" user="neo-plan" uid="363136">
  <nd ref="12878131564"/>
  <nd ref="12878131570"/>
  <nd ref="12878131565"/>
  <nd ref="12878131566"/>
  <nd ref="12878131567"/>
  <nd ref="12878131568"/>
  <nd ref="12878131569"/>
  <nd ref="12878131562"/>
  <tag k="highway" v="footway"/>
 </way>
 <way id="1391271156" visible="true" version="1" changeset="167032694" timestamp="2025-06-01T01:01:12Z" user="neo-plan" uid="363136">
  <nd ref="12878131562"/>
  <nd ref="12878131570"/>
  <tag k="highway" v="footway"/>
 </way>
 <way id="1391271157" visible="true" version="1" changeset="167032694" timestamp="2025-06-01T01:01:12Z" user="neo-plan" uid="363136">
  <nd ref="12878131571"/>
  <nd ref="12878131572"/>
  <nd ref="12878131573"/>
  <nd ref="12878131574"/>
  <nd ref="12878131571"/>
  <tag k="leisure" v="pitch"/>
 </way>
 <way id="1393158102" visible="true" version="1" changeset="167332684" timestamp="2025-06-08T01:47:49Z" user="neo-plan" uid="363136">
  <nd ref="12895965257"/>
  <nd ref="12895965244"/>
  <nd ref="12895965245"/>
  <nd ref="12895965256"/>
  <nd ref="12895965246"/>
  <nd ref="12895965262"/>
  <nd ref="12895965247"/>
  <nd ref="12895965248"/>
  <nd ref="12895965249"/>
  <nd ref="12895965250"/>
  <nd ref="12895965251"/>
  <nd ref="12895965252"/>
  <nd ref="12895965253"/>
  <nd ref="12895965258"/>
  <nd ref="12895965254"/>
  <nd ref="12895965255"/>
  <nd ref="12895965256"/>
  <tag k="highway" v="footway"/>
 </way>
 <way id="1393158104" visible="true" version="1" changeset="167332684" timestamp="2025-06-08T01:47:49Z" user="neo-plan" uid="363136">
  <nd ref="12895965258"/>
  <nd ref="12895965259"/>
  <nd ref="12895965260"/>
  <nd ref="12895965261"/>
  <nd ref="12895965262"/>
  <tag k="highway" v="footway"/>
 </way>
 <way id="1553185179" visible="true" version="1" changeset="188144381" timestamp="2026-08-28T12:17:09Z" user="Titova Kseniya" uid="23975226">
  <nd ref="14131059186"/>
  <nd ref="14131059185"/>
  <tag k="highway" v="service"/>
  <tag k="service" v="parking_aisle"/>
 </way>
 <way id="1553185180" visible="true" version="1" changeset="188144381" timestamp="2026-08-28T12:17:09Z" user="Titova Kseniya" uid="23975226">
  <nd ref="14131059190"/>
  <nd ref="14131059188"/>
  <nd ref="14131059187"/>
  <tag k="highway" v="footway"/>
 </way>
 <way id="1553185181" visible="true" version="1" changeset="188144381" timestamp="2026-08-28T12:17:09Z" user="Titova Kseniya" uid="23975226">
  <nd ref="14131059191"/>
  <nd ref="14131059190"/>
  <nd ref="14131059189"/>
  <tag k="highway" v="footway"/>
 </way>
 <way id="1553185182" visible="true" version="1" changeset="188144381" timestamp="2026-08-28T12:17:09Z" user="Titova Kseniya" uid="23975226">
  <nd ref="14131059192"/>
  <nd ref="14131059189"/>
  <nd ref="14131059188"/>
  <nd ref="7372780189"/>
  <tag k="highway" v="footway"/>
 </way>
 <way id="1553185183" visible="true" version="1" changeset="188144381" timestamp="2026-08-28T12:17:09Z" user="Titova Kseniya" uid="23975226">
  <nd ref="14131059194"/>
  <nd ref="14131059193"/>
  <tag k="highway" v="footway"/>
 </way>
 <relation id="1794667" visible="true" version="93" changeset="185649114" timestamp="2026-07-13T11:55:19Z" user="Максим Баранаускас" uid="23926472">
  <member type="node" ref="10735352417" role="stop_entry_only"/>
  <member type="node" ref="1378921587" role="platform_entry_only"/>
  <member type="node" ref="10735352419" role="stop"/>
  <member type="node" ref="1378919676" role="platform"/>
  <member type="node" ref="10735352424" role="stop"/>
  <member type="node" ref="1378912636" role="platform"/>
  <member type="node" ref="10735352445" role="stop"/>
  <member type="node" ref="1378911994" role="platform"/>
  <member type="node" ref="10735352441" role="stop"/>
  <member type="node" ref="1378908330" role="platform"/>
  <member type="node" ref="10737879293" role="stop"/>
  <member type="node" ref="10737879294" role="platform"/>
  <member type="node" ref="11181479830" role="stop"/>
  <member type="node" ref="6520748842" role="platform"/>
  <member type="node" ref="10735807111" role="stop"/>
  <member type="node" ref="1918464023" role="platform"/>
  <member type="node" ref="10735807113" role="stop"/>
  <member type="node" ref="1918464002" role="platform"/>
  <member type="node" ref="1537161729" role="stop"/>
  <member type="node" ref="4904580218" role="platform"/>
  <member type="node" ref="10735572372" role="stop"/>
  <member type="node" ref="10735572373" role="platform"/>
  <member type="node" ref="10735495871" role="stop"/>
  <member type="node" ref="7653167275" role="platform"/>
  <member type="node" ref="10738908414" role="stop"/>
  <member type="node" ref="7653202433" role="platform"/>
  <member type="node" ref="10738908418" role="stop"/>
  <member type="node" ref="7623981213" role="platform"/>
  <member type="node" ref="10738908421" role="stop"/>
  <member type="node" ref="9904504513" role="platform"/>
  <member type="way" ref="1319983091" role=""/>
  <member type="way" ref="1319983092" role=""/>
  <member type="way" ref="78628883" role=""/>
  <member type="way" ref="1207136629" role=""/>
  <member type="way" ref="1207136631" role=""/>
  <member type="way" ref="1207136634" role=""/>
  <member type="way" ref="1207136632" role=""/>
  <member type="way" ref="433144042" role=""/>
  <member type="way" ref="1207136635" role=""/>
  <member type="way" ref="74947610" role=""/>
  <member type="way" ref="74947613" role=""/>
  <member type="way" ref="132338427" role=""/>
  <member type="way" ref="1161861472" role=""/>
  <member type="way" ref="46155857" role=""/>
  <member type="way" ref="1204419473" role=""/>
  <member type="way" ref="23347047" role=""/>
  <member type="way" ref="1207136626" role=""/>
  <member type="way" ref="132338428" role=""/>
  <member type="way" ref="1207136627" role=""/>
  <member type="way" ref="1206261154" role=""/>
  <member type="way" ref="1206254976" role=""/>
  <member type="way" ref="1206261153" role=""/>
  <member type="way" ref="1206254987" role=""/>
  <member type="way" ref="1206659370" role=""/>
  <member type="way" ref="883254871" role=""/>
  <member type="way" ref="1206254983" role=""/>
  <member type="way" ref="883254853" role=""/>
  <member type="way" ref="1206254982" role=""/>
  <member type="way" ref="883254852" role=""/>
  <member type="way" ref="883254850" role=""/>
  <member type="way" ref="883254849" role=""/>
  <member type="way" ref="857090743" role=""/>
  <member type="way" ref="857090760" role=""/>
  <member type="way" ref="857090758" role=""/>
  <member type="way" ref="1132932573" role=""/>
  <member type="way" ref="857090748" role=""/>
  <member type="way" ref="1133079700" role=""/>
  <member type="way" ref="1132935705" role=""/>
  <member type="way" ref="180725020" role=""/>
  <member type="way" ref="331559786" role=""/>
  <member type="way" ref="109731297" role=""/>
  <member type="way" ref="1195035855" role=""/>
  <member type="way" ref="210278821" role=""/>
  <member type="way" ref="206826812" role=""/>
  <member type="way" ref="210278820" role=""/>
  <member type="way" ref="206837073" role=""/>
  <member type="way" ref="1188420202" role=""/>
  <member type="way" ref="180725017" role=""/>
  <member type="way" ref="1154338033" role=""/>
  <member type="way" ref="1154709202" role=""/>
  <member type="way" ref="140294194" role=""/>
  <member type="way" ref="1154328942" role=""/>
  <member type="way" ref="499628610" role=""/>
  <member type="way" ref="977655998" role=""/>
  <member type="way" ref="977656030" role=""/>
  <member type="way" ref="492717127" role=""/>
  <member type="way" ref="1537966904" role=""/>
  <member type="way" ref="494359110" role=""/>
  <member type="way" ref="538770705" role=""/>
  <member type="way" ref="810413124" role=""/>
  <member type="way" ref="1134944979" role=""/>
  <member type="way" ref="1134944978" role=""/>
  <member type="way" ref="1154709195" role=""/>
  <member type="way" ref="810413125" role=""/>
  <tag k="air_conditioning" v="yes"/>
  <tag k="bicycle" v="yes"/>
  <tag k="blind" v="limited"/>
  <tag k="bus_class:length" v="4"/>
  <tag k="charge:all-in-one" v="90 RUB"/>
  <tag k="charge:cards" v="83 RUB"/>
  <tag k="charge:sbp" v="83 RUB"/>
  <tag k="charge:troika" v="75 RUB"/>
  <tag k="charge:troika_qr" v="75 RUB"/>
  <tag k="check_date" v="2023-03-16"/>
  <tag k="colour" v="#c2e6ff"/>
  <tag k="deaf" v="yes"/>
  <tag k="description" v="Маршрут обслуживается электробусами"/>
  <tag k="electric_bus" v="yes"/>
  <tag k="electric_bus:type" v="OC"/>
  <tag k="fee" v="yes"/>
  <tag k="fine:ticketless" v="5000 RUB"/>
  <tag k="from" v="9-й микрорайон Кожухова"/>
  <tag k="name" v="Автобус 855: 9-й микрорайон Кожухова =&gt; Улица Маршала Ерёменко, 5"/>
  <tag k="name:uk" v="Автобус 855: 9-й мікрорайон Кожухова =&gt; Вулиця Маршала Єрьоменка, 5"/>
  <tag k="network" v="Московский транспорт"/>
  <tag k="operator" v="ГУП «Мосгортранс»"/>
  <tag k="payment:cards" v="yes"/>
  <tag k="payment:cash" v="no"/>
  <tag k="payment:contactless" v="yes"/>
  <tag k="payment:maestro" v="no"/>
  <tag k="payment:mastercard" v="no"/>
  <tag k="payment:mir" v="yes"/>
  <tag k="payment:nfc" v="yes"/>
  <tag k="payment:podorozhnik" v="no"/>
  <tag k="payment:sbp" v="yes"/>
  <tag k="payment:social_cards" v="yes"/>
  <tag k="payment:strelka" v="no"/>
  <tag k="payment:troika" v="yes"/>
  <tag k="payment:visa" v="no"/>
  <tag k="public_transport:version" v="2"/>
  <tag k="ref" v="855"/>
  <tag k="route" v="bus"/>
  <tag k="source" v="Реестр маршрутов города Москвы"/>
  <tag k="source:description" v="https://mosgortrans.ru/electrobus/map/"/>
  <tag k="to" v="Улица Маршала Ерёменко, 5"/>
  <tag k="type" v="route"/>
  <tag k="website" v="https://transport.mos.ru/transport/schedule/route/279"/>
  <tag k="wheelchair" v="yes"/>
 </relation>
 <relation id="1794669" visible="true" version="4" changeset="176880527" timestamp="2026-01-05T22:05:11Z" user="Bobropiton" uid="2055718">
  <member type="relation" ref="1794667" role=""/>
  <member type="relation" ref="1794668" role=""/>
  <tag k="bus_class:length" v="4"/>
  <tag k="colour" v="#c2e6ff"/>
  <tag k="name" v="Автобус 855: Улица Маршала Ерёменко, 5 &lt;=&gt; 9-й микрорайон Кожухова"/>
  <tag k="network" v="Московский транспорт"/>
  <tag k="operator" v="ГУП «Мосгортранс»"/>
  <tag k="ref" v="855"/>
  <tag k="route_master" v="bus"/>
  <tag k="source" v="Реестр маршрутов города Москвы"/>
  <tag k="type" v="route_master"/>
  <tag k="website" v="https://transport.mos.ru/transport/schedule/route/279"/>
 </relation>
 <relation id="13813132" visible="true" version="22" changeset="141362323" timestamp="2023-09-17T00:02:58Z" user="Fizzie-DWG" uid="461130">
  <member type="way" ref="684586100" role="outer"/>
  <member type="way" ref="1032479563" role="outer"/>
  <tag k="landuse" v="residential"/>
  <tag k="name" v="Квартал 17"/>
  <tag k="residential" v="urban"/>
  <tag k="type" v="multipolygon"/>
 </relation>
</osm>
