<?xml version="1.0" encoding="UTF-8"?>
<osm version="0.6" generator="openstreetmap-cgimap 2.1.0 (244704 spike-07.openstreetmap.org)" copyright="OpenStreetMap and contributors" attribution="http://www.openstreetmap.org/copyright" license="http://opendatacommons.org/licenses/odbl/1-0/">
 <bounds minlat="55.5656525" minlon="37.4271054" maxlat="55.5683475" maxlon="37.4318715"/>
 <node id="1488840545" visible="true" version="1" changeset="9714832" timestamp="2011-11-01T18:44:31Z" user="trolleway" uid="397326" lat="55.5639384" lon="37.4185635"/>
 <node id="1488840548" visible="true" version="1" changeset="9714832" timestamp="2011-11-01T18:44:31Z" user="trolleway" uid="397326" lat="55.5639682" lon="37.4190745"/>
 <node id="1488840549" visible="true" version="1" changeset="9714832" timestamp="2011-11-01T18:44:31Z" user="trolleway" uid="397326" lat="55.5640280" lon="37.4183609"/>
 <node id="1488840551" visible="true" version="1" changeset="9714832" timestamp="2011-11-01T18:44:31Z" user="trolleway" uid="397326" lat="55.5641875" lon="37.4193828"/>
 <node id="1488840553" visible="true" version="1" changeset="9714832" timestamp="2011-11-01T18:44:32Z" user="trolleway" uid="397326" lat="55.5642921" lon="37.4181847"/>
 <node id="1488840560" visible="true" version="1" changeset="9714832" timestamp="2011-11-01T18:44:32Z" user="trolleway" uid="397326" lat="55.5643817" lon="37.4197352"/>
 <node id="1488840563" visible="true" version="1" changeset="9714832" timestamp="2011-11-01T18:44:32Z" user="trolleway" uid="397326" lat="55.5644515" lon="37.4199555"/>
 <node id="1488840564" visible="true" version="1" changeset="9714832" timestamp="2011-11-01T18:44:32Z" user="trolleway" uid="397326" lat="55.5645063" lon="37.4201757"/>
 <node id="1488840567" visible="true" version="1" changeset="9714832" timestamp="2011-11-01T18:44:32Z" user="trolleway" uid="397326" lat="55.5646259" lon="37.4206250"/>
 <node id="1488840580" visible="true" version="1" changeset="9714832" timestamp="2011-11-01T18:44:32Z" user="trolleway" uid="397326" lat="55.5650244" lon="37.4217792"/>
 <node id="1488840582" visible="true" version="1" changeset="9714832" timestamp="2011-11-01T18:44:32Z" user="trolleway" uid="397326" lat="55.5652785" lon="37.4231535"/>
 <node id="1488840583" visible="true" version="1" changeset="9714832" timestamp="2011-11-01T18:44:32Z" user="trolleway" uid="397326" lat="55.5652934" lon="37.4223254"/>
 <node id="1488840589" visible="true" version="1" changeset="9714832" timestamp="2011-11-01T18:44:32Z" user="trolleway" uid="397326" lat="55.5652934" lon="37.4234002"/>
 <node id="1488840591" visible="true" version="1" changeset="9714832" timestamp="2011-11-01T18:44:33Z" user="trolleway" uid="397326" lat="55.5653084" lon="37.4229245"/>
 <node id="1488840593" visible="true" version="1" changeset="9714832" timestamp="2011-11-01T18:44:33Z" user="trolleway" uid="397326" lat="55.5653682" lon="37.4236205"/>
 <node id="1488840594" visible="true" version="1" changeset="9714832" timestamp="2011-11-01T18:44:33Z" user="trolleway" uid="397326" lat="55.5653931" lon="37.4227306"/>
 <node id="1488840595" visible="true" version="1" changeset="9714832" timestamp="2011-11-01T18:44:33Z" user="trolleway" uid="397326" lat="55.5654080" lon="37.4224928"/>
 <node id="1488840596" visible="true" version="1" changeset="9714832" timestamp="2011-11-01T18:44:33Z" user="trolleway" uid="397326" lat="55.5655276" lon="37.4237438"/>
 <node id="1488840597" visible="true" version="1" changeset="9714832" timestamp="2011-11-01T18:44:33Z" user="trolleway" uid="397326" lat="55.5659361" lon="37.4235676"/>
 <node id="1488840606" visible="true" version="1" changeset="9714832" timestamp="2011-11-01T18:44:33Z" user="trolleway" uid="397326" lat="55.5661453" lon="37.4238671"/>
 <node id="1488840609" visible="true" version="1" changeset="9714832" timestamp="2011-11-01T18:44:33Z" user="trolleway" uid="397326" lat="55.5662649" lon="37.4267745"/>
 <node id="1488840611" visible="true" version="1" changeset="9714832" timestamp="2011-11-01T18:44:33Z" user="trolleway" uid="397326" lat="55.5662748" lon="37.4262635"/>
 <node id="1488840613" visible="true" version="1" changeset="9714832" timestamp="2011-11-01T18:44:33Z" user="trolleway" uid="397326" lat="55.5663446" lon="37.4242019"/>
 <node id="1488840614" visible="true" version="1" changeset="9714832" timestamp="2011-11-01T18:44:33Z" user="trolleway" uid="397326" lat="55.5664044" lon="37.4258230"/>
 <node id="1488840624" visible="true" version="1" changeset="9714832" timestamp="2011-11-01T18:44:33Z" user="trolleway" uid="397326" lat="55.5664342" lon="37.4271445"/>
 <node id="1488840625" visible="true" version="1" changeset="9714832" timestamp="2011-11-01T18:44:34Z" user="trolleway" uid="397326" lat="55.5664841" lon="37.4246072"/>
 <node id="1488840627" visible="true" version="1" changeset="9714832" timestamp="2011-11-01T18:44:34Z" user="trolleway" uid="397326" lat="55.5665139" lon="37.4253825"/>
 <node id="1488840629" visible="true" version="1" changeset="9714832" timestamp="2011-11-01T18:44:34Z" user="trolleway" uid="397326" lat="55.5665888" lon="37.4264031"/>
 <node id="1488840637" visible="true" version="1" changeset="9714832" timestamp="2011-11-01T18:44:34Z" user="trolleway" uid="397326" lat="55.5666137" lon="37.4269053"/>
 <node id="1488840639" visible="true" version="1" changeset="9714832" timestamp="2011-11-01T18:44:34Z" user="trolleway" uid="397326" lat="55.5667331" lon="37.4279550"/>
 <node id="1488840640" visible="true" version="1" changeset="9714832" timestamp="2011-11-01T18:44:34Z" user="trolleway" uid="397326" lat="55.5669126" lon="37.4277422"/>
 <node id="1488840641" visible="true" version="1" changeset="9714832" timestamp="2011-11-01T18:44:34Z" user="trolleway" uid="397326" lat="55.5669176" lon="37.4253811"/>
 <node id="1488840645" visible="true" version="1" changeset="9714832" timestamp="2011-11-01T18:44:34Z" user="trolleway" uid="397326" lat="55.5670719" lon="37.4286951"/>
 <node id="1488840646" visible="true" version="1" changeset="9714832" timestamp="2011-11-01T18:44:34Z" user="trolleway" uid="397326" lat="55.5670720" lon="37.4247204"/>
 <node id="1488840653" visible="true" version="1" changeset="9714832" timestamp="2011-11-01T18:44:34Z" user="trolleway" uid="397326" lat="55.5671667" lon="37.4282973"/>
 <node id="1488840654" visible="true" version="1" changeset="9714832" timestamp="2011-11-01T18:44:34Z" user="trolleway" uid="397326" lat="55.5672048" lon="37.4335392"/>
 <node id="1488840655" visible="true" version="1" changeset="9714832" timestamp="2011-11-01T18:44:34Z" user="trolleway" uid="397326" lat="55.5673509" lon="37.4295408"/>
 <node id="1488840656" visible="true" version="1" changeset="9714832" timestamp="2011-11-01T18:44:34Z" user="trolleway" uid="397326" lat="55.5673809" lon="37.4289404"/>
 <node id="1488840657" visible="true" version="1" changeset="9714832" timestamp="2011-11-01T18:44:34Z" user="trolleway" uid="397326" lat="55.5674604" lon="37.4299813"/>
 <node id="1488840659" visible="true" version="1" changeset="9714832" timestamp="2011-11-01T18:44:34Z" user="trolleway" uid="397326" lat="55.5674690" lon="37.4332901"/>
 <node id="1488840661" visible="true" version="1" changeset="9714832" timestamp="2011-11-01T18:44:35Z" user="trolleway" uid="397326" lat="55.5674855" lon="37.4291078"/>
 <node id="1488840663" visible="true" version="1" changeset="9714832" timestamp="2011-11-01T18:44:35Z" user="trolleway" uid="397326" lat="55.5675302" lon="37.4309681"/>
 <node id="1488840668" visible="true" version="1" changeset="9714832" timestamp="2011-11-01T18:44:35Z" user="trolleway" uid="397326" lat="55.5675535" lon="37.4331842"/>
 <node id="1488840669" visible="true" version="1" changeset="9714832" timestamp="2011-11-01T18:44:35Z" user="trolleway" uid="397326" lat="55.5675900" lon="37.4314438"/>
 <node id="1488840670" visible="true" version="1" changeset="9714832" timestamp="2011-11-01T18:44:35Z" user="trolleway" uid="397326" lat="55.5676169" lon="37.4330471"/>
 <node id="1488840671" visible="true" version="1" changeset="9714832" timestamp="2011-11-01T18:44:35Z" user="trolleway" uid="397326" lat="55.5676592" lon="37.4328914"/>
 <node id="1488840673" visible="true" version="1" changeset="9714832" timestamp="2011-11-01T18:44:35Z" user="trolleway" uid="397326" lat="55.5677191" lon="37.4325425"/>
 <node id="1488840674" visible="true" version="1" changeset="9714832" timestamp="2011-11-01T18:44:35Z" user="trolleway" uid="397326" lat="55.5677196" lon="37.4296893"/>
 <node id="1488840676" visible="true" version="1" changeset="9714832" timestamp="2011-11-01T18:44:35Z" user="trolleway" uid="397326" lat="55.5677226" lon="37.4320005"/>
 <node id="1488840683" visible="true" version="1" changeset="9714832" timestamp="2011-11-01T18:44:35Z" user="trolleway" uid="397326" lat="55.5678541" lon="37.4296628"/>
 <node id="1488840684" visible="true" version="1" changeset="9714832" timestamp="2011-11-01T18:44:35Z" user="trolleway" uid="397326" lat="55.5680332" lon="37.4344688"/>
 <node id="1488840685" visible="true" version="1" changeset="9714832" timestamp="2011-11-01T18:44:35Z" user="trolleway" uid="397326" lat="55.5680491" lon="37.4340483"/>
 <node id="1488840686" visible="true" version="1" changeset="9714832" timestamp="2011-11-01T18:44:35Z" user="trolleway" uid="397326" lat="55.5680534" lon="37.4294602"/>
 <node id="1488840687" visible="true" version="1" changeset="9714832" timestamp="2011-11-01T18:44:35Z" user="trolleway" uid="397326" lat="55.5681336" lon="37.4295131"/>
 <node id="1488840688" visible="true" version="1" changeset="9714832" timestamp="2011-11-01T18:44:35Z" user="trolleway" uid="397326" lat="55.5681777" lon="37.4348021"/>
 <node id="1488840691" visible="true" version="1" changeset="9714832" timestamp="2011-11-01T18:44:35Z" user="trolleway" uid="397326" lat="55.5681935" lon="37.4296408"/>
 <node id="1488840698" visible="true" version="1" changeset="9714832" timestamp="2011-11-01T18:44:36Z" user="trolleway" uid="397326" lat="55.5682534" lon="37.4301361"/>
 <node id="1488840699" visible="true" version="1" changeset="9714832" timestamp="2011-11-01T18:44:36Z" user="trolleway" uid="397326" lat="55.5683485" lon="37.4305535"/>
 <node id="1488840701" visible="true" version="1" changeset="9714832" timestamp="2011-11-01T18:44:36Z" user="trolleway" uid="397326" lat="55.5683837" lon="37.4349859"/>
 <node id="1488840702" visible="true" version="1" changeset="9714832" timestamp="2011-11-01T18:44:36Z" user="trolleway" uid="397326" lat="55.5684454" lon="37.4310581"/>
 <node id="1488840703" visible="true" version="1" changeset="9714832" timestamp="2011-11-01T18:44:36Z" user="trolleway" uid="397326" lat="55.5684630" lon="37.4314848"/>
 <node id="1488840705" visible="true" version="1" changeset="9714832" timestamp="2011-11-01T18:44:36Z" user="trolleway" uid="397326" lat="55.5684806" lon="37.4351229"/>
 <node id="1488840714" visible="true" version="1" changeset="9714832" timestamp="2011-11-01T18:44:36Z" user="trolleway" uid="397326" lat="55.5687131" lon="37.4353161"/>
 <node id="1488840715" visible="true" version="1" changeset="9714832" timestamp="2011-11-01T18:44:36Z" user="trolleway" uid="397326" lat="55.5690107" lon="37.4354625"/>
 <node id="7511559731" visible="true" version="1" changeset="85094473" timestamp="2020-05-12T15:27:08Z" user="cservice_ltd" uid="10852429" lat="55.5679119" lon="37.4312774"/>
 <node id="7511559732" visible="true" version="1" changeset="85094473" timestamp="2020-05-12T15:27:08Z" user="cservice_ltd" uid="10852429" lat="55.5680150" lon="37.4307624"/>
 <node id="7511559733" visible="true" version="1" changeset="85094473" timestamp="2020-05-12T15:27:08Z" user="cservice_ltd" uid="10852429" lat="55.5681667" lon="37.4309180"/>
 <node id="7511559734" visible="true" version="1" changeset="85094473" timestamp="2020-05-12T15:27:08Z" user="cservice_ltd" uid="10852429" lat="55.5681303" lon="37.4314920"/>
 <node id="7511559735" visible="true" version="1" changeset="85094473" timestamp="2020-05-12T15:27:08Z" user="cservice_ltd" uid="10852429" lat="55.5681910" lon="37.4323718"/>
 <node id="7511559736" visible="true" version="1" changeset="85094473" timestamp="2020-05-12T15:27:08Z" user="cservice_ltd" uid="10852429" lat="55.5681424" lon="37.4333910"/>
 <node id="7511559737" visible="true" version="1" changeset="85094473" timestamp="2020-05-12T15:27:08Z" user="cservice_ltd" uid="10852429" lat="55.5690918" lon="37.4357245"/>
 <node id="7511559738" visible="true" version="1" changeset="85094473" timestamp="2020-05-12T15:27:08Z" user="cservice_ltd" uid="10852429" lat="55.5689705" lon="37.4358103"/>
 <node id="7511559739" visible="true" version="1" changeset="85094473" timestamp="2020-05-12T15:27:08Z" user="cservice_ltd" uid="10852429" lat="55.5685822" lon="37.4356172"/>
 <node id="7511559740" visible="true" version="1" changeset="85094473" timestamp="2020-05-12T15:27:08Z" user="cservice_ltd" uid="10852429" lat="55.5682668" lon="37.4354563"/>
 <node id="7511559741" visible="true" version="1" changeset="85094473" timestamp="2020-05-12T15:27:08Z" user="cservice_ltd" uid="10852429" lat="55.5681091" lon="37.4352954"/>
 <node id="7511559742" visible="true" version="1" changeset="85094473" timestamp="2020-05-12T15:27:08Z" user="cservice_ltd" uid="10852429" lat="55.5679513" lon="37.4353275"/>
 <node id="7511559743" visible="true" version="1" changeset="85094473" timestamp="2020-05-12T15:27:08Z" user="cservice_ltd" uid="10852429" lat="55.5678421" lon="37.4356440"/>
 <node id="7511559744" visible="true" version="1" changeset="85094473" timestamp="2020-05-12T15:27:08Z" user="cservice_ltd" uid="10852429" lat="55.5678361" lon="37.4358962"/>
 <node id="7511559745" visible="true" version="1" changeset="85094473" timestamp="2020-05-12T15:27:08Z" user="cservice_ltd" uid="10852429" lat="55.5679508" lon="37.4361275"/>
 <node id="7511559746" visible="true" version="1" changeset="85094473" timestamp="2020-05-12T15:27:08Z" user="cservice_ltd" uid="10852429" lat="55.5679726" lon="37.4363951"/>
 <node id="7511559747" visible="true" version="1" changeset="85094473" timestamp="2020-05-12T15:27:08Z" user="cservice_ltd" uid="10852429" lat="55.5678118" lon="37.4362341"/>
 <node id="7511559748" visible="true" version="1" changeset="85094473" timestamp="2020-05-12T15:27:08Z" user="cservice_ltd" uid="10852429" lat="55.5677360" lon="37.4361698"/>
 <node id="7511559749" visible="true" version="1" changeset="85094473" timestamp="2020-05-12T15:27:08Z" user="cservice_ltd" uid="10852429" lat="55.5675631" lon="37.4360035"/>
 <node id="7511559750" visible="true" version="1" changeset="85094473" timestamp="2020-05-12T15:27:08Z" user="cservice_ltd" uid="10852429" lat="55.5671293" lon="37.4362341"/>
 <node id="7511559751" visible="true" version="1" changeset="85094473" timestamp="2020-05-12T15:27:08Z" user="cservice_ltd" uid="10852429" lat="55.5669807" lon="37.4359498"/>
 <node id="7511559752" visible="true" version="1" changeset="85094473" timestamp="2020-05-12T15:27:08Z" user="cservice_ltd" uid="10852429" lat="55.5672476" lon="37.4357513"/>
 <node id="7511559753" visible="true" version="1" changeset="85094473" timestamp="2020-05-12T15:27:08Z" user="cservice_ltd" uid="10852429" lat="55.5674690" lon="37.4357943"/>
 <node id="7511559754" visible="true" version="1" changeset="85094473" timestamp="2020-05-12T15:27:08Z" user="cservice_ltd" uid="10852429" lat="55.5675388" lon="37.4359337"/>
 <node id="7511559755" visible="true" version="1" changeset="85094473" timestamp="2020-05-12T15:27:08Z" user="cservice_ltd" uid="10852429" lat="55.5676480" lon="37.4358318"/>
 <node id="7511559756" visible="true" version="1" changeset="85094473" timestamp="2020-05-12T15:27:08Z" user="cservice_ltd" uid="10852429" lat="55.5677542" lon="37.4351666"/>
 <node id="7511559757" visible="true" version="1" changeset="85094473" timestamp="2020-05-12T15:27:08Z" user="cservice_ltd" uid="10852429" lat="55.5678391" lon="37.4347911"/>
 <node id="7511559758" visible="true" version="1" changeset="85094473" timestamp="2020-05-12T15:27:08Z" user="cservice_ltd" uid="10852429" lat="55.5678118" lon="37.4344692"/>
 <node id="7511559759" visible="true" version="1" changeset="85094473" timestamp="2020-05-12T15:27:08Z" user="cservice_ltd" uid="10852429" lat="55.5675631" lon="37.4339972"/>
 <node id="7511559760" visible="true" version="1" changeset="85094473" timestamp="2020-05-12T15:27:08Z" user="cservice_ltd" uid="10852429" lat="55.5672780" lon="37.4342332"/>
 <node id="7511559761" visible="true" version="1" changeset="85094473" timestamp="2020-05-12T15:27:08Z" user="cservice_ltd" uid="10852429" lat="55.5670899" lon="37.4345551"/>
 <node id="7511559762" visible="true" version="1" changeset="85094473" timestamp="2020-05-12T15:27:08Z" user="cservice_ltd" uid="10852429" lat="55.5666531" lon="37.4343834"/>
 <node id="7511559763" visible="true" version="1" changeset="85094473" timestamp="2020-05-12T15:27:08Z" user="cservice_ltd" uid="10852429" lat="55.5661162" lon="37.4346034"/>
 <node id="7511559764" visible="true" version="1" changeset="85094473" timestamp="2020-05-12T15:27:08Z" user="cservice_ltd" uid="10852429" lat="55.5655823" lon="37.4347160"/>
 <node id="7511559765" visible="true" version="1" changeset="85094473" timestamp="2020-05-12T15:27:08Z" user="cservice_ltd" uid="10852429" lat="55.5655702" lon="37.4344531"/>
 <node id="7511559766" visible="true" version="1" changeset="85094473" timestamp="2020-05-12T15:27:08Z" user="cservice_ltd" uid="10852429" lat="55.5661374" lon="37.4343244"/>
 <node id="7511559767" visible="true" version="1" changeset="85094473" timestamp="2020-05-12T15:27:08Z" user="cservice_ltd" uid="10852429" lat="55.5664650" lon="37.4341420"/>
 <node id="7511559768" visible="true" version="1" changeset="85094473" timestamp="2020-05-12T15:27:08Z" user="cservice_ltd" uid="10852429" lat="55.5667987" lon="37.4339113"/>
 <node id="7511559769" visible="true" version="1" changeset="85094473" timestamp="2020-05-12T15:27:08Z" user="cservice_ltd" uid="10852429" lat="55.5670929" lon="37.4340025"/>
 <node id="7511559770" visible="true" version="1" changeset="85094473" timestamp="2020-05-12T15:27:08Z" user="cservice_ltd" uid="10852429" lat="55.5671020" lon="37.4337719"/>
 <node id="7511559771" visible="true" version="1" changeset="85094473" timestamp="2020-05-12T15:27:08Z" user="cservice_ltd" uid="10852429" lat="55.5672840" lon="37.4336860"/>
 <node id="7511559772" visible="true" version="1" changeset="85094473" timestamp="2020-05-12T15:27:08Z" user="cservice_ltd" uid="10852429" lat="55.5676450" lon="37.4335895"/>
 <node id="7511559773" visible="true" version="1" changeset="85094473" timestamp="2020-05-12T15:27:08Z" user="cservice_ltd" uid="10852429" lat="55.5677997" lon="37.4336163"/>
 <node id="7511559774" visible="true" version="1" changeset="85094473" timestamp="2020-05-12T15:27:08Z" user="cservice_ltd" uid="10852429" lat="55.5678785" lon="37.4333373"/>
 <node id="7511559775" visible="true" version="1" changeset="85094473" timestamp="2020-05-12T15:27:08Z" user="cservice_ltd" uid="10852429" lat="55.5679817" lon="37.4329082"/>
 <node id="7511559776" visible="true" version="1" changeset="85094473" timestamp="2020-05-12T15:27:08Z" user="cservice_ltd" uid="10852429" lat="55.5680545" lon="37.4325810"/>
 <node id="7511559777" visible="true" version="1" changeset="85094473" timestamp="2020-05-12T15:27:08Z" user="cservice_ltd" uid="10852429" lat="55.5680818" lon="37.4320070"/>
 <node id="7511559778" visible="true" version="1" changeset="85094473" timestamp="2020-05-12T15:27:08Z" user="cservice_ltd" uid="10852429" lat="55.5679604" lon="37.4315349"/>
 <way id="135572307" visible="true" version="1" changeset="9714832" timestamp="2011-11-01T18:44:40Z" user="trolleway" uid="397326">
  <nd ref="1488840646"/>
  <nd ref="1488840641"/>
  <nd ref="1488840629"/>
  <nd ref="1488840637"/>
  <nd ref="1488840640"/>
  <nd ref="1488840653"/>
  <nd ref="1488840656"/>
  <nd ref="1488840661"/>
  <nd ref="1488840674"/>
  <nd ref="1488840683"/>
  <nd ref="1488840686"/>
  <nd ref="1488840687"/>
  <nd ref="1488840691"/>
  <nd ref="1488840698"/>
  <nd ref="1488840699"/>
  <nd ref="1488840702"/>
  <nd ref="1488840703"/>
  <nd ref="1488840685"/>
 </way>
 <way id="135572337" visible="true" version="1" changeset="9714832" timestamp="2011-11-01T18:44:43Z" user="trolleway" uid="397326">
  <nd ref="1488840553"/>
  <nd ref="1488840549"/>
  <nd ref="1488840545"/>
  <nd ref="1488840548"/>
  <nd ref="1488840551"/>
  <nd ref="1488840560"/>
  <nd ref="1488840563"/>
  <nd ref="1488840564"/>
  <nd ref="1488840567"/>
  <nd ref="1488840580"/>
  <nd ref="1488840583"/>
  <nd ref="1488840595"/>
  <nd ref="1488840594"/>
  <nd ref="1488840591"/>
  <nd ref="1488840582"/>
  <nd ref="1488840589"/>
  <nd ref="1488840593"/>
  <nd ref="1488840596"/>
  <nd ref="1488840597"/>
  <nd ref="1488840606"/>
  <nd ref="1488840613"/>
  <nd ref="1488840625"/>
  <nd ref="1488840627"/>
  <nd ref="1488840614"/>
  <nd ref="1488840611"/>
  <nd ref="1488840609"/>
  <nd ref="1488840624"/>
  <nd ref="1488840639"/>
  <nd ref="1488840645"/>
  <nd ref="1488840655"/>
  <nd ref="1488840657"/>
  <nd ref="1488840663"/>
  <nd ref="1488840669"/>
  <nd ref="1488840676"/>
  <nd ref="1488840673"/>
  <nd ref="1488840671"/>
  <nd ref="1488840670"/>
  <nd ref="1488840668"/>
  <nd ref="1488840659"/>
  <nd ref="1488840654"/>
 </way>
 <way id="803007052" visible="true" version="1" changeset="85094473" timestamp="2020-05-12T15:27:08Z" user="cservice_ltd" uid="10852429">
  <nd ref="7511559731"/>
  <nd ref="7511559732"/>
  <nd ref="7511559733"/>
  <nd ref="7511559734"/>
  <nd ref="7511559735"/>
  <nd ref="7511559736"/>
  <nd ref="1488840685"/>
  <nd ref="1488840684"/>
  <nd ref="1488840688"/>
  <nd ref="1488840701"/>
  <nd ref="1488840705"/>
  <nd ref="1488840714"/>
  <nd ref="1488840715"/>
  <nd ref="7511559737"/>
  <nd ref="7511559738"/>
  <nd ref="7511559739"/>
  <nd ref="7511559740"/>
  <nd ref="7511559741"/>
  <nd ref="7511559742"/>
  <nd ref="7511559743"/>
  <nd ref="7511559744"/>
  <nd ref="7511559745"/>
  <nd ref="7511559746"/>
  <nd ref="7511559747"/>
  <nd ref="7511559748"/>
  <nd ref="7511559749"/>
  <nd ref="7511559750"/>
  <nd ref="7511559751"/>
  <nd ref="7511559752"/>
  <nd ref="7511559753"/>
  <nd ref="7511559754"/>
  <nd ref="7511559755"/>
  <nd ref="7511559756"/>
  <nd ref="7511559757"/>
  <nd ref="7511559758"/>
  <nd ref="7511559759"/>
  <nd ref="7511559760"/>
  <nd ref="7511559761"/>
  <nd ref="7511559762"/>
  <nd ref="7511559763"/>
  <nd ref="7511559764"/>
  <nd ref="7511559765"/>
  <nd ref="7511559766"/>
  <nd ref="7511559767"/>
  <nd ref="7511559768"/>
  <nd ref="7511559769"/>
  <nd ref="7511559770"/>
  <nd ref="7511559771"/>
  <nd ref="7511559772"/>
  <nd ref="7511559773"/>
  <nd ref="7511559774"/>
  <nd ref="7511559775"/>
  <nd ref="7511559776"/>
  <nd ref="7511559777"/>
  <nd ref="7511559778"/>
  <nd ref="7511559731"/>
  <tag k="natural" v="wood"/>
 </way>
 <relation id="1825181" visible="true" version="2" changeset="113760163" timestamp="2021-11-14T11:56:54Z" user="literan" uid="830106">
  <member type="way" ref="135572305" role="outer"/>
  <member type="way" ref="135572326" role="outer"/>
  <member type="way" ref="135572307" role="outer"/>
  <tag k="natural" v="grassland"/>
  <tag k="type" v="multipolygon"/>
 </relation>
 <relation id="1825182" visible="true" version="2" changeset="113761048" timestamp="2021-11-14T12:33:19Z" user="literan" uid="830106">
  <member type="way" ref="135572334" role="outer"/>
  <member type="way" ref="135572309" role="outer"/>
  <member type="way" ref="135572337" role="outer"/>
  <member type="way" ref="135572315" role="outer"/>
  <member type="way" ref="135572352" role="outer"/>
  <member type="way" ref="135572312" role="outer"/>
  <member type="way" ref="1002259143" role="inner"/>
  <member type="way" ref="1002259144" role="inner"/>
  <member type="way" ref="1002259146" role="inner"/>
  <member type="way" ref="1002259145" role="inner"/>
  <member type="way" ref="1002259142" role="inner"/>
  <tag k="natural" v="grassland"/>
  <tag k="type" v="multipolygon"/>
 </relation>
 <relation id="1825186" visible="true" version="2" changeset="42803134" timestamp="2016-10-11T13:18:45Z" user="Владимир К" uid="2853561">
  <member type="way" ref="135572324" role="outer"/>
  <member type="way" ref="135572307" role="outer"/>
  <member type="way" ref="135572310" role="outer"/>
  <member type="way" ref="135572322" role="outer"/>
  <member type="way" ref="135572337" role="outer"/>
  <tag k="natural" v="grassland"/>
  <tag k="type" v="multipolygon"/>
 </relation>
</osm>
