<?xml version="1.0" encoding="UTF-8"?>
<osm version="0.6" generator="openstreetmap-cgimap 2.1.0 (244694 spike-07.openstreetmap.org)" copyright="OpenStreetMap and contributors" attribution="http://www.openstreetmap.org/copyright" license="http://opendatacommons.org/licenses/odbl/1-0/">
 <bounds minlat="55.5580169" minlon="37.4541136" maxlat="55.5607118" maxlon="37.4588787"/>
 <node id="260456283" visible="true" version="3" changeset="40996317" timestamp="2016-07-24T18:16:36Z" user="ad47" uid="696711" lat="55.5599795" lon="37.4494467"/>
 <node id="260456284" visible="true" version="2" changeset="11102901" timestamp="2012-03-26T07:40:14Z" user="esaulenka" uid="336354" lat="55.5606278" lon="37.4506261"/>
 <node id="260456285" visible="true" version="3" changeset="40996317" timestamp="2016-07-24T18:16:36Z" user="ad47" uid="696711" lat="55.5608533" lon="37.4512163"/>
 <node id="260456286" visible="true" version="3" changeset="40996317" timestamp="2016-07-24T18:16:36Z" user="ad47" uid="696711" lat="55.5609325" lon="37.4520553"/>
 <node id="260456287" visible="true" version="3" changeset="40996317" timestamp="2016-07-24T18:16:36Z" user="ad47" uid="696711" lat="55.5609562" lon="37.4523018"/>
 <node id="260456288" visible="true" version="3" changeset="40996317" timestamp="2016-07-24T18:16:36Z" user="ad47" uid="696711" lat="55.5606202" lon="37.4524831"/>
 <node id="260456290" visible="true" version="3" changeset="40996317" timestamp="2016-07-24T18:16:36Z" user="ad47" uid="696711" lat="55.5603317" lon="37.4529215"/>
 <node id="260456291" visible="true" version="3" changeset="40996317" timestamp="2016-07-24T18:16:36Z" user="ad47" uid="696711" lat="55.5600862" lon="37.4535540"/>
 <node id="260456292" visible="true" version="4" changeset="40996317" timestamp="2016-07-24T18:16:36Z" user="ad47" uid="696711" lat="55.5597497" lon="37.4542758"/>
 <node id="260456293" visible="true" version="3" changeset="40996317" timestamp="2016-07-24T18:16:36Z" user="ad47" uid="696711" lat="55.5592474" lon="37.4530519"/>
 <node id="260456294" visible="true" version="2" changeset="11102901" timestamp="2012-03-26T07:40:14Z" user="esaulenka" uid="336354" lat="55.5592007" lon="37.4523771"/>
 <node id="260456295" visible="true" version="2" changeset="11102901" timestamp="2012-03-26T07:40:15Z" user="esaulenka" uid="336354" lat="55.5591764" lon="37.4517591"/>
 <node id="260456297" visible="true" version="3" changeset="40996317" timestamp="2016-07-24T18:16:36Z" user="ad47" uid="696711" lat="55.5593503" lon="37.4507220"/>
 <node id="260456299" visible="true" version="2" changeset="11102901" timestamp="2012-03-26T07:40:15Z" user="esaulenka" uid="336354" lat="55.5596279" lon="37.4501970"/>
 <node id="266703252" visible="true" version="3" changeset="186418451" timestamp="2026-07-26T19:07:48Z" user="leobass" uid="21958437" lat="55.5602003" lon="37.4592170"/>
 <node id="968963063" visible="true" version="2" changeset="40996317" timestamp="2016-07-24T18:16:41Z" user="ad47" uid="696711" lat="55.5601519" lon="37.4575123"/>
 <node id="968963064" visible="true" version="2" changeset="40996317" timestamp="2016-07-24T18:16:41Z" user="ad47" uid="696711" lat="55.5601119" lon="37.4558232"/>
 <node id="968963065" visible="true" version="2" changeset="40996317" timestamp="2016-07-24T18:16:41Z" user="ad47" uid="696711" lat="55.5600008" lon="37.4551962"/>
 <node id="968963067" visible="true" version="2" changeset="40996317" timestamp="2016-07-24T18:16:41Z" user="ad47" uid="696711" lat="55.5598471" lon="37.4545065"/>
 <node id="1349144675" visible="true" version="2" changeset="40996317" timestamp="2016-07-24T18:16:33Z" user="ad47" uid="696711" lat="55.5601473" lon="37.4570935"/>
 <node id="1490614355" visible="true" version="2" changeset="57458846" timestamp="2018-03-23T14:05:16Z" user="iWowik" uid="481934" lat="55.5607431" lon="37.4525945"/>
 <node id="1490614358" visible="true" version="1" changeset="9732861" timestamp="2011-11-03T18:47:57Z" user="trolleway" uid="397326" lat="55.5608931" lon="37.4534638"/>
 <node id="1490625710" visible="true" version="2" changeset="40996317" timestamp="2016-07-24T18:16:34Z" user="ad47" uid="696711" lat="55.5560845" lon="37.4462104"/>
 <node id="1490625711" visible="true" version="1" changeset="9732861" timestamp="2011-11-03T18:59:43Z" user="trolleway" uid="397326" lat="55.5561367" lon="37.4465696"/>
 <node id="1490625712" visible="true" version="1" changeset="9732861" timestamp="2011-11-03T18:59:43Z" user="trolleway" uid="397326" lat="55.5563509" lon="37.4471717"/>
 <node id="1490625714" visible="true" version="2" changeset="33054747" timestamp="2015-08-02T19:11:59Z" user="collob" uid="689721" lat="55.5564774" lon="37.4475408"/>
 <node id="1490625715" visible="true" version="2" changeset="33054747" timestamp="2015-08-02T19:11:58Z" user="collob" uid="689721" lat="55.5565716" lon="37.4478128"/>
 <node id="1490625716" visible="true" version="2" changeset="33054747" timestamp="2015-08-02T19:11:58Z" user="collob" uid="689721" lat="55.5566813" lon="37.4481457"/>
 <node id="1490625717" visible="true" version="2" changeset="33054747" timestamp="2015-08-02T19:11:59Z" user="collob" uid="689721" lat="55.5567990" lon="37.4484174"/>
 <node id="1490625718" visible="true" version="2" changeset="33054747" timestamp="2015-08-02T19:11:59Z" user="collob" uid="689721" lat="55.5569779" lon="37.4489085"/>
 <node id="1490625719" visible="true" version="2" changeset="33054747" timestamp="2015-08-02T19:11:59Z" user="collob" uid="689721" lat="55.5572045" lon="37.4494750"/>
 <node id="1490625730" visible="true" version="2" changeset="33054747" timestamp="2015-08-02T19:11:59Z" user="collob" uid="689721" lat="55.5573360" lon="37.4496635"/>
 <node id="1490625731" visible="true" version="1" changeset="9732861" timestamp="2011-11-03T18:59:43Z" user="trolleway" uid="397326" lat="55.5575072" lon="37.4496774"/>
 <node id="1490625732" visible="true" version="1" changeset="9732861" timestamp="2011-11-03T18:59:43Z" user="trolleway" uid="397326" lat="55.5575539" lon="37.4495657"/>
 <node id="1490625733" visible="true" version="1" changeset="9732861" timestamp="2011-11-03T18:59:43Z" user="trolleway" uid="397326" lat="55.5575703" lon="37.4480215"/>
 <node id="1490625734" visible="true" version="1" changeset="9732861" timestamp="2011-11-03T18:59:43Z" user="trolleway" uid="397326" lat="55.5576115" lon="37.4477593"/>
 <node id="1490625737" visible="true" version="1" changeset="9732861" timestamp="2011-11-03T18:59:43Z" user="trolleway" uid="397326" lat="55.5576582" lon="37.4476525"/>
 <node id="1490625738" visible="true" version="1" changeset="9732861" timestamp="2011-11-03T18:59:44Z" user="trolleway" uid="397326" lat="55.5577351" lon="37.4476573"/>
 <node id="1490625740" visible="true" version="1" changeset="9732861" timestamp="2011-11-03T18:59:44Z" user="trolleway" uid="397326" lat="55.5579603" lon="37.4478078"/>
 <node id="1490625742" visible="true" version="1" changeset="9732861" timestamp="2011-11-03T18:59:44Z" user="trolleway" uid="397326" lat="55.5583009" lon="37.4478904"/>
 <node id="1490625744" visible="true" version="1" changeset="9732861" timestamp="2011-11-03T18:59:44Z" user="trolleway" uid="397326" lat="55.5589682" lon="37.4482934"/>
 <node id="1490625746" visible="true" version="1" changeset="9732861" timestamp="2011-11-03T18:59:44Z" user="trolleway" uid="397326" lat="55.5590259" lon="37.4520714"/>
 <node id="1490625748" visible="true" version="1" changeset="9732861" timestamp="2011-11-03T18:59:44Z" user="trolleway" uid="397326" lat="55.5590561" lon="37.4527706"/>
 <node id="1490625750" visible="true" version="1" changeset="9732861" timestamp="2011-11-03T18:59:44Z" user="trolleway" uid="397326" lat="55.5590671" lon="37.4528969"/>
 <node id="1490625752" visible="true" version="1" changeset="9732861" timestamp="2011-11-03T18:59:44Z" user="trolleway" uid="397326" lat="55.5591138" lon="37.4510905"/>
 <node id="1490625753" visible="true" version="1" changeset="9732861" timestamp="2011-11-03T18:59:44Z" user="trolleway" uid="397326" lat="55.5591358" lon="37.4509496"/>
 <node id="1490625754" visible="true" version="1" changeset="9732861" timestamp="2011-11-03T18:59:44Z" user="trolleway" uid="397326" lat="55.5591715" lon="37.4508234"/>
 <node id="1490625755" visible="true" version="1" changeset="9732861" timestamp="2011-11-03T18:59:44Z" user="trolleway" uid="397326" lat="55.5592099" lon="37.4507020"/>
 <node id="1490625756" visible="true" version="1" changeset="9732861" timestamp="2011-11-03T18:59:44Z" user="trolleway" uid="397326" lat="55.5592593" lon="37.4534262"/>
 <node id="1490625758" visible="true" version="1" changeset="9732861" timestamp="2011-11-03T18:59:44Z" user="trolleway" uid="397326" lat="55.5592758" lon="37.4505709"/>
 <node id="1490625769" visible="true" version="1" changeset="9732861" timestamp="2011-11-03T18:59:44Z" user="trolleway" uid="397326" lat="55.5593308" lon="37.4487256"/>
 <node id="1490625770" visible="true" version="1" changeset="9732861" timestamp="2011-11-03T18:59:44Z" user="trolleway" uid="397326" lat="55.5594296" lon="37.4540623"/>
 <node id="1490625771" visible="true" version="1" changeset="9732861" timestamp="2011-11-03T18:59:44Z" user="trolleway" uid="397326" lat="55.5594434" lon="37.4489296"/>
 <node id="1490625772" visible="true" version="1" changeset="9732861" timestamp="2011-11-03T18:59:44Z" user="trolleway" uid="397326" lat="55.5595257" lon="37.4542614"/>
 <node id="1490625773" visible="true" version="1" changeset="9732861" timestamp="2011-11-03T18:59:44Z" user="trolleway" uid="397326" lat="55.5595697" lon="37.4492841"/>
 <node id="1490625774" visible="true" version="1" changeset="9732861" timestamp="2011-11-03T18:59:44Z" user="trolleway" uid="397326" lat="55.5595807" lon="37.4544994"/>
 <node id="1490625776" visible="true" version="1" changeset="9732861" timestamp="2011-11-03T18:59:44Z" user="trolleway" uid="397326" lat="55.5595889" lon="37.4500999"/>
 <node id="1490625778" visible="true" version="1" changeset="9732861" timestamp="2011-11-03T18:59:44Z" user="trolleway" uid="397326" lat="55.5596711" lon="37.4546062"/>
 <node id="1490625780" visible="true" version="1" changeset="9732861" timestamp="2011-11-03T18:59:44Z" user="trolleway" uid="397326" lat="55.5596823" lon="37.4494734"/>
 <node id="1490625782" visible="true" version="1" changeset="9732861" timestamp="2011-11-03T18:59:44Z" user="trolleway" uid="397326" lat="55.5597097" lon="37.4495900"/>
 <node id="1490625784" visible="true" version="2" changeset="40996317" timestamp="2016-07-24T18:16:34Z" user="ad47" uid="696711" lat="55.5598417" lon="37.4542226"/>
 <node id="1490625787" visible="true" version="1" changeset="9732861" timestamp="2011-11-03T18:59:44Z" user="trolleway" uid="397326" lat="55.5601864" lon="37.4580407"/>
 <node id="1490625789" visible="true" version="2" changeset="40996317" timestamp="2016-07-24T18:16:34Z" user="ad47" uid="696711" lat="55.5603236" lon="37.4529805"/>
 <node id="1490625791" visible="true" version="2" changeset="40996317" timestamp="2016-07-24T18:16:34Z" user="ad47" uid="696711" lat="55.5606320" lon="37.4524969"/>
 <node id="1490625792" visible="true" version="1" changeset="9732861" timestamp="2011-11-03T18:59:44Z" user="trolleway" uid="397326" lat="55.5607106" lon="37.4563459"/>
 <node id="1490625793" visible="true" version="2" changeset="112946530" timestamp="2021-10-25T12:55:11Z" user="literan" uid="830106" lat="55.5600996" lon="37.4575214"/>
 <node id="1490625795" visible="true" version="1" changeset="9732861" timestamp="2011-11-03T18:59:44Z" user="trolleway" uid="397326" lat="55.5608388" lon="37.4543192"/>
 <node id="1490625796" visible="true" version="2" changeset="112946530" timestamp="2021-10-25T12:55:11Z" user="literan" uid="830106" lat="55.5605078" lon="37.4565633"/>
 <node id="4318595103" visible="true" version="1" changeset="40996317" timestamp="2016-07-24T18:15:26Z" user="ad47" uid="696711" lat="55.5597286" lon="37.4544319">
  <tag k="amenity" v="parking"/>
 </node>
 <node id="4318595104" visible="true" version="1" changeset="40996317" timestamp="2016-07-24T18:15:26Z" user="ad47" uid="696711" lat="55.5598854" lon="37.4544754"/>
 <node id="4318595105" visible="true" version="1" changeset="40996317" timestamp="2016-07-24T18:15:26Z" user="ad47" uid="696711" lat="55.5598973" lon="37.4547317"/>
 <node id="4318595106" visible="true" version="1" changeset="40996317" timestamp="2016-07-24T18:15:26Z" user="ad47" uid="696711" lat="55.5601543" lon="37.4497201"/>
 <node id="4318595107" visible="true" version="1" changeset="40996317" timestamp="2016-07-24T18:15:26Z" user="ad47" uid="696711" lat="55.5602388" lon="37.4500380"/>
 <node id="4318595108" visible="true" version="2" changeset="57458846" timestamp="2018-03-23T14:05:16Z" user="iWowik" uid="481934" lat="55.5607677" lon="37.4525249"/>
 <node id="4318595109" visible="true" version="1" changeset="40996317" timestamp="2016-07-24T18:15:26Z" user="ad47" uid="696711" lat="55.5608382" lon="37.4523532"/>
 <node id="4318595110" visible="true" version="1" changeset="40996317" timestamp="2016-07-24T18:15:26Z" user="ad47" uid="696711" lat="55.5608489" lon="37.4516195"/>
 <node id="6541972547" visible="true" version="6" changeset="188057024" timestamp="2026-08-26T17:27:20Z" user="leobass" uid="21958437" lat="55.5604055" lon="37.4578421"/>
 <node id="6545297749" visible="true" version="4" changeset="112946530" timestamp="2021-10-25T12:55:11Z" user="literan" uid="830106" lat="55.5622621" lon="37.4558722"/>
 <node id="6649265542" visible="true" version="2" changeset="112946530" timestamp="2021-10-25T12:55:11Z" user="literan" uid="830106" lat="55.5612807" lon="37.4568745"/>
 <node id="9199703702" visible="true" version="1" changeset="112946530" timestamp="2021-10-25T12:55:11Z" user="literan" uid="830106" lat="55.5601689" lon="37.4576859"/>
 <node id="9199703704" visible="true" version="3" changeset="188057024" timestamp="2026-08-26T17:27:20Z" user="leobass" uid="21958437" lat="55.5602231" lon="37.4577964"/>
 <node id="9199703705" visible="true" version="3" changeset="188057024" timestamp="2026-08-26T17:27:20Z" user="leobass" uid="21958437" lat="55.5602464" lon="37.4577588"/>
 <node id="9199703706" visible="true" version="3" changeset="188057024" timestamp="2026-08-26T17:27:20Z" user="leobass" uid="21958437" lat="55.5602747" lon="37.4577348"/>
 <node id="9199703707" visible="true" version="3" changeset="188057024" timestamp="2026-08-26T17:27:20Z" user="leobass" uid="21958437" lat="55.5603059" lon="37.4577263"/>
 <node id="9199703708" visible="true" version="3" changeset="188057024" timestamp="2026-08-26T17:27:20Z" user="leobass" uid="21958437" lat="55.5603370" lon="37.4577341"/>
 <node id="9199703709" visible="true" version="3" changeset="188057024" timestamp="2026-08-26T17:27:20Z" user="leobass" uid="21958437" lat="55.5603656" lon="37.4577575"/>
 <node id="9199703710" visible="true" version="3" changeset="188057024" timestamp="2026-08-26T17:27:20Z" user="leobass" uid="21958437" lat="55.5603891" lon="37.4577946"/>
 <node id="9199703711" visible="true" version="3" changeset="188057024" timestamp="2026-08-26T17:27:20Z" user="leobass" uid="21958437" lat="55.5604139" lon="37.4579063"/>
 <node id="9199703712" visible="true" version="3" changeset="188057024" timestamp="2026-08-26T17:27:20Z" user="leobass" uid="21958437" lat="55.5604094" lon="37.4579718"/>
 <node id="9199703713" visible="true" version="3" changeset="188057024" timestamp="2026-08-26T17:27:20Z" user="leobass" uid="21958437" lat="55.5603653" lon="37.4580758"/>
 <node id="9199703714" visible="true" version="3" changeset="188057024" timestamp="2026-08-26T17:27:20Z" user="leobass" uid="21958437" lat="55.5603310" lon="37.4581017"/>
 <node id="9199703715" visible="true" version="3" changeset="188057024" timestamp="2026-08-26T17:27:20Z" user="leobass" uid="21958437" lat="55.5602938" lon="37.4581054"/>
 <node id="9199703716" visible="true" version="3" changeset="188057024" timestamp="2026-08-26T17:27:20Z" user="leobass" uid="21958437" lat="55.5602581" lon="37.4580863"/>
 <node id="9199744417" visible="true" version="3" changeset="188057024" timestamp="2026-08-26T17:27:20Z" user="leobass" uid="21958437" lat="55.5602282" lon="37.4580468"/>
 <node id="9199744419" visible="true" version="3" changeset="188057024" timestamp="2026-08-26T17:27:20Z" user="leobass" uid="21958437" lat="55.5602105" lon="37.4580021"/>
 <node id="9199744420" visible="true" version="3" changeset="188057024" timestamp="2026-08-26T17:27:20Z" user="leobass" uid="21958437" lat="55.5602007" lon="37.4579504"/>
 <node id="9199744421" visible="true" version="3" changeset="188057024" timestamp="2026-08-26T17:27:20Z" user="leobass" uid="21958437" lat="55.5601996" lon="37.4578960"/>
 <node id="9199744422" visible="true" version="3" changeset="188057024" timestamp="2026-08-26T17:27:20Z" user="leobass" uid="21958437" lat="55.5602073" lon="37.4578432"/>
 <node id="9199744423" visible="true" version="3" changeset="188057024" timestamp="2026-08-26T17:27:20Z" user="leobass" uid="21958437" lat="55.5603926" lon="37.4580307"/>
 <node id="13556539600" visible="true" version="1" changeset="178517996" timestamp="2026-02-13T19:00:12Z" user="leobass" uid="21958437" lat="55.5601906" lon="37.4583998"/>
 <node id="13556539601" visible="true" version="1" changeset="178517996" timestamp="2026-02-13T19:00:12Z" user="leobass" uid="21958437" lat="55.5603543" lon="37.4581843"/>
 <node id="13556539602" visible="true" version="1" changeset="178517996" timestamp="2026-02-13T19:00:12Z" user="leobass" uid="21958437" lat="55.5603980" lon="37.4581802"/>
 <node id="13556539603" visible="true" version="1" changeset="178517996" timestamp="2026-02-13T19:00:12Z" user="leobass" uid="21958437" lat="55.5604348" lon="37.4580989"/>
 <node id="13556539604" visible="true" version="1" changeset="178517996" timestamp="2026-02-13T19:00:12Z" user="leobass" uid="21958437" lat="55.5604348" lon="37.4580298"/>
 <node id="13556539605" visible="true" version="1" changeset="178517996" timestamp="2026-02-13T19:00:12Z" user="leobass" uid="21958437" lat="55.5604624" lon="37.4579037"/>
 <node id="13556539606" visible="true" version="1" changeset="178517996" timestamp="2026-02-13T19:00:12Z" user="leobass" uid="21958437" lat="55.5604969" lon="37.4578550"/>
 <node id="13556539607" visible="true" version="1" changeset="178517996" timestamp="2026-02-13T19:00:12Z" user="leobass" uid="21958437" lat="55.5605221" lon="37.4579078"/>
 <node id="13556539608" visible="true" version="1" changeset="178517996" timestamp="2026-02-13T19:00:12Z" user="leobass" uid="21958437" lat="55.5608877" lon="37.4575297"/>
 <node id="13556539609" visible="true" version="1" changeset="178517996" timestamp="2026-02-13T19:00:12Z" user="leobass" uid="21958437" lat="55.5610831" lon="37.4573671"/>
 <node id="13556539610" visible="true" version="1" changeset="178517996" timestamp="2026-02-13T19:00:12Z" user="leobass" uid="21958437" lat="55.5613176" lon="37.4571354"/>
 <node id="13556539671" visible="true" version="1" changeset="178517996" timestamp="2026-02-13T19:00:12Z" user="leobass" uid="21958437" lat="55.5622314" lon="37.4564009"/>
 <node id="13556539672" visible="true" version="1" changeset="178517996" timestamp="2026-02-13T19:00:12Z" user="leobass" uid="21958437" lat="55.5622147" lon="37.4563445"/>
 <node id="13556539673" visible="true" version="1" changeset="178517996" timestamp="2026-02-13T19:00:12Z" user="leobass" uid="21958437" lat="55.5621798" lon="37.4562963"/>
 <node id="13556539674" visible="true" version="1" changeset="178517996" timestamp="2026-02-13T19:00:12Z" user="leobass" uid="21958437" lat="55.5621419" lon="37.4562748"/>
 <node id="13556539675" visible="true" version="1" changeset="178517996" timestamp="2026-02-13T19:00:12Z" user="leobass" uid="21958437" lat="55.5620964" lon="37.4562775"/>
 <node id="13556539676" visible="true" version="1" changeset="178517996" timestamp="2026-02-13T19:00:12Z" user="leobass" uid="21958437" lat="55.5620494" lon="37.4563043"/>
 <node id="13556539677" visible="true" version="1" changeset="178517996" timestamp="2026-02-13T19:00:12Z" user="leobass" uid="21958437" lat="55.5619902" lon="37.4563633"/>
 <node id="13556539678" visible="true" version="1" changeset="178517996" timestamp="2026-02-13T19:00:12Z" user="leobass" uid="21958437" lat="55.5616535" lon="37.4567978"/>
 <node id="13556539679" visible="true" version="2" changeset="178735468" timestamp="2026-02-18T17:17:38Z" user="leobass" uid="21958437" lat="55.5615608" lon="37.4568940"/>
 <node id="13577411876" visible="true" version="1" changeset="178735468" timestamp="2026-02-18T17:17:38Z" user="leobass" uid="21958437" lat="55.5555488" lon="37.4564150"/>
 <node id="13577429725" visible="true" version="2" changeset="188055675" timestamp="2026-08-26T17:00:22Z" user="leobass" uid="21958437" lat="55.5601008" lon="37.4581284"/>
 <node id="13577429741" visible="true" version="2" changeset="188055675" timestamp="2026-08-26T17:00:22Z" user="leobass" uid="21958437" lat="55.5580125" lon="37.4571691"/>
 <node id="13577429749" visible="true" version="2" changeset="188055675" timestamp="2026-08-26T17:00:22Z" user="leobass" uid="21958437" lat="55.5566783" lon="37.4566000"/>
 <node id="13577429751" visible="true" version="1" changeset="178735468" timestamp="2026-02-18T17:17:38Z" user="leobass" uid="21958437" lat="55.5565291" lon="37.4564369"/>
 <node id="13577429752" visible="true" version="1" changeset="178735468" timestamp="2026-02-18T17:17:38Z" user="leobass" uid="21958437" lat="55.5564525" lon="37.4563459"/>
 <node id="13577429753" visible="true" version="1" changeset="178735468" timestamp="2026-02-18T17:17:38Z" user="leobass" uid="21958437" lat="55.5562702" lon="37.4560890"/>
 <node id="13577429754" visible="true" version="1" changeset="178735468" timestamp="2026-02-18T17:17:38Z" user="leobass" uid="21958437" lat="55.5560906" lon="37.4558251"/>
 <node id="13577429755" visible="true" version="1" changeset="178735468" timestamp="2026-02-18T17:17:38Z" user="leobass" uid="21958437" lat="55.5556020" lon="37.4549280"/>
 <node id="13577429756" visible="true" version="1" changeset="178735468" timestamp="2026-02-18T17:17:38Z" user="leobass" uid="21958437" lat="55.5558502" lon="37.4553929"/>
 <node id="13579928172" visible="true" version="1" changeset="178762014" timestamp="2026-02-19T09:27:28Z" user="leobass" uid="21958437" lat="55.5554280" lon="37.4546148"/>
 <node id="13579928173" visible="true" version="1" changeset="178762014" timestamp="2026-02-19T09:27:28Z" user="leobass" uid="21958437" lat="55.5554001" lon="37.4545809"/>
 <node id="13579928174" visible="true" version="1" changeset="178762014" timestamp="2026-02-19T09:27:28Z" user="leobass" uid="21958437" lat="55.5553617" lon="37.4545624"/>
 <node id="13579928175" visible="true" version="1" changeset="178762014" timestamp="2026-02-19T09:27:28Z" user="leobass" uid="21958437" lat="55.5552973" lon="37.4545655"/>
 <node id="13579928176" visible="true" version="1" changeset="178762014" timestamp="2026-02-19T09:27:28Z" user="leobass" uid="21958437" lat="55.5552049" lon="37.4545901"/>
 <node id="13579928177" visible="true" version="1" changeset="178762014" timestamp="2026-02-19T09:27:28Z" user="leobass" uid="21958437" lat="55.5550655" lon="37.4546425"/>
 <node id="13579928178" visible="true" version="1" changeset="178762014" timestamp="2026-02-19T09:27:28Z" user="leobass" uid="21958437" lat="55.5550306" lon="37.4546672"/>
 <node id="13579928179" visible="true" version="1" changeset="178762014" timestamp="2026-02-19T09:27:28Z" user="leobass" uid="21958437" lat="55.5549783" lon="37.4547319"/>
 <node id="13579928180" visible="true" version="1" changeset="178762014" timestamp="2026-02-19T09:27:28Z" user="leobass" uid="21958437" lat="55.5547461" lon="37.4550863"/>
 <node id="13579928181" visible="true" version="1" changeset="178762014" timestamp="2026-02-19T09:27:28Z" user="leobass" uid="21958437" lat="55.5548598" lon="37.4549127"/>
 <node id="13579960941" visible="true" version="3" changeset="188057024" timestamp="2026-08-26T17:27:20Z" user="leobass" uid="21958437" lat="55.5601549" lon="37.4581422">
  <tag k="barrier" v="gate"/>
 </node>
 <node id="13910484053" visible="true" version="1" changeset="183661588" timestamp="2026-06-04T18:59:45Z" user="leobass" uid="21958437" lat="55.5628317" lon="37.4615669"/>
 <node id="13910484055" visible="true" version="1" changeset="183661588" timestamp="2026-06-04T18:59:45Z" user="leobass" uid="21958437" lat="55.5625754" lon="37.4593616"/>
 <node id="14125586966" visible="true" version="2" changeset="188057024" timestamp="2026-08-26T17:27:20Z" user="leobass" uid="21958437" lat="55.5605670" lon="37.4626047"/>
 <node id="14125586967" visible="true" version="2" changeset="188057024" timestamp="2026-08-26T17:27:20Z" user="leobass" uid="21958437" lat="55.5608302" lon="37.4605209"/>
 <node id="14125586968" visible="true" version="2" changeset="188057024" timestamp="2026-08-26T17:27:20Z" user="leobass" uid="21958437" lat="55.5600259" lon="37.4582376"/>
 <node id="14125586969" visible="true" version="2" changeset="188057024" timestamp="2026-08-26T17:27:20Z" user="leobass" uid="21958437" lat="55.5583497" lon="37.4575033"/>
 <node id="14125586970" visible="true" version="2" changeset="188057024" timestamp="2026-08-26T17:27:20Z" user="leobass" uid="21958437" lat="55.5579194" lon="37.4593624"/>
 <node id="14125586971" visible="true" version="2" changeset="188057024" timestamp="2026-08-26T17:27:20Z" user="leobass" uid="21958437" lat="55.5589334" lon="37.4602676"/>
 <node id="14125644234" visible="true" version="1" changeset="188057024" timestamp="2026-08-26T17:27:20Z" user="leobass" uid="21958437" lat="55.5606770" lon="37.4560254"/>
 <node id="14125644235" visible="true" version="1" changeset="188057024" timestamp="2026-08-26T17:27:20Z" user="leobass" uid="21958437" lat="55.5603979" lon="37.4559825"/>
 <node id="14125644236" visible="true" version="1" changeset="188057024" timestamp="2026-08-26T17:27:20Z" user="leobass" uid="21958437" lat="55.5601552" lon="37.4558752"/>
 <node id="14125644237" visible="true" version="1" changeset="188057024" timestamp="2026-08-26T17:27:20Z" user="leobass" uid="21958437" lat="55.5598882" lon="37.4555963"/>
 <node id="14125644238" visible="true" version="1" changeset="188057024" timestamp="2026-08-26T17:27:20Z" user="leobass" uid="21958437" lat="55.5596455" lon="37.4552422"/>
 <node id="14125644239" visible="true" version="1" changeset="188057024" timestamp="2026-08-26T17:27:20Z" user="leobass" uid="21958437" lat="55.5593421" lon="37.4545556"/>
 <node id="14125644240" visible="true" version="1" changeset="188057024" timestamp="2026-08-26T17:27:20Z" user="leobass" uid="21958437" lat="55.5625673" lon="37.4612162"/>
 <node id="14125644241" visible="true" version="1" changeset="188057024" timestamp="2026-08-26T17:27:20Z" user="leobass" uid="21958437" lat="55.5610552" lon="37.4596114"/>
 <node id="14125644242" visible="true" version="1" changeset="188057024" timestamp="2026-08-26T17:27:20Z" user="leobass" uid="21958437" lat="55.5605374" lon="37.4580703"/>
 <node id="14125644243" visible="true" version="1" changeset="188057024" timestamp="2026-08-26T17:27:20Z" user="leobass" uid="21958437" lat="55.5618004" lon="37.4567933"/>
 <node id="14125644244" visible="true" version="1" changeset="188057024" timestamp="2026-08-26T17:27:20Z" user="leobass" uid="21958437" lat="55.5621392" lon="37.4577850"/>
 <node id="14125644249" visible="true" version="1" changeset="188057024" timestamp="2026-08-26T17:27:20Z" user="leobass" uid="21958437" lat="55.5600977" lon="37.4580519"/>
 <node id="14125644250" visible="true" version="1" changeset="188057024" timestamp="2026-08-26T17:27:20Z" user="leobass" uid="21958437" lat="55.5600211" lon="37.4558710"/>
 <node id="14125644251" visible="true" version="1" changeset="188057024" timestamp="2026-08-26T17:27:20Z" user="leobass" uid="21958437" lat="55.5598837" lon="37.4550350"/>
 <node id="14125644252" visible="true" version="1" changeset="188057024" timestamp="2026-08-26T17:27:20Z" user="leobass" uid="21958437" lat="55.5595404" lon="37.4541851"/>
 <node id="14125644253" visible="true" version="1" changeset="188057024" timestamp="2026-08-26T17:27:20Z" user="leobass" uid="21958437" lat="55.5584360" lon="37.4518991"/>
 <node id="14178342476" visible="true" version="2" changeset="188977481" timestamp="2026-09-13T19:11:19Z" user="leobass" uid="21958437" lat="55.5604482" lon="37.4554974">
  <tag k="alt_name" v="Муниципальный округ Коммунарка"/>
  <tag k="coat_of_arms:image" v="https://commons.wikimedia.org/wiki/File:Coat_of_arms_of_Kommunarka_District.png"/>
  <tag k="contact:telegram" v="t.me/uprava_kommunarka"/>
  <tag k="flag:image" v="https://commons.wikimedia.org/wiki/File:Flag_of_Kommunarka_District.png"/>
  <tag k="name" v="Коммунарка"/>
  <tag k="name:en" v="Kommunarka"/>
  <tag k="place" v="suburb"/>
  <tag k="population" v="180477"/>
  <tag k="population:date" v="2025-01-01"/>
  <tag k="source:population" v="Росстат"/>
  <tag k="website" v="https://kommynarka.mos.ru/"/>
  <tag k="wikidata" v="Q130251748"/>
  <tag k="wikipedia" v="ru:Коммунарка (район Москвы)"/>
 </node>
 <way id="83279365" visible="true" version="6" changeset="112946530" timestamp="2021-10-25T12:55:11Z" user="literan" uid="830106">
  <nd ref="260456292"/>
  <nd ref="968963067"/>
  <nd ref="4318595105"/>
  <nd ref="968963065"/>
  <nd ref="968963064"/>
  <nd ref="1349144675"/>
  <nd ref="968963063"/>
  <nd ref="9199703702"/>
  <nd ref="9199703704"/>
  <tag k="highway" v="service"/>
 </way>
 <way id="135785419" visible="true" version="3" changeset="40996317" timestamp="2016-07-24T18:16:03Z" user="ad47" uid="696711">
  <nd ref="1490625710"/>
  <nd ref="1490625711"/>
  <nd ref="1490625712"/>
  <nd ref="1490625714"/>
  <nd ref="1490625715"/>
  <nd ref="1490625716"/>
  <nd ref="1490625717"/>
  <nd ref="1490625718"/>
  <nd ref="1490625719"/>
  <nd ref="1490625730"/>
  <nd ref="1490625731"/>
  <nd ref="1490625732"/>
  <nd ref="1490625733"/>
  <nd ref="1490625734"/>
  <nd ref="1490625737"/>
  <nd ref="1490625738"/>
  <nd ref="1490625740"/>
  <nd ref="1490625742"/>
  <nd ref="1490625744"/>
  <nd ref="1490625769"/>
  <nd ref="1490625771"/>
  <nd ref="1490625773"/>
  <nd ref="1490625780"/>
  <nd ref="1490625782"/>
  <nd ref="1490625776"/>
  <nd ref="1490625758"/>
  <nd ref="1490625755"/>
  <nd ref="1490625754"/>
  <nd ref="1490625753"/>
  <nd ref="1490625752"/>
  <nd ref="1490625746"/>
  <nd ref="1490625748"/>
  <nd ref="1490625750"/>
  <nd ref="1490625756"/>
  <nd ref="1490625770"/>
  <nd ref="1490625772"/>
  <nd ref="1490625774"/>
  <nd ref="1490625778"/>
  <nd ref="968963067"/>
  <nd ref="4318595104"/>
  <nd ref="1490625784"/>
  <nd ref="1490625789"/>
  <nd ref="1490625791"/>
  <nd ref="1490614355"/>
 </way>
 <way id="135785420" visible="true" version="2" changeset="178517996" timestamp="2026-02-13T19:00:12Z" user="leobass" uid="21958437">
  <nd ref="13556539600"/>
  <nd ref="1490625787"/>
  <nd ref="1490625793"/>
  <nd ref="1490625796"/>
  <nd ref="1490625792"/>
  <nd ref="1490625795"/>
  <nd ref="1490614358"/>
 </way>
 <way id="156921349" visible="true" version="22" changeset="141362323" timestamp="2023-09-17T00:02:58Z" user="Fizzie-DWG" uid="461130">
  <nd ref="260456285"/>
  <nd ref="4318595110"/>
  <nd ref="260456286"/>
  <nd ref="260456287"/>
  <nd ref="4318595109"/>
  <nd ref="4318595108"/>
  <nd ref="260456288"/>
  <nd ref="260456290"/>
  <nd ref="260456291"/>
  <nd ref="260456292"/>
  <nd ref="260456293"/>
  <nd ref="260456294"/>
  <nd ref="260456295"/>
  <nd ref="260456297"/>
  <nd ref="260456299"/>
  <nd ref="260456283"/>
  <nd ref="4318595106"/>
  <nd ref="4318595107"/>
  <nd ref="260456284"/>
  <nd ref="260456285"/>
  <tag k="landuse" v="cemetery"/>
  <tag k="name" v="Сосенское кладбище"/>
 </way>
 <way id="707567108" visible="true" version="2" changeset="112946530" timestamp="2021-10-25T12:55:11Z" user="literan" uid="830106">
  <nd ref="6649265542"/>
  <nd ref="6541972547"/>
  <tag k="highway" v="unclassified"/>
  <tag k="name" v="Старопрокшинское шоссе"/>
 </way>
 <way id="996283831" visible="true" version="2" changeset="188057024" timestamp="2026-08-26T17:27:20Z" user="leobass" uid="21958437">
  <nd ref="9199744422"/>
  <nd ref="9199744421"/>
  <nd ref="9199744420"/>
  <nd ref="9199744419"/>
  <nd ref="9199744417"/>
  <nd ref="9199703716"/>
  <nd ref="9199703715"/>
  <nd ref="9199703714"/>
  <nd ref="9199703713"/>
  <nd ref="9199744423"/>
  <nd ref="9199703712"/>
  <nd ref="9199703711"/>
  <nd ref="6541972547"/>
  <nd ref="9199703710"/>
  <nd ref="9199703709"/>
  <nd ref="9199703708"/>
  <nd ref="9199703707"/>
  <nd ref="9199703706"/>
  <nd ref="9199703705"/>
  <nd ref="9199703704"/>
  <nd ref="9199744422"/>
  <tag k="highway" v="unclassified"/>
  <tag k="junction" v="roundabout"/>
  <tag k="name" v="Старопрокшинское шоссе"/>
 </way>
 <way id="1477863526" visible="true" version="2" changeset="186418451" timestamp="2026-07-26T19:07:48Z" user="leobass" uid="21958437">
  <nd ref="266703252"/>
  <nd ref="13556539600"/>
 </way>
 <way id="1480348005" visible="true" version="4" changeset="188055675" timestamp="2026-08-26T17:00:22Z" user="leobass" uid="21958437">
  <nd ref="13579960941"/>
  <nd ref="13577429725"/>
  <nd ref="13577429741"/>
  <nd ref="13577429749"/>
  <nd ref="13577429751"/>
  <nd ref="13577429752"/>
  <nd ref="13577429753"/>
  <nd ref="13577429754"/>
  <nd ref="13577429756"/>
  <nd ref="13577429755"/>
  <nd ref="13579928172"/>
  <nd ref="13579928173"/>
  <nd ref="13579928174"/>
  <nd ref="13579928175"/>
  <nd ref="13579928176"/>
  <nd ref="13579928177"/>
  <nd ref="13579928178"/>
  <nd ref="13579928179"/>
  <nd ref="13579928181"/>
  <nd ref="13579928180"/>
  <tag k="access" v="private"/>
  <tag k="highway" v="track"/>
  <tag k="tracktype" v="grade1"/>
 </way>
 <way id="1480601563" visible="true" version="2" changeset="188055675" timestamp="2026-08-26T17:00:22Z" user="leobass" uid="21958437">
  <nd ref="9199744417"/>
  <nd ref="13579960941"/>
  <tag k="highway" v="track"/>
  <tag k="tracktype" v="grade1"/>
 </way>
 <way id="1526206345" visible="true" version="1" changeset="183661588" timestamp="2026-06-04T18:59:45Z" user="leobass" uid="21958437">
  <nd ref="13556539600"/>
  <nd ref="13556539601"/>
  <nd ref="13556539602"/>
  <nd ref="13556539603"/>
  <nd ref="13556539604"/>
  <nd ref="13556539605"/>
  <nd ref="13556539606"/>
  <nd ref="13556539607"/>
  <nd ref="13556539608"/>
  <nd ref="13556539609"/>
  <nd ref="13556539610"/>
  <nd ref="13556539679"/>
  <nd ref="13556539678"/>
  <nd ref="13556539677"/>
  <nd ref="13556539676"/>
  <nd ref="13556539675"/>
  <nd ref="13556539674"/>
  <nd ref="13556539673"/>
  <nd ref="13556539672"/>
  <nd ref="13556539671"/>
  <nd ref="13910484055"/>
  <nd ref="13910484053"/>
  <tag k="barrier" v="fence"/>
 </way>
 <way id="1552595472" visible="true" version="2" changeset="188057024" timestamp="2026-08-26T17:27:20Z" user="leobass" uid="21958437">
  <nd ref="14125586966"/>
  <nd ref="14125586967"/>
  <nd ref="14125586968"/>
  <nd ref="14125586969"/>
  <nd ref="14125586970"/>
  <nd ref="14125586971"/>
  <nd ref="14125586966"/>
 </way>
 <way id="1552605290" visible="true" version="1" changeset="188057024" timestamp="2026-08-26T17:27:20Z" user="leobass" uid="21958437">
  <nd ref="6545297749"/>
  <nd ref="14125644234"/>
  <nd ref="14125644235"/>
  <nd ref="14125644236"/>
  <nd ref="14125644237"/>
  <nd ref="14125644238"/>
  <nd ref="14125644239"/>
  <tag k="highway" v="construction"/>
 </way>
 <way id="1552605291" visible="true" version="1" changeset="188057024" timestamp="2026-08-26T17:27:20Z" user="leobass" uid="21958437">
  <nd ref="14125644240"/>
  <nd ref="14125644241"/>
  <nd ref="14125644242"/>
  <nd ref="14125644243"/>
  <nd ref="14125644244"/>
  <nd ref="14125644240"/>
 </way>
 <way id="1552605293" visible="true" version="1" changeset="188057024" timestamp="2026-08-26T17:27:20Z" user="leobass" uid="21958437">
  <nd ref="13556539600"/>
  <nd ref="14125644249"/>
  <nd ref="14125644250"/>
  <nd ref="14125644251"/>
  <nd ref="14125644252"/>
  <nd ref="14125644253"/>
  <nd ref="13577411876"/>
  <tag k="barrier" v="fence"/>
 </way>
 <relation id="380704" visible="true" version="46" changeset="189127119" timestamp="2026-09-16T19:01:21Z" user="leobass" uid="21958437">
  <member type="way" ref="1323909683" role="outer"/>
  <member type="way" ref="1323909678" role="outer"/>
  <member type="way" ref="1323909679" role="outer"/>
  <member type="way" ref="258902686" role="outer"/>
  <member type="way" ref="258902684" role="outer"/>
  <member type="way" ref="258902687" role="outer"/>
  <member type="way" ref="258902681" role="outer"/>
  <member type="way" ref="697298803" role="outer"/>
  <member type="way" ref="127048490" role="outer"/>
  <member type="way" ref="1559386128" role="outer"/>
  <member type="way" ref="1559386130" role="outer"/>
  <member type="way" ref="1559386124" role="outer"/>
  <member type="way" ref="1559386125" role="outer"/>
  <member type="way" ref="1323909681" role="outer"/>
  <member type="way" ref="1133074859" role="outer"/>
  <member type="way" ref="1559386127" role="outer"/>
  <member type="way" ref="127048452" role="outer"/>
  <member type="way" ref="1323909687" role="outer"/>
  <member type="way" ref="1323909688" role="outer"/>
  <member type="way" ref="1323909686" role="outer"/>
  <member type="way" ref="127048386" role="outer"/>
  <member type="way" ref="127048512" role="outer"/>
  <member type="way" ref="127048491" role="outer"/>
  <member type="way" ref="158264481" role="outer"/>
  <member type="way" ref="127048439" role="outer"/>
  <member type="way" ref="1081060810" role="outer"/>
  <member type="way" ref="1081060811" role="outer"/>
  <member type="way" ref="127048515" role="outer"/>
  <member type="way" ref="285706380" role="outer"/>
  <member type="node" ref="14178342476" role="label"/>
  <tag k="admin_level" v="8"/>
  <tag k="alt_name" v="Муниципальный округ Коммунарка"/>
  <tag k="boundary" v="administrative"/>
  <tag k="name" v="район Коммунарка"/>
  <tag k="official_status" v="ru:муниципальный округ"/>
  <tag k="type" v="boundary"/>
  <tag k="website" v="https://kommynarka.mos.ru/"/>
  <tag k="wikidata" v="Q130251748"/>
  <tag k="wikipedia" v="ru:Коммунарка (район Москвы)"/>
 </relation>
 <relation id="1827974" visible="true" version="6" changeset="186418451" timestamp="2026-07-26T19:07:48Z" user="leobass" uid="21958437">
  <member type="way" ref="135785418" role="outer"/>
  <member type="way" ref="135785413" role="outer"/>
  <member type="way" ref="135785419" role="outer"/>
  <member type="way" ref="135785416" role="outer"/>
  <member type="way" ref="135785420" role="outer"/>
  <member type="way" ref="1477863526" role="outer"/>
  <member type="way" ref="156921358" role="outer"/>
  <member type="way" ref="789219323" role="outer"/>
  <member type="way" ref="789219324" role="outer"/>
  <member type="way" ref="135785415" role="outer"/>
  <tag k="natural" v="grassland"/>
  <tag k="type" v="multipolygon"/>
 </relation>
 <relation id="2263058" visible="true" version="72" changeset="189127119" timestamp="2026-09-16T19:01:21Z" user="leobass" uid="21958437">
  <member type="way" ref="127048516" role="outer"/>
  <member type="way" ref="127048461" role="outer"/>
  <member type="way" ref="123959172" role="outer"/>
  <member type="way" ref="1559386150" role="outer"/>
  <member type="way" ref="305057553" role="outer"/>
  <member type="way" ref="305057555" role="outer"/>
  <member type="way" ref="305057565" role="outer"/>
  <member type="way" ref="305057559" role="outer"/>
  <member type="way" ref="305057556" role="outer"/>
  <member type="way" ref="305057557" role="outer"/>
  <member type="way" ref="305057566" role="outer"/>
  <member type="way" ref="208900778" role="outer"/>
  <member type="way" ref="304957192" role="outer"/>
  <member type="way" ref="450527319" role="outer"/>
  <member type="way" ref="304957190" role="outer"/>
  <member type="way" ref="450527320" role="outer"/>
  <member type="way" ref="208900779" role="outer"/>
  <member type="way" ref="188812620" role="outer"/>
  <member type="way" ref="524580798" role="outer"/>
  <member type="way" ref="188812622" role="outer"/>
  <member type="way" ref="258903833" role="outer"/>
  <member type="way" ref="258903831" role="outer"/>
  <member type="way" ref="1323940556" role="outer"/>
  <member type="way" ref="1323940555" role="outer"/>
  <member type="way" ref="258902685" role="outer"/>
  <member type="way" ref="258903213" role="outer"/>
  <member type="way" ref="127048365" role="outer"/>
  <member type="way" ref="258902683" role="outer"/>
  <member type="way" ref="258902686" role="outer"/>
  <member type="way" ref="258902684" role="outer"/>
  <member type="way" ref="258902687" role="outer"/>
  <member type="way" ref="258902681" role="outer"/>
  <member type="way" ref="697298803" role="outer"/>
  <member type="way" ref="127048490" role="outer"/>
  <member type="way" ref="1559386128" role="outer"/>
  <member type="way" ref="1559386130" role="outer"/>
  <member type="way" ref="127048459" role="outer"/>
  <member type="way" ref="1559386148" role="outer"/>
  <member type="way" ref="124024755" role="outer"/>
  <member type="way" ref="1323916180" role="outer"/>
  <member type="way" ref="1323916182" role="outer"/>
  <member type="way" ref="1298739521" role="outer"/>
  <member type="way" ref="1298739522" role="outer"/>
  <member type="way" ref="1298739520" role="outer"/>
  <member type="way" ref="124061184" role="outer"/>
  <member type="way" ref="1298739519" role="outer"/>
  <member type="way" ref="124061176" role="outer"/>
  <member type="way" ref="124062508" role="outer"/>
  <member type="way" ref="123959211" role="outer"/>
  <member type="way" ref="124024712" role="outer"/>
  <member type="way" ref="570884124" role="outer"/>
  <member type="way" ref="570884125" role="outer"/>
  <member type="way" ref="124027713" role="outer"/>
  <member type="way" ref="570884123" role="outer"/>
  <member type="way" ref="124036097" role="outer"/>
  <member type="way" ref="1298743485" role="outer"/>
  <member type="way" ref="1298743484" role="outer"/>
  <member type="way" ref="1298743483" role="outer"/>
  <member type="way" ref="1298743482" role="outer"/>
  <member type="way" ref="1298743481" role="outer"/>
  <member type="way" ref="1298743480" role="outer"/>
  <member type="way" ref="969265496" role="outer"/>
  <member type="way" ref="176508810" role="outer"/>
  <member type="way" ref="626260867" role="outer"/>
  <member type="way" ref="176508811" role="outer"/>
  <member type="way" ref="156296651" role="outer"/>
  <member type="way" ref="157098655" role="outer"/>
  <member type="way" ref="1068399834" role="outer"/>
  <member type="way" ref="1068399833" role="outer"/>
  <member type="way" ref="668462779" role="outer"/>
  <member type="way" ref="977888182" role="outer"/>
  <member type="way" ref="977888181" role="outer"/>
  <member type="way" ref="127048361" role="outer"/>
  <member type="way" ref="127048360" role="outer"/>
  <member type="way" ref="127048378" role="outer"/>
  <member type="way" ref="977888180" role="outer"/>
  <member type="way" ref="1323900543" role="outer"/>
  <member type="way" ref="1323900542" role="outer"/>
  <member type="way" ref="127048524" role="outer"/>
  <member type="way" ref="977892913" role="outer"/>
  <member type="way" ref="1323900549" role="outer"/>
  <member type="way" ref="1323909687" role="outer"/>
  <member type="way" ref="1323909688" role="outer"/>
  <member type="way" ref="1323909686" role="outer"/>
  <member type="way" ref="127048386" role="outer"/>
  <member type="way" ref="127048512" role="outer"/>
  <member type="way" ref="127048491" role="outer"/>
  <member type="way" ref="158264481" role="outer"/>
  <member type="way" ref="127048439" role="outer"/>
  <member type="way" ref="1081060810" role="outer"/>
  <member type="way" ref="1081060811" role="outer"/>
  <member type="way" ref="127048515" role="outer"/>
  <member type="way" ref="285706380" role="outer"/>
  <member type="way" ref="1323909683" role="outer"/>
  <member type="way" ref="127048525" role="outer"/>
  <member type="way" ref="133873920" role="outer"/>
  <member type="way" ref="133873876" role="outer"/>
  <member type="way" ref="875030637" role="outer"/>
  <member type="way" ref="875030638" role="outer"/>
  <member type="way" ref="235429443" role="outer"/>
  <member type="way" ref="1323929580" role="outer"/>
  <member type="way" ref="1323929575" role="outer"/>
  <member type="way" ref="1323929579" role="outer"/>
  <member type="way" ref="1323929578" role="outer"/>
  <member type="way" ref="1323929576" role="outer"/>
  <member type="relation" ref="1703095" role="subarea"/>
  <member type="relation" ref="380708" role="subarea"/>
  <member type="relation" ref="380704" role="subarea"/>
  <member type="relation" ref="380705" role="subarea"/>
  <tag k="addr:country" v="RU"/>
  <tag k="addr:region" v="Москва"/>
  <tag k="admin_level" v="5"/>
  <tag k="boundary" v="administrative"/>
  <tag k="name" v="Новомосковский административный округ"/>
  <tag k="name:de" v="Verwaltungsbezirk Nowomoskowski"/>
  <tag k="name:en" v="Novomoskovsky Administrative Okrug"/>
  <tag k="name:hr" v="Novomoskovski upravni okrug"/>
  <tag k="name:ru" v="Новомосковский административный округ"/>
  <tag k="name:zh" v="新莫斯科行政区"/>
  <tag k="name:zh-Hans" v="新莫斯科行政区"/>
  <tag k="name:zh-Hant" v="新莫斯科行政區"/>
  <tag k="ref" v="НАО"/>
  <tag k="type" v="boundary"/>
  <tag k="website" v="http://новомосковский-округ.рф/"/>
  <tag k="wikidata" v="Q462497"/>
  <tag k="wikipedia" v="ru:Новомосковский административный округ"/>
 </relation>
 <relation id="20817944" visible="true" version="4" changeset="188057174" timestamp="2026-08-26T17:30:22Z" user="leobass" uid="21958437">
  <member type="way" ref="1552609612" role="outer"/>
  <member type="way" ref="1552605292" role="outer"/>
  <member type="way" ref="1552605295" role="outer"/>
  <member type="way" ref="1552605293" role="outer"/>
  <member type="way" ref="1526206345" role="outer"/>
  <member type="way" ref="1552595471" role="outer"/>
  <member type="way" ref="1552595469" role="outer"/>
  <member type="way" ref="1552605296" role="outer"/>
  <tag k="landuse" v="construction"/>
  <tag k="name" v="Кластер Станкин Коммунарка"/>
  <tag k="type" v="multipolygon"/>
 </relation>
 <relation id="21285500" visible="true" version="2" changeset="188057024" timestamp="2026-08-26T17:27:20Z" user="leobass" uid="21958437">
  <member type="way" ref="1552595472" role="outer"/>
  <tag k="building" v="construction"/>
  <tag k="name" v="Кампус Станкин"/>
  <tag k="note" v="геометрия сильно упрощена"/>
  <tag k="type" v="multipolygon"/>
 </relation>
 <relation id="21285605" visible="true" version="1" changeset="188057024" timestamp="2026-08-26T17:27:20Z" user="leobass" uid="21958437">
  <member type="way" ref="1552605291" role="outer"/>
  <tag k="building" v="construction"/>
  <tag k="name" v="Суперколледж Станкин"/>
  <tag k="note" v="геометрия сильно упрощена"/>
  <tag k="type" v="multipolygon"/>
 </relation>
</osm>
