<?xml version="1.0" encoding="UTF-8"?>
<osm version="0.6" generator="openstreetmap-cgimap 2.1.0 (244701 spike-07.openstreetmap.org)" copyright="OpenStreetMap and contributors" attribution="http://www.openstreetmap.org/copyright" license="http://opendatacommons.org/licenses/odbl/1-0/">
 <bounds minlat="56.3026456" minlon="43.9621568" maxlat="56.3053405" maxlon="43.9670144"/>
 <node id="253987976" visible="true" version="5" changeset="121326242" timestamp="2022-05-22T16:25:32Z" user="alexashh" uid="9054103" lat="56.2990024" lon="43.9624330"/>
 <node id="253987980" visible="true" version="6" changeset="8354396" timestamp="2011-06-05T21:01:36Z" user="evgenykatyshev" uid="98099" lat="56.3268304" lon="43.9713256"/>
 <node id="259463542" visible="true" version="5" changeset="169135577" timestamp="2025-07-19T03:45:04Z" user="ipbatman" uid="6156517" lat="56.3088144" lon="43.9672484"/>
 <node id="259463544" visible="true" version="5" changeset="169135577" timestamp="2025-07-19T03:45:04Z" user="ipbatman" uid="6156517" lat="56.3069068" lon="43.9670521"/>
 <node id="259463545" visible="true" version="5" changeset="169135577" timestamp="2025-07-19T03:45:04Z" user="ipbatman" uid="6156517" lat="56.3064355" lon="43.9671790"/>
 <node id="259463546" visible="true" version="5" changeset="169135577" timestamp="2025-07-19T03:45:04Z" user="ipbatman" uid="6156517" lat="56.3056869" lon="43.9670544"/>
 <node id="259463551" visible="true" version="5" changeset="169135577" timestamp="2025-07-19T03:45:04Z" user="ipbatman" uid="6156517" lat="56.3035857" lon="43.9666969"/>
 <node id="259463553" visible="true" version="5" changeset="169135577" timestamp="2025-07-19T03:45:04Z" user="ipbatman" uid="6156517" lat="56.3021118" lon="43.9663284"/>
 <node id="259463554" visible="true" version="7" changeset="169135577" timestamp="2025-07-19T03:45:04Z" user="ipbatman" uid="6156517" lat="56.3009715" lon="43.9662228"/>
 <node id="259464082" visible="true" version="6" changeset="169135577" timestamp="2025-07-19T03:45:04Z" user="ipbatman" uid="6156517" lat="56.3111166" lon="43.9673852"/>
 <node id="259468000" visible="true" version="5" changeset="169135577" timestamp="2025-07-19T03:45:04Z" user="ipbatman" uid="6156517" lat="56.3118383" lon="43.9674193"/>
 <node id="259468001" visible="true" version="6" changeset="169135577" timestamp="2025-07-19T03:45:04Z" user="ipbatman" uid="6156517" lat="56.3144889" lon="43.9680102"/>
 <node id="259469038" visible="true" version="5" changeset="169135577" timestamp="2025-07-19T03:45:04Z" user="ipbatman" uid="6156517" lat="56.3147229" lon="43.9680353"/>
 <node id="259469039" visible="true" version="6" changeset="169135577" timestamp="2025-07-19T03:45:04Z" user="ipbatman" uid="6156517" lat="56.3168943" lon="43.9690098"/>
 <node id="259469041" visible="true" version="6" changeset="101376115" timestamp="2021-03-20T06:32:09Z" user="MaksKZ" uid="10128659" lat="56.3186413" lon="43.9700405"/>
 <node id="259469042" visible="true" version="5" changeset="13869503" timestamp="2012-11-14T10:20:06Z" user="Monitor" uid="222237" lat="56.3203592" lon="43.9715350"/>
 <node id="259469044" visible="true" version="6" changeset="8354396" timestamp="2011-06-05T21:01:37Z" user="evgenykatyshev" uid="98099" lat="56.3252345" lon="43.9759686"/>
 <node id="259469045" visible="true" version="5" changeset="8354396" timestamp="2011-06-05T21:01:37Z" user="evgenykatyshev" uid="98099" lat="56.3268126" lon="43.9782046"/>
 <node id="259571266" visible="true" version="5" changeset="10590128" timestamp="2012-02-05T02:33:41Z" user="evgenykatyshev" uid="98099" lat="56.3038152" lon="43.9628925"/>
 <node id="259571270" visible="true" version="3" changeset="5929838" timestamp="2010-10-01T17:33:55Z" user="evgenykatyshev" uid="98099" lat="56.3172277" lon="43.9625565"/>
 <node id="259571271" visible="true" version="4" changeset="94615093" timestamp="2020-11-23T06:18:58Z" user="Pantanal5" uid="10888767" lat="56.3330435" lon="43.9827396"/>
 <node id="538480322" visible="true" version="2" changeset="10544939" timestamp="2012-01-30T23:00:45Z" user="Sers" uid="324606" lat="56.3142781" lon="43.9693124"/>
 <node id="538480395" visible="true" version="5" changeset="90537197" timestamp="2020-09-07T14:36:27Z" user="User7 - Lightcyphers" uid="10493430" lat="56.3178848" lon="43.9694936"/>
 <node id="538480396" visible="true" version="5" changeset="169135577" timestamp="2025-07-19T03:45:04Z" user="ipbatman" uid="6156517" lat="56.3177162" lon="43.9692481"/>
 <node id="538480397" visible="true" version="5" changeset="169135577" timestamp="2025-07-19T03:45:04Z" user="ipbatman" uid="6156517" lat="56.3174136" lon="43.9690336"/>
 <node id="538480398" visible="true" version="5" changeset="169135577" timestamp="2025-07-19T03:45:04Z" user="ipbatman" uid="6156517" lat="56.3171603" lon="43.9689440"/>
 <node id="659894446" visible="true" version="3" changeset="88432047" timestamp="2020-07-24T03:29:09Z" user="Serge Belychev" uid="6837198" lat="56.3269605" lon="43.9786512"/>
 <node id="674915956" visible="true" version="2" changeset="8354396" timestamp="2011-06-05T21:01:40Z" user="evgenykatyshev" uid="98099" lat="56.3256927" lon="43.9766203"/>
 <node id="933623492" visible="true" version="1" changeset="5929838" timestamp="2010-10-01T17:33:20Z" user="evgenykatyshev" uid="98099" lat="56.3117693" lon="43.9621528"/>
 <node id="933623511" visible="true" version="1" changeset="5929838" timestamp="2010-10-01T17:33:22Z" user="evgenykatyshev" uid="98099" lat="56.3361513" lon="43.9908259"/>
 <node id="933623558" visible="true" version="2" changeset="15703166" timestamp="2013-04-12T16:52:45Z" user="evgenykatyshev" uid="98099" lat="56.3364121" lon="43.9913356"/>
 <node id="1214395042" visible="true" version="2" changeset="8354396" timestamp="2011-06-05T21:01:36Z" user="evgenykatyshev" uid="98099" lat="56.3276297" lon="43.9723148"/>
 <node id="1271080589" visible="true" version="3" changeset="13922484" timestamp="2012-11-18T18:39:09Z" user="Kato Kontenta" uid="624774" lat="56.3039124" lon="43.9524441"/>
 <node id="1313505154" visible="true" version="1" changeset="8354396" timestamp="2011-06-05T20:59:36Z" user="evgenykatyshev" uid="98099" lat="56.3250944" lon="43.9758156"/>
 <node id="1313505156" visible="true" version="1" changeset="8354396" timestamp="2011-06-05T20:59:36Z" user="evgenykatyshev" uid="98099" lat="56.3254078" lon="43.9762150"/>
 <node id="1313505165" visible="true" version="1" changeset="8354396" timestamp="2011-06-05T20:59:36Z" user="evgenykatyshev" uid="98099" lat="56.3263308" lon="43.9775052"/>
 <node id="1313505167" visible="true" version="1" changeset="8354396" timestamp="2011-06-05T20:59:36Z" user="evgenykatyshev" uid="98099" lat="56.3266400" lon="43.9779340"/>
 <node id="3553141414" visible="true" version="1" changeset="31521532" timestamp="2015-05-28T06:27:23Z" user="Boogier" uid="246938" lat="56.3137449" lon="43.9691033"/>
 <node id="3553141418" visible="true" version="1" changeset="31521532" timestamp="2015-05-28T06:27:23Z" user="Boogier" uid="246938" lat="56.3143142" lon="43.9689480"/>
 <node id="3553141428" visible="true" version="2" changeset="61370444" timestamp="2018-08-05T10:12:17Z" user="ipbatman" uid="6156517" lat="56.3116884" lon="43.9689561"/>
 <node id="3553141429" visible="true" version="3" changeset="169135577" timestamp="2025-07-19T03:45:04Z" user="ipbatman" uid="6156517" lat="56.3108799" lon="43.9675592"/>
 <node id="3553141430" visible="true" version="2" changeset="169135577" timestamp="2025-07-19T03:45:04Z" user="ipbatman" uid="6156517" lat="56.3147238" lon="43.9680897"/>
 <node id="3553141431" visible="true" version="1" changeset="31521532" timestamp="2015-05-28T06:27:23Z" user="Boogier" uid="246938" lat="56.3141654" lon="43.9693021"/>
 <node id="3553141432" visible="true" version="1" changeset="31521532" timestamp="2015-05-28T06:27:23Z" user="Boogier" uid="246938" lat="56.3141624" lon="43.9691680"/>
 <node id="3553141433" visible="true" version="1" changeset="31521532" timestamp="2015-05-28T06:27:23Z" user="Boogier" uid="246938" lat="56.3133581" lon="43.9691570"/>
 <node id="3553141434" visible="true" version="1" changeset="31521532" timestamp="2015-05-28T06:27:23Z" user="Boogier" uid="246938" lat="56.3128771" lon="43.9691143"/>
 <node id="3553141435" visible="true" version="1" changeset="31521532" timestamp="2015-05-28T06:27:23Z" user="Boogier" uid="246938" lat="56.3141635" lon="43.9692163">
  <tag k="barrier" v="gate"/>
 </node>
 <node id="4434758311" visible="true" version="1" changeset="42691478" timestamp="2016-10-06T17:57:57Z" user="Bogdan Strielecki" uid="2006526" lat="56.3182477" lon="43.9698403"/>
 <node id="4434758312" visible="true" version="1" changeset="42691478" timestamp="2016-10-06T17:57:57Z" user="Bogdan Strielecki" uid="2006526" lat="56.3182710" lon="43.9696345"/>
 <node id="4434758313" visible="true" version="1" changeset="42691478" timestamp="2016-10-06T17:57:57Z" user="Bogdan Strielecki" uid="2006526" lat="56.3182745" lon="43.9697464"/>
 <node id="4434758314" visible="true" version="1" changeset="42691478" timestamp="2016-10-06T17:57:57Z" user="Bogdan Strielecki" uid="2006526" lat="56.3182759" lon="43.9696077"/>
 <node id="4434758315" visible="true" version="1" changeset="42691478" timestamp="2016-10-06T17:57:57Z" user="Bogdan Strielecki" uid="2006526" lat="56.3182870" lon="43.9695856"/>
 <node id="4434758316" visible="true" version="1" changeset="42691478" timestamp="2016-10-06T17:57:57Z" user="Bogdan Strielecki" uid="2006526" lat="56.3183006" lon="43.9695761"/>
 <node id="4434758317" visible="true" version="1" changeset="42691478" timestamp="2016-10-06T17:57:57Z" user="Bogdan Strielecki" uid="2006526" lat="56.3183727" lon="43.9699141"/>
 <node id="4434758318" visible="true" version="1" changeset="42691478" timestamp="2016-10-06T17:57:57Z" user="Bogdan Strielecki" uid="2006526" lat="56.3183883" lon="43.9698484"/>
 <node id="4434758319" visible="true" version="1" changeset="42691478" timestamp="2016-10-06T17:57:57Z" user="Bogdan Strielecki" uid="2006526" lat="56.3184085" lon="43.9698526"/>
 <node id="4434758320" visible="true" version="1" changeset="42691478" timestamp="2016-10-06T17:57:57Z" user="Bogdan Strielecki" uid="2006526" lat="56.3184255" lon="43.9698323"/>
 <node id="4434758321" visible="true" version="1" changeset="42691478" timestamp="2016-10-06T17:57:57Z" user="Bogdan Strielecki" uid="2006526" lat="56.3184523" lon="43.9697035"/>
 <node id="4782513604" visible="true" version="1" changeset="47562191" timestamp="2017-04-08T08:50:41Z" user="hex16" uid="1395945" lat="56.3142867" lon="43.9692275">
  <tag k="barrier" v="gate"/>
 </node>
 <node id="5138461428" visible="true" version="2" changeset="123073976" timestamp="2022-07-01T07:58:22Z" user="Nizni" uid="16239129" lat="56.3249661" lon="43.9756996"/>
 <node id="5810067277" visible="true" version="1" changeset="61370444" timestamp="2018-08-05T10:12:15Z" user="ipbatman" uid="6156517" lat="56.3119301" lon="43.9694429"/>
 <node id="5810067278" visible="true" version="1" changeset="61370444" timestamp="2018-08-05T10:12:15Z" user="ipbatman" uid="6156517" lat="56.3119342" lon="43.9690064"/>
 <node id="5810067279" visible="true" version="1" changeset="61370444" timestamp="2018-08-05T10:12:15Z" user="ipbatman" uid="6156517" lat="56.3124334" lon="43.9694878"/>
 <node id="6699510253" visible="true" version="6" changeset="155685635" timestamp="2024-08-24T09:19:25Z" user="кевнерзянь" uid="16474617" lat="56.3302190" lon="43.9870069">
  <tag k="amenity" v="ferry_terminal"/>
  <tag k="cargo" v="passengers"/>
  <tag k="ferry" v="yes"/>
  <tag k="name" v="Причал №5"/>
  <tag k="name:en" v="Dock 5"/>
  <tag k="public_transport" v="station"/>
 </node>
 <node id="7884270873" visible="true" version="2" changeset="123073827" timestamp="2022-07-01T07:55:09Z" user="Nizni" uid="16239129" lat="56.3238363" lon="43.9746783"/>
 <node id="7884270874" visible="true" version="2" changeset="123073732" timestamp="2022-07-01T07:53:02Z" user="Nizni" uid="16239129" lat="56.3216540" lon="43.9727055"/>
 <node id="8540142963" visible="true" version="1" changeset="101376115" timestamp="2021-03-20T06:32:09Z" user="MaksKZ" uid="10128659" lat="56.3193065" lon="43.9705896"/>
 <node id="8540142964" visible="true" version="1" changeset="101376115" timestamp="2021-03-20T06:32:09Z" user="MaksKZ" uid="10128659" lat="56.3194433" lon="43.9707613"/>
 <node id="9859783185" visible="true" version="1" changeset="123073626" timestamp="2022-07-01T07:50:01Z" user="Nizni" uid="16239129" lat="56.3200389" lon="43.9712644"/>
 <node id="12037912960" visible="true" version="3" changeset="153630726" timestamp="2024-07-06T16:29:14Z" user="neo-plan" uid="363136" lat="56.2310755" lon="43.4905242">
  <tag k="amenity" v="ferry_terminal"/>
  <tag k="ferry" v="yes"/>
  <tag k="name" v="Дзержинск"/>
  <tag k="operator" v="Водолёт"/>
  <tag k="public_transport" v="station"/>
  <tag k="start_date" v="2024-06-10"/>
 </node>
 <node id="12037932997" visible="true" version="1" changeset="153630448" timestamp="2024-07-06T16:22:15Z" user="neo-plan" uid="363136" lat="56.2309140" lon="43.4907980"/>
 <node id="12037932998" visible="true" version="1" changeset="153630448" timestamp="2024-07-06T16:22:15Z" user="neo-plan" uid="363136" lat="56.2307323" lon="43.4916667"/>
 <node id="12037932999" visible="true" version="1" changeset="153630448" timestamp="2024-07-06T16:22:15Z" user="neo-plan" uid="363136" lat="56.2304130" lon="43.4923952"/>
 <node id="12037933000" visible="true" version="1" changeset="153630448" timestamp="2024-07-06T16:22:15Z" user="neo-plan" uid="363136" lat="56.2300252" lon="43.4942469"/>
 <node id="12037933001" visible="true" version="1" changeset="153630448" timestamp="2024-07-06T16:22:15Z" user="neo-plan" uid="363136" lat="56.2294557" lon="43.4963955"/>
 <node id="12037933002" visible="true" version="1" changeset="153630448" timestamp="2024-07-06T16:22:15Z" user="neo-plan" uid="363136" lat="56.2287043" lon="43.4992065"/>
 <node id="12037933003" visible="true" version="1" changeset="153630448" timestamp="2024-07-06T16:22:15Z" user="neo-plan" uid="363136" lat="56.2279362" lon="43.5048928"/>
 <node id="12037933004" visible="true" version="1" changeset="153630448" timestamp="2024-07-06T16:22:15Z" user="neo-plan" uid="363136" lat="56.2275784" lon="43.5071030"/>
 <node id="12037933005" visible="true" version="1" changeset="153630448" timestamp="2024-07-06T16:22:15Z" user="neo-plan" uid="363136" lat="56.2266508" lon="43.5106701"/>
 <node id="12037933006" visible="true" version="1" changeset="153630448" timestamp="2024-07-06T16:22:15Z" user="neo-plan" uid="363136" lat="56.2244201" lon="43.5151118"/>
 <node id="12037933007" visible="true" version="1" changeset="153630448" timestamp="2024-07-06T16:22:15Z" user="neo-plan" uid="363136" lat="56.2230840" lon="43.5169572"/>
 <node id="12037933008" visible="true" version="1" changeset="153630448" timestamp="2024-07-06T16:22:15Z" user="neo-plan" uid="363136" lat="56.2189546" lon="43.5223860"/>
 <node id="12037933009" visible="true" version="1" changeset="153630448" timestamp="2024-07-06T16:22:15Z" user="neo-plan" uid="363136" lat="56.2172007" lon="43.5243815"/>
 <node id="12037933010" visible="true" version="1" changeset="153630448" timestamp="2024-07-06T16:22:15Z" user="neo-plan" uid="363136" lat="56.2129197" lon="43.5283984"/>
 <node id="12037933011" visible="true" version="1" changeset="153630448" timestamp="2024-07-06T16:22:15Z" user="neo-plan" uid="363136" lat="56.2046568" lon="43.5331135"/>
 <node id="12037933012" visible="true" version="1" changeset="153630448" timestamp="2024-07-06T16:22:15Z" user="neo-plan" uid="363136" lat="56.1948505" lon="43.5358612"/>
 <node id="12037933013" visible="true" version="1" changeset="153630448" timestamp="2024-07-06T16:22:15Z" user="neo-plan" uid="363136" lat="56.1930358" lon="43.5369556"/>
 <node id="12037933014" visible="true" version="1" changeset="153630448" timestamp="2024-07-06T16:22:15Z" user="neo-plan" uid="363136" lat="56.1916024" lon="43.5407506"/>
 <node id="12037933015" visible="true" version="1" changeset="153630448" timestamp="2024-07-06T16:22:15Z" user="neo-plan" uid="363136" lat="56.1910413" lon="43.5458146"/>
 <node id="12037933016" visible="true" version="1" changeset="153630448" timestamp="2024-07-06T16:22:15Z" user="neo-plan" uid="363136" lat="56.1907189" lon="43.5490762"/>
 <node id="12037933017" visible="true" version="1" changeset="153630448" timestamp="2024-07-06T16:22:15Z" user="neo-plan" uid="363136" lat="56.1918412" lon="43.5725532"/>
 <node id="12037933018" visible="true" version="1" changeset="153630448" timestamp="2024-07-06T16:22:15Z" user="neo-plan" uid="363136" lat="56.1924143" lon="43.5770379"/>
 <node id="12037933019" visible="true" version="1" changeset="153630448" timestamp="2024-07-06T16:22:15Z" user="neo-plan" uid="363136" lat="56.1942529" lon="43.5838628"/>
 <node id="12037933020" visible="true" version="1" changeset="153630448" timestamp="2024-07-06T16:22:15Z" user="neo-plan" uid="363136" lat="56.1972016" lon="43.5930681"/>
 <node id="12037933021" visible="true" version="1" changeset="153630448" timestamp="2024-07-06T16:22:15Z" user="neo-plan" uid="363136" lat="56.2004944" lon="43.6047050"/>
 <node id="12037933022" visible="true" version="1" changeset="153630448" timestamp="2024-07-06T16:22:15Z" user="neo-plan" uid="363136" lat="56.2020581" lon="43.6130306"/>
 <node id="12037933023" visible="true" version="1" changeset="153630448" timestamp="2024-07-06T16:22:15Z" user="neo-plan" uid="363136" lat="56.2022371" lon="43.6197170"/>
 <node id="12037933024" visible="true" version="1" changeset="153630448" timestamp="2024-07-06T16:22:15Z" user="neo-plan" uid="363136" lat="56.2021774" lon="43.6291753"/>
 <node id="12037933025" visible="true" version="1" changeset="153630448" timestamp="2024-07-06T16:22:15Z" user="neo-plan" uid="363136" lat="56.2030846" lon="43.6403977"/>
 <node id="12037933026" visible="true" version="1" changeset="153630448" timestamp="2024-07-06T16:22:15Z" user="neo-plan" uid="363136" lat="56.2036575" lon="43.6495849"/>
 <node id="12037933027" visible="true" version="1" changeset="153630448" timestamp="2024-07-06T16:22:15Z" user="neo-plan" uid="363136" lat="56.2032875" lon="43.6579320"/>
 <node id="12037933028" visible="true" version="1" changeset="153630448" timestamp="2024-07-06T16:22:15Z" user="neo-plan" uid="363136" lat="56.2018790" lon="43.6735915"/>
 <node id="12037933029" visible="true" version="1" changeset="153630448" timestamp="2024-07-06T16:22:15Z" user="neo-plan" uid="363136" lat="56.2008764" lon="43.6794280"/>
 <node id="12037933030" visible="true" version="1" changeset="153630448" timestamp="2024-07-06T16:22:15Z" user="neo-plan" uid="363136" lat="56.1963958" lon="43.7002720"/>
 <node id="12037933031" visible="true" version="1" changeset="153630448" timestamp="2024-07-06T16:22:15Z" user="neo-plan" uid="363136" lat="56.1932990" lon="43.7133131"/>
 <node id="12037933032" visible="true" version="1" changeset="153630448" timestamp="2024-07-06T16:22:15Z" user="neo-plan" uid="363136" lat="56.1906485" lon="43.7261848"/>
 <node id="12037933033" visible="true" version="1" changeset="153630448" timestamp="2024-07-06T16:22:15Z" user="neo-plan" uid="363136" lat="56.1880245" lon="43.7414399"/>
 <node id="12037933034" visible="true" version="1" changeset="153630448" timestamp="2024-07-06T16:22:15Z" user="neo-plan" uid="363136" lat="56.1866274" lon="43.7516727"/>
 <node id="12037933035" visible="true" version="1" changeset="153630448" timestamp="2024-07-06T16:22:15Z" user="neo-plan" uid="363136" lat="56.1860423" lon="43.7566294"/>
 <node id="12037933036" visible="true" version="1" changeset="153630448" timestamp="2024-07-06T16:22:15Z" user="neo-plan" uid="363136" lat="56.1856482" lon="43.7704267"/>
 <node id="12037933037" visible="true" version="1" changeset="153630448" timestamp="2024-07-06T16:22:15Z" user="neo-plan" uid="363136" lat="56.1857557" lon="43.7889784"/>
 <node id="12037933038" visible="true" version="1" changeset="153630448" timestamp="2024-07-06T16:22:15Z" user="neo-plan" uid="363136" lat="56.1868065" lon="43.8004797"/>
 <node id="12037933039" visible="true" version="1" changeset="153630448" timestamp="2024-07-06T16:22:15Z" user="neo-plan" uid="363136" lat="56.1884782" lon="43.8094687"/>
 <node id="12037933040" visible="true" version="1" changeset="153630448" timestamp="2024-07-06T16:22:15Z" user="neo-plan" uid="363136" lat="56.1897916" lon="43.8155745"/>
 <node id="12037933041" visible="true" version="1" changeset="153630448" timestamp="2024-07-06T16:22:15Z" user="neo-plan" uid="363136" lat="56.1903051" lon="43.8166474"/>
 <node id="12037933042" visible="true" version="1" changeset="153630448" timestamp="2024-07-06T16:22:15Z" user="neo-plan" uid="363136" lat="56.1943331" lon="43.8249301"/>
 <node id="12037933043" visible="true" version="1" changeset="153630448" timestamp="2024-07-06T16:22:15Z" user="neo-plan" uid="363136" lat="56.1986747" lon="43.8335979"/>
 <node id="12037933044" visible="true" version="1" changeset="153630448" timestamp="2024-07-06T16:22:15Z" user="neo-plan" uid="363136" lat="56.2012531" lon="43.8408721"/>
 <node id="12037933045" visible="true" version="1" changeset="153630448" timestamp="2024-07-06T16:22:15Z" user="neo-plan" uid="363136" lat="56.2043352" lon="43.8493381"/>
 <node id="12037933046" visible="true" version="1" changeset="153630448" timestamp="2024-07-06T16:22:15Z" user="neo-plan" uid="363136" lat="56.2060658" lon="43.8548098"/>
 <node id="12037933047" visible="true" version="1" changeset="153630448" timestamp="2024-07-06T16:22:15Z" user="neo-plan" uid="363136" lat="56.2099238" lon="43.8686704"/>
 <node id="12037933048" visible="true" version="1" changeset="153630448" timestamp="2024-07-06T16:22:15Z" user="neo-plan" uid="363136" lat="56.2114035" lon="43.8736700"/>
 <node id="12037933049" visible="true" version="1" changeset="153630448" timestamp="2024-07-06T16:22:15Z" user="neo-plan" uid="363136" lat="56.2138224" lon="43.8806185"/>
 <node id="12037933050" visible="true" version="1" changeset="153630448" timestamp="2024-07-06T16:22:15Z" user="neo-plan" uid="363136" lat="56.2164116" lon="43.8872060"/>
 <node id="12037933051" visible="true" version="1" changeset="153630448" timestamp="2024-07-06T16:22:15Z" user="neo-plan" uid="363136" lat="56.2202730" lon="43.8960577"/>
 <node id="12037933052" visible="true" version="1" changeset="153630448" timestamp="2024-07-06T16:22:15Z" user="neo-plan" uid="363136" lat="56.2247987" lon="43.9060064"/>
 <node id="12037933053" visible="true" version="1" changeset="153630448" timestamp="2024-07-06T16:22:15Z" user="neo-plan" uid="363136" lat="56.2270771" lon="43.9099332"/>
 <node id="12037933054" visible="true" version="1" changeset="153630448" timestamp="2024-07-06T16:22:15Z" user="neo-plan" uid="363136" lat="56.2345861" lon="43.9233639"/>
 <node id="12037933055" visible="true" version="1" changeset="153630448" timestamp="2024-07-06T16:22:15Z" user="neo-plan" uid="363136" lat="56.2369593" lon="43.9266684"/>
 <node id="12037933056" visible="true" version="1" changeset="153630448" timestamp="2024-07-06T16:22:15Z" user="neo-plan" uid="363136" lat="56.2439147" lon="43.9369699"/>
 <node id="12037933057" visible="true" version="1" changeset="153630448" timestamp="2024-07-06T16:22:15Z" user="neo-plan" uid="363136" lat="56.2494261" lon="43.9454553"/>
 <node id="12037933058" visible="true" version="1" changeset="153630448" timestamp="2024-07-06T16:22:15Z" user="neo-plan" uid="363136" lat="56.2512739" lon="43.9479658"/>
 <node id="12037933059" visible="true" version="1" changeset="153630448" timestamp="2024-07-06T16:22:15Z" user="neo-plan" uid="363136" lat="56.2564849" lon="43.9544039"/>
 <node id="12037933060" visible="true" version="1" changeset="153630448" timestamp="2024-07-06T16:22:15Z" user="neo-plan" uid="363136" lat="56.2623987" lon="43.9610772"/>
 <node id="12037933061" visible="true" version="1" changeset="153630448" timestamp="2024-07-06T16:22:15Z" user="neo-plan" uid="363136" lat="56.2643055" lon="43.9627294"/>
 <node id="12037933062" visible="true" version="1" changeset="153630448" timestamp="2024-07-06T16:22:15Z" user="neo-plan" uid="363136" lat="56.2677784" lon="43.9654714"/>
 <node id="12037933063" visible="true" version="1" changeset="153630448" timestamp="2024-07-06T16:22:15Z" user="neo-plan" uid="363136" lat="56.2691249" lon="43.9657074"/>
 <node id="12037933064" visible="true" version="1" changeset="153630448" timestamp="2024-07-06T16:22:15Z" user="neo-plan" uid="363136" lat="56.2741803" lon="43.9653426"/>
 <node id="12037933065" visible="true" version="1" changeset="153630448" timestamp="2024-07-06T16:22:15Z" user="neo-plan" uid="363136" lat="56.2777186" lon="43.9646345"/>
 <node id="12037933066" visible="true" version="1" changeset="153630448" timestamp="2024-07-06T16:22:15Z" user="neo-plan" uid="363136" lat="56.2876481" lon="43.9636689"/>
 <node id="12037933067" visible="true" version="1" changeset="153630448" timestamp="2024-07-06T16:22:15Z" user="neo-plan" uid="363136" lat="56.2952392" lon="43.9632183"/>
 <node id="12037933068" visible="true" version="1" changeset="153630448" timestamp="2024-07-06T16:22:15Z" user="neo-plan" uid="363136" lat="56.3011294" lon="43.9630037"/>
 <node id="12037942969" visible="true" version="1" changeset="153630448" timestamp="2024-07-06T16:22:15Z" user="neo-plan" uid="363136" lat="56.3042246" lon="43.9632183"/>
 <node id="12037942970" visible="true" version="1" changeset="153630448" timestamp="2024-07-06T16:22:15Z" user="neo-plan" uid="363136" lat="56.3138784" lon="43.9629394"/>
 <node id="12037942971" visible="true" version="1" changeset="153630448" timestamp="2024-07-06T16:22:15Z" user="neo-plan" uid="363136" lat="56.3173178" lon="43.9636046"/>
 <node id="12037942972" visible="true" version="1" changeset="153630448" timestamp="2024-07-06T16:22:15Z" user="neo-plan" uid="363136" lat="56.3196502" lon="43.9654714"/>
 <node id="12037942973" visible="true" version="1" changeset="153630448" timestamp="2024-07-06T16:22:15Z" user="neo-plan" uid="363136" lat="56.3263853" lon="43.9717585"/>
 <node id="12037942974" visible="true" version="1" changeset="153630448" timestamp="2024-07-06T16:22:15Z" user="neo-plan" uid="363136" lat="56.3283602" lon="43.9745051"/>
 <node id="12037942975" visible="true" version="1" changeset="153630448" timestamp="2024-07-06T16:22:15Z" user="neo-plan" uid="363136" lat="56.3306495" lon="43.9799893"/>
 <node id="12037942976" visible="true" version="1" changeset="153630448" timestamp="2024-07-06T16:22:15Z" user="neo-plan" uid="363136" lat="56.3307209" lon="43.9838732"/>
 <node id="13011115011" visible="true" version="1" changeset="169135577" timestamp="2025-07-19T03:45:04Z" user="ipbatman" uid="6156517" lat="56.3078002" lon="43.9673105"/>
 <node id="13011115012" visible="true" version="1" changeset="169135577" timestamp="2025-07-19T03:45:04Z" user="ipbatman" uid="6156517" lat="56.3108576" lon="43.9675284"/>
 <node id="13011115013" visible="true" version="1" changeset="169135577" timestamp="2025-07-19T03:45:04Z" user="ipbatman" uid="6156517" lat="56.3157050" lon="43.9684630"/>
 <node id="13011115014" visible="true" version="1" changeset="169135577" timestamp="2025-07-19T03:45:04Z" user="ipbatman" uid="6156517" lat="56.3158257" lon="43.9686173"/>
 <node id="13011115015" visible="true" version="1" changeset="169135577" timestamp="2025-07-19T03:45:04Z" user="ipbatman" uid="6156517" lat="56.3113893" lon="43.9683185"/>
 <node id="13011115016" visible="true" version="1" changeset="169135577" timestamp="2025-07-19T03:45:04Z" user="ipbatman" uid="6156517" lat="56.3111217" lon="43.9674543"/>
 <node id="13011115017" visible="true" version="1" changeset="169135577" timestamp="2025-07-19T03:45:04Z" user="ipbatman" uid="6156517" lat="56.3119488" lon="43.9675199"/>
 <node id="13011115018" visible="true" version="1" changeset="169135577" timestamp="2025-07-19T03:45:04Z" user="ipbatman" uid="6156517" lat="56.3144888" lon="43.9680784"/>
 <node id="13011115019" visible="true" version="1" changeset="169135577" timestamp="2025-07-19T03:45:04Z" user="ipbatman" uid="6156517" lat="56.3145765" lon="43.9688908"/>
 <node id="13011115020" visible="true" version="1" changeset="169135577" timestamp="2025-07-19T03:45:04Z" user="ipbatman" uid="6156517" lat="56.3152016" lon="43.9683329"/>
 <node id="13011115021" visible="true" version="1" changeset="169135577" timestamp="2025-07-19T03:45:04Z" user="ipbatman" uid="6156517" lat="56.3150438" lon="43.9691733"/>
 <node id="13011115022" visible="true" version="1" changeset="169135577" timestamp="2025-07-19T03:45:04Z" user="ipbatman" uid="6156517" lat="56.3094504" lon="43.9680425"/>
 <node id="13011115023" visible="true" version="1" changeset="169135577" timestamp="2025-07-19T03:45:04Z" user="ipbatman" uid="6156517" lat="56.3088162" lon="43.9672966"/>
 <node id="13011115024" visible="true" version="1" changeset="169135577" timestamp="2025-07-19T03:45:04Z" user="ipbatman" uid="6156517" lat="56.3087941" lon="43.9680737"/>
 <node id="13011115025" visible="true" version="1" changeset="169135577" timestamp="2025-07-19T03:45:04Z" user="ipbatman" uid="6156517" lat="56.3078112" lon="43.9673669"/>
 <node id="13011115026" visible="true" version="1" changeset="169135577" timestamp="2025-07-19T03:45:04Z" user="ipbatman" uid="6156517" lat="56.3086816" lon="43.9680171"/>
 <node id="13011115027" visible="true" version="1" changeset="169135577" timestamp="2025-07-19T03:45:04Z" user="ipbatman" uid="6156517" lat="56.3069410" lon="43.9671126"/>
 <node id="13011115028" visible="true" version="1" changeset="169135577" timestamp="2025-07-19T03:45:04Z" user="ipbatman" uid="6156517" lat="56.3067638" lon="43.9680226"/>
 <node id="13011115029" visible="true" version="1" changeset="169135577" timestamp="2025-07-19T03:45:04Z" user="ipbatman" uid="6156517" lat="56.3064179" lon="43.9672422"/>
 <node id="13011115030" visible="true" version="1" changeset="169135577" timestamp="2025-07-19T03:45:04Z" user="ipbatman" uid="6156517" lat="56.3063230" lon="43.9679686"/>
 <node id="13011115031" visible="true" version="1" changeset="169135577" timestamp="2025-07-19T03:45:04Z" user="ipbatman" uid="6156517" lat="56.3035512" lon="43.9667399"/>
 <node id="13011115032" visible="true" version="1" changeset="169135577" timestamp="2025-07-19T03:45:04Z" user="ipbatman" uid="6156517" lat="56.3048002" lon="43.9679551"/>
 <node id="13011115033" visible="true" version="1" changeset="169135577" timestamp="2025-07-19T03:45:04Z" user="ipbatman" uid="6156517" lat="56.3052025" lon="43.9681871"/>
 <node id="13011115034" visible="true" version="1" changeset="169135577" timestamp="2025-07-19T03:45:04Z" user="ipbatman" uid="6156517" lat="56.3057132" lon="43.9681995"/>
 <node id="13011115035" visible="true" version="1" changeset="169135577" timestamp="2025-07-19T03:45:04Z" user="ipbatman" uid="6156517" lat="56.3041677" lon="43.9678732"/>
 <node id="13011115036" visible="true" version="1" changeset="169135577" timestamp="2025-07-19T03:45:04Z" user="ipbatman" uid="6156517" lat="56.3038317" lon="43.9677322"/>
 <node id="13011115037" visible="true" version="1" changeset="169135577" timestamp="2025-07-19T03:45:04Z" user="ipbatman" uid="6156517" lat="56.3024831" lon="43.9676008"/>
 <node id="13011115038" visible="true" version="1" changeset="169135577" timestamp="2025-07-19T03:45:04Z" user="ipbatman" uid="6156517" lat="56.3020925" lon="43.9663621"/>
 <node id="13011115039" visible="true" version="1" changeset="169135577" timestamp="2025-07-19T03:45:04Z" user="ipbatman" uid="6156517" lat="56.3023672" lon="43.9675501"/>
 <node id="13011115040" visible="true" version="1" changeset="169135577" timestamp="2025-07-19T03:45:04Z" user="ipbatman" uid="6156517" lat="56.3021247" lon="43.9678216"/>
 <node id="13011115041" visible="true" version="1" changeset="169135577" timestamp="2025-07-19T03:45:04Z" user="ipbatman" uid="6156517" lat="56.2998466" lon="43.9661728"/>
 <node id="13011115042" visible="true" version="1" changeset="169135577" timestamp="2025-07-19T03:45:04Z" user="ipbatman" uid="6156517" lat="56.3008309" lon="43.9677160"/>
 <node id="13011115043" visible="true" version="1" changeset="169135577" timestamp="2025-07-19T03:45:04Z" user="ipbatman" uid="6156517" lat="56.3000510" lon="43.9667405"/>
 <node id="13011115044" visible="true" version="1" changeset="169135577" timestamp="2025-07-19T03:45:04Z" user="ipbatman" uid="6156517" lat="56.3001949" lon="43.9675251"/>
 <node id="13011115045" visible="true" version="1" changeset="169135577" timestamp="2025-07-19T03:45:04Z" user="ipbatman" uid="6156517" lat="56.2997836" lon="43.9676156"/>
 <node id="13011115046" visible="true" version="1" changeset="169135577" timestamp="2025-07-19T03:45:04Z" user="ipbatman" uid="6156517" lat="56.2992982" lon="43.9668848"/>
 <node id="13011115047" visible="true" version="1" changeset="169135577" timestamp="2025-07-19T03:45:04Z" user="ipbatman" uid="6156517" lat="56.2991282" lon="43.9674255"/>
 <node id="13011115048" visible="true" version="1" changeset="169135577" timestamp="2025-07-19T03:45:04Z" user="ipbatman" uid="6156517" lat="56.2994083" lon="43.9675527"/>
 <way id="80001324" visible="true" version="16" changeset="174737735" timestamp="2025-11-16T17:33:44Z" user="Nyosp" uid="330744">
  <nd ref="259571266"/>
  <nd ref="933623492"/>
  <nd ref="259571270"/>
  <nd ref="253987980"/>
  <nd ref="1214395042"/>
  <nd ref="259571271"/>
  <nd ref="933623511"/>
  <nd ref="933623558"/>
  <tag k="admin_level" v="9"/>
  <tag k="boat" v="yes"/>
  <tag k="boundary" v="administrative"/>
  <tag k="canoe" v="yes"/>
  <tag k="CEMT" v="III"/>
  <tag k="gvr:code" v="09010100112110000017555"/>
  <tag k="motorboat" v="yes"/>
  <tag k="name" v="Ока"/>
  <tag k="name:af" v="Oka"/>
  <tag k="name:ar" v="نهر أوكا"/>
  <tag k="name:az" v="Oka çayı"/>
  <tag k="name:be" v="Рака Ака"/>
  <tag k="name:bn" v="ওকা নদী"/>
  <tag k="name:ca" v="Riu Okà"/>
  <tag k="name:cs" v="Oka"/>
  <tag k="name:cv" v="Хура Атăл"/>
  <tag k="name:cy" v="Afon Oka"/>
  <tag k="name:da" v="Oka"/>
  <tag k="name:de" v="Oka"/>
  <tag k="name:el" v="Ποταμός Οκά"/>
  <tag k="name:en" v="Oka"/>
  <tag k="name:eo" v="Okao"/>
  <tag k="name:es" v="Río Oká"/>
  <tag k="name:et" v="Oka"/>
  <tag k="name:eu" v="Oka ibaia"/>
  <tag k="name:fa" v="رود اوکا"/>
  <tag k="name:fi" v="Oka"/>
  <tag k="name:fr" v="Oka"/>
  <tag k="name:fy" v="Oka"/>
  <tag k="name:gl" v="Río Oka, río Volga"/>
  <tag k="name:he" v="אוקה"/>
  <tag k="name:hr" v="Oka"/>
  <tag k="name:hu" v="Oka"/>
  <tag k="name:hy" v="Օկա"/>
  <tag k="name:it" v="Oka"/>
  <tag k="name:ja" v="オカ川"/>
  <tag k="name:ka" v="ოკა"/>
  <tag k="name:ko" v="오카 강"/>
  <tag k="name:la" v="Occa"/>
  <tag k="name:lt" v="Oka"/>
  <tag k="name:lv" v="Oka"/>
  <tag k="name:ml" v="ഒക നദി"/>
  <tag k="name:mr" v="ओका नदी"/>
  <tag k="name:nl" v="Oka"/>
  <tag k="name:nn" v="Oka"/>
  <tag k="name:no" v="Oka"/>
  <tag k="name:os" v="Ока"/>
  <tag k="name:pl" v="Oka"/>
  <tag k="name:pt" v="Rio Oka"/>
  <tag k="name:ro" v="Râul Oka"/>
  <tag k="name:ru" v="Ока"/>
  <tag k="name:sk" v="Oka"/>
  <tag k="name:sr" v="Ока"/>
  <tag k="name:su" v="Walungan Oka"/>
  <tag k="name:sv" v="Oka"/>
  <tag k="name:sw" v="Oka"/>
  <tag k="name:tr" v="Oka Nehri"/>
  <tag k="name:tt" v="Ука"/>
  <tag k="name:uk" v="Ока"/>
  <tag k="name:uz" v="Oka"/>
  <tag k="name:vi" v="Sông Oka"/>
  <tag k="name:zh" v="奥卡河"/>
  <tag k="waterway" v="river"/>
 </way>
 <way id="80001329" visible="true" version="16" changeset="174737735" timestamp="2025-11-16T17:33:44Z" user="Nyosp" uid="330744">
  <nd ref="253987976"/>
  <nd ref="259571266"/>
  <tag k="admin_level" v="9"/>
  <tag k="boat" v="yes"/>
  <tag k="boundary" v="administrative"/>
  <tag k="canoe" v="yes"/>
  <tag k="CEMT" v="III"/>
  <tag k="gvr:code" v="09010100112110000017555"/>
  <tag k="motorboat" v="yes"/>
  <tag k="name" v="Ока"/>
  <tag k="name:af" v="Oka"/>
  <tag k="name:ar" v="نهر أوكا"/>
  <tag k="name:az" v="Oka çayı"/>
  <tag k="name:be" v="Рака Ака"/>
  <tag k="name:bn" v="ওকা নদী"/>
  <tag k="name:ca" v="Riu Okà"/>
  <tag k="name:cs" v="Oka"/>
  <tag k="name:cv" v="Хура Атăл"/>
  <tag k="name:cy" v="Afon Oka"/>
  <tag k="name:da" v="Oka"/>
  <tag k="name:de" v="Oka"/>
  <tag k="name:el" v="Ποταμός Οκά"/>
  <tag k="name:en" v="Oka"/>
  <tag k="name:eo" v="Okao"/>
  <tag k="name:es" v="Río Oká"/>
  <tag k="name:et" v="Oka"/>
  <tag k="name:eu" v="Oka ibaia"/>
  <tag k="name:fa" v="رود اوکا"/>
  <tag k="name:fi" v="Oka"/>
  <tag k="name:fr" v="Oka"/>
  <tag k="name:fy" v="Oka"/>
  <tag k="name:gl" v="Río Oka, río Volga"/>
  <tag k="name:he" v="אוקה"/>
  <tag k="name:hr" v="Oka"/>
  <tag k="name:hu" v="Oka"/>
  <tag k="name:hy" v="Օկա"/>
  <tag k="name:it" v="Oka"/>
  <tag k="name:ja" v="オカ川"/>
  <tag k="name:ka" v="ოკა"/>
  <tag k="name:ko" v="오카 강"/>
  <tag k="name:la" v="Occa"/>
  <tag k="name:lt" v="Oka"/>
  <tag k="name:lv" v="Oka"/>
  <tag k="name:ml" v="ഒക നദി"/>
  <tag k="name:mr" v="ओका नदी"/>
  <tag k="name:nl" v="Oka"/>
  <tag k="name:nn" v="Oka"/>
  <tag k="name:no" v="Oka"/>
  <tag k="name:os" v="Ока"/>
  <tag k="name:pl" v="Oka"/>
  <tag k="name:pt" v="Rio Oka"/>
  <tag k="name:ro" v="Râul Oka"/>
  <tag k="name:ru" v="Ока"/>
  <tag k="name:sk" v="Oka"/>
  <tag k="name:sr" v="Ока"/>
  <tag k="name:su" v="Walungan Oka"/>
  <tag k="name:sv" v="Oka"/>
  <tag k="name:sw" v="Oka"/>
  <tag k="name:tr" v="Oka Nehri"/>
  <tag k="name:tt" v="Ука"/>
  <tag k="name:uk" v="Ока"/>
  <tag k="name:uz" v="Oka"/>
  <tag k="name:vi" v="Sông Oka"/>
  <tag k="name:zh" v="奥卡河"/>
  <tag k="waterway" v="river"/>
 </way>
 <way id="148771972" visible="true" version="4" changeset="114703009" timestamp="2021-12-08T13:15:41Z" user="Felis Pimeja" uid="260756">
  <nd ref="1271080589"/>
  <nd ref="259571266"/>
  <tag k="admin_level" v="9"/>
  <tag k="boundary" v="administrative"/>
 </way>
 <way id="349429878" visible="true" version="4" changeset="169135577" timestamp="2025-07-19T03:45:04Z" user="ipbatman" uid="6156517">
  <nd ref="3553141428"/>
  <nd ref="13011115015"/>
  <nd ref="13011115022"/>
  <nd ref="13011115024"/>
  <nd ref="13011115026"/>
  <nd ref="13011115028"/>
  <nd ref="13011115030"/>
  <nd ref="13011115034"/>
  <nd ref="13011115033"/>
  <nd ref="13011115032"/>
  <nd ref="13011115035"/>
  <nd ref="13011115036"/>
  <nd ref="13011115037"/>
  <nd ref="13011115039"/>
  <nd ref="13011115040"/>
  <nd ref="13011115042"/>
  <nd ref="13011115044"/>
  <nd ref="13011115045"/>
  <nd ref="13011115048"/>
  <nd ref="13011115047"/>
  <nd ref="13011115046"/>
  <nd ref="13011115043"/>
  <nd ref="13011115041"/>
  <nd ref="13011115038"/>
  <nd ref="13011115031"/>
  <nd ref="13011115029"/>
  <nd ref="13011115027"/>
  <nd ref="13011115025"/>
  <nd ref="13011115023"/>
  <nd ref="3553141429"/>
  <nd ref="13011115016"/>
  <nd ref="13011115017"/>
  <nd ref="13011115018"/>
  <nd ref="3553141430"/>
  <nd ref="13011115020"/>
  <nd ref="13011115021"/>
  <nd ref="13011115019"/>
  <nd ref="3553141418"/>
  <nd ref="4782513604"/>
  <nd ref="538480322"/>
  <nd ref="3553141431"/>
  <nd ref="3553141435"/>
  <nd ref="3553141432"/>
  <nd ref="3553141414"/>
  <nd ref="3553141433"/>
  <nd ref="3553141434"/>
  <nd ref="5810067279"/>
  <nd ref="5810067277"/>
  <nd ref="5810067278"/>
  <nd ref="3553141428"/>
  <tag k="landuse" v="construction"/>
 </way>
 <way id="528872343" visible="true" version="8" changeset="169135577" timestamp="2025-07-19T03:45:04Z" user="ipbatman" uid="6156517">
  <nd ref="659894446"/>
  <nd ref="259469045"/>
  <nd ref="1313505167"/>
  <nd ref="1313505165"/>
  <nd ref="674915956"/>
  <nd ref="1313505156"/>
  <nd ref="259469044"/>
  <nd ref="1313505154"/>
  <nd ref="5138461428"/>
  <nd ref="7884270873"/>
  <nd ref="7884270874"/>
  <nd ref="259469042"/>
  <nd ref="9859783185"/>
  <nd ref="8540142964"/>
  <nd ref="8540142963"/>
  <nd ref="259469041"/>
  <nd ref="4434758317"/>
  <nd ref="4434758318"/>
  <nd ref="4434758319"/>
  <nd ref="4434758320"/>
  <nd ref="4434758321"/>
  <nd ref="4434758316"/>
  <nd ref="4434758315"/>
  <nd ref="4434758314"/>
  <nd ref="4434758312"/>
  <nd ref="4434758313"/>
  <nd ref="4434758311"/>
  <nd ref="538480395"/>
  <nd ref="538480396"/>
  <nd ref="538480397"/>
  <nd ref="538480398"/>
  <nd ref="259469039"/>
  <nd ref="13011115014"/>
  <nd ref="13011115013"/>
  <nd ref="259469038"/>
  <nd ref="259468001"/>
  <nd ref="259468000"/>
  <nd ref="259464082"/>
  <nd ref="13011115012"/>
  <nd ref="259463542"/>
  <nd ref="13011115011"/>
  <nd ref="259463544"/>
  <nd ref="259463545"/>
  <nd ref="259463546"/>
  <nd ref="259463551"/>
  <nd ref="259463553"/>
  <nd ref="259463554"/>
 </way>
 <way id="1299542303" visible="true" version="1" changeset="153630448" timestamp="2024-07-06T16:22:15Z" user="neo-plan" uid="363136">
  <nd ref="12037912960"/>
  <nd ref="12037932997"/>
  <nd ref="12037932998"/>
  <nd ref="12037932999"/>
  <nd ref="12037933000"/>
  <nd ref="12037933001"/>
  <nd ref="12037933002"/>
  <nd ref="12037933003"/>
  <nd ref="12037933004"/>
  <nd ref="12037933005"/>
  <nd ref="12037933006"/>
  <nd ref="12037933007"/>
  <nd ref="12037933008"/>
  <nd ref="12037933009"/>
  <nd ref="12037933010"/>
  <nd ref="12037933011"/>
  <nd ref="12037933012"/>
  <nd ref="12037933013"/>
  <nd ref="12037933014"/>
  <nd ref="12037933015"/>
  <nd ref="12037933016"/>
  <nd ref="12037933017"/>
  <nd ref="12037933018"/>
  <nd ref="12037933019"/>
  <nd ref="12037933020"/>
  <nd ref="12037933021"/>
  <nd ref="12037933022"/>
  <nd ref="12037933023"/>
  <nd ref="12037933024"/>
  <nd ref="12037933025"/>
  <nd ref="12037933026"/>
  <nd ref="12037933027"/>
  <nd ref="12037933028"/>
  <nd ref="12037933029"/>
  <nd ref="12037933030"/>
  <nd ref="12037933031"/>
  <nd ref="12037933032"/>
  <nd ref="12037933033"/>
  <nd ref="12037933034"/>
  <nd ref="12037933035"/>
  <nd ref="12037933036"/>
  <nd ref="12037933037"/>
  <nd ref="12037933038"/>
  <nd ref="12037933039"/>
  <nd ref="12037933040"/>
  <nd ref="12037933041"/>
  <nd ref="12037933042"/>
  <nd ref="12037933043"/>
  <nd ref="12037933044"/>
  <nd ref="12037933045"/>
  <nd ref="12037933046"/>
  <nd ref="12037933047"/>
  <nd ref="12037933048"/>
  <nd ref="12037933049"/>
  <nd ref="12037933050"/>
  <nd ref="12037933051"/>
  <nd ref="12037933052"/>
  <nd ref="12037933053"/>
  <nd ref="12037933054"/>
  <nd ref="12037933055"/>
  <nd ref="12037933056"/>
  <nd ref="12037933057"/>
  <nd ref="12037933058"/>
  <nd ref="12037933059"/>
  <nd ref="12037933060"/>
  <nd ref="12037933061"/>
  <nd ref="12037933062"/>
  <nd ref="12037933063"/>
  <nd ref="12037933064"/>
  <nd ref="12037933065"/>
  <nd ref="12037933066"/>
  <nd ref="12037933067"/>
  <nd ref="12037933068"/>
  <nd ref="12037942969"/>
  <nd ref="12037942970"/>
  <nd ref="12037942971"/>
  <nd ref="12037942972"/>
  <nd ref="12037942973"/>
  <nd ref="12037942974"/>
  <nd ref="12037942975"/>
  <nd ref="12037942976"/>
  <nd ref="6699510253"/>
  <tag k="duration" v="00:50"/>
  <tag k="from" v="Нижний Новгород"/>
  <tag k="operator" v="Водолёт"/>
  <tag k="route" v="ferry"/>
  <tag k="to" v="Дзержинск"/>
  <tag k="toll" v="yes"/>
  <tag k="website" v="https://vodoletnn.ru/"/>
 </way>
 <relation id="163223" visible="true" version="248" changeset="181031199" timestamp="2026-04-08T06:07:48Z" user="Enikkey" uid="23169548">
  <member type="way" ref="847517355" role="main_stream"/>
  <member type="way" ref="847517354" role="main_stream"/>
  <member type="way" ref="847517346" role="main_stream"/>
  <member type="way" ref="847517342" role="main_stream"/>
  <member type="way" ref="847517341" role="main_stream"/>
  <member type="way" ref="847517345" role="main_stream"/>
  <member type="way" ref="31353685" role="main_stream"/>
  <member type="way" ref="31353688" role="main_stream"/>
  <member type="way" ref="749898904" role="main_stream"/>
  <member type="way" ref="31353689" role="main_stream"/>
  <member type="way" ref="749898903" role="main_stream"/>
  <member type="way" ref="31352164" role="main_stream"/>
  <member type="way" ref="28192664" role="main_stream"/>
  <member type="way" ref="1451109197" role="main_stream"/>
  <member type="way" ref="28192666" role="main_stream"/>
  <member type="way" ref="30757162" role="main_stream"/>
  <member type="way" ref="1451109198" role="main_stream"/>
  <member type="way" ref="1451109199" role="main_stream"/>
  <member type="way" ref="28192663" role="main_stream"/>
  <member type="way" ref="27334844" role="main_stream"/>
  <member type="way" ref="1055086958" role="main_stream"/>
  <member type="way" ref="1055086966" role="main_stream"/>
  <member type="way" ref="1055086965" role="main_stream"/>
  <member type="way" ref="1055086964" role="main_stream"/>
  <member type="way" ref="27496312" role="main_stream"/>
  <member type="way" ref="27496311" role="main_stream"/>
  <member type="way" ref="27496310" role="main_stream"/>
  <member type="way" ref="27496309" role="main_stream"/>
  <member type="way" ref="151021679" role="main_stream"/>
  <member type="way" ref="27334526" role="main_stream"/>
  <member type="way" ref="30735715" role="main_stream"/>
  <member type="way" ref="151021186" role="main_stream"/>
  <member type="way" ref="151021678" role="main_stream"/>
  <member type="way" ref="30735717" role="main_stream"/>
  <member type="way" ref="188118387" role="main_stream"/>
  <member type="way" ref="1450913430" role="main_stream"/>
  <member type="way" ref="188118388" role="main_stream"/>
  <member type="way" ref="188118392" role="main_stream"/>
  <member type="way" ref="188118386" role="main_stream"/>
  <member type="way" ref="14394822" role="main_stream"/>
  <member type="way" ref="188926100" role="main_stream"/>
  <member type="way" ref="188926102" role="main_stream"/>
  <member type="way" ref="22975842" role="main_stream"/>
  <member type="way" ref="188926097" role="main_stream"/>
  <member type="way" ref="188926098" role="main_stream"/>
  <member type="way" ref="188926103" role="main_stream"/>
  <member type="way" ref="188926101" role="main_stream"/>
  <member type="way" ref="188926099" role="main_stream"/>
  <member type="way" ref="14394779" role="main_stream"/>
  <member type="way" ref="784731958" role="main_stream"/>
  <member type="way" ref="14394827" role="main_stream"/>
  <member type="way" ref="14394839" role="main_stream"/>
  <member type="way" ref="229580711" role="main_stream"/>
  <member type="way" ref="316536496" role="main_stream"/>
  <member type="way" ref="286053490" role="main_stream"/>
  <member type="way" ref="286072364" role="main_stream"/>
  <member type="way" ref="316653608" role="main_stream"/>
  <member type="way" ref="286251737" role="main_stream"/>
  <member type="way" ref="316653609" role="main_stream"/>
  <member type="way" ref="316802000" role="main_stream"/>
  <member type="way" ref="229580710" role="main_stream"/>
  <member type="way" ref="27495962" role="main_stream"/>
  <member type="way" ref="286403890" role="main_stream"/>
  <member type="way" ref="274794955" role="main_stream"/>
  <member type="way" ref="274794956" role="main_stream"/>
  <member type="way" ref="187397206" role="main_stream"/>
  <member type="way" ref="187397209" role="main_stream"/>
  <member type="way" ref="202270050" role="main_stream"/>
  <member type="way" ref="202270049" role="main_stream"/>
  <member type="way" ref="202270048" role="main_stream"/>
  <member type="way" ref="202270052" role="main_stream"/>
  <member type="way" ref="202270051" role="main_stream"/>
  <member type="way" ref="202270047" role="main_stream"/>
  <member type="way" ref="187397213" role="main_stream"/>
  <member type="way" ref="187399645" role="main_stream"/>
  <member type="way" ref="14394849" role="main_stream"/>
  <member type="way" ref="337590898" role="main_stream"/>
  <member type="way" ref="187397208" role="main_stream"/>
  <member type="way" ref="187398959" role="main_stream"/>
  <member type="way" ref="187397205" role="main_stream"/>
  <member type="way" ref="187397210" role="main_stream"/>
  <member type="way" ref="324978204" role="main_stream"/>
  <member type="way" ref="168702410" role="main_stream"/>
  <member type="way" ref="187397212" role="main_stream"/>
  <member type="way" ref="325175973" role="main_stream"/>
  <member type="way" ref="758329916" role="main_stream"/>
  <member type="way" ref="482438885" role="main_stream"/>
  <member type="way" ref="14394514" role="main_stream"/>
  <member type="way" ref="289278185" role="main_stream"/>
  <member type="way" ref="1450932481" role="main_stream"/>
  <member type="way" ref="289278186" role="main_stream"/>
  <member type="way" ref="196201771" role="main_stream"/>
  <member type="way" ref="809565749" role="main_stream"/>
  <member type="way" ref="1450937462" role="main_stream"/>
  <member type="way" ref="809565748" role="main_stream"/>
  <member type="way" ref="1450937467" role="main_stream"/>
  <member type="way" ref="816344449" role="main_stream"/>
  <member type="way" ref="14394498" role="main_stream"/>
  <member type="way" ref="208603980" role="main_stream"/>
  <member type="way" ref="208603979" role="main_stream"/>
  <member type="way" ref="1450937468" role="main_stream"/>
  <member type="way" ref="1450937470" role="main_stream"/>
  <member type="way" ref="816344448" role="main_stream"/>
  <member type="way" ref="14394332" role="main_stream"/>
  <member type="way" ref="771108142" role="main_stream"/>
  <member type="way" ref="1450937472" role="main_stream"/>
  <member type="way" ref="14394487" role="main_stream"/>
  <member type="way" ref="1244815982" role="main_stream"/>
  <member type="way" ref="27384520" role="main_stream"/>
  <member type="way" ref="14394482" role="main_stream"/>
  <member type="way" ref="27310865" role="main_stream"/>
  <member type="way" ref="252480166" role="main_stream"/>
  <member type="way" ref="27310559" role="main_stream"/>
  <member type="way" ref="252480165" role="main_stream"/>
  <member type="way" ref="252480790" role="main_stream"/>
  <member type="way" ref="252482554" role="main_stream"/>
  <member type="way" ref="252482549" role="main_stream"/>
  <member type="way" ref="538221505" role="main_stream"/>
  <member type="way" ref="27285911" role="main_stream"/>
  <member type="way" ref="255678881" role="main_stream"/>
  <member type="way" ref="252482547" role="main_stream"/>
  <member type="way" ref="197725899" role="main_stream"/>
  <member type="way" ref="197725897" role="main_stream"/>
  <member type="way" ref="252482551" role="main_stream"/>
  <member type="way" ref="24464554" role="main_stream"/>
  <member type="way" ref="123839793" role="main_stream"/>
  <member type="way" ref="123839795" role="main_stream"/>
  <member type="way" ref="123839792" role="main_stream"/>
  <member type="way" ref="123839794" role="main_stream"/>
  <member type="way" ref="173882975" role="main_stream"/>
  <member type="way" ref="173882973" role="main_stream"/>
  <member type="way" ref="173882970" role="main_stream"/>
  <member type="way" ref="173882971" role="main_stream"/>
  <member type="way" ref="173882976" role="main_stream"/>
  <member type="way" ref="173882974" role="main_stream"/>
  <member type="way" ref="456218994" role="main_stream"/>
  <member type="way" ref="173882972" role="main_stream"/>
  <member type="way" ref="24448961" role="main_stream"/>
  <member type="way" ref="156924951" role="main_stream"/>
  <member type="way" ref="118682113" role="main_stream"/>
  <member type="way" ref="154904140" role="main_stream"/>
  <member type="way" ref="80016341" role="main_stream"/>
  <member type="way" ref="148771939" role="main_stream"/>
  <member type="way" ref="80016342" role="main_stream"/>
  <member type="way" ref="80001329" role="main_stream"/>
  <member type="way" ref="80001324" role="main_stream"/>
  <member type="way" ref="80001310" role="main_stream"/>
  <member type="way" ref="31102317" role="side_stream"/>
  <member type="way" ref="252482545" role="side_stream"/>
  <member type="way" ref="27310934" role="side_stream"/>
  <member type="way" ref="252477914" role="side_stream"/>
  <member type="way" ref="252477915" role="side_stream"/>
  <member type="way" ref="252477911" role="side_stream"/>
  <member type="way" ref="252477916" role="side_stream"/>
  <member type="way" ref="252477918" role="side_stream"/>
  <member type="way" ref="252477913" role="side_stream"/>
  <member type="way" ref="252477912" role="side_stream"/>
  <member type="way" ref="252477917" role="side_stream"/>
  <member type="way" ref="197057166" role="side_stream"/>
  <member type="way" ref="197057157" role="side_stream"/>
  <member type="way" ref="197725898" role="side_stream"/>
  <member type="way" ref="252482548" role="side_stream"/>
  <member type="way" ref="252482546" role="side_stream"/>
  <member type="way" ref="615795756" role="side_stream"/>
  <member type="way" ref="517984236" role="side_stream"/>
  <member type="way" ref="172463975" role="side_stream"/>
  <member type="way" ref="172463974" role="side_stream"/>
  <member type="way" ref="259968797" role="side_stream"/>
  <member type="way" ref="128531841" role="side_stream"/>
  <member type="way" ref="605188486" role="side_stream"/>
  <tag k="destination" v="Volga"/>
  <tag k="distance" v="1500"/>
  <tag k="gvr:code" v="09010100112110000017555"/>
  <tag k="int_name" v="Oka"/>
  <tag k="name" v="Ока"/>
  <tag k="name:af" v="Oka"/>
  <tag k="name:ar" v="نهر أوكا"/>
  <tag k="name:az" v="Oka çayı"/>
  <tag k="name:be" v="Рака Ака"/>
  <tag k="name:bn" v="ওকা নদী"/>
  <tag k="name:ca" v="Riu Okà"/>
  <tag k="name:cs" v="Oka"/>
  <tag k="name:cv" v="Окка"/>
  <tag k="name:cy" v="Afon Oka"/>
  <tag k="name:da" v="Oka"/>
  <tag k="name:de" v="Oka"/>
  <tag k="name:el" v="Ποταμός Οκά"/>
  <tag k="name:en" v="Oka"/>
  <tag k="name:eo" v="Okao"/>
  <tag k="name:es" v="Río Oká"/>
  <tag k="name:et" v="Oka"/>
  <tag k="name:eu" v="Oka ibaia"/>
  <tag k="name:fa" v="رود اوکا"/>
  <tag k="name:fi" v="Oka"/>
  <tag k="name:fr" v="Oka"/>
  <tag k="name:fy" v="Oka"/>
  <tag k="name:gl" v="Río Oka, río Volga"/>
  <tag k="name:he" v="אוקה"/>
  <tag k="name:hr" v="Oka"/>
  <tag k="name:hu" v="Oka"/>
  <tag k="name:hy" v="Օկա"/>
  <tag k="name:it" v="Oka"/>
  <tag k="name:ja" v="オカ川"/>
  <tag k="name:ka" v="ოკა"/>
  <tag k="name:ko" v="오카 강"/>
  <tag k="name:la" v="Occa"/>
  <tag k="name:lt" v="Oka"/>
  <tag k="name:lv" v="Oka"/>
  <tag k="name:ml" v="ഒക നദി"/>
  <tag k="name:mr" v="ओका नदी"/>
  <tag k="name:nl" v="Oka"/>
  <tag k="name:nn" v="Oka"/>
  <tag k="name:no" v="Oka"/>
  <tag k="name:os" v="Ока"/>
  <tag k="name:pl" v="Oka"/>
  <tag k="name:pt" v="Rio Oka"/>
  <tag k="name:ro" v="Râul Oka"/>
  <tag k="name:ru" v="Ока"/>
  <tag k="name:sk" v="Oka"/>
  <tag k="name:sr" v="Ока"/>
  <tag k="name:su" v="Walungan Oka"/>
  <tag k="name:sv" v="Oka"/>
  <tag k="name:sw" v="Oka"/>
  <tag k="name:tr" v="Oka Nehri"/>
  <tag k="name:tt" v="Ука"/>
  <tag k="name:uk" v="Ока"/>
  <tag k="name:uz" v="Oka"/>
  <tag k="name:vi" v="Sông Oka"/>
  <tag k="name:zh" v="奥卡河"/>
  <tag k="order:classic" v="2"/>
  <tag k="type" v="waterway"/>
  <tag k="waterway" v="river"/>
  <tag k="wikidata" v="Q172089"/>
  <tag k="wikipedia" v="ru:Ока"/>
 </relation>
 <relation id="335495" visible="true" version="84" changeset="186613516" timestamp="2026-07-29T21:59:22Z" user="Yan Bakhmat" uid="12495047">
  <member type="way" ref="146318376" role="outer"/>
  <member type="way" ref="44977387" role="outer"/>
  <member type="way" ref="1010834004" role="outer"/>
  <member type="way" ref="1010834003" role="outer"/>
  <member type="way" ref="130010366" role="outer"/>
  <member type="way" ref="1010834001" role="outer"/>
  <member type="way" ref="130642716" role="outer"/>
  <member type="way" ref="187385292" role="outer"/>
  <member type="way" ref="1010833998" role="outer"/>
  <member type="way" ref="1010833999" role="outer"/>
  <member type="way" ref="187385291" role="outer"/>
  <member type="way" ref="1370903703" role="outer"/>
  <member type="way" ref="187385288" role="outer"/>
  <member type="way" ref="187385286" role="outer"/>
  <member type="way" ref="148771989" role="outer"/>
  <member type="way" ref="1005402887" role="outer"/>
  <member type="way" ref="1010833966" role="outer"/>
  <member type="way" ref="1010833965" role="outer"/>
  <member type="way" ref="148771482" role="outer"/>
  <member type="way" ref="106790540" role="outer"/>
  <member type="way" ref="700846186" role="outer"/>
  <member type="way" ref="700846187" role="outer"/>
  <member type="way" ref="700846185" role="outer"/>
  <member type="way" ref="1010833974" role="outer"/>
  <member type="way" ref="700846182" role="outer"/>
  <member type="way" ref="700846191" role="outer"/>
  <member type="way" ref="1005402888" role="outer"/>
  <member type="way" ref="700846184" role="outer"/>
  <member type="way" ref="1010833978" role="outer"/>
  <member type="way" ref="1010833979" role="outer"/>
  <member type="way" ref="36959690" role="outer"/>
  <member type="way" ref="1010833992" role="outer"/>
  <member type="way" ref="1010833993" role="outer"/>
  <member type="way" ref="148771006" role="outer"/>
  <member type="way" ref="106790537" role="outer"/>
  <member type="way" ref="130057466" role="outer"/>
  <member type="way" ref="130057457" role="outer"/>
  <member type="way" ref="44977390" role="outer"/>
  <member type="way" ref="69423929" role="outer"/>
  <member type="way" ref="148770992" role="outer"/>
  <member type="way" ref="130057459" role="outer"/>
  <member type="way" ref="130057455" role="outer"/>
  <member type="way" ref="108333660" role="outer"/>
  <member type="way" ref="69423930" role="outer"/>
  <member type="node" ref="27505889" role="admin_centre"/>
  <member type="relation" ref="2006052" role="subarea"/>
  <member type="relation" ref="1203429" role="subarea"/>
  <member type="relation" ref="1203475" role="subarea"/>
  <member type="relation" ref="2006066" role="subarea"/>
  <member type="relation" ref="2006088" role="subarea"/>
  <member type="relation" ref="2006102" role="subarea"/>
  <member type="relation" ref="2006089" role="subarea"/>
  <member type="relation" ref="1203476" role="subarea"/>
  <member type="way" ref="146318372" role="outer"/>
  <member type="way" ref="69421556" role="outer"/>
  <member type="way" ref="148546400" role="outer"/>
  <member type="way" ref="324898170" role="outer"/>
  <member type="way" ref="148169778" role="outer"/>
  <member type="way" ref="148169770" role="outer"/>
  <member type="way" ref="324707808" role="outer"/>
  <member type="way" ref="148169780" role="outer"/>
  <member type="way" ref="69421555" role="outer"/>
  <member type="way" ref="266780610" role="outer"/>
  <member type="way" ref="266780615" role="outer"/>
  <member type="way" ref="148546426" role="outer"/>
  <member type="way" ref="146433760" role="outer"/>
  <member type="way" ref="148546403" role="outer"/>
  <member type="way" ref="69421542" role="outer"/>
  <member type="way" ref="146466120" role="outer"/>
  <member type="way" ref="535677628" role="outer"/>
  <member type="way" ref="535677629" role="outer"/>
  <member type="way" ref="148546401" role="outer"/>
  <member type="way" ref="146466117" role="outer"/>
  <member type="way" ref="281847189" role="outer"/>
  <member type="way" ref="281847214" role="outer"/>
  <member type="way" ref="281847203" role="outer"/>
  <member type="way" ref="133727738" role="outer"/>
  <member type="way" ref="148546418" role="outer"/>
  <member type="way" ref="508280602" role="outer"/>
  <member type="way" ref="325292656" role="outer"/>
  <member type="way" ref="325292668" role="outer"/>
  <member type="way" ref="325292662" role="outer"/>
  <member type="way" ref="325292672" role="outer"/>
  <tag k="admin_level" v="6"/>
  <tag k="boundary" v="administrative"/>
  <tag k="name" v="городской округ Нижний Новгород"/>
  <tag k="name:ca" v="Districte urbà de Nijni Nóvgorod"/>
  <tag k="name:de" v="Stadtkreis Nischni Nowgorod"/>
  <tag k="name:en" v="Nizhny Novgorod"/>
  <tag k="name:ja" v="ニジニ・ノヴゴロド管区"/>
  <tag k="name:sk" v="Nižný Novgorod"/>
  <tag k="name:uk" v="міський округ Нижній Новґород"/>
  <tag k="official_name" v="городской округ Город Нижний Новгород"/>
  <tag k="official_status" v="ru:городской округ"/>
  <tag k="population" v="1266871"/>
  <tag k="type" v="boundary"/>
  <tag k="wikidata" v="Q23898959"/>
  <tag k="wikipedia" v="ru:Нижний Новгород (городской округ)"/>
 </relation>
 <relation id="1203429" visible="true" version="56" changeset="187700058" timestamp="2026-08-19T16:27:11Z" user="Corsa5" uid="7731115">
  <member type="way" ref="80001311" role="outer"/>
  <member type="way" ref="46891064" role="outer"/>
  <member type="way" ref="162038422" role="outer"/>
  <member type="way" ref="162038424" role="outer"/>
  <member type="way" ref="162038423" role="outer"/>
  <member type="way" ref="162038425" role="outer"/>
  <member type="way" ref="46948663" role="outer"/>
  <member type="way" ref="46948668" role="outer"/>
  <member type="way" ref="46948667" role="outer"/>
  <member type="way" ref="164472237" role="outer"/>
  <member type="way" ref="1014441646" role="outer"/>
  <member type="way" ref="1014441645" role="outer"/>
  <member type="way" ref="221951983" role="outer"/>
  <member type="way" ref="221951982" role="outer"/>
  <member type="way" ref="69157541" role="outer"/>
  <member type="way" ref="69157499" role="outer"/>
  <member type="way" ref="262173992" role="outer"/>
  <member type="way" ref="59700145" role="outer"/>
  <member type="way" ref="122169196" role="outer"/>
  <member type="way" ref="149337598" role="outer"/>
  <member type="way" ref="262173988" role="outer"/>
  <member type="way" ref="106797437" role="outer"/>
  <member type="way" ref="695567877" role="outer"/>
  <member type="way" ref="695567875" role="outer"/>
  <member type="way" ref="695567878" role="outer"/>
  <member type="way" ref="106797445" role="outer"/>
  <member type="way" ref="106790534" role="outer"/>
  <member type="way" ref="106797440" role="outer"/>
  <member type="way" ref="106797425" role="outer"/>
  <member type="way" ref="106797421" role="outer"/>
  <member type="way" ref="106797449" role="outer"/>
  <member type="way" ref="106797453" role="outer"/>
  <member type="way" ref="106797443" role="outer"/>
  <member type="way" ref="170166356" role="outer"/>
  <member type="way" ref="106797435" role="outer"/>
  <member type="way" ref="59704363" role="outer"/>
  <member type="way" ref="106797426" role="outer"/>
  <member type="way" ref="106790549" role="outer"/>
  <member type="way" ref="106790558" role="outer"/>
  <member type="way" ref="170166361" role="outer"/>
  <member type="way" ref="170166350" role="outer"/>
  <member type="way" ref="106790548" role="outer"/>
  <member type="way" ref="167313556" role="outer"/>
  <member type="way" ref="160202686" role="outer"/>
  <member type="way" ref="130057469" role="outer"/>
  <member type="way" ref="69423930" role="outer"/>
  <member type="way" ref="80001324" role="outer"/>
  <member type="way" ref="80001329" role="outer"/>
  <member type="way" ref="80001317" role="outer"/>
  <member type="way" ref="1550850358" role="outer"/>
  <member type="way" ref="1550850356" role="outer"/>
  <member type="way" ref="47477874" role="outer"/>
  <member type="way" ref="83906479" role="outer"/>
  <member type="way" ref="80016323" role="outer"/>
  <member type="way" ref="80016331" role="outer"/>
  <member type="way" ref="307670309" role="outer"/>
  <member type="way" ref="148546393" role="outer"/>
  <member type="way" ref="148920811" role="outer"/>
  <member type="way" ref="324369430" role="outer"/>
  <member type="way" ref="324369428" role="outer"/>
  <member type="way" ref="324369429" role="outer"/>
  <tag k="admin_level" v="9"/>
  <tag k="boundary" v="administrative"/>
  <tag k="name" v="Нижегородский район"/>
  <tag k="type" v="boundary"/>
  <tag k="wikidata" v="Q4318671"/>
  <tag k="wikipedia" v="ru:Нижегородский район (Нижний Новгород)"/>
 </relation>
 <relation id="1626604" visible="true" version="19" changeset="174601945" timestamp="2025-11-13T12:06:43Z" user="Руслан Т" uid="12947635">
  <member type="way" ref="1085320086" role="outer"/>
  <member type="way" ref="1085320081" role="outer"/>
  <member type="way" ref="1085320078" role="outer"/>
  <member type="way" ref="1085320065" role="outer"/>
  <member type="way" ref="148165018" role="outer"/>
  <member type="way" ref="23945573" role="outer"/>
  <member type="way" ref="130010363" role="outer"/>
  <member type="way" ref="286397277" role="outer"/>
  <member type="way" ref="173504588" role="outer"/>
  <member type="way" ref="286397278" role="outer"/>
  <member type="way" ref="697876754" role="outer"/>
  <member type="way" ref="697876753" role="outer"/>
  <member type="way" ref="130010364" role="outer"/>
  <member type="way" ref="196488265" role="outer"/>
  <member type="way" ref="196488610" role="outer"/>
  <member type="way" ref="188307782" role="outer"/>
  <member type="way" ref="188307777" role="outer"/>
  <member type="way" ref="188307795" role="outer"/>
  <member type="way" ref="188307779" role="outer"/>
  <member type="way" ref="188307792" role="outer"/>
  <member type="way" ref="194800174" role="outer"/>
  <member type="way" ref="188307784" role="outer"/>
  <member type="way" ref="188307788" role="outer"/>
  <member type="way" ref="191908563" role="outer"/>
  <member type="way" ref="191908692" role="outer"/>
  <member type="way" ref="191453056" role="outer"/>
  <member type="way" ref="117935458" role="outer"/>
  <member type="way" ref="202438979" role="outer"/>
  <member type="way" ref="43763775" role="outer"/>
  <member type="way" ref="116534861" role="outer"/>
  <member type="way" ref="116534877" role="outer"/>
  <member type="way" ref="116534863" role="outer"/>
  <member type="way" ref="23945541" role="outer"/>
  <member type="way" ref="528872344" role="outer"/>
  <member type="way" ref="528872343" role="outer"/>
  <member type="way" ref="23945539" role="outer"/>
  <member type="way" ref="148139045" role="outer"/>
  <member type="way" ref="148139153" role="outer"/>
  <member type="way" ref="108333629" role="outer"/>
  <member type="way" ref="535733392" role="outer"/>
  <member type="way" ref="538056990" role="outer"/>
  <member type="way" ref="538056991" role="outer"/>
  <member type="way" ref="535733385" role="outer"/>
  <member type="way" ref="535733388" role="outer"/>
  <member type="way" ref="535733390" role="outer"/>
  <member type="way" ref="23945549" role="outer"/>
  <member type="way" ref="198324118" role="outer"/>
  <member type="way" ref="31476841" role="outer"/>
  <member type="way" ref="117873289" role="outer"/>
  <member type="way" ref="117872980" role="outer"/>
  <member type="way" ref="117872906" role="outer"/>
  <member type="way" ref="117873195" role="outer"/>
  <member type="way" ref="117873071" role="outer"/>
  <member type="way" ref="117873131" role="outer"/>
  <member type="way" ref="117872894" role="outer"/>
  <member type="way" ref="117873025" role="outer"/>
  <member type="way" ref="117872860" role="outer"/>
  <member type="way" ref="117872923" role="outer"/>
  <member type="way" ref="117873279" role="outer"/>
  <member type="way" ref="117872965" role="outer"/>
  <member type="way" ref="117872927" role="outer"/>
  <member type="way" ref="117872958" role="outer"/>
  <member type="way" ref="117873046" role="outer"/>
  <member type="way" ref="117873252" role="outer"/>
  <member type="way" ref="117873318" role="outer"/>
  <member type="way" ref="117873482" role="outer"/>
  <member type="way" ref="117872931" role="outer"/>
  <member type="way" ref="117872913" role="outer"/>
  <member type="way" ref="117872943" role="outer"/>
  <member type="way" ref="117872857" role="outer"/>
  <member type="way" ref="423200758" role="outer"/>
  <member type="way" ref="423203706" role="outer"/>
  <member type="way" ref="117873042" role="outer"/>
  <member type="way" ref="117873320" role="outer"/>
  <member type="way" ref="117872807" role="outer"/>
  <member type="way" ref="118045741" role="outer"/>
  <member type="way" ref="118045736" role="outer"/>
  <member type="way" ref="118045707" role="outer"/>
  <member type="way" ref="118045690" role="outer"/>
  <member type="way" ref="118045739" role="outer"/>
  <member type="way" ref="117873432" role="outer"/>
  <member type="way" ref="118045789" role="outer"/>
  <member type="way" ref="118045700" role="outer"/>
  <member type="way" ref="117873064" role="outer"/>
  <member type="way" ref="118045770" role="outer"/>
  <member type="way" ref="118429528" role="outer"/>
  <member type="way" ref="118045678" role="outer"/>
  <member type="way" ref="118045775" role="outer"/>
  <member type="way" ref="118045693" role="outer"/>
  <member type="way" ref="118045683" role="outer"/>
  <member type="way" ref="118045806" role="outer"/>
  <member type="way" ref="118045766" role="outer"/>
  <member type="way" ref="118045725" role="outer"/>
  <member type="way" ref="118045743" role="outer"/>
  <member type="way" ref="118045691" role="outer"/>
  <member type="way" ref="118045687" role="outer"/>
  <member type="way" ref="118045679" role="outer"/>
  <member type="way" ref="118045827" role="outer"/>
  <member type="way" ref="118045738" role="outer"/>
  <member type="way" ref="118045723" role="outer"/>
  <member type="way" ref="118045681" role="outer"/>
  <member type="way" ref="117873337" role="outer"/>
  <member type="way" ref="117872928" role="outer"/>
  <member type="way" ref="117873011" role="outer"/>
  <member type="way" ref="117873079" role="outer"/>
  <member type="way" ref="117873386" role="outer"/>
  <member type="way" ref="117873208" role="outer"/>
  <member type="way" ref="117872901" role="outer"/>
  <member type="way" ref="117873067" role="outer"/>
  <member type="way" ref="118325212" role="outer"/>
  <member type="way" ref="118325330" role="outer"/>
  <member type="way" ref="118325207" role="outer"/>
  <member type="way" ref="118325191" role="outer"/>
  <member type="way" ref="148165017" role="outer"/>
  <member type="way" ref="128300207" role="inner"/>
  <member type="way" ref="128300221" role="inner"/>
  <member type="way" ref="228472197" role="inner"/>
  <member type="way" ref="23938391" role="inner"/>
  <member type="way" ref="79659333" role="inner"/>
  <member type="way" ref="160313294" role="inner"/>
  <member type="way" ref="160313289" role="inner"/>
  <member type="way" ref="128617749" role="inner"/>
  <member type="way" ref="104994316" role="inner"/>
  <member type="way" ref="22946698" role="inner"/>
  <member type="way" ref="113046771" role="inner"/>
  <member type="way" ref="113046753" role="inner"/>
  <member type="way" ref="113046760" role="inner"/>
  <member type="way" ref="113046749" role="inner"/>
  <member type="way" ref="113046751" role="inner"/>
  <member type="way" ref="536153100" role="inner"/>
  <member type="way" ref="536153098" role="inner"/>
  <member type="way" ref="113046775" role="inner"/>
  <member type="way" ref="113046755" role="inner"/>
  <member type="way" ref="1150206434" role="inner"/>
  <tag k="name" v="Ока"/>
  <tag k="name:ru" v="Ока"/>
  <tag k="natural" v="water"/>
  <tag k="type" v="multipolygon"/>
  <tag k="water" v="river"/>
 </relation>
 <relation id="1752948" visible="true" version="92" changeset="186613516" timestamp="2026-07-29T21:59:22Z" user="Yan Bakhmat" uid="12495047">
  <member type="way" ref="1010833998" role="outer"/>
  <member type="way" ref="187385292" role="outer"/>
  <member type="way" ref="130642717" role="outer"/>
  <member type="way" ref="130642721" role="outer"/>
  <member type="way" ref="130057468" role="outer"/>
  <member type="way" ref="130057467" role="outer"/>
  <member type="way" ref="130057453" role="outer"/>
  <member type="way" ref="130057471" role="outer"/>
  <member type="way" ref="130010363" role="outer"/>
  <member type="way" ref="286397277" role="outer"/>
  <member type="way" ref="173504588" role="outer"/>
  <member type="way" ref="286397278" role="outer"/>
  <member type="way" ref="697876754" role="outer"/>
  <member type="way" ref="697876753" role="outer"/>
  <member type="way" ref="130010364" role="outer"/>
  <member type="way" ref="196488265" role="outer"/>
  <member type="way" ref="196488610" role="outer"/>
  <member type="way" ref="188307782" role="outer"/>
  <member type="way" ref="188307777" role="outer"/>
  <member type="way" ref="188307795" role="outer"/>
  <member type="way" ref="188307779" role="outer"/>
  <member type="way" ref="188307792" role="outer"/>
  <member type="way" ref="194800174" role="outer"/>
  <member type="way" ref="188307784" role="outer"/>
  <member type="way" ref="188307788" role="outer"/>
  <member type="way" ref="191908563" role="outer"/>
  <member type="way" ref="191908692" role="outer"/>
  <member type="way" ref="191453056" role="outer"/>
  <member type="way" ref="117935458" role="outer"/>
  <member type="way" ref="202438979" role="outer"/>
  <member type="way" ref="43763775" role="outer"/>
  <member type="way" ref="116534861" role="outer"/>
  <member type="way" ref="116534877" role="outer"/>
  <member type="way" ref="116534872" role="outer"/>
  <member type="way" ref="974838681" role="outer"/>
  <member type="way" ref="116534868" role="outer"/>
  <member type="way" ref="264059783" role="outer"/>
  <member type="way" ref="130057455" role="outer"/>
  <member type="way" ref="130057461" role="outer"/>
  <member type="way" ref="130057470" role="outer"/>
  <member type="way" ref="117969670" role="outer"/>
  <member type="way" ref="117969672" role="outer"/>
  <member type="way" ref="117969678" role="outer"/>
  <member type="way" ref="117969683" role="outer"/>
  <member type="way" ref="130057454" role="outer"/>
  <member type="way" ref="130057466" role="outer"/>
  <member type="way" ref="106790542" role="outer"/>
  <member type="way" ref="106790540" role="outer"/>
  <member type="way" ref="148771482" role="outer"/>
  <member type="way" ref="1010833965" role="outer"/>
  <member type="way" ref="1010833966" role="outer"/>
  <member type="way" ref="1005402887" role="outer"/>
  <member type="way" ref="148771989" role="outer"/>
  <member type="way" ref="187385286" role="outer"/>
  <member type="way" ref="187385288" role="outer"/>
  <member type="way" ref="1370903703" role="outer"/>
  <member type="way" ref="187385291" role="outer"/>
  <member type="way" ref="1010833999" role="outer"/>
  <member type="way" ref="655087780" role="inner"/>
  <member type="way" ref="655087790" role="inner"/>
  <member type="way" ref="655087789" role="inner"/>
  <member type="way" ref="166894464" role="inner"/>
  <member type="way" ref="91781187" role="inner"/>
  <member type="way" ref="273116572" role="inner"/>
  <member type="way" ref="273116557" role="inner"/>
  <member type="way" ref="273116564" role="inner"/>
  <member type="way" ref="273116535" role="inner"/>
  <member type="way" ref="273116546" role="inner"/>
  <member type="way" ref="273116570" role="inner"/>
  <member type="way" ref="655087784" role="inner"/>
  <member type="way" ref="655087783" role="inner"/>
  <member type="way" ref="655087781" role="inner"/>
  <member type="way" ref="538056991" role="outer"/>
  <member type="way" ref="535733385" role="outer"/>
  <member type="way" ref="535733388" role="outer"/>
  <member type="way" ref="535733390" role="outer"/>
  <member type="way" ref="23945549" role="outer"/>
  <member type="way" ref="198324119" role="outer"/>
  <member type="way" ref="108333641" role="outer"/>
  <member type="way" ref="108573388" role="outer"/>
  <member type="way" ref="108573386" role="outer"/>
  <member type="way" ref="108573383" role="outer"/>
  <member type="way" ref="108573390" role="outer"/>
  <member type="way" ref="108573396" role="outer"/>
  <member type="way" ref="108573394" role="outer"/>
  <member type="way" ref="106790539" role="outer"/>
  <member type="way" ref="69423925" role="outer"/>
  <member type="way" ref="195438862" role="outer"/>
  <member type="way" ref="195438861" role="outer"/>
  <member type="way" ref="195438866" role="outer"/>
  <member type="way" ref="195438872" role="outer"/>
  <member type="way" ref="195438870" role="outer"/>
  <member type="way" ref="195438865" role="outer"/>
  <member type="way" ref="149337552" role="outer"/>
  <member type="way" ref="149337563" role="outer"/>
  <member type="way" ref="149337577" role="outer"/>
  <member type="way" ref="149337548" role="outer"/>
  <member type="way" ref="149337595" role="outer"/>
  <member type="way" ref="59656583" role="outer"/>
  <member type="way" ref="59656597" role="outer"/>
  <member type="way" ref="1199623256" role="outer"/>
  <member type="way" ref="635038441" role="outer"/>
  <member type="way" ref="100139175" role="outer"/>
  <member type="way" ref="828438587" role="outer"/>
  <member type="way" ref="59700821" role="outer"/>
  <member type="way" ref="828438588" role="outer"/>
  <member type="way" ref="107059229" role="outer"/>
  <member type="way" ref="80001299" role="outer"/>
  <member type="way" ref="262173992" role="outer"/>
  <member type="way" ref="59700145" role="outer"/>
  <member type="way" ref="122169196" role="outer"/>
  <member type="way" ref="149337598" role="outer"/>
  <member type="way" ref="262173988" role="outer"/>
  <member type="way" ref="106797437" role="outer"/>
  <member type="way" ref="695567877" role="outer"/>
  <member type="way" ref="695567875" role="outer"/>
  <member type="way" ref="695567878" role="outer"/>
  <member type="way" ref="106797445" role="outer"/>
  <member type="way" ref="106790534" role="outer"/>
  <member type="way" ref="106797440" role="outer"/>
  <member type="way" ref="106797425" role="outer"/>
  <member type="way" ref="106797421" role="outer"/>
  <member type="way" ref="106797449" role="outer"/>
  <member type="way" ref="106797453" role="outer"/>
  <member type="way" ref="106797443" role="outer"/>
  <member type="way" ref="170166356" role="outer"/>
  <member type="way" ref="106797435" role="outer"/>
  <member type="way" ref="59704363" role="outer"/>
  <member type="way" ref="106797426" role="outer"/>
  <member type="way" ref="169570001" role="outer"/>
  <member type="way" ref="169570004" role="outer"/>
  <member type="way" ref="169570002" role="outer"/>
  <member type="way" ref="106793928" role="outer"/>
  <member type="way" ref="106790538" role="outer"/>
  <member type="way" ref="106790535" role="outer"/>
  <member type="way" ref="106790546" role="outer"/>
  <member type="way" ref="106790533" role="outer"/>
  <member type="way" ref="106793812" role="outer"/>
  <member type="way" ref="166894467" role="outer"/>
  <member type="way" ref="166894460" role="outer"/>
  <member type="way" ref="166894461" role="outer"/>
  <member type="way" ref="273116530" role="outer"/>
  <member type="way" ref="273116507" role="outer"/>
  <member type="way" ref="273116561" role="outer"/>
  <member type="way" ref="167313566" role="outer"/>
  <member type="way" ref="167313561" role="outer"/>
  <member type="way" ref="106790548" role="outer"/>
  <member type="way" ref="167313556" role="outer"/>
  <member type="way" ref="155027124" role="outer"/>
  <member type="way" ref="155027096" role="outer"/>
  <member type="way" ref="155027081" role="outer"/>
  <member type="way" ref="155027120" role="outer"/>
  <member type="way" ref="155027076" role="outer"/>
  <member type="way" ref="155027098" role="outer"/>
  <member type="way" ref="155027125" role="outer"/>
  <member type="way" ref="155027108" role="outer"/>
  <member type="way" ref="155027113" role="outer"/>
  <member type="way" ref="167313573" role="outer"/>
  <member type="way" ref="117969673" role="outer"/>
  <member type="way" ref="117969681" role="outer"/>
  <member type="way" ref="162675604" role="outer"/>
  <member type="way" ref="162675583" role="outer"/>
  <member type="way" ref="162675514" role="outer"/>
  <member type="way" ref="162675651" role="outer"/>
  <member type="way" ref="162675642" role="outer"/>
  <member type="way" ref="162675456" role="outer"/>
  <member type="way" ref="162675515" role="outer"/>
  <member type="way" ref="162675626" role="outer"/>
  <member type="way" ref="162675513" role="outer"/>
  <member type="way" ref="162675490" role="outer"/>
  <member type="way" ref="162675624" role="outer"/>
  <member type="way" ref="162675571" role="outer"/>
  <member type="way" ref="162675621" role="outer"/>
  <member type="way" ref="162675556" role="outer"/>
  <member type="way" ref="162675631" role="outer"/>
  <member type="way" ref="162675638" role="outer"/>
  <member type="way" ref="162675549" role="outer"/>
  <member type="way" ref="162675617" role="outer"/>
  <member type="way" ref="162675619" role="outer"/>
  <member type="way" ref="116168513" role="outer"/>
  <member type="way" ref="162675458" role="outer"/>
  <member type="way" ref="162675652" role="outer"/>
  <member type="way" ref="152277015" role="outer"/>
  <member type="way" ref="152276988" role="outer"/>
  <member type="way" ref="227589843" role="outer"/>
  <member type="way" ref="23945541" role="outer"/>
  <member type="way" ref="528872344" role="outer"/>
  <member type="way" ref="528872343" role="outer"/>
  <member type="way" ref="23945539" role="outer"/>
  <member type="way" ref="148139045" role="outer"/>
  <member type="way" ref="148139153" role="outer"/>
  <member type="way" ref="108333629" role="outer"/>
  <member type="way" ref="535733392" role="outer"/>
  <member type="way" ref="538056990" role="outer"/>
  <member type="way" ref="197215162" role="outer"/>
  <member type="way" ref="105671825" role="outer"/>
  <member type="way" ref="108341533" role="inner"/>
  <member type="way" ref="321161157" role="inner"/>
  <member type="way" ref="321161163" role="inner"/>
  <member type="way" ref="321161159" role="inner"/>
  <member type="way" ref="320882517" role="inner"/>
  <member type="way" ref="320882516" role="inner"/>
  <member type="way" ref="106895727" role="inner"/>
  <member type="way" ref="106895719" role="inner"/>
  <member type="way" ref="106895730" role="inner"/>
  <member type="way" ref="165625314" role="inner"/>
  <member type="way" ref="106895724" role="inner"/>
  <member type="way" ref="106895725" role="inner"/>
  <member type="way" ref="100012514" role="inner"/>
  <member type="way" ref="106895728" role="inner"/>
  <member type="way" ref="106895723" role="inner"/>
  <member type="way" ref="106895731" role="inner"/>
  <member type="way" ref="500729776" role="inner"/>
  <member type="way" ref="108341539" role="inner"/>
  <member type="way" ref="36959697" role="inner"/>
  <member type="way" ref="695979508" role="inner"/>
  <member type="node" ref="27505889" role="label"/>
  <tag k="addr:district" v="городской округ Нижний Новгород"/>
  <tag k="addr:region" v="Нижегородская область"/>
  <tag k="capital" v="4"/>
  <tag k="int_name" v="Nizhny Novgorod"/>
  <tag k="name" v="Нижний Новгород"/>
  <tag k="name:be" v="Ніжні Ноўгарад"/>
  <tag k="name:ca" v="Nijni Nóvgorod"/>
  <tag k="name:chm" v="Угарман"/>
  <tag k="name:cs" v="Nižnij Novgorod"/>
  <tag k="name:de" v="Nischni Nowgorod"/>
  <tag k="name:en" v="Nizhny Novgorod"/>
  <tag k="name:es" v="Nizhni Novgorod"/>
  <tag k="name:fi" v="Nižni Novgorod"/>
  <tag k="name:fr" v="Nijni Novgorod"/>
  <tag k="name:hr" v="Nižni Novgorod"/>
  <tag k="name:hu" v="Nyizsnij Novgorod"/>
  <tag k="name:is" v="Nízhníj Novgorod"/>
  <tag k="name:it" v="Niznij Novgorod"/>
  <tag k="name:ja" v="ニジニ・ノヴゴロド"/>
  <tag k="name:ku" v="Nîjnî Novgorod"/>
  <tag k="name:nb" v="Nizjnij Novgorod"/>
  <tag k="name:nl" v="Nizjni Novgorod"/>
  <tag k="name:pt" v="Nijni Novgorod"/>
  <tag k="name:ru" v="Нижний Новгород"/>
  <tag k="name:sk" v="Nižný Novgorod"/>
  <tag k="name:sl" v="Nižni Novgorod"/>
  <tag k="name:sr" v="Нижњи Новгород"/>
  <tag k="name:tt" v="Нижгар"/>
  <tag k="name:uk" v="Нижній Новґород"/>
  <tag k="name:zh" v="下诺夫哥罗德"/>
  <tag k="old_name:ku" v="Gorkî"/>
  <tag k="place" v="city"/>
  <tag k="population" v="1244254"/>
  <tag k="population:date" v="2021-01-01"/>
  <tag k="start_date" v="1221"/>
  <tag k="type" v="multipolygon"/>
  <tag k="wikidata" v="Q891"/>
  <tag k="wikipedia" v="ru:Нижний Новгород"/>
 </relation>
 <relation id="2006089" visible="true" version="18" changeset="142964558" timestamp="2023-10-22T11:55:48Z" user="Corsa5" uid="7731115">
  <member type="way" ref="148771962" role="outer"/>
  <member type="way" ref="148771982" role="outer"/>
  <member type="way" ref="209195017" role="outer"/>
  <member type="way" ref="148771972" role="outer"/>
  <member type="way" ref="80001329" role="outer"/>
  <member type="way" ref="80016342" role="outer"/>
  <member type="way" ref="148771939" role="outer"/>
  <member type="way" ref="148771979" role="outer"/>
  <member type="way" ref="148771988" role="outer"/>
  <member type="way" ref="148771981" role="outer"/>
  <member type="way" ref="148771948" role="outer"/>
  <member type="way" ref="148771949" role="outer"/>
  <member type="way" ref="52561518" role="outer"/>
  <member type="way" ref="148771970" role="outer"/>
  <member type="way" ref="148771985" role="outer"/>
  <member type="way" ref="148771961" role="outer"/>
  <member type="way" ref="148771967" role="outer"/>
  <member type="way" ref="148771953" role="outer"/>
  <member type="way" ref="148771987" role="outer"/>
  <member type="way" ref="148771975" role="outer"/>
  <member type="way" ref="24043568" role="outer"/>
  <member type="way" ref="184703947" role="outer"/>
  <member type="way" ref="1217523529" role="outer"/>
  <member type="way" ref="148771952" role="outer"/>
  <member type="way" ref="42926431" role="outer"/>
  <member type="way" ref="1026111326" role="outer"/>
  <member type="way" ref="148771958" role="outer"/>
  <member type="way" ref="1150377589" role="outer"/>
  <member type="way" ref="148771937" role="outer"/>
  <member type="way" ref="148771957" role="outer"/>
  <member type="way" ref="148771965" role="outer"/>
  <member type="way" ref="148771986" role="outer"/>
  <tag k="admin_level" v="9"/>
  <tag k="boundary" v="administrative"/>
  <tag k="name" v="Ленинский район"/>
  <tag k="type" v="boundary"/>
  <tag k="wikidata" v="Q4258376"/>
  <tag k="wikipedia" v="ru:Ленинский район (Нижний Новгород)"/>
 </relation>
 <relation id="2006102" visible="true" version="44" changeset="172902173" timestamp="2025-10-06T08:58:07Z" user="AlexYarym" uid="14270545">
  <member type="way" ref="148771480" role="outer"/>
  <member type="way" ref="130057455" role="outer"/>
  <member type="way" ref="108333660" role="outer"/>
  <member type="way" ref="80001324" role="outer"/>
  <member type="way" ref="148771972" role="outer"/>
  <member type="way" ref="209195017" role="outer"/>
  <member type="way" ref="148771982" role="outer"/>
  <member type="way" ref="148771962" role="outer"/>
  <member type="way" ref="148771986" role="outer"/>
  <member type="way" ref="148771965" role="outer"/>
  <member type="way" ref="148771957" role="outer"/>
  <member type="way" ref="148771937" role="outer"/>
  <member type="way" ref="1150377589" role="outer"/>
  <member type="way" ref="148771958" role="outer"/>
  <member type="way" ref="1026111326" role="outer"/>
  <member type="way" ref="42926431" role="outer"/>
  <member type="way" ref="148771952" role="outer"/>
  <member type="way" ref="1217523529" role="outer"/>
  <member type="way" ref="184703947" role="outer"/>
  <member type="way" ref="24043568" role="outer"/>
  <member type="way" ref="148771975" role="outer"/>
  <member type="way" ref="148771987" role="outer"/>
  <member type="way" ref="148771953" role="outer"/>
  <member type="way" ref="148771967" role="outer"/>
  <member type="way" ref="683417193" role="outer"/>
  <member type="way" ref="148771973" role="outer"/>
  <member type="way" ref="148771978" role="outer"/>
  <member type="way" ref="148771983" role="outer"/>
  <member type="way" ref="98978735" role="outer"/>
  <member type="way" ref="148771968" role="outer"/>
  <member type="way" ref="1010833966" role="outer"/>
  <member type="way" ref="1010833965" role="outer"/>
  <member type="way" ref="148771482" role="outer"/>
  <member type="way" ref="148771481" role="outer"/>
  <member type="way" ref="93747351" role="outer"/>
  <member type="way" ref="148771483" role="outer"/>
  <member type="way" ref="1435546954" role="outer"/>
  <member type="way" ref="1435844718" role="outer"/>
  <member type="way" ref="42775066" role="outer"/>
  <member type="way" ref="145312910" role="outer"/>
  <member type="way" ref="145312917" role="outer"/>
  <member type="way" ref="158898480" role="outer"/>
  <tag k="admin_level" v="9"/>
  <tag k="boundary" v="administrative"/>
  <tag k="name" v="Канавинский район"/>
  <tag k="type" v="boundary"/>
  <tag k="wikidata" v="Q4212067"/>
  <tag k="wikipedia" v="ru:Канавинский район"/>
 </relation>
 <relation id="11207501" visible="true" version="3" changeset="174700923" timestamp="2025-11-15T19:19:39Z" user="Nyosp" uid="330744">
  <member type="way" ref="80001310" role=""/>
  <member type="way" ref="80001324" role=""/>
  <member type="way" ref="80001329" role=""/>
  <member type="way" ref="80016342" role=""/>
  <member type="way" ref="148771939" role=""/>
  <member type="way" ref="80016341" role=""/>
  <member type="way" ref="154904140" role=""/>
  <member type="way" ref="118682113" role=""/>
  <member type="way" ref="156924951" role=""/>
  <member type="way" ref="24448961" role=""/>
  <member type="way" ref="173882972" role=""/>
  <member type="way" ref="456218994" role=""/>
  <member type="way" ref="173882974" role=""/>
  <member type="way" ref="173882976" role=""/>
  <member type="way" ref="173882971" role=""/>
  <member type="way" ref="173882970" role=""/>
  <member type="way" ref="173882973" role=""/>
  <member type="way" ref="173882975" role=""/>
  <member type="way" ref="123839794" role=""/>
  <member type="way" ref="123839792" role=""/>
  <member type="way" ref="123839795" role=""/>
  <member type="way" ref="123839793" role=""/>
  <member type="way" ref="24464554" role=""/>
  <member type="way" ref="252482551" role=""/>
  <member type="way" ref="197725897" role=""/>
  <member type="way" ref="197725899" role=""/>
  <member type="way" ref="252482547" role=""/>
  <member type="way" ref="255678881" role=""/>
  <member type="way" ref="27285911" role=""/>
  <member type="way" ref="538221505" role=""/>
  <member type="way" ref="252482549" role=""/>
  <member type="way" ref="252482554" role=""/>
  <member type="way" ref="252480790" role=""/>
  <member type="way" ref="252480165" role=""/>
  <member type="way" ref="27310559" role=""/>
  <member type="way" ref="252480166" role=""/>
  <member type="way" ref="27310865" role=""/>
  <member type="way" ref="14394482" role=""/>
  <member type="way" ref="27384520" role=""/>
  <member type="way" ref="1244815982" role=""/>
  <member type="way" ref="14394487" role=""/>
  <member type="way" ref="1450937472" role=""/>
  <member type="way" ref="771108142" role=""/>
  <member type="way" ref="14394332" role=""/>
  <member type="way" ref="816344450" role=""/>
  <member type="way" ref="208603979" role=""/>
  <member type="way" ref="208603980" role=""/>
  <member type="way" ref="14394498" role=""/>
  <member type="way" ref="816344449" role=""/>
  <member type="way" ref="816344451" role=""/>
  <member type="way" ref="809565749" role=""/>
  <member type="way" ref="196201771" role=""/>
  <tag k="route" v="waterway"/>
  <tag k="type" v="route"/>
 </relation>
</osm>
