<?xml version="1.0" encoding="UTF-8"?>
<osm version="0.6" generator="openstreetmap-cgimap 2.1.0 (244708 spike-07.openstreetmap.org)" copyright="OpenStreetMap and contributors" attribution="http://www.openstreetmap.org/copyright" license="http://opendatacommons.org/licenses/odbl/1-0/">
 <bounds minlat="56.3331882" minlon="44.0034693" maxlat="56.3358831" maxlon="44.0083307"/>
 <node id="8153478338" visible="true" version="1" changeset="94615800" timestamp="2020-11-23T06:33:11Z" user="Pantanal5" uid="10888767" lat="56.3322875" lon="44.0018173"/>
 <node id="9162779406" visible="true" version="1" changeset="112340962" timestamp="2021-10-10T16:34:25Z" user="Сергей Бокк" uid="7966302" lat="56.3338732" lon="43.9913926"/>
 <node id="9162779407" visible="true" version="1" changeset="112340962" timestamp="2021-10-10T16:34:25Z" user="Сергей Бокк" uid="7966302" lat="56.3362093" lon="43.9851676"/>
 <node id="9162779408" visible="true" version="1" changeset="112340962" timestamp="2021-10-10T16:34:25Z" user="Сергей Бокк" uid="7966302" lat="56.3378365" lon="43.9813052"/>
 <node id="9162779409" visible="true" version="1" changeset="112340962" timestamp="2021-10-10T16:34:25Z" user="Сергей Бокк" uid="7966302" lat="56.3396062" lon="43.9732715"/>
 <node id="9162779410" visible="true" version="1" changeset="112340962" timestamp="2021-10-10T16:34:25Z" user="Сергей Бокк" uid="7966302" lat="56.3408431" lon="43.9698382"/>
 <node id="9162779411" visible="true" version="1" changeset="112340962" timestamp="2021-10-10T16:34:25Z" user="Сергей Бокк" uid="7966302" lat="56.3408717" lon="43.9687739"/>
 <node id="9162779412" visible="true" version="1" changeset="112340962" timestamp="2021-10-10T16:34:25Z" user="Сергей Бокк" uid="7966302" lat="56.3407194" lon="43.9679156"/>
 <node id="9162779413" visible="true" version="1" changeset="112340962" timestamp="2021-10-10T16:34:25Z" user="Сергей Бокк" uid="7966302" lat="56.3404435" lon="43.9676753"/>
 <node id="9162779414" visible="true" version="1" changeset="112340962" timestamp="2021-10-10T16:34:25Z" user="Сергей Бокк" uid="7966302" lat="56.3399202" lon="43.9676753"/>
 <node id="9162779415" visible="true" version="1" changeset="112340962" timestamp="2021-10-10T16:34:25Z" user="Сергей Бокк" uid="7966302" lat="56.3395301" lon="43.9682761"/>
 <node id="9162779416" visible="true" version="1" changeset="112340962" timestamp="2021-10-10T16:34:25Z" user="Сергей Бокк" uid="7966302" lat="56.3382456" lon="43.9720698"/>
 <node id="9162841317" visible="true" version="1" changeset="112340962" timestamp="2021-10-10T16:34:25Z" user="Сергей Бокк" uid="7966302" lat="56.3354386" lon="43.9798289"/>
 <node id="9162841318" visible="true" version="1" changeset="112340962" timestamp="2021-10-10T16:34:25Z" user="Сергей Бокк" uid="7966302" lat="56.3352958" lon="43.9801723"/>
 <node id="9162841319" visible="true" version="1" changeset="112340962" timestamp="2021-10-10T16:34:25Z" user="Сергей Бокк" uid="7966302" lat="56.3349438" lon="43.9804984"/>
 <node id="9162841320" visible="true" version="1" changeset="112340962" timestamp="2021-10-10T16:34:25Z" user="Сергей Бокк" uid="7966302" lat="56.3344299" lon="43.9806529"/>
 <node id="9162841321" visible="true" version="1" changeset="112340962" timestamp="2021-10-10T16:34:25Z" user="Сергей Бокк" uid="7966302" lat="56.3339446" lon="43.9804984"/>
 <node id="9162841322" visible="true" version="1" changeset="112340962" timestamp="2021-10-10T16:34:25Z" user="Сергей Бокк" uid="7966302" lat="56.3332214" lon="43.9802238"/>
 <node id="9162841323" visible="true" version="1" changeset="112340962" timestamp="2021-10-10T16:34:25Z" user="Сергей Бокк" uid="7966302" lat="56.3323649" lon="43.9800178"/>
 <node id="9162841324" visible="true" version="1" changeset="112340962" timestamp="2021-10-10T16:34:25Z" user="Сергей Бокк" uid="7966302" lat="56.3316226" lon="43.9794684"/>
 <node id="9162841325" visible="true" version="1" changeset="112340962" timestamp="2021-10-10T16:34:25Z" user="Сергей Бокк" uid="7966302" lat="56.3300333" lon="43.9774257"/>
 <node id="9162841326" visible="true" version="1" changeset="112340962" timestamp="2021-10-10T16:34:25Z" user="Сергей Бокк" uid="7966302" lat="56.3268544" lon="43.9724647"/>
 <node id="9162841327" visible="true" version="1" changeset="112340962" timestamp="2021-10-10T16:34:25Z" user="Сергей Бокк" uid="7966302" lat="56.3261787" lon="43.9716578"/>
 <node id="9162841328" visible="true" version="1" changeset="112340962" timestamp="2021-10-10T16:34:25Z" user="Сергей Бокк" uid="7966302" lat="56.3257123" lon="43.9715377"/>
 <node id="9162841329" visible="true" version="1" changeset="112340962" timestamp="2021-10-10T16:34:25Z" user="Сергей Бокк" uid="7966302" lat="56.3254172" lon="43.9721042"/>
 <node id="9162841330" visible="true" version="1" changeset="112340962" timestamp="2021-10-10T16:34:25Z" user="Сергей Бокк" uid="7966302" lat="56.3254743" lon="43.9727736"/>
 <node id="9162841331" visible="true" version="1" changeset="112340962" timestamp="2021-10-10T16:34:25Z" user="Сергей Бокк" uid="7966302" lat="56.3259788" lon="43.9739066"/>
 <node id="9162841332" visible="true" version="1" changeset="112340962" timestamp="2021-10-10T16:34:25Z" user="Сергей Бокк" uid="7966302" lat="56.3292148" lon="43.9793483"/>
 <node id="9162841333" visible="true" version="1" changeset="112340962" timestamp="2021-10-10T16:34:25Z" user="Сергей Бокк" uid="7966302" lat="56.3324696" lon="43.9853221"/>
 <node id="9162841334" visible="true" version="1" changeset="112340962" timestamp="2021-10-10T16:34:25Z" user="Сергей Бокк" uid="7966302" lat="56.3332499" lon="43.9879828"/>
 <node id="9162841335" visible="true" version="1" changeset="112340962" timestamp="2021-10-10T16:34:25Z" user="Сергей Бокк" uid="7966302" lat="56.3335830" lon="43.9908496"/>
 <node id="9162841336" visible="true" version="1" changeset="112340962" timestamp="2021-10-10T16:34:25Z" user="Сергей Бокк" uid="7966302" lat="56.3336401" lon="43.9977675"/>
 <node id="9162841337" visible="true" version="1" changeset="112340962" timestamp="2021-10-10T16:34:25Z" user="Сергей Бокк" uid="7966302" lat="56.3337733" lon="44.0056468"/>
 <node id="9162841338" visible="true" version="1" changeset="112340962" timestamp="2021-10-10T16:34:25Z" user="Сергей Бокк" uid="7966302" lat="56.3338209" lon="44.0105220"/>
 <node id="9162841339" visible="true" version="1" changeset="112340962" timestamp="2021-10-10T16:34:25Z" user="Сергей Бокк" uid="7966302" lat="56.3336781" lon="44.0110198"/>
 <node id="9162841340" visible="true" version="1" changeset="112340962" timestamp="2021-10-10T16:34:25Z" user="Сергей Бокк" uid="7966302" lat="56.3334497" lon="44.0111400"/>
 <node id="9162841341" visible="true" version="1" changeset="112340962" timestamp="2021-10-10T16:34:25Z" user="Сергей Бокк" uid="7966302" lat="56.3331643" lon="44.0110370"/>
 <node id="9162841342" visible="true" version="2" changeset="112340979" timestamp="2021-10-10T16:34:51Z" user="Сергей Бокк" uid="7966302" lat="56.3329977" lon="44.0104276"/>
 <node id="9162841343" visible="true" version="1" changeset="112340962" timestamp="2021-10-10T16:34:25Z" user="Сергей Бокк" uid="7966302" lat="56.3329263" lon="44.0045310"/>
 <way id="991722891" visible="true" version="3" changeset="135309484" timestamp="2023-04-24T16:23:37Z" user="Денис Безыкорнов" uid="2943090">
  <nd ref="9162779406"/>
  <nd ref="9162779407"/>
  <nd ref="9162779408"/>
  <nd ref="9162779409"/>
  <nd ref="9162779410"/>
  <nd ref="9162779411"/>
  <nd ref="9162779412"/>
  <nd ref="9162779413"/>
  <nd ref="9162779414"/>
  <nd ref="9162779415"/>
  <nd ref="9162779416"/>
  <nd ref="9162841317"/>
  <nd ref="9162841318"/>
  <nd ref="9162841319"/>
  <nd ref="9162841320"/>
  <nd ref="9162841321"/>
  <nd ref="9162841322"/>
  <nd ref="9162841323"/>
  <nd ref="9162841324"/>
  <nd ref="9162841325"/>
  <nd ref="9162841326"/>
  <nd ref="9162841327"/>
  <nd ref="9162841328"/>
  <nd ref="9162841329"/>
  <nd ref="9162841330"/>
  <nd ref="9162841331"/>
  <nd ref="9162841332"/>
  <nd ref="9162841333"/>
  <nd ref="9162841334"/>
  <nd ref="9162841335"/>
  <nd ref="9162841336"/>
  <nd ref="9162841337"/>
  <nd ref="9162841338"/>
  <nd ref="9162841339"/>
  <nd ref="9162841340"/>
  <nd ref="9162841341"/>
  <nd ref="9162841342"/>
  <nd ref="9162841343"/>
  <nd ref="8153478338"/>
  <tag k="duration" v="01:00"/>
  <tag k="foot" v="yes"/>
  <tag k="motor_vehicle" v="no"/>
  <tag k="name" v="Теплоходная прогулка"/>
  <tag k="route" v="ferry"/>
 </way>
</osm>
