<?xml version="1.0" encoding="UTF-8"?>
<osm version="0.6" generator="openstreetmap-cgimap 2.1.0 (244705 spike-07.openstreetmap.org)" copyright="OpenStreetMap and contributors" attribution="http://www.openstreetmap.org/copyright" license="http://opendatacommons.org/licenses/odbl/1-0/">
 <bounds minlat="59.9100456" minlon="30.3781354" maxlat="59.9127405" maxlon="30.3835108"/>
 <node id="269277578" visible="true" version="5" changeset="91912017" timestamp="2020-10-03T18:44:59Z" user="mini-me" uid="3846961" lat="59.9090339" lon="30.3777986"/>
 <node id="382224252" visible="true" version="2" changeset="107661393" timestamp="2021-07-08T21:24:45Z" user="Ильин Роман" uid="402565" lat="59.9129764" lon="30.3782071"/>
 <node id="382224255" visible="true" version="2" changeset="107661393" timestamp="2021-07-08T21:24:45Z" user="Ильин Роман" uid="402565" lat="59.9132346" lon="30.3796318"/>
 <node id="382224257" visible="true" version="2" changeset="107661393" timestamp="2021-07-08T21:24:45Z" user="Ильин Роман" uid="402565" lat="59.9129721" lon="30.3798207"/>
 <node id="382224259" visible="true" version="2" changeset="107661393" timestamp="2021-07-08T21:24:45Z" user="Ильин Роман" uid="402565" lat="59.9127182" lon="30.3783959"/>
 <node id="571864587" visible="true" version="6" changeset="173663888" timestamp="2025-10-23T09:28:52Z" user="Константин Гам" uid="392109" lat="59.9125892" lon="30.3832110"/>
 <node id="571864589" visible="true" version="5" changeset="113956960" timestamp="2021-11-18T18:35:12Z" user="mini-me" uid="3846961" lat="59.9131132" lon="30.3861420"/>
 <node id="571864594" visible="true" version="6" changeset="173663888" timestamp="2025-10-23T09:28:52Z" user="Константин Гам" uid="392109" lat="59.9127811" lon="30.3830747"/>
 <node id="571865077" visible="true" version="8" changeset="113956960" timestamp="2021-11-18T18:35:12Z" user="mini-me" uid="3846961" lat="59.9131602" lon="30.3861087"/>
 <node id="571865085" visible="true" version="6" changeset="113956960" timestamp="2021-11-18T18:35:12Z" user="mini-me" uid="3846961" lat="59.9131780" lon="30.3864706"/>
 <node id="571865087" visible="true" version="5" changeset="113956960" timestamp="2021-11-18T18:35:12Z" user="mini-me" uid="3846961" lat="59.9134311" lon="30.3862909"/>
 <node id="571865735" visible="true" version="7" changeset="113956960" timestamp="2021-11-18T18:35:12Z" user="mini-me" uid="3846961" lat="59.9131967" lon="30.3863132"/>
 <node id="571866295" visible="true" version="5" changeset="113956960" timestamp="2021-11-18T18:35:12Z" user="mini-me" uid="3846961" lat="59.9131552" lon="30.3863427"/>
 <node id="699787907" visible="true" version="1" changeset="4448576" timestamp="2010-04-17T14:59:59Z" user="Batareikin" uid="127299" lat="59.9102940" lon="30.3791742"/>
 <node id="699787910" visible="true" version="1" changeset="4448576" timestamp="2010-04-17T15:00:00Z" user="Batareikin" uid="127299" lat="59.9108957" lon="30.3807633"/>
 <node id="699787920" visible="true" version="2" changeset="92842378" timestamp="2020-10-21T15:35:32Z" user="Sergey Astakhov" uid="143266" lat="59.9126995" lon="30.3812771"/>
 <node id="699787924" visible="true" version="1" changeset="4448576" timestamp="2010-04-17T15:00:00Z" user="Batareikin" uid="127299" lat="59.9107184" lon="30.3808851"/>
 <node id="699787941" visible="true" version="2" changeset="13033240" timestamp="2012-09-08T12:43:07Z" user="Pavel239" uid="354001" lat="59.9101462" lon="30.3800558"/>
 <node id="699787959" visible="true" version="2" changeset="89815959" timestamp="2020-08-23T17:07:06Z" user="Sergey Astakhov" uid="143266" lat="59.9117794" lon="30.3847064"/>
 <node id="699788006" visible="true" version="1" changeset="4448576" timestamp="2010-04-17T15:00:03Z" user="Batareikin" uid="127299" lat="59.9106793" lon="30.3816437"/>
 <node id="699788016" visible="true" version="2" changeset="172170120" timestamp="2025-09-19T15:45:30Z" user="Константин Гам" uid="392109" lat="59.9106125" lon="30.3790140"/>
 <node id="699788025" visible="true" version="1" changeset="4448576" timestamp="2010-04-17T15:00:03Z" user="Batareikin" uid="127299" lat="59.9104729" lon="30.3817835"/>
 <node id="699788054" visible="true" version="3" changeset="92842378" timestamp="2020-10-21T15:35:32Z" user="Sergey Astakhov" uid="143266" lat="59.9121878" lon="30.3810361"/>
 <node id="699788096" visible="true" version="1" changeset="4448576" timestamp="2010-04-17T15:00:06Z" user="Batareikin" uid="127299" lat="59.9101466" lon="30.3791239"/>
 <node id="699788104" visible="true" version="2" changeset="113905011" timestamp="2021-11-17T16:17:17Z" user="mini-me" uid="3846961" lat="59.9114250" lon="30.3838675"/>
 <node id="699788130" visible="true" version="1" changeset="4448576" timestamp="2010-04-17T15:00:06Z" user="Batareikin" uid="127299" lat="59.9103685" lon="30.3781070"/>
 <node id="699788141" visible="true" version="3" changeset="92842378" timestamp="2020-10-21T15:35:32Z" user="Sergey Astakhov" uid="143266" lat="59.9122964" lon="30.3809740"/>
 <node id="699788162" visible="true" version="1" changeset="4448576" timestamp="2010-04-17T15:00:08Z" user="Batareikin" uid="127299" lat="59.9099163" lon="30.3785361"/>
 <node id="699788176" visible="true" version="1" changeset="4448576" timestamp="2010-04-17T15:00:08Z" user="Batareikin" uid="127299" lat="59.9110266" lon="30.3828478"/>
 <node id="699788190" visible="true" version="2" changeset="92842378" timestamp="2020-10-21T15:35:32Z" user="Sergey Astakhov" uid="143266" lat="59.9122692" lon="30.3801847"/>
 <node id="699788235" visible="true" version="1" changeset="4448576" timestamp="2010-04-17T15:00:10Z" user="Batareikin" uid="127299" lat="59.9105232" lon="30.3776212"/>
 <node id="699788253" visible="true" version="1" changeset="4448576" timestamp="2010-04-17T15:00:10Z" user="Batareikin" uid="127299" lat="59.9108109" lon="30.3757170"/>
 <node id="699788264" visible="true" version="1" changeset="4448576" timestamp="2010-04-17T15:00:10Z" user="Batareikin" uid="127299" lat="59.9104507" lon="30.3793346"/>
 <node id="699788280" visible="true" version="2" changeset="92842378" timestamp="2020-10-21T15:35:32Z" user="Sergey Astakhov" uid="143266" lat="59.9123389" lon="30.3801396"/>
 <node id="699788286" visible="true" version="3" changeset="21179087" timestamp="2014-03-18T18:15:52Z" user="yuryleb" uid="446083" lat="59.9096496" lon="30.3797856"/>
 <node id="699788289" visible="true" version="1" changeset="4448576" timestamp="2010-04-17T15:00:11Z" user="Batareikin" uid="127299" lat="59.9101735" lon="30.3777644"/>
 <node id="699788306" visible="true" version="2" changeset="89815959" timestamp="2020-08-23T17:07:06Z" user="Sergey Astakhov" uid="143266" lat="59.9119948" lon="30.3845591"/>
 <node id="699788322" visible="true" version="1" changeset="4448576" timestamp="2010-04-17T15:00:12Z" user="Batareikin" uid="127299" lat="59.9107616" lon="30.3774568"/>
 <node id="699788355" visible="true" version="1" changeset="4448576" timestamp="2010-04-17T15:00:13Z" user="Batareikin" uid="127299" lat="59.9108871" lon="30.3828648"/>
 <node id="699788371" visible="true" version="2" changeset="172170120" timestamp="2025-09-19T15:45:30Z" user="Константин Гам" uid="392109" lat="59.9105423" lon="30.3786139"/>
 <node id="699788375" visible="true" version="2" changeset="92842378" timestamp="2020-10-21T15:35:32Z" user="Sergey Astakhov" uid="143266" lat="59.9128942" lon="30.3811405"/>
 <node id="699788383" visible="true" version="1" changeset="4448576" timestamp="2010-04-17T15:00:14Z" user="Batareikin" uid="127299" lat="59.9101378" lon="30.3779358"/>
 <node id="699788450" visible="true" version="2" changeset="113905011" timestamp="2021-11-17T16:17:17Z" user="mini-me" uid="3846961" lat="59.9113003" lon="30.3831830"/>
 <node id="699788462" visible="true" version="2" changeset="172170120" timestamp="2025-09-19T15:45:30Z" user="Константин Гам" uid="392109" lat="59.9103308" lon="30.3787615"/>
 <node id="699788476" visible="true" version="1" changeset="4448576" timestamp="2010-04-17T15:00:17Z" user="Batareikin" uid="127299" lat="59.9103102" lon="30.3782388"/>
 <node id="699788493" visible="true" version="3" changeset="92842378" timestamp="2020-10-21T15:35:32Z" user="Sergey Astakhov" uid="143266" lat="59.9124159" lon="30.3818060"/>
 <node id="699788527" visible="true" version="1" changeset="4448576" timestamp="2010-04-17T15:00:19Z" user="Batareikin" uid="127299" lat="59.9112342" lon="30.3827049"/>
 <node id="699788539" visible="true" version="1" changeset="4448576" timestamp="2010-04-17T15:00:19Z" user="Batareikin" uid="127299" lat="59.9098999" lon="30.3780039"/>
 <node id="699788547" visible="true" version="2" changeset="113905011" timestamp="2021-11-17T16:17:17Z" user="mini-me" uid="3846961" lat="59.9111048" lon="30.3833248"/>
 <node id="699788605" visible="true" version="1" changeset="4448576" timestamp="2010-04-17T15:00:21Z" user="Batareikin" uid="127299" lat="59.9100952" lon="30.3793484"/>
 <node id="699788626" visible="true" version="2" changeset="92842378" timestamp="2020-10-21T15:35:32Z" user="Sergey Astakhov" uid="143266" lat="59.9124464" lon="30.3807993"/>
 <node id="699788630" visible="true" version="3" changeset="44427215" timestamp="2016-12-15T16:11:16Z" user="Re-re" uid="2064119" lat="59.9102806" lon="30.3833387"/>
 <node id="699788636" visible="true" version="1" changeset="4448576" timestamp="2010-04-17T15:00:22Z" user="Batareikin" uid="127299" lat="59.9101317" lon="30.3779650"/>
 <node id="699788667" visible="true" version="1" changeset="4448576" timestamp="2010-04-17T15:00:23Z" user="Batareikin" uid="127299" lat="59.9113952" lon="30.3811130"/>
 <node id="699788683" visible="true" version="1" changeset="4448576" timestamp="2010-04-17T15:00:24Z" user="Batareikin" uid="127299" lat="59.9102609" lon="30.3790238"/>
 <node id="699788687" visible="true" version="1" changeset="4448576" timestamp="2010-04-17T15:00:24Z" user="Batareikin" uid="127299" lat="59.9106280" lon="30.3792128"/>
 <node id="699788692" visible="true" version="2" changeset="92842378" timestamp="2020-10-21T15:35:32Z" user="Sergey Astakhov" uid="143266" lat="59.9123663" lon="30.3793889"/>
 <node id="699788697" visible="true" version="1" changeset="4448576" timestamp="2010-04-17T15:00:24Z" user="Batareikin" uid="127299" lat="59.9106808" lon="30.3830046"/>
 <node id="699788712" visible="true" version="2" changeset="92842378" timestamp="2020-10-21T15:35:32Z" user="Sergey Astakhov" uid="143266" lat="59.9125610" lon="30.3792523"/>
 <node id="699788717" visible="true" version="2" changeset="13033240" timestamp="2012-09-08T12:43:07Z" user="Pavel239" uid="354001" lat="59.9106794" lon="30.3830872"/>
 <node id="699788735" visible="true" version="2" changeset="89815959" timestamp="2020-08-23T17:07:06Z" user="Sergey Astakhov" uid="143266" lat="59.9113476" lon="30.3821923"/>
 <node id="699788756" visible="true" version="2" changeset="89815959" timestamp="2020-08-23T17:07:06Z" user="Sergey Astakhov" uid="143266" lat="59.9115630" lon="30.3820451"/>
 <node id="699788804" visible="true" version="2" changeset="172170120" timestamp="2025-09-19T15:45:30Z" user="Константин Гам" uid="392109" lat="59.9104010" lon="30.3791616"/>
 <node id="699788833" visible="true" version="3" changeset="92842378" timestamp="2020-10-21T15:35:32Z" user="Sergey Astakhov" uid="143266" lat="59.9123072" lon="30.3818681"/>
 <node id="699788857" visible="true" version="1" changeset="4448576" timestamp="2010-04-17T15:00:29Z" user="Batareikin" uid="127299" lat="59.9098593" lon="30.3785860"/>
 <node id="699788876" visible="true" version="1" changeset="4448576" timestamp="2010-04-17T15:00:29Z" user="Batareikin" uid="127299" lat="59.9110121" lon="30.3814213"/>
 <node id="699788899" visible="true" version="2" changeset="113905011" timestamp="2021-11-17T16:17:17Z" user="mini-me" uid="3846961" lat="59.9112296" lon="30.3840093"/>
 <node id="699788943" visible="true" version="1" changeset="4448576" timestamp="2010-04-17T15:00:31Z" user="Batareikin" uid="127299" lat="59.9103981" lon="30.3760748"/>
 <node id="699788979" visible="true" version="1" changeset="4448576" timestamp="2010-04-17T15:00:32Z" user="Batareikin" uid="127299" lat="59.9108045" lon="30.3815642"/>
 <node id="699788983" visible="true" version="1" changeset="4448576" timestamp="2010-04-17T15:00:32Z" user="Batareikin" uid="127299" lat="59.9097052" lon="30.3773755"/>
 <node id="699788991" visible="true" version="1" changeset="4448576" timestamp="2010-04-17T15:00:32Z" user="Batareikin" uid="127299" lat="59.9097584" lon="30.3781279"/>
 <node id="699788996" visible="true" version="2" changeset="92842378" timestamp="2020-10-21T15:35:32Z" user="Sergey Astakhov" uid="143266" lat="59.9123767" lon="30.3808444"/>
 <node id="699789006" visible="true" version="1" changeset="4448576" timestamp="2010-04-17T15:00:33Z" user="Batareikin" uid="127299" lat="59.9096633" lon="30.3775760"/>
 <node id="699789041" visible="true" version="1" changeset="4448576" timestamp="2010-04-17T15:00:34Z" user="Batareikin" uid="127299" lat="59.9111567" lon="30.3812774"/>
 <node id="1174049402" visible="true" version="2" changeset="12834870" timestamp="2012-08-23T16:27:54Z" user="coho" uid="623185" lat="59.9100332" lon="30.3780416"/>
 <node id="1174049404" visible="true" version="1" changeset="7397385" timestamp="2011-02-26T08:17:10Z" user="sttab" uid="388459" lat="59.9102849" lon="30.3787547"/>
 <node id="1174049405" visible="true" version="1" changeset="7397385" timestamp="2011-02-26T08:17:10Z" user="sttab" uid="388459" lat="59.9092522" lon="30.3777677"/>
 <node id="1174049406" visible="true" version="1" changeset="7397385" timestamp="2011-02-26T08:17:10Z" user="sttab" uid="388459" lat="59.9106400" lon="30.3809220"/>
 <node id="1174049407" visible="true" version="2" changeset="44427215" timestamp="2016-12-15T16:11:16Z" user="Re-re" uid="2064119" lat="59.9090974" lon="30.3777669">
  <tag k="barrier" v="lift_gate"/>
 </node>
 <node id="1174049996" visible="true" version="1" changeset="7397385" timestamp="2011-02-26T08:18:37Z" user="sttab" uid="388459" lat="59.9103557" lon="30.3791868">
  <tag k="barrier" v="lift_gate"/>
 </node>
 <node id="1429201623" visible="true" version="4" changeset="91928887" timestamp="2020-10-04T11:16:02Z" user="mini-me" uid="3846961" lat="59.9111160" lon="30.3875855"/>
 <node id="1898280212" visible="true" version="2" changeset="113956960" timestamp="2021-11-18T18:35:12Z" user="mini-me" uid="3846961" lat="59.9141751" lon="30.3902536">
  <tag k="barrier" v="gate"/>
 </node>
 <node id="1900395579" visible="true" version="1" changeset="12995697" timestamp="2012-09-05T12:48:28Z" user="yandexx" uid="857490" lat="59.9143349" lon="30.3889941"/>
 <node id="1900395580" visible="true" version="2" changeset="89815959" timestamp="2020-08-23T17:07:06Z" user="Sergey Astakhov" uid="143266" lat="59.9144240" lon="30.3894637">
  <tag k="railway" v="switch"/>
 </node>
 <node id="1900395582" visible="true" version="3" changeset="89815959" timestamp="2020-08-23T17:07:06Z" user="Sergey Astakhov" uid="143266" lat="59.9145419" lon="30.3900960"/>
 <node id="1901894173" visible="true" version="1" changeset="13007317" timestamp="2012-09-06T09:05:06Z" user="yandexx" uid="857490" lat="59.9136886" lon="30.3853618"/>
 <node id="1905553703" visible="true" version="3" changeset="131121458" timestamp="2023-01-10T20:41:05Z" user="Константин Гам" uid="392109" lat="59.9097844" lon="30.3820815"/>
 <node id="1905553713" visible="true" version="4" changeset="131121458" timestamp="2023-01-10T20:41:05Z" user="Константин Гам" uid="392109" lat="59.9102333" lon="30.3834570"/>
 <node id="1905553735" visible="true" version="2" changeset="44427215" timestamp="2016-12-15T16:11:17Z" user="Re-re" uid="2064119" lat="59.9090862" lon="30.3777000"/>
 <node id="1905553747" visible="true" version="3" changeset="113913885" timestamp="2021-11-17T19:47:42Z" user="mini-me" uid="3846961" lat="59.9105135" lon="30.3838974"/>
 <node id="1905553748" visible="true" version="4" changeset="131121458" timestamp="2023-01-10T20:41:05Z" user="Константин Гам" uid="392109" lat="59.9107150" lon="30.3844591"/>
 <node id="1905553749" visible="true" version="3" changeset="113905011" timestamp="2021-11-17T16:17:17Z" user="mini-me" uid="3846961" lat="59.9108850" lon="30.3855025"/>
 <node id="1905553751" visible="true" version="3" changeset="91928887" timestamp="2020-10-04T11:16:02Z" user="mini-me" uid="3846961" lat="59.9110995" lon="30.3868302"/>
 <node id="1905553752" visible="true" version="4" changeset="91928887" timestamp="2020-10-04T11:16:02Z" user="mini-me" uid="3846961" lat="59.9111092" lon="30.3870026"/>
 <node id="1905553769" visible="true" version="2" changeset="113913885" timestamp="2021-11-17T19:47:42Z" user="mini-me" uid="3846961" lat="59.9099516" lon="30.3827129"/>
 <node id="1905553828" visible="true" version="1" changeset="13033240" timestamp="2012-09-08T12:43:03Z" user="Pavel239" uid="354001" lat="59.9113901" lon="30.3772076"/>
 <node id="1905553830" visible="true" version="1" changeset="13033240" timestamp="2012-09-08T12:43:03Z" user="Pavel239" uid="354001" lat="59.9115750" lon="30.3782199"/>
 <node id="1905553837" visible="true" version="1" changeset="13033240" timestamp="2012-09-08T12:43:04Z" user="Pavel239" uid="354001" lat="59.9114331" lon="30.3783229"/>
 <node id="1905553839" visible="true" version="1" changeset="13033240" timestamp="2012-09-08T12:43:04Z" user="Pavel239" uid="354001" lat="59.9112483" lon="30.3773107"/>
 <node id="2115201895" visible="true" version="2" changeset="44427215" timestamp="2016-12-15T16:11:17Z" user="Re-re" uid="2064119" lat="59.9111744" lon="30.3878479"/>
 <node id="2194886648" visible="true" version="1" changeset="15321090" timestamp="2013-03-10T20:40:20Z" user="yuryleb" uid="446083" lat="59.9100643" lon="30.3766231"/>
 <node id="2194886650" visible="true" version="1" changeset="15321090" timestamp="2013-03-10T20:40:20Z" user="yuryleb" uid="446083" lat="59.9100213" lon="30.3764139"/>
 <node id="2722808911" visible="true" version="2" changeset="92842378" timestamp="2020-10-21T15:35:32Z" user="Sergey Astakhov" uid="143266" lat="59.9121220" lon="30.3779979"/>
 <node id="2722808913" visible="true" version="2" changeset="113905011" timestamp="2021-11-17T16:17:17Z" user="mini-me" uid="3846961" lat="59.9113426" lon="30.3879415"/>
 <node id="2722808915" visible="true" version="2" changeset="92842378" timestamp="2020-10-21T15:35:32Z" user="Sergey Astakhov" uid="143266" lat="59.9119697" lon="30.3769190"/>
 <node id="2722808916" visible="true" version="3" changeset="92842378" timestamp="2020-10-21T15:35:32Z" user="Sergey Astakhov" uid="143266" lat="59.9118446" lon="30.3790976"/>
 <node id="2722808930" visible="true" version="2" changeset="113905011" timestamp="2021-11-17T16:17:17Z" user="mini-me" uid="3846961" lat="59.9111996" lon="30.3877803"/>
 <node id="2722808931" visible="true" version="2" changeset="92842378" timestamp="2020-10-21T15:35:32Z" user="Sergey Astakhov" uid="143266" lat="59.9119388" lon="30.3759943">
  <tag k="railway" v="switch"/>
 </node>
 <node id="2722808946" visible="true" version="1" changeset="21149771" timestamp="2014-03-17T06:53:28Z" user="yuryleb" uid="446083" lat="59.9137837" lon="30.3904260"/>
 <node id="2722808947" visible="true" version="2" changeset="113956960" timestamp="2021-11-18T18:35:12Z" user="mini-me" uid="3846961" lat="59.9138769" lon="30.3882799"/>
 <node id="2722808948" visible="true" version="2" changeset="92842378" timestamp="2020-10-21T15:35:32Z" user="Sergey Astakhov" uid="143266" lat="59.9124911" lon="30.3804072">
  <tag k="railway" v="switch"/>
 </node>
 <node id="2722808950" visible="true" version="2" changeset="92842378" timestamp="2020-10-21T15:35:32Z" user="Sergey Astakhov" uid="143266" lat="59.9118379" lon="30.3783486"/>
 <node id="2722808955" visible="true" version="2" changeset="92842378" timestamp="2020-10-21T15:35:32Z" user="Sergey Astakhov" uid="143266" lat="59.9119223" lon="30.3756081"/>
 <node id="2722808961" visible="true" version="1" changeset="21149771" timestamp="2014-03-17T06:53:29Z" user="yuryleb" uid="446083" lat="59.9135797" lon="30.3895339"/>
 <node id="2722808964" visible="true" version="1" changeset="21149771" timestamp="2014-03-17T06:53:29Z" user="yuryleb" uid="446083" lat="59.9136846" lon="30.3900810"/>
 <node id="2722808968" visible="true" version="2" changeset="113905011" timestamp="2021-11-17T16:17:17Z" user="mini-me" uid="3846961" lat="59.9140079" lon="30.3909678"/>
 <node id="2722808971" visible="true" version="2" changeset="113956960" timestamp="2021-11-18T18:35:12Z" user="mini-me" uid="3846961" lat="59.9122374" lon="30.3816766"/>
 <node id="2722808974" visible="true" version="2" changeset="92842378" timestamp="2020-10-21T15:35:32Z" user="Sergey Astakhov" uid="143266" lat="59.9120201" lon="30.3773951"/>
 <node id="2722808976" visible="true" version="2" changeset="92842378" timestamp="2020-10-21T15:35:32Z" user="Sergey Astakhov" uid="143266" lat="59.9117994" lon="30.3745529">
  <tag k="railway" v="switch"/>
 </node>
 <node id="2725576772" visible="true" version="2" changeset="89815959" timestamp="2020-08-23T17:07:06Z" user="Sergey Astakhov" uid="143266" lat="59.9131463" lon="30.3878953"/>
 <node id="2725576774" visible="true" version="1" changeset="21179087" timestamp="2014-03-18T18:15:51Z" user="yuryleb" uid="446083" lat="59.9114816" lon="30.3772617"/>
 <node id="2725576777" visible="true" version="2" changeset="113956960" timestamp="2021-11-18T18:35:12Z" user="mini-me" uid="3846961" lat="59.9122434" lon="30.3824451"/>
 <node id="2725576781" visible="true" version="1" changeset="21179087" timestamp="2014-03-18T18:15:51Z" user="yuryleb" uid="446083" lat="59.9110513" lon="30.3765965"/>
 <node id="2725576793" visible="true" version="1" changeset="21179087" timestamp="2014-03-18T18:15:51Z" user="yuryleb" uid="446083" lat="59.9112557" lon="30.3768110"/>
 <node id="2725576795" visible="true" version="1" changeset="21179087" timestamp="2014-03-18T18:15:51Z" user="yuryleb" uid="446083" lat="59.9098772" lon="30.3796190"/>
 <node id="2725576797" visible="true" version="3" changeset="113956960" timestamp="2021-11-18T18:35:12Z" user="mini-me" uid="3846961" lat="59.9123697" lon="30.3831584"/>
 <node id="2725576800" visible="true" version="1" changeset="21179087" timestamp="2014-03-18T18:15:51Z" user="yuryleb" uid="446083" lat="59.9135093" lon="30.3899211"/>
 <node id="2725576806" visible="true" version="2" changeset="147909483" timestamp="2024-02-25T21:31:14Z" user="Константин Гам" uid="392109" lat="59.9086200" lon="30.3777981"/>
 <node id="2725576820" visible="true" version="2" changeset="113905011" timestamp="2021-11-17T16:17:17Z" user="mini-me" uid="3846961" lat="59.9136225" lon="30.3903587"/>
 <node id="2725576821" visible="true" version="1" changeset="21179087" timestamp="2014-03-18T18:15:52Z" user="yuryleb" uid="446083" lat="59.9101530" lon="30.3766501"/>
 <node id="2725576825" visible="true" version="1" changeset="21179087" timestamp="2014-03-18T18:15:52Z" user="yuryleb" uid="446083" lat="59.9107555" lon="30.3764570"/>
 <node id="2725576827" visible="true" version="1" changeset="21179087" timestamp="2014-03-18T18:15:52Z" user="yuryleb" uid="446083" lat="59.9099736" lon="30.3801858"/>
 <node id="2725576829" visible="true" version="1" changeset="21179087" timestamp="2014-03-18T18:15:52Z" user="yuryleb" uid="446083" lat="59.9104274" lon="30.3765321"/>
 <node id="2837041216" visible="true" version="2" changeset="173663888" timestamp="2025-10-23T09:28:52Z" user="Константин Гам" uid="392109" lat="59.9119947" lon="30.3755607"/>
 <node id="2837041217" visible="true" version="2" changeset="173663888" timestamp="2025-10-23T09:28:52Z" user="Константин Гам" uid="392109" lat="59.9120190" lon="30.3755358"/>
 <node id="2837041219" visible="true" version="2" changeset="173663888" timestamp="2025-10-23T09:28:52Z" user="Константин Гам" uid="392109" lat="59.9120614" lon="30.3755100"/>
 <node id="2837041220" visible="true" version="2" changeset="173663888" timestamp="2025-10-23T09:28:52Z" user="Константин Гам" uid="392109" lat="59.9120909" lon="30.3754979"/>
 <node id="2837041221" visible="true" version="3" changeset="173663888" timestamp="2025-10-23T09:28:52Z" user="Константин Гам" uid="392109" lat="59.9121464" lon="30.3754269"/>
 <node id="2837041222" visible="true" version="3" changeset="173663888" timestamp="2025-10-23T09:28:52Z" user="Константин Гам" uid="392109" lat="59.9121846" lon="30.3754222"/>
 <node id="2837041224" visible="true" version="3" changeset="173663888" timestamp="2025-10-23T09:28:52Z" user="Константин Гам" uid="392109" lat="59.9122354" lon="30.3753831"/>
 <node id="2837041225" visible="true" version="3" changeset="173663888" timestamp="2025-10-23T09:28:52Z" user="Константин Гам" uid="392109" lat="59.9122940" lon="30.3753084"/>
 <node id="2837041226" visible="true" version="3" changeset="173663888" timestamp="2025-10-23T09:28:52Z" user="Константин Гам" uid="392109" lat="59.9123331" lon="30.3752808"/>
 <node id="2837041227" visible="true" version="4" changeset="173663888" timestamp="2025-10-23T09:28:52Z" user="Константин Гам" uid="392109" lat="59.9123637" lon="30.3752859"/>
 <node id="2837041228" visible="true" version="3" changeset="173663888" timestamp="2025-10-23T09:28:52Z" user="Константин Гам" uid="392109" lat="59.9123889" lon="30.3752820"/>
 <node id="2837041229" visible="true" version="4" changeset="173663888" timestamp="2025-10-23T09:28:52Z" user="Константин Гам" uid="392109" lat="59.9124642" lon="30.3752244"/>
 <node id="2837041230" visible="true" version="3" changeset="173663888" timestamp="2025-10-23T09:28:52Z" user="Константин Гам" uid="392109" lat="59.9125814" lon="30.3751500"/>
 <node id="2837041234" visible="true" version="3" changeset="91912017" timestamp="2020-10-03T18:44:59Z" user="mini-me" uid="3846961" lat="59.9126342" lon="30.3749287"/>
 <node id="2923660611" visible="true" version="2" changeset="113905011" timestamp="2021-11-17T16:17:17Z" user="mini-me" uid="3846961" lat="59.9114309" lon="30.3880202"/>
 <node id="4436165357" visible="true" version="16" changeset="141361569" timestamp="2023-09-16T23:12:49Z" user="traveleditor" uid="8726248" lat="59.9107672" lon="30.3805934">
  <tag k="addr:city" v="Санкт-Петербург"/>
  <tag k="addr:housenumber" v="21А"/>
  <tag k="addr:street" v="Мельничная улица"/>
  <tag k="description" v="Ремонт легковых и грузовых автомобилей."/>
  <tag k="name" v="Автосервис"/>
  <tag k="opening_hours" v="9:00-21:00"/>
  <tag k="operator" v="СТО ЛАТ"/>
  <tag k="shop" v="car_repair"/>
 </node>
 <node id="4463819093" visible="true" version="3" changeset="102863351" timestamp="2021-04-13T11:31:31Z" user="SecretOfSence" uid="11687718" lat="59.9133226" lon="30.3832721"/>
 <node id="4555782973" visible="true" version="3" changeset="172170120" timestamp="2025-09-19T15:45:30Z" user="Константин Гам" uid="392109" lat="59.9107313" lon="30.3839960"/>
 <node id="4555782974" visible="true" version="2" changeset="113905011" timestamp="2021-11-17T16:17:17Z" user="mini-me" uid="3846961" lat="59.9111804" lon="30.3868364"/>
 <node id="4555782976" visible="true" version="2" changeset="152867489" timestamp="2024-06-18T21:47:37Z" user="Константин Гам" uid="392109" lat="59.9103063" lon="30.3834367"/>
 <node id="4555782978" visible="true" version="1" changeset="44427215" timestamp="2016-12-15T16:11:16Z" user="Re-re" uid="2064119" lat="59.9100835" lon="30.3822775"/>
 <node id="4555782979" visible="true" version="2" changeset="172170120" timestamp="2025-09-19T15:45:30Z" user="Константин Гам" uid="392109" lat="59.9099910" lon="30.3824014"/>
 <node id="4555782980" visible="true" version="2" changeset="172170120" timestamp="2025-09-19T15:45:30Z" user="Константин Гам" uid="392109" lat="59.9098794" lon="30.3822069"/>
 <node id="4555782981" visible="true" version="2" changeset="172170120" timestamp="2025-09-19T15:45:30Z" user="Константин Гам" uid="392109" lat="59.9098101" lon="30.3819776"/>
 <node id="4625262031" visible="true" version="2" changeset="91928887" timestamp="2020-10-04T11:16:02Z" user="mini-me" uid="3846961" lat="59.9111114" lon="30.3873998"/>
 <node id="5307697099" visible="true" version="1" changeset="54972889" timestamp="2017-12-28T04:27:34Z" user="nwgsm" uid="179936" lat="59.9127335" lon="30.3800865">
  <tag k="camera:direction" v="250"/>
  <tag k="camera:mount" v="wall"/>
  <tag k="camera:type" v="fixed"/>
  <tag k="man_made" v="surveillance"/>
  <tag k="surveillance" v="outdoor"/>
  <tag k="surveillance:type" v="camera"/>
  <tag k="surveillance:zone" v="area"/>
 </node>
 <node id="5350089227" visible="true" version="2" changeset="55806983" timestamp="2018-01-27T15:42:54Z" user="nwgsm" uid="179936" lat="59.9101261" lon="30.3824802">
  <tag k="camera:direction" v="90"/>
  <tag k="camera:mount" v="wall"/>
  <tag k="camera:type" v="fixed"/>
  <tag k="man_made" v="surveillance"/>
  <tag k="surveillance" v="public"/>
  <tag k="surveillance:type" v="camera"/>
  <tag k="surveillance:zone" v="parking"/>
 </node>
 <node id="5924247314" visible="true" version="2" changeset="91912017" timestamp="2020-10-03T18:44:59Z" user="mini-me" uid="3846961" lat="59.9126714" lon="30.3748625"/>
 <node id="6023051702" visible="true" version="1" changeset="63988256" timestamp="2018-10-29T19:02:25Z" user="DemoLogin" uid="1709753" lat="59.9148430" lon="30.3913020"/>
 <node id="6023051703" visible="true" version="1" changeset="63988256" timestamp="2018-10-29T19:02:25Z" user="DemoLogin" uid="1709753" lat="59.9146816" lon="30.3917371"/>
 <node id="6023051704" visible="true" version="1" changeset="63988256" timestamp="2018-10-29T19:02:25Z" user="DemoLogin" uid="1709753" lat="59.9146308" lon="30.3922497"/>
 <node id="6023051705" visible="true" version="1" changeset="63988256" timestamp="2018-10-29T19:02:25Z" user="DemoLogin" uid="1709753" lat="59.9137793" lon="30.3902410"/>
 <node id="6023051706" visible="true" version="1" changeset="63988256" timestamp="2018-10-29T19:02:25Z" user="DemoLogin" uid="1709753" lat="59.9118658" lon="30.3790243"/>
 <node id="6023051707" visible="true" version="3" changeset="173663888" timestamp="2025-10-23T09:28:52Z" user="Константин Гам" uid="392109" lat="59.9122342" lon="30.3772743"/>
 <node id="6023051709" visible="true" version="2" changeset="113956960" timestamp="2021-11-18T18:35:12Z" user="mini-me" uid="3846961" lat="59.9123008" lon="30.3818786"/>
 <node id="6023051740" visible="true" version="1" changeset="63988256" timestamp="2018-10-29T19:02:25Z" user="DemoLogin" uid="1709753" lat="59.9108465" lon="30.3764999"/>
 <node id="6023051747" visible="true" version="1" changeset="63988256" timestamp="2018-10-29T19:02:25Z" user="DemoLogin" uid="1709753" lat="59.9113883" lon="30.3814662"/>
 <node id="6023051748" visible="true" version="1" changeset="63988256" timestamp="2018-10-29T19:02:25Z" user="DemoLogin" uid="1709753" lat="59.9113061" lon="30.3815289"/>
 <node id="6023051749" visible="true" version="1" changeset="63988256" timestamp="2018-10-29T19:02:25Z" user="DemoLogin" uid="1709753" lat="59.9113301" lon="30.3816543"/>
 <node id="6023051750" visible="true" version="1" changeset="63988256" timestamp="2018-10-29T19:02:25Z" user="DemoLogin" uid="1709753" lat="59.9114124" lon="30.3815915"/>
 <node id="6023051751" visible="true" version="1" changeset="63988256" timestamp="2018-10-29T19:02:25Z" user="DemoLogin" uid="1709753" lat="59.9114338" lon="30.3817364"/>
 <node id="6023051752" visible="true" version="1" changeset="63988256" timestamp="2018-10-29T19:02:25Z" user="DemoLogin" uid="1709753" lat="59.9113681" lon="30.3817827"/>
 <node id="6023051753" visible="true" version="1" changeset="63988256" timestamp="2018-10-29T19:02:25Z" user="DemoLogin" uid="1709753" lat="59.9114115" lon="30.3820273"/>
 <node id="6023051754" visible="true" version="1" changeset="63988256" timestamp="2018-10-29T19:02:25Z" user="DemoLogin" uid="1709753" lat="59.9114772" lon="30.3819810"/>
 <node id="6023051755" visible="true" version="1" changeset="63988256" timestamp="2018-10-29T19:02:25Z" user="DemoLogin" uid="1709753" lat="59.9115472" lon="30.3817790"/>
 <node id="6023051756" visible="true" version="1" changeset="63988256" timestamp="2018-10-29T19:02:25Z" user="DemoLogin" uid="1709753" lat="59.9114834" lon="30.3818353"/>
 <node id="6023051757" visible="true" version="1" changeset="63988256" timestamp="2018-10-29T19:02:25Z" user="DemoLogin" uid="1709753" lat="59.9114569" lon="30.3817157"/>
 <node id="6023051758" visible="true" version="1" changeset="63988256" timestamp="2018-10-29T19:02:25Z" user="DemoLogin" uid="1709753" lat="59.9115207" lon="30.3816594"/>
 <node id="6023051759" visible="true" version="1" changeset="63988256" timestamp="2018-10-29T19:02:26Z" user="DemoLogin" uid="1709753" lat="59.9107306" lon="30.3812418"/>
 <node id="6023051760" visible="true" version="1" changeset="63988256" timestamp="2018-10-29T19:02:26Z" user="DemoLogin" uid="1709753" lat="59.9104337" lon="30.3814489"/>
 <node id="6023051761" visible="true" version="1" changeset="63988256" timestamp="2018-10-29T19:02:26Z" user="DemoLogin" uid="1709753" lat="59.9104765" lon="30.3816930"/>
 <node id="6023051762" visible="true" version="1" changeset="63988256" timestamp="2018-10-29T19:02:26Z" user="DemoLogin" uid="1709753" lat="59.9106606" lon="30.3815645"/>
 <node id="6023051763" visible="true" version="1" changeset="63988256" timestamp="2018-10-29T19:02:26Z" user="DemoLogin" uid="1709753" lat="59.9106437" lon="30.3814682"/>
 <node id="6023051764" visible="true" version="1" changeset="63988256" timestamp="2018-10-29T19:02:26Z" user="DemoLogin" uid="1709753" lat="59.9107565" lon="30.3813895"/>
 <node id="6023051769" visible="true" version="2" changeset="164536030" timestamp="2025-04-05T05:17:53Z" user="asdfwqer" uid="20626553" lat="59.9115892" lon="30.3750791"/>
 <node id="6023051770" visible="true" version="1" changeset="63988256" timestamp="2018-10-29T19:02:26Z" user="DemoLogin" uid="1709753" lat="59.9097095" lon="30.3768946"/>
 <node id="6023051771" visible="true" version="1" changeset="63988256" timestamp="2018-10-29T19:02:26Z" user="DemoLogin" uid="1709753" lat="59.9098130" lon="30.3773683"/>
 <node id="6023051772" visible="true" version="1" changeset="63988256" timestamp="2018-10-29T19:02:26Z" user="DemoLogin" uid="1709753" lat="59.9103937" lon="30.3778477"/>
 <node id="6023051773" visible="true" version="1" changeset="63988256" timestamp="2018-10-29T19:02:26Z" user="DemoLogin" uid="1709753" lat="59.9106072" lon="30.3785189"/>
 <node id="6023051774" visible="true" version="1" changeset="63988256" timestamp="2018-10-29T19:02:26Z" user="DemoLogin" uid="1709753" lat="59.9120320" lon="30.3867385"/>
 <node id="6023051775" visible="true" version="2" changeset="89815959" timestamp="2020-08-23T17:07:06Z" user="Sergey Astakhov" uid="143266" lat="59.9125760" lon="30.3898166"/>
 <node id="6023051776" visible="true" version="1" changeset="63988256" timestamp="2018-10-29T19:02:26Z" user="DemoLogin" uid="1709753" lat="59.9131242" lon="30.3896688"/>
 <node id="6023051777" visible="true" version="1" changeset="63988256" timestamp="2018-10-29T19:02:26Z" user="DemoLogin" uid="1709753" lat="59.9133280" lon="30.3899756"/>
 <node id="6023051778" visible="true" version="2" changeset="113956960" timestamp="2021-11-18T18:35:12Z" user="mini-me" uid="3846961" lat="59.9136578" lon="30.3897267"/>
 <node id="6023051779" visible="true" version="3" changeset="173663888" timestamp="2025-10-23T09:28:52Z" user="Константин Гам" uid="392109" lat="59.9118947" lon="30.3775136"/>
 <node id="6023051780" visible="true" version="1" changeset="63988256" timestamp="2018-10-29T19:02:26Z" user="DemoLogin" uid="1709753" lat="59.9110375" lon="30.3812794"/>
 <node id="6023051782" visible="true" version="1" changeset="63988256" timestamp="2018-10-29T19:02:26Z" user="DemoLogin" uid="1709753" lat="59.9101139" lon="30.3794938"/>
 <node id="6023051783" visible="true" version="1" changeset="63988256" timestamp="2018-10-29T19:02:26Z" user="DemoLogin" uid="1709753" lat="59.9106763" lon="30.3790770"/>
 <node id="6023051784" visible="true" version="1" changeset="63988256" timestamp="2018-10-29T19:02:26Z" user="DemoLogin" uid="1709753" lat="59.9107125" lon="30.3831885"/>
 <node id="6023052186" visible="true" version="1" changeset="63988256" timestamp="2018-10-29T19:02:26Z" user="DemoLogin" uid="1709753" lat="59.9124796" lon="30.3899245"/>
 <node id="6023052187" visible="true" version="1" changeset="63988256" timestamp="2018-10-29T19:02:26Z" user="DemoLogin" uid="1709753" lat="59.9125209" lon="30.3896878"/>
 <node id="6023052188" visible="true" version="1" changeset="63988256" timestamp="2018-10-29T19:02:26Z" user="DemoLogin" uid="1709753" lat="59.9125132" lon="30.3896518"/>
 <node id="6023052189" visible="true" version="2" changeset="113913885" timestamp="2021-11-17T19:47:42Z" user="mini-me" uid="3846961" lat="59.9094698" lon="30.3804782"/>
 <node id="6023052190" visible="true" version="2" changeset="113913885" timestamp="2021-11-17T19:47:42Z" user="mini-me" uid="3846961" lat="59.9090726" lon="30.3807538"/>
 <node id="6023052193" visible="true" version="2" changeset="113913885" timestamp="2021-11-17T19:47:42Z" user="mini-me" uid="3846961" lat="59.9087187" lon="30.3808255"/>
 <node id="6023052196" visible="true" version="2" changeset="113913885" timestamp="2021-11-17T19:47:42Z" user="mini-me" uid="3846961" lat="59.9099452" lon="30.3850728"/>
 <node id="6023052197" visible="true" version="2" changeset="113913885" timestamp="2021-11-17T19:47:42Z" user="mini-me" uid="3846961" lat="59.9103687" lon="30.3847292"/>
 <node id="6023052198" visible="true" version="1" changeset="63988256" timestamp="2018-10-29T19:02:26Z" user="DemoLogin" uid="1709753" lat="59.9100490" lon="30.3831018"/>
 <node id="6023052199" visible="true" version="1" changeset="63988256" timestamp="2018-10-29T19:02:26Z" user="DemoLogin" uid="1709753" lat="59.9098309" lon="30.3823130"/>
 <node id="6023052201" visible="true" version="2" changeset="113913885" timestamp="2021-11-17T19:47:42Z" user="mini-me" uid="3846961" lat="59.9096140" lon="30.3850999"/>
 <node id="6023052203" visible="true" version="2" changeset="113913885" timestamp="2021-11-17T19:47:42Z" user="mini-me" uid="3846961" lat="59.9091523" lon="30.3832738"/>
 <node id="6023052204" visible="true" version="2" changeset="113913885" timestamp="2021-11-17T19:47:42Z" user="mini-me" uid="3846961" lat="59.9095944" lon="30.3850214"/>
 <node id="7434196698" visible="true" version="4" changeset="164536030" timestamp="2025-04-05T05:17:53Z" user="asdfwqer" uid="20626553" lat="59.9110835" lon="30.3754954">
  <tag k="barrier" v="gate"/>
 </node>
 <node id="7837701252" visible="true" version="1" changeset="89815959" timestamp="2020-08-23T17:07:06Z" user="Sergey Astakhov" uid="143266" lat="59.9132390" lon="30.3884125">
  <tag k="railway" v="switch"/>
 </node>
 <node id="7969927392" visible="true" version="2" changeset="164536030" timestamp="2025-04-05T05:17:53Z" user="asdfwqer" uid="20626553" lat="59.9110610" lon="30.3754994"/>
 <node id="7969927393" visible="true" version="2" changeset="164536030" timestamp="2025-04-05T05:17:53Z" user="asdfwqer" uid="20626553" lat="59.9110185" lon="30.3755322"/>
 <node id="7972923964" visible="true" version="1" changeset="91928566" timestamp="2020-10-04T11:04:00Z" user="mini-me" uid="3846961" lat="59.9122616" lon="30.3899766"/>
 <node id="7972923965" visible="true" version="1" changeset="91928566" timestamp="2020-10-04T11:04:00Z" user="mini-me" uid="3846961" lat="59.9122189" lon="30.3899256"/>
 <node id="7972923969" visible="true" version="2" changeset="113905011" timestamp="2021-11-17T16:17:17Z" user="mini-me" uid="3846961" lat="59.9115183" lon="30.3885217">
  <tag k="barrier" v="gate"/>
 </node>
 <node id="7972923975" visible="true" version="2" changeset="113905011" timestamp="2021-11-17T16:17:17Z" user="mini-me" uid="3846961" lat="59.9121924" lon="30.3898971">
  <tag k="barrier" v="gate"/>
 </node>
 <node id="7972990402" visible="true" version="1" changeset="91928887" timestamp="2020-10-04T11:16:02Z" user="mini-me" uid="3846961" lat="59.9111386" lon="30.3877295"/>
 <node id="8032696368" visible="true" version="2" changeset="173663888" timestamp="2025-10-23T09:28:52Z" user="Константин Гам" uid="392109" lat="59.9125801" lon="30.3792546"/>
 <node id="8032696369" visible="true" version="1" changeset="92842378" timestamp="2020-10-21T15:35:32Z" user="Sergey Astakhov" uid="143266" lat="59.9123960" lon="30.3779818"/>
 <node id="8032696371" visible="true" version="1" changeset="92842378" timestamp="2020-10-21T15:35:32Z" user="Sergey Astakhov" uid="143266" lat="59.9121741" lon="30.3767051"/>
 <node id="8032696372" visible="true" version="2" changeset="113956960" timestamp="2021-11-18T18:35:12Z" user="mini-me" uid="3846961" lat="59.9122343" lon="30.3772885"/>
 <node id="8032696373" visible="true" version="1" changeset="92842378" timestamp="2020-10-21T15:35:32Z" user="Sergey Astakhov" uid="143266" lat="59.9120571" lon="30.3774165"/>
 <node id="8032696374" visible="true" version="1" changeset="92842378" timestamp="2020-10-21T15:35:32Z" user="Sergey Astakhov" uid="143266" lat="59.9123973" lon="30.3793672"/>
 <node id="8032696375" visible="true" version="2" changeset="113956960" timestamp="2021-11-18T18:35:12Z" user="mini-me" uid="3846961" lat="59.9128807" lon="30.3822988"/>
 <node id="8032696376" visible="true" version="2" changeset="113956960" timestamp="2021-11-18T18:35:12Z" user="mini-me" uid="3846961" lat="59.9128189" lon="30.3820132"/>
 <node id="8032696377" visible="true" version="1" changeset="92842378" timestamp="2020-10-21T15:35:32Z" user="Sergey Astakhov" uid="143266" lat="59.9127019" lon="30.3815290"/>
 <node id="8032696378" visible="true" version="1" changeset="92842378" timestamp="2020-10-21T15:35:32Z" user="Sergey Astakhov" uid="143266" lat="59.9125829" lon="30.3809300">
  <tag k="railway" v="switch"/>
 </node>
 <node id="8032696379" visible="true" version="1" changeset="92842378" timestamp="2020-10-21T15:35:32Z" user="Sergey Astakhov" uid="143266" lat="59.9125476" lon="30.3807700"/>
 <node id="8032696380" visible="true" version="1" changeset="92842378" timestamp="2020-10-21T15:35:32Z" user="Sergey Astakhov" uid="143266" lat="59.9127086" lon="30.3821553"/>
 <node id="8032696381" visible="true" version="1" changeset="92842378" timestamp="2020-10-21T15:35:32Z" user="Sergey Astakhov" uid="143266" lat="59.9126622" lon="30.3818361"/>
 <node id="8032696382" visible="true" version="1" changeset="92842378" timestamp="2020-10-21T15:35:32Z" user="Sergey Astakhov" uid="143266" lat="59.9126299" lon="30.3815719"/>
 <node id="8032696383" visible="true" version="1" changeset="92842378" timestamp="2020-10-21T15:35:32Z" user="Sergey Astakhov" uid="143266" lat="59.9126017" lon="30.3812689"/>
 <node id="8032696384" visible="true" version="1" changeset="92842378" timestamp="2020-10-21T15:35:32Z" user="Sergey Astakhov" uid="143266" lat="59.9125735" lon="30.3809845"/>
 <node id="8032696385" visible="true" version="1" changeset="92842378" timestamp="2020-10-21T15:35:32Z" user="Sergey Astakhov" uid="143266" lat="59.9123973" lon="30.3798761"/>
 <node id="8032696386" visible="true" version="1" changeset="92842378" timestamp="2020-10-21T15:35:32Z" user="Sergey Astakhov" uid="143266" lat="59.9123264" lon="30.3794664"/>
 <node id="8032696387" visible="true" version="1" changeset="92842378" timestamp="2020-10-21T15:35:32Z" user="Sergey Astakhov" uid="143266" lat="59.9122907" lon="30.3791834"/>
 <node id="8032696388" visible="true" version="1" changeset="92842378" timestamp="2020-10-21T15:35:32Z" user="Sergey Astakhov" uid="143266" lat="59.9122575" lon="30.3788710"/>
 <node id="8032696389" visible="true" version="1" changeset="92842378" timestamp="2020-10-21T15:35:32Z" user="Sergey Astakhov" uid="143266" lat="59.9122225" lon="30.3785853"/>
 <node id="8032696390" visible="true" version="1" changeset="92842378" timestamp="2020-10-21T15:35:32Z" user="Sergey Astakhov" uid="143266" lat="59.9121805" lon="30.3783245"/>
 <node id="8032696391" visible="true" version="1" changeset="92842378" timestamp="2020-10-21T15:35:32Z" user="Sergey Astakhov" uid="143266" lat="59.9120685" lon="30.3777015"/>
 <node id="8032696392" visible="true" version="1" changeset="92842378" timestamp="2020-10-21T15:35:32Z" user="Sergey Astakhov" uid="143266" lat="59.9119868" lon="30.3771121"/>
 <node id="8032696393" visible="true" version="1" changeset="92842378" timestamp="2020-10-21T15:35:32Z" user="Sergey Astakhov" uid="143266" lat="59.9119583" lon="30.3767051"/>
 <node id="8032696397" visible="true" version="1" changeset="92842378" timestamp="2020-10-21T15:35:32Z" user="Sergey Astakhov" uid="143266" lat="59.9118352" lon="30.3788535"/>
 <node id="8032696398" visible="true" version="1" changeset="92842378" timestamp="2020-10-21T15:35:32Z" user="Sergey Astakhov" uid="143266" lat="59.9118329" lon="30.3785726"/>
 <node id="8032696399" visible="true" version="1" changeset="92842378" timestamp="2020-10-21T15:35:32Z" user="Sergey Astakhov" uid="143266" lat="59.9118554" lon="30.3779825"/>
 <node id="8032696400" visible="true" version="1" changeset="92842378" timestamp="2020-10-21T15:35:32Z" user="Sergey Astakhov" uid="143266" lat="59.9119045" lon="30.3772355"/>
 <node id="8032696401" visible="true" version="1" changeset="92842378" timestamp="2020-10-21T15:35:32Z" user="Sergey Astakhov" uid="143266" lat="59.9119193" lon="30.3769632"/>
 <node id="8032696402" visible="true" version="1" changeset="92842378" timestamp="2020-10-21T15:35:32Z" user="Sergey Astakhov" uid="143266" lat="59.9119408" lon="30.3762753"/>
 <node id="8032696403" visible="true" version="1" changeset="92842378" timestamp="2020-10-21T15:35:32Z" user="Sergey Astakhov" uid="143266" lat="59.9119381" lon="30.3764831"/>
 <node id="8032696404" visible="true" version="1" changeset="92842378" timestamp="2020-10-21T15:35:32Z" user="Sergey Astakhov" uid="143266" lat="59.9119522" lon="30.3765079"/>
 <node id="8032696405" visible="true" version="1" changeset="92842378" timestamp="2020-10-21T15:35:32Z" user="Sergey Astakhov" uid="143266" lat="59.9119317" lon="30.3757965"/>
 <node id="8032696406" visible="true" version="1" changeset="92842378" timestamp="2020-10-21T15:35:32Z" user="Sergey Astakhov" uid="143266" lat="59.9119001" lon="30.3753204"/>
 <node id="8032696407" visible="true" version="1" changeset="92842378" timestamp="2020-10-21T15:35:32Z" user="Sergey Astakhov" uid="143266" lat="59.9118393" lon="30.3748081"/>
 <node id="8032696408" visible="true" version="1" changeset="92842378" timestamp="2020-10-21T15:35:32Z" user="Sergey Astakhov" uid="143266" lat="59.9118682" lon="30.3750347"/>
 <node id="9260893440" visible="true" version="2" changeset="152867489" timestamp="2024-06-18T21:47:37Z" user="Константин Гам" uid="392109" lat="59.9108414" lon="30.3852356"/>
 <node id="9260893443" visible="true" version="1" changeset="113905011" timestamp="2021-11-17T16:17:17Z" user="mini-me" uid="3846961" lat="59.9113437" lon="30.3850405"/>
 <node id="9260893445" visible="true" version="1" changeset="113905011" timestamp="2021-11-17T16:17:17Z" user="mini-me" uid="3846961" lat="59.9119370" lon="30.3883803"/>
 <node id="9260893447" visible="true" version="1" changeset="113905011" timestamp="2021-11-17T16:17:17Z" user="mini-me" uid="3846961" lat="59.9116425" lon="30.3867150"/>
 <node id="9260893448" visible="true" version="1" changeset="113905011" timestamp="2021-11-17T16:17:17Z" user="mini-me" uid="3846961" lat="59.9107272" lon="30.3815854"/>
 <node id="9260893449" visible="true" version="1" changeset="113905011" timestamp="2021-11-17T16:17:17Z" user="mini-me" uid="3846961" lat="59.9120248" lon="30.3888783"/>
 <node id="9260893458" visible="true" version="1" changeset="113905011" timestamp="2021-11-17T16:17:17Z" user="mini-me" uid="3846961" lat="59.9117021" lon="30.3870490"/>
 <node id="9260893460" visible="true" version="1" changeset="113905011" timestamp="2021-11-17T16:17:17Z" user="mini-me" uid="3846961" lat="59.9111804" lon="30.3873212">
  <tag k="barrier" v="gate"/>
 </node>
 <node id="9260893461" visible="true" version="1" changeset="113905011" timestamp="2021-11-17T16:17:17Z" user="mini-me" uid="3846961" lat="59.9111110" lon="30.3873266"/>
 <node id="9260893475" visible="true" version="1" changeset="113905011" timestamp="2021-11-17T16:17:17Z" user="mini-me" uid="3846961" lat="59.9120859" lon="30.3897977"/>
 <node id="9260893476" visible="true" version="1" changeset="113905011" timestamp="2021-11-17T16:17:17Z" user="mini-me" uid="3846961" lat="59.9122861" lon="30.3899806"/>
 <node id="9260893477" visible="true" version="1" changeset="113905011" timestamp="2021-11-17T16:17:17Z" user="mini-me" uid="3846961" lat="59.9116774" lon="30.3893425"/>
 <node id="9260893478" visible="true" version="1" changeset="113905011" timestamp="2021-11-17T16:17:17Z" user="mini-me" uid="3846961" lat="59.9116346" lon="30.3892286"/>
 <node id="9260893483" visible="true" version="1" changeset="113905011" timestamp="2021-11-17T16:17:17Z" user="mini-me" uid="3846961" lat="59.9136889" lon="30.3904821"/>
 <node id="9260893484" visible="true" version="1" changeset="113905011" timestamp="2021-11-17T16:17:17Z" user="mini-me" uid="3846961" lat="59.9135765" lon="30.3902095"/>
 <node id="9260893485" visible="true" version="1" changeset="113905011" timestamp="2021-11-17T16:17:17Z" user="mini-me" uid="3846961" lat="59.9138619" lon="30.3907184"/>
 <node id="9261487279" visible="true" version="2" changeset="131121458" timestamp="2023-01-10T20:41:05Z" user="Константин Гам" uid="392109" lat="59.9098704" lon="30.3823647"/>
 <node id="9261487280" visible="true" version="2" changeset="131121458" timestamp="2023-01-10T20:41:05Z" user="Константин Гам" uid="392109" lat="59.9106437" lon="30.3841893"/>
 <node id="9261487281" visible="true" version="1" changeset="113913885" timestamp="2021-11-17T19:47:42Z" user="mini-me" uid="3846961" lat="59.9105938" lon="30.3840441"/>
 <node id="9261510848" visible="true" version="1" changeset="113913885" timestamp="2021-11-17T19:47:42Z" user="mini-me" uid="3846961" lat="59.9102977" lon="30.3835748"/>
 <node id="9261510854" visible="true" version="1" changeset="113913885" timestamp="2021-11-17T19:47:42Z" user="mini-me" uid="3846961" lat="59.9110070" lon="30.3862576"/>
 <node id="9261510856" visible="true" version="1" changeset="113913885" timestamp="2021-11-17T19:47:42Z" user="mini-me" uid="3846961" lat="59.9098941" lon="30.3848333"/>
 <node id="9264674617" visible="true" version="1" changeset="113956960" timestamp="2021-11-18T18:35:12Z" user="mini-me" uid="3846961" lat="59.9137984" lon="30.3879288"/>
 <node id="9264674618" visible="true" version="1" changeset="113956960" timestamp="2021-11-18T18:35:12Z" user="mini-me" uid="3846961" lat="59.9136142" lon="30.3871885"/>
 <node id="9264674619" visible="true" version="1" changeset="113956960" timestamp="2021-11-18T18:35:12Z" user="mini-me" uid="3846961" lat="59.9135698" lon="30.3869846"/>
 <node id="9264674620" visible="true" version="1" changeset="113956960" timestamp="2021-11-18T18:35:12Z" user="mini-me" uid="3846961" lat="59.9128564" lon="30.3829944">
  <tag k="access" v="private"/>
  <tag k="barrier" v="gate"/>
 </node>
 <node id="9264674625" visible="true" version="1" changeset="113956960" timestamp="2021-11-18T18:35:12Z" user="mini-me" uid="3846961" lat="59.9133605" lon="30.3853468"/>
 <node id="9264674626" visible="true" version="1" changeset="113956960" timestamp="2021-11-18T18:35:12Z" user="mini-me" uid="3846961" lat="59.9134213" lon="30.3853049"/>
 <node id="9264674645" visible="true" version="1" changeset="113956960" timestamp="2021-11-18T18:35:12Z" user="mini-me" uid="3846961" lat="59.9130023" lon="30.3829042">
  <tag k="access" v="private"/>
  <tag k="barrier" v="gate"/>
 </node>
 <node id="9264674646" visible="true" version="1" changeset="113956960" timestamp="2021-11-18T18:35:12Z" user="mini-me" uid="3846961" lat="59.9129268" lon="30.3825566">
  <tag k="railway" v="switch"/>
 </node>
 <node id="9264674647" visible="true" version="1" changeset="113956960" timestamp="2021-11-18T18:35:12Z" user="mini-me" uid="3846961" lat="59.9129903" lon="30.3829116">
  <tag k="access" v="private"/>
  <tag k="barrier" v="gate"/>
 </node>
 <node id="9264674651" visible="true" version="1" changeset="113956960" timestamp="2021-11-18T18:35:12Z" user="mini-me" uid="3846961" lat="59.9124856" lon="30.3832280"/>
 <node id="9264674652" visible="true" version="1" changeset="113956960" timestamp="2021-11-18T18:35:12Z" user="mini-me" uid="3846961" lat="59.9129019" lon="30.3861955"/>
 <node id="9264674653" visible="true" version="1" changeset="113956960" timestamp="2021-11-18T18:35:12Z" user="mini-me" uid="3846961" lat="59.9130173" lon="30.3868960"/>
 <node id="9264674654" visible="true" version="1" changeset="113956960" timestamp="2021-11-18T18:35:12Z" user="mini-me" uid="3846961" lat="59.9131121" lon="30.3876984"/>
 <node id="9264674655" visible="true" version="1" changeset="113956960" timestamp="2021-11-18T18:35:12Z" user="mini-me" uid="3846961" lat="59.9129375" lon="30.3829442">
  <tag k="access" v="private"/>
  <tag k="barrier" v="gate"/>
 </node>
 <node id="9264674656" visible="true" version="1" changeset="113956960" timestamp="2021-11-18T18:35:12Z" user="mini-me" uid="3846961" lat="59.9132860" lon="30.3860254"/>
 <node id="9264674657" visible="true" version="1" changeset="113956960" timestamp="2021-11-18T18:35:12Z" user="mini-me" uid="3846961" lat="59.9133061" lon="30.3860111"/>
 <node id="9264674658" visible="true" version="1" changeset="113956960" timestamp="2021-11-18T18:35:12Z" user="mini-me" uid="3846961" lat="59.9134090" lon="30.3861669"/>
 <node id="9264674659" visible="true" version="1" changeset="113956960" timestamp="2021-11-18T18:35:12Z" user="mini-me" uid="3846961" lat="59.9133222" lon="30.3862285"/>
 <node id="9264674712" visible="true" version="1" changeset="113956960" timestamp="2021-11-18T18:35:12Z" user="mini-me" uid="3846961" lat="59.9124926" lon="30.3832015"/>
 <node id="9264674713" visible="true" version="1" changeset="113956960" timestamp="2021-11-18T18:35:12Z" user="mini-me" uid="3846961" lat="59.9136018" lon="30.3894811"/>
 <node id="9264674714" visible="true" version="1" changeset="113956960" timestamp="2021-11-18T18:35:12Z" user="mini-me" uid="3846961" lat="59.9142039" lon="30.3902309"/>
 <node id="9264674715" visible="true" version="1" changeset="113956960" timestamp="2021-11-18T18:35:12Z" user="mini-me" uid="3846961" lat="59.9140673" lon="30.3903387"/>
 <node id="9264674716" visible="true" version="1" changeset="113956960" timestamp="2021-11-18T18:35:12Z" user="mini-me" uid="3846961" lat="59.9139443" lon="30.3903991"/>
 <node id="9264674717" visible="true" version="1" changeset="113956960" timestamp="2021-11-18T18:35:12Z" user="mini-me" uid="3846961" lat="59.9137809" lon="30.3901805"/>
 <node id="9264674718" visible="true" version="1" changeset="113956960" timestamp="2021-11-18T18:35:12Z" user="mini-me" uid="3846961" lat="59.9136102" lon="30.3894684"/>
 <node id="9264674719" visible="true" version="1" changeset="113956960" timestamp="2021-11-18T18:35:12Z" user="mini-me" uid="3846961" lat="59.9125062" lon="30.3832108"/>
 <node id="9264674720" visible="true" version="1" changeset="113956960" timestamp="2021-11-18T18:35:12Z" user="mini-me" uid="3846961" lat="59.9131837" lon="30.3827920"/>
 <node id="9264674722" visible="true" version="1" changeset="113956960" timestamp="2021-11-18T18:35:12Z" user="mini-me" uid="3846961" lat="59.9129338" lon="30.3813761"/>
 <node id="9264674723" visible="true" version="1" changeset="113956960" timestamp="2021-11-18T18:35:12Z" user="mini-me" uid="3846961" lat="59.9141648" lon="30.3883512"/>
 <node id="9264674724" visible="true" version="1" changeset="113956960" timestamp="2021-11-18T18:35:12Z" user="mini-me" uid="3846961" lat="59.9141897" lon="30.3885390"/>
 <node id="9264674725" visible="true" version="1" changeset="113956960" timestamp="2021-11-18T18:35:12Z" user="mini-me" uid="3846961" lat="59.9144478" lon="30.3900598"/>
 <node id="9264674726" visible="true" version="1" changeset="113956960" timestamp="2021-11-18T18:35:12Z" user="mini-me" uid="3846961" lat="59.9143877" lon="30.3901057"/>
 <node id="10537770198" visible="true" version="1" changeset="131121458" timestamp="2023-01-10T20:41:05Z" user="Константин Гам" uid="392109" lat="59.9106795" lon="30.3843118"/>
 <node id="10537770199" visible="true" version="1" changeset="131121458" timestamp="2023-01-10T20:41:05Z" user="Константин Гам" uid="392109" lat="59.9100279" lon="30.3827763"/>
 <node id="11663776086" visible="true" version="1" changeset="147909483" timestamp="2024-02-25T21:31:14Z" user="Константин Гам" uid="392109" lat="59.9089921" lon="30.3775194"/>
 <node id="11990985877" visible="true" version="1" changeset="152867489" timestamp="2024-06-18T21:47:37Z" user="Константин Гам" uid="392109" lat="59.9092142" lon="30.3788272"/>
 <node id="11990985879" visible="true" version="1" changeset="152867489" timestamp="2024-06-18T21:47:37Z" user="Константин Гам" uid="392109" lat="59.9092342" lon="30.3789414"/>
 <node id="11990985892" visible="true" version="1" changeset="152867489" timestamp="2024-06-18T21:47:37Z" user="Константин Гам" uid="392109" lat="59.9108512" lon="30.3852924"/>
 <node id="11990985894" visible="true" version="2" changeset="172170120" timestamp="2025-09-19T15:45:30Z" user="Константин Гам" uid="392109" lat="59.9106761" lon="30.3840100"/>
 <node id="11990985895" visible="true" version="1" changeset="152867489" timestamp="2024-06-18T21:47:37Z" user="Константин Гам" uid="392109" lat="59.9108993" lon="30.3850105"/>
 <node id="11990985896" visible="true" version="2" changeset="172170120" timestamp="2025-09-19T15:45:30Z" user="Константин Гам" uid="392109" lat="59.9094365" lon="30.3798318">
  <tag k="barrier" v="gate"/>
 </node>
 <node id="11990985897" visible="true" version="1" changeset="152867489" timestamp="2024-06-18T21:47:37Z" user="Константин Гам" uid="392109" lat="59.9093949" lon="30.3798587"/>
 <node id="11990985899" visible="true" version="1" changeset="152867489" timestamp="2024-06-18T21:47:37Z" user="Константин Гам" uid="392109" lat="59.9093756" lon="30.3797485"/>
 <node id="11990985901" visible="true" version="1" changeset="152867489" timestamp="2024-06-18T21:47:37Z" user="Константин Гам" uid="392109" lat="59.9095984" lon="30.3810198"/>
 <node id="11990985904" visible="true" version="1" changeset="152867489" timestamp="2024-06-18T21:47:37Z" user="Константин Гам" uid="392109" lat="59.9091035" lon="30.3781959"/>
 <node id="11990985908" visible="true" version="2" changeset="173663888" timestamp="2025-10-23T09:28:52Z" user="Константин Гам" uid="392109" lat="59.9122760" lon="30.3753438"/>
 <node id="11990985911" visible="true" version="2" changeset="164536030" timestamp="2025-04-05T05:17:53Z" user="asdfwqer" uid="20626553" lat="59.9109998" lon="30.3755634">
  <tag k="barrier" v="gate"/>
 </node>
 <node id="12462001792" visible="true" version="1" changeset="160774098" timestamp="2024-12-30T02:23:36Z" user="Константин Гам" uid="392109" lat="59.9089446" lon="30.3771266"/>
 <node id="12730340339" visible="true" version="1" changeset="164536030" timestamp="2025-04-05T05:17:53Z" user="asdfwqer" uid="20626553" lat="59.9110212" lon="30.3755460"/>
 <node id="12730340340" visible="true" version="1" changeset="164536030" timestamp="2025-04-05T05:17:53Z" user="asdfwqer" uid="20626553" lat="59.9110634" lon="30.3755118"/>
 <node id="12730340352" visible="true" version="1" changeset="164536030" timestamp="2025-04-05T05:17:53Z" user="asdfwqer" uid="20626553" lat="59.9118704" lon="30.3765674"/>
 <node id="12730340353" visible="true" version="1" changeset="164536030" timestamp="2025-04-05T05:17:53Z" user="asdfwqer" uid="20626553" lat="59.9115820" lon="30.3751276"/>
 <node id="12730340354" visible="true" version="1" changeset="164536030" timestamp="2025-04-05T05:17:53Z" user="asdfwqer" uid="20626553" lat="59.9114224" lon="30.3752745"/>
 <node id="12730340355" visible="true" version="1" changeset="164536030" timestamp="2025-04-05T05:17:53Z" user="asdfwqer" uid="20626553" lat="59.9115405" lon="30.3759017"/>
 <node id="12730340356" visible="true" version="1" changeset="164536030" timestamp="2025-04-05T05:17:53Z" user="asdfwqer" uid="20626553" lat="59.9115252" lon="30.3759874"/>
 <node id="12730340357" visible="true" version="1" changeset="164536030" timestamp="2025-04-05T05:17:53Z" user="asdfwqer" uid="20626553" lat="59.9115589" lon="30.3761954"/>
 <node id="12730340358" visible="true" version="1" changeset="164536030" timestamp="2025-04-05T05:17:53Z" user="asdfwqer" uid="20626553" lat="59.9112736" lon="30.3764280"/>
 <node id="12730340359" visible="true" version="1" changeset="164536030" timestamp="2025-04-05T05:17:53Z" user="asdfwqer" uid="20626553" lat="59.9112337" lon="30.3765228"/>
 <node id="12730340360" visible="true" version="1" changeset="164536030" timestamp="2025-04-05T05:17:53Z" user="asdfwqer" uid="20626553" lat="59.9112261" lon="30.3766850"/>
 <node id="12730340361" visible="true" version="1" changeset="164536030" timestamp="2025-04-05T05:17:53Z" user="asdfwqer" uid="20626553" lat="59.9115099" lon="30.3772174"/>
 <node id="12730340362" visible="true" version="1" changeset="164536030" timestamp="2025-04-05T05:17:53Z" user="asdfwqer" uid="20626553" lat="59.9117200" lon="30.3783618"/>
 <node id="12730340363" visible="true" version="1" changeset="164536030" timestamp="2025-04-05T05:17:53Z" user="asdfwqer" uid="20626553" lat="59.9117691" lon="30.3784383"/>
 <node id="12730340364" visible="true" version="1" changeset="164536030" timestamp="2025-04-05T05:17:53Z" user="asdfwqer" uid="20626553" lat="59.9118090" lon="30.3784046"/>
 <node id="12730340365" visible="true" version="1" changeset="164536030" timestamp="2025-04-05T05:17:53Z" user="asdfwqer" uid="20626553" lat="59.9118167" lon="30.3780956"/>
 <node id="12730340366" visible="true" version="1" changeset="164536030" timestamp="2025-04-05T05:17:53Z" user="asdfwqer" uid="20626553" lat="59.9118841" lon="30.3771409"/>
 <node id="12730340367" visible="true" version="1" changeset="164536030" timestamp="2025-04-05T05:17:53Z" user="asdfwqer" uid="20626553" lat="59.9118535" lon="30.3765718"/>
 <node id="13155830382" visible="true" version="1" changeset="172170120" timestamp="2025-09-19T15:45:30Z" user="Константин Гам" uid="392109" lat="59.9106591" lon="30.3842421"/>
 <node id="13155830383" visible="true" version="1" changeset="172170120" timestamp="2025-09-19T15:45:30Z" user="Константин Гам" uid="392109" lat="59.9107037" lon="30.3841174"/>
 <node id="13155830384" visible="true" version="1" changeset="172170120" timestamp="2025-09-19T15:45:30Z" user="Константин Гам" uid="392109" lat="59.9107013" lon="30.3840037">
  <tag k="barrier" v="gate"/>
 </node>
 <node id="13155830385" visible="true" version="1" changeset="172170120" timestamp="2025-09-19T15:45:30Z" user="Константин Гам" uid="392109" lat="59.9106344" lon="30.3836614"/>
 <node id="13155830386" visible="true" version="1" changeset="172170120" timestamp="2025-09-19T15:45:30Z" user="Константин Гам" uid="392109" lat="59.9106082" lon="30.3835675"/>
 <node id="13155830387" visible="true" version="1" changeset="172170120" timestamp="2025-09-19T15:45:30Z" user="Константин Гам" uid="392109" lat="59.9105356" lon="30.3834307"/>
 <node id="13155830392" visible="true" version="1" changeset="172170120" timestamp="2025-09-19T15:45:30Z" user="Константин Гам" uid="392109" lat="59.9099256" lon="30.3825089"/>
 <node id="13155830393" visible="true" version="1" changeset="172170120" timestamp="2025-09-19T15:45:30Z" user="Константин Гам" uid="392109" lat="59.9099559" lon="30.3823664">
  <tag k="barrier" v="gate"/>
 </node>
 <node id="13155830399" visible="true" version="1" changeset="172170120" timestamp="2025-09-19T15:45:30Z" user="Константин Гам" uid="392109" lat="59.9091579" lon="30.3781629"/>
 <node id="13155830400" visible="true" version="1" changeset="172170120" timestamp="2025-09-19T15:45:30Z" user="Константин Гам" uid="392109" lat="59.9099177" lon="30.3823283"/>
 <node id="13251498876" visible="true" version="1" changeset="173663888" timestamp="2025-10-23T09:28:52Z" user="Константин Гам" uid="392109" lat="59.9126060" lon="30.3791810"/>
 <node id="13251498877" visible="true" version="1" changeset="173663888" timestamp="2025-10-23T09:28:52Z" user="Константин Гам" uid="392109" lat="59.9119808" lon="30.3755949"/>
 <node id="13251498878" visible="true" version="1" changeset="173663888" timestamp="2025-10-23T09:28:52Z" user="Константин Гам" uid="392109" lat="59.9129009" lon="30.3810959"/>
 <node id="13251498879" visible="true" version="1" changeset="173663888" timestamp="2025-10-23T09:28:52Z" user="Константин Гам" uid="392109" lat="59.9129298" lon="30.3813735"/>
 <node id="13251498880" visible="true" version="1" changeset="173663888" timestamp="2025-10-23T09:28:52Z" user="Константин Гам" uid="392109" lat="59.9131839" lon="30.3827736"/>
 <node id="13251498881" visible="true" version="1" changeset="173663888" timestamp="2025-10-23T09:28:52Z" user="Константин Гам" uid="392109" lat="59.9131127" lon="30.3762518">
  <tag k="barrier" v="lift_gate"/>
 </node>
 <node id="13251498882" visible="true" version="1" changeset="173663888" timestamp="2025-10-23T09:28:52Z" user="Константин Гам" uid="392109" lat="59.9130804" lon="30.3764476"/>
 <node id="13251498883" visible="true" version="1" changeset="173663888" timestamp="2025-10-23T09:28:52Z" user="Константин Гам" uid="392109" lat="59.9130017" lon="30.3766380"/>
 <node id="13251498884" visible="true" version="1" changeset="173663888" timestamp="2025-10-23T09:28:52Z" user="Константин Гам" uid="392109" lat="59.9128209" lon="30.3772375"/>
 <node id="13251498885" visible="true" version="1" changeset="173663888" timestamp="2025-10-23T09:28:52Z" user="Константин Гам" uid="392109" lat="59.9126851" lon="30.3779778"/>
 <node id="13251498886" visible="true" version="1" changeset="173663888" timestamp="2025-10-23T09:28:52Z" user="Константин Гам" uid="392109" lat="59.9126488" lon="30.3781199"/>
 <node id="13251498887" visible="true" version="1" changeset="173663888" timestamp="2025-10-23T09:28:52Z" user="Константин Гам" uid="392109" lat="59.9126138" lon="30.3782997"/>
 <node id="13251498888" visible="true" version="1" changeset="173663888" timestamp="2025-10-23T09:28:52Z" user="Константин Гам" uid="392109" lat="59.9126124" lon="30.3784847"/>
 <node id="13251498889" visible="true" version="1" changeset="173663888" timestamp="2025-10-23T09:28:52Z" user="Константин Гам" uid="392109" lat="59.9127173" lon="30.3790882"/>
 <node id="13251498890" visible="true" version="1" changeset="173663888" timestamp="2025-10-23T09:28:52Z" user="Константин Гам" uid="392109" lat="59.9127926" lon="30.3793618"/>
 <node id="13251498891" visible="true" version="1" changeset="173663888" timestamp="2025-10-23T09:28:52Z" user="Константин Гам" uid="392109" lat="59.9129441" lon="30.3803499">
  <tag k="barrier" v="gate"/>
 </node>
 <node id="13251498893" visible="true" version="1" changeset="173663888" timestamp="2025-10-23T09:28:52Z" user="Константин Гам" uid="392109" lat="59.9129365" lon="30.3803006"/>
 <node id="13251498894" visible="true" version="1" changeset="173663888" timestamp="2025-10-23T09:28:52Z" user="Константин Гам" uid="392109" lat="59.9128868" lon="30.3798446"/>
 <node id="13653304487" visible="true" version="1" changeset="179971445" timestamp="2026-03-16T20:57:12Z" user="Ozon OSM1" uid="21851289" lat="59.9104796" lon="30.3832599"/>
 <node id="13653304488" visible="true" version="1" changeset="179971445" timestamp="2026-03-16T20:57:12Z" user="Ozon OSM1" uid="21851289" lat="59.9103159" lon="30.3833794"/>
 <node id="13653304489" visible="true" version="1" changeset="179971445" timestamp="2026-03-16T20:57:12Z" user="Ozon OSM1" uid="21851289" lat="59.9103288" lon="30.3834498"/>
 <node id="13653304490" visible="true" version="1" changeset="179971445" timestamp="2026-03-16T20:57:12Z" user="Ozon OSM1" uid="21851289" lat="59.9105193" lon="30.3837485"/>
 <node id="13653304491" visible="true" version="1" changeset="179971445" timestamp="2026-03-16T20:57:12Z" user="Ozon OSM1" uid="21851289" lat="59.9105704" lon="30.3836187"/>
 <node id="13653304492" visible="true" version="1" changeset="179971445" timestamp="2026-03-16T20:57:12Z" user="Ozon OSM1" uid="21851289" lat="59.9104785" lon="30.3834745"/>
 <node id="13653304493" visible="true" version="1" changeset="179971445" timestamp="2026-03-16T20:57:12Z" user="Ozon OSM1" uid="21851289" lat="59.9104976" lon="30.3834261"/>
 <node id="13653304494" visible="true" version="1" changeset="179971445" timestamp="2026-03-16T20:57:12Z" user="Ozon OSM1" uid="21851289" lat="59.9104626" lon="30.3833713"/>
 <node id="13653304495" visible="true" version="1" changeset="179971445" timestamp="2026-03-16T20:57:12Z" user="Ozon OSM1" uid="21851289" lat="59.9104956" lon="30.3833471"/>
 <way id="33519351" visible="true" version="6" changeset="151741593" timestamp="2024-05-23T20:13:32Z" user="ComradeSukhov" uid="9059129">
  <nd ref="382224252"/>
  <nd ref="382224255"/>
  <nd ref="382224257"/>
  <nd ref="382224259"/>
  <nd ref="382224252"/>
  <tag k="addr:housenumber" v="24 к3 литО"/>
  <tag k="addr:street" v="набережная Обводного канала"/>
  <tag k="building" v="office"/>
  <tag k="building:levels" v="3"/>
  <tag k="roof:levels" v="1"/>
  <tag k="roof:shape" v="flat"/>
 </way>
 <way id="45106256" visible="true" version="8" changeset="113956960" timestamp="2021-11-18T18:35:12Z" user="mini-me" uid="3846961">
  <nd ref="571864587"/>
  <nd ref="571864589"/>
  <nd ref="571865077"/>
  <nd ref="571865735"/>
  <nd ref="571866295"/>
  <nd ref="571865085"/>
  <nd ref="571865087"/>
  <nd ref="9264674658"/>
  <nd ref="9264674659"/>
  <nd ref="9264674656"/>
  <nd ref="9264674657"/>
  <nd ref="571864594"/>
  <nd ref="571864587"/>
  <tag k="addr:housenumber" v="7 литЖ"/>
  <tag k="addr:street" v="Глиняная улица"/>
  <tag k="building" v="industrial"/>
 </way>
 <way id="55692258" visible="true" version="1" changeset="4448576" timestamp="2010-04-17T15:00:36Z" user="Batareikin" uid="127299">
  <nd ref="699788462"/>
  <nd ref="699788371"/>
  <nd ref="699788016"/>
  <nd ref="699788804"/>
  <nd ref="699788462"/>
  <tag k="building" v="yes"/>
 </way>
 <way id="55692259" visible="true" version="2" changeset="63988256" timestamp="2018-10-29T19:02:29Z" user="DemoLogin" uid="1709753">
  <nd ref="699788735"/>
  <nd ref="699788756"/>
  <nd ref="699788306"/>
  <nd ref="699787959"/>
  <nd ref="699788735"/>
  <tag k="addr:housenumber" v="4 литК"/>
  <tag k="addr:street" v="Глухоозёрское шоссе"/>
  <tag k="building" v="yes"/>
 </way>
 <way id="55692263" visible="true" version="3" changeset="44427215" timestamp="2016-12-15T16:11:17Z" user="Re-re" uid="2064119">
  <nd ref="699788717"/>
  <nd ref="699788630"/>
  <nd ref="4555782978"/>
  <nd ref="699788286"/>
  <nd ref="2725576795"/>
  <nd ref="2725576827"/>
  <nd ref="699787941"/>
  <nd ref="699788717"/>
  <tag k="addr:housenumber" v="23"/>
  <tag k="addr:street" v="Мельничная улица"/>
  <tag k="building" v="office"/>
  <tag k="source" v="rgis"/>
 </way>
 <way id="55692288" visible="true" version="4" changeset="92842378" timestamp="2020-10-21T15:35:32Z" user="Sergey Astakhov" uid="143266">
  <nd ref="699788692"/>
  <nd ref="8032696374"/>
  <nd ref="699788712"/>
  <nd ref="699788375"/>
  <nd ref="699787920"/>
  <nd ref="699788692"/>
  <tag k="addr:housenumber" v="7 литЕ"/>
  <tag k="addr:street" v="Глиняная улица"/>
  <tag k="building" v="warehouse"/>
 </way>
 <way id="55692327" visible="true" version="2" changeset="174455324" timestamp="2025-11-10T10:22:04Z" user="Ozon OSM13" uid="22779724">
  <nd ref="699788547"/>
  <nd ref="699788450"/>
  <nd ref="699788104"/>
  <nd ref="699788899"/>
  <nd ref="699788547"/>
  <tag k="addr:housenumber" v="13 литЗ"/>
  <tag k="addr:street" v="Мельничная улица"/>
  <tag k="building" v="yes"/>
 </way>
 <way id="55692342" visible="true" version="4" changeset="21179087" timestamp="2014-03-18T18:15:54Z" user="yuryleb" uid="446083">
  <nd ref="699788687"/>
  <nd ref="699787910"/>
  <nd ref="699787924"/>
  <nd ref="699788264"/>
  <nd ref="699788687"/>
  <tag k="addr:housenumber" v="21"/>
  <tag k="addr:street" v="Мельничная улица"/>
  <tag k="building" v="yes"/>
  <tag k="source" v="rgis"/>
 </way>
 <way id="55692369" visible="true" version="2" changeset="63988256" timestamp="2018-10-29T19:02:29Z" user="DemoLogin" uid="1709753">
  <nd ref="699788322"/>
  <nd ref="699788667"/>
  <nd ref="699789041"/>
  <nd ref="699788235"/>
  <nd ref="699788322"/>
  <tag k="addr:housenumber" v="4 литД"/>
  <tag k="addr:street" v="Глухоозёрское шоссе"/>
  <tag k="building" v="yes"/>
 </way>
 <way id="55692380" visible="true" version="2" changeset="63988256" timestamp="2018-10-29T19:02:28Z" user="DemoLogin" uid="1709753">
  <nd ref="699788141"/>
  <nd ref="699788493"/>
  <nd ref="699788833"/>
  <nd ref="699788054"/>
  <nd ref="699788141"/>
  <tag k="addr:housenumber" v="1/3 литШ"/>
  <tag k="addr:street" v="Глиняная улица"/>
  <tag k="building" v="yes"/>
 </way>
 <way id="55692384" visible="true" version="2" changeset="63988256" timestamp="2018-10-29T19:02:29Z" user="DemoLogin" uid="1709753">
  <nd ref="699788006"/>
  <nd ref="699788355"/>
  <nd ref="699788697"/>
  <nd ref="699788025"/>
  <nd ref="699788006"/>
  <tag k="addr:housenumber" v="13 литЛ"/>
  <tag k="addr:street" v="Мельничная улица"/>
  <tag k="building" v="yes"/>
 </way>
 <way id="55692396" visible="true" version="2" changeset="63988256" timestamp="2018-10-29T19:02:28Z" user="DemoLogin" uid="1709753">
  <nd ref="699788280"/>
  <nd ref="699788626"/>
  <nd ref="699788996"/>
  <nd ref="699788190"/>
  <nd ref="699788280"/>
  <tag k="addr:housenumber" v="1/3 литС"/>
  <tag k="addr:street" v="Глиняная улица"/>
  <tag k="building" v="yes"/>
 </way>
 <way id="55692404" visible="true" version="2" changeset="63988256" timestamp="2018-10-29T19:02:29Z" user="DemoLogin" uid="1709753">
  <nd ref="699788683"/>
  <nd ref="699787907"/>
  <nd ref="699788605"/>
  <nd ref="699788162"/>
  <nd ref="699788857"/>
  <nd ref="699788991"/>
  <nd ref="699788539"/>
  <nd ref="699788096"/>
  <nd ref="699788683"/>
  <tag k="addr:housenumber" v="23 литЗ"/>
  <tag k="addr:street" v="Мельничная улица"/>
  <tag k="building" v="yes"/>
 </way>
 <way id="55692450" visible="true" version="2" changeset="63988256" timestamp="2018-10-29T19:02:29Z" user="DemoLogin" uid="1709753">
  <nd ref="699789006"/>
  <nd ref="699788983"/>
  <nd ref="699788289"/>
  <nd ref="699788130"/>
  <nd ref="699788476"/>
  <nd ref="699788383"/>
  <nd ref="699788636"/>
  <nd ref="699789006"/>
  <tag k="addr:housenumber" v="23 литЖ"/>
  <tag k="addr:street" v="Мельничная улица"/>
  <tag k="building" v="yes"/>
 </way>
 <way id="55692451" visible="true" version="2" changeset="63988256" timestamp="2018-10-29T19:02:29Z" user="DemoLogin" uid="1709753">
  <nd ref="699788979"/>
  <nd ref="699788876"/>
  <nd ref="699788527"/>
  <nd ref="699788176"/>
  <nd ref="699788979"/>
  <tag k="addr:housenumber" v="13 литК"/>
  <tag k="addr:street" v="Мельничная улица"/>
  <tag k="building" v="yes"/>
 </way>
 <way id="101689092" visible="true" version="3" changeset="172170120" timestamp="2025-09-19T15:45:30Z" user="Константин Гам" uid="392109">
  <nd ref="1174049407"/>
  <nd ref="1174049405"/>
  <nd ref="1174049402"/>
  <nd ref="1174049404"/>
  <nd ref="1174049996"/>
  <nd ref="1174049406"/>
  <tag k="access" v="private"/>
  <tag k="highway" v="service"/>
  <tag k="surface" v="asphalt"/>
 </way>
 <way id="179627944" visible="true" version="13" changeset="173663888" timestamp="2025-10-23T09:28:52Z" user="Константин Гам" uid="392109">
  <nd ref="8032696371"/>
  <nd ref="8032696369"/>
  <nd ref="13251498876"/>
  <nd ref="4463819093"/>
  <nd ref="1901894173"/>
  <nd ref="1900395579"/>
  <nd ref="1900395580"/>
  <nd ref="1900395582"/>
  <tag k="railway" v="abandoned"/>
 </way>
 <way id="180120764" visible="true" version="1" changeset="13033240" timestamp="2012-09-08T12:43:05Z" user="Pavel239" uid="354001">
  <nd ref="1905553828"/>
  <nd ref="1905553830"/>
  <nd ref="1905553837"/>
  <nd ref="1905553839"/>
  <nd ref="1905553828"/>
  <tag k="building" v="yes"/>
 </way>
 <way id="266765658" visible="true" version="3" changeset="113956960" timestamp="2021-11-18T18:35:12Z" user="mini-me" uid="3846961">
  <nd ref="9264674625"/>
  <nd ref="9264674655"/>
  <nd ref="8032696378"/>
  <nd ref="2722808948"/>
  <nd ref="8032696385"/>
  <nd ref="8032696386"/>
  <nd ref="8032696387"/>
  <nd ref="8032696388"/>
  <nd ref="8032696389"/>
  <nd ref="8032696390"/>
  <nd ref="2722808911"/>
  <nd ref="8032696391"/>
  <nd ref="2722808974"/>
  <nd ref="8032696392"/>
  <nd ref="2722808915"/>
  <nd ref="8032696393"/>
  <nd ref="8032696404"/>
  <nd ref="2722808931"/>
  <tag k="electrified" v="no"/>
  <tag k="railway" v="rail"/>
  <tag k="service" v="spur"/>
  <tag k="usage" v="industrial"/>
 </way>
 <way id="267076627" visible="true" version="4" changeset="147909483" timestamp="2024-02-25T21:31:14Z" user="Константин Гам" uid="392109">
  <nd ref="2722808916"/>
  <nd ref="2725576774"/>
  <nd ref="2725576793"/>
  <nd ref="2725576781"/>
  <nd ref="6023051740"/>
  <nd ref="2725576825"/>
  <nd ref="2725576829"/>
  <nd ref="2725576821"/>
  <nd ref="11663776086"/>
  <nd ref="2725576806"/>
  <tag k="electrified" v="no"/>
  <tag k="railway" v="disused"/>
  <tag k="service" v="spur"/>
  <tag k="usage" v="industrial"/>
 </way>
 <way id="267076629" visible="true" version="4" changeset="180357397" timestamp="2026-03-24T14:31:37Z" user="Константин Гам" uid="392109">
  <nd ref="2722808916"/>
  <nd ref="8032696397"/>
  <nd ref="8032696398"/>
  <nd ref="2722808950"/>
  <nd ref="8032696399"/>
  <nd ref="8032696400"/>
  <nd ref="8032696401"/>
  <nd ref="8032696403"/>
  <nd ref="8032696402"/>
  <nd ref="2722808931"/>
  <nd ref="8032696405"/>
  <nd ref="2722808955"/>
  <nd ref="8032696406"/>
  <nd ref="8032696408"/>
  <nd ref="8032696407"/>
  <nd ref="2722808976"/>
  <tag k="electrified" v="no"/>
  <tag k="railway" v="abandoned"/>
  <tag k="service" v="spur"/>
  <tag k="usage" v="industrial"/>
 </way>
 <way id="267076630" visible="true" version="5" changeset="113956960" timestamp="2021-11-18T18:35:12Z" user="mini-me" uid="3846961">
  <nd ref="2722808968"/>
  <nd ref="9260893485"/>
  <nd ref="9260893483"/>
  <nd ref="2725576820"/>
  <nd ref="9260893484"/>
  <nd ref="2725576800"/>
  <nd ref="7837701252"/>
  <nd ref="2725576772"/>
  <nd ref="9264674654"/>
  <nd ref="9264674653"/>
  <nd ref="9264674652"/>
  <nd ref="2725576797"/>
  <nd ref="2725576777"/>
  <nd ref="2722808971"/>
  <tag k="electrified" v="no"/>
  <tag k="railway" v="rail"/>
  <tag k="service" v="spur"/>
  <tag k="usage" v="industrial"/>
 </way>
 <way id="267076632" visible="true" version="4" changeset="113956960" timestamp="2021-11-18T18:35:12Z" user="mini-me" uid="3846961">
  <nd ref="2722808968"/>
  <nd ref="2722808946"/>
  <nd ref="2722808964"/>
  <nd ref="2722808961"/>
  <nd ref="9264674651"/>
  <nd ref="2722808971"/>
  <nd ref="2722808916"/>
  <tag k="electrified" v="no"/>
  <tag k="railway" v="rail"/>
  <tag k="service" v="spur"/>
  <tag k="usage" v="industrial"/>
 </way>
 <way id="279479761" visible="true" version="7" changeset="173663888" timestamp="2025-10-23T09:28:52Z" user="Константин Гам" uid="392109">
  <nd ref="5924247314"/>
  <nd ref="2837041234"/>
  <nd ref="2837041230"/>
  <nd ref="2837041229"/>
  <nd ref="2837041228"/>
  <nd ref="2837041227"/>
  <nd ref="2837041226"/>
  <nd ref="2837041225"/>
  <nd ref="11990985908"/>
  <nd ref="2837041224"/>
  <nd ref="2837041222"/>
  <nd ref="2837041221"/>
  <nd ref="2837041220"/>
  <nd ref="2837041219"/>
  <nd ref="2837041217"/>
  <nd ref="2837041216"/>
  <nd ref="13251498877"/>
  <nd ref="8032696371"/>
  <nd ref="8032696369"/>
  <nd ref="13251498876"/>
  <nd ref="8032696368"/>
  <tag k="highway" v="path"/>
  <tag k="smoothness" v="horrible"/>
  <tag k="surface" v="compacted"/>
 </way>
 <way id="336083475" visible="true" version="29" changeset="172170120" timestamp="2025-09-19T15:45:30Z" user="Константин Гам" uid="392109">
  <nd ref="2115201895"/>
  <nd ref="7972990402"/>
  <nd ref="1429201623"/>
  <nd ref="4625262031"/>
  <nd ref="9260893461"/>
  <nd ref="1905553752"/>
  <nd ref="1905553751"/>
  <nd ref="9261510854"/>
  <nd ref="1905553749"/>
  <nd ref="11990985892"/>
  <nd ref="9260893440"/>
  <nd ref="1905553748"/>
  <nd ref="10537770198"/>
  <nd ref="13155830382"/>
  <nd ref="9261487280"/>
  <nd ref="9261487281"/>
  <nd ref="1905553747"/>
  <nd ref="9261510848"/>
  <nd ref="1905553713"/>
  <nd ref="10537770199"/>
  <nd ref="13155830392"/>
  <nd ref="9261487279"/>
  <nd ref="1905553703"/>
  <nd ref="11990985901"/>
  <nd ref="11990985897"/>
  <nd ref="11990985899"/>
  <nd ref="11990985879"/>
  <nd ref="11990985877"/>
  <nd ref="11990985904"/>
  <nd ref="269277578"/>
  <nd ref="11663776086"/>
  <nd ref="12462001792"/>
  <tag k="highway" v="unclassified"/>
  <tag k="lane_markings" v="no"/>
  <tag k="lit" v="yes"/>
  <tag k="maxspeed" v="RU:urban"/>
  <tag k="name" v="Мельничная улица"/>
  <tag k="postal_code" v="192019"/>
  <tag k="smoothness" v="intermediate"/>
  <tag k="surface" v="asphalt"/>
  <tag k="wikidata" v="Q4289996"/>
  <tag k="wikipedia" v="ru:Мельничная улица (Санкт-Петербург)"/>
 </way>
 <way id="459846214" visible="true" version="4" changeset="172170120" timestamp="2025-09-19T15:45:30Z" user="Константин Гам" uid="392109">
  <nd ref="699788630"/>
  <nd ref="4555782976"/>
  <nd ref="11990985894"/>
  <nd ref="13155830384"/>
  <nd ref="4555782973"/>
  <nd ref="11990985895"/>
  <tag k="barrier" v="wall"/>
 </way>
 <way id="459846216" visible="true" version="3" changeset="172170120" timestamp="2025-09-19T15:45:30Z" user="Константин Гам" uid="392109">
  <nd ref="1905553735"/>
  <nd ref="1174049407"/>
  <nd ref="13155830399"/>
  <nd ref="11990985896"/>
  <nd ref="4555782981"/>
  <nd ref="4555782980"/>
  <nd ref="13155830400"/>
  <nd ref="13155830393"/>
  <nd ref="4555782979"/>
  <nd ref="4555782978"/>
  <tag k="barrier" v="wall"/>
 </way>
 <way id="639158839" visible="true" version="3" changeset="173663888" timestamp="2025-10-23T09:28:52Z" user="Константин Гам" uid="392109">
  <nd ref="6023051702"/>
  <nd ref="6023051703"/>
  <nd ref="6023051704"/>
  <nd ref="6023051705"/>
  <nd ref="6023051778"/>
  <nd ref="9264674713"/>
  <nd ref="9264674712"/>
  <nd ref="6023051709"/>
  <nd ref="6023051706"/>
  <nd ref="6023051779"/>
  <nd ref="6023051707"/>
  <nd ref="13251498879"/>
  <nd ref="13251498880"/>
  <nd ref="6023051702"/>
  <tag k="landuse" v="industrial"/>
 </way>
 <way id="639158850" visible="true" version="1" changeset="63988256" timestamp="2018-10-29T19:02:27Z" user="DemoLogin" uid="1709753">
  <nd ref="6023051747"/>
  <nd ref="6023051748"/>
  <nd ref="6023051749"/>
  <nd ref="6023051750"/>
  <nd ref="6023051747"/>
  <tag k="addr:housenumber" v="4 литЕ"/>
  <tag k="addr:street" v="Глухоозёрское шоссе"/>
  <tag k="building" v="yes"/>
 </way>
 <way id="639158851" visible="true" version="1" changeset="63988256" timestamp="2018-10-29T19:02:27Z" user="DemoLogin" uid="1709753">
  <nd ref="6023051751"/>
  <nd ref="6023051752"/>
  <nd ref="6023051753"/>
  <nd ref="6023051754"/>
  <nd ref="6023051751"/>
  <tag k="addr:housenumber" v="4 литЛ"/>
  <tag k="addr:street" v="Глухоозёрское шоссе"/>
  <tag k="building" v="yes"/>
 </way>
 <way id="639158852" visible="true" version="1" changeset="63988256" timestamp="2018-10-29T19:02:27Z" user="DemoLogin" uid="1709753">
  <nd ref="6023051755"/>
  <nd ref="6023051756"/>
  <nd ref="6023051757"/>
  <nd ref="6023051758"/>
  <nd ref="6023051755"/>
  <tag k="addr:housenumber" v="4 литИ"/>
  <tag k="addr:street" v="Глухоозёрское шоссе"/>
  <tag k="building" v="yes"/>
 </way>
 <way id="639158853" visible="true" version="1" changeset="63988256" timestamp="2018-10-29T19:02:27Z" user="DemoLogin" uid="1709753">
  <nd ref="6023051759"/>
  <nd ref="6023051760"/>
  <nd ref="6023051761"/>
  <nd ref="6023051762"/>
  <nd ref="6023051763"/>
  <nd ref="6023051764"/>
  <nd ref="6023051759"/>
  <tag k="addr:housenumber" v="21 литЕ"/>
  <tag k="addr:street" v="Мельничная улица"/>
  <tag k="building" v="yes"/>
 </way>
 <way id="639158855" visible="true" version="3" changeset="164536030" timestamp="2025-04-05T05:17:53Z" user="asdfwqer" uid="20626553">
  <nd ref="6023051769"/>
  <nd ref="7434196698"/>
  <nd ref="12730340340"/>
  <nd ref="7969927392"/>
  <nd ref="7969927393"/>
  <nd ref="12730340339"/>
  <nd ref="11990985911"/>
  <nd ref="699788253"/>
  <nd ref="699788943"/>
  <nd ref="2194886650"/>
  <nd ref="2194886648"/>
  <nd ref="6023051770"/>
  <nd ref="6023051771"/>
  <nd ref="6023051772"/>
  <nd ref="6023051773"/>
  <nd ref="6023051774"/>
  <nd ref="6023051775"/>
  <nd ref="6023051776"/>
  <nd ref="6023051777"/>
  <nd ref="6023051778"/>
  <nd ref="9264674713"/>
  <nd ref="9264674712"/>
  <nd ref="6023051709"/>
  <nd ref="6023051706"/>
  <nd ref="6023051779"/>
  <nd ref="12730340352"/>
  <nd ref="6023051769"/>
  <tag k="landuse" v="industrial"/>
 </way>
 <way id="639158856" visible="true" version="2" changeset="110914239" timestamp="2021-09-08T11:42:19Z" user="fims7" uid="584771">
  <nd ref="6023051780"/>
  <nd ref="6023051761"/>
  <nd ref="6023051782"/>
  <nd ref="6023051783"/>
  <nd ref="6023051780"/>
  <tag k="landuse" v="industrial"/>
 </way>
 <way id="639158857" visible="true" version="4" changeset="113905011" timestamp="2021-11-17T16:17:17Z" user="mini-me" uid="3846961">
  <nd ref="6023051780"/>
  <nd ref="6023051761"/>
  <nd ref="6023051784"/>
  <nd ref="4555782976"/>
  <nd ref="4555782973"/>
  <nd ref="4555782974"/>
  <nd ref="9260893460"/>
  <nd ref="2722808930"/>
  <nd ref="2722808913"/>
  <nd ref="2923660611"/>
  <nd ref="7972923969"/>
  <nd ref="9260893478"/>
  <nd ref="9260893477"/>
  <nd ref="9260893475"/>
  <nd ref="7972923975"/>
  <nd ref="7972923965"/>
  <nd ref="7972923964"/>
  <nd ref="9260893476"/>
  <nd ref="6023052186"/>
  <nd ref="6023052187"/>
  <nd ref="6023052188"/>
  <nd ref="6023051780"/>
  <tag k="landuse" v="industrial"/>
 </way>
 <way id="639158858" visible="true" version="3" changeset="113913885" timestamp="2021-11-17T19:47:42Z" user="mini-me" uid="3846961">
  <nd ref="6023052189"/>
  <nd ref="6023052190"/>
  <nd ref="6023052193"/>
  <nd ref="6023052203"/>
  <nd ref="6023052204"/>
  <nd ref="6023052201"/>
  <nd ref="9261510856"/>
  <nd ref="6023052196"/>
  <nd ref="6023052197"/>
  <nd ref="6023052198"/>
  <nd ref="1905553769"/>
  <nd ref="6023052199"/>
  <nd ref="6023052189"/>
  <tag k="landuse" v="industrial"/>
 </way>
 <way id="862117367" visible="true" version="3" changeset="173663888" timestamp="2025-10-23T09:28:52Z" user="Константин Гам" uid="392109">
  <nd ref="8032696374"/>
  <nd ref="8032696373"/>
  <nd ref="8032696372"/>
  <nd ref="9264674722"/>
  <nd ref="9264674720"/>
  <nd ref="9264674723"/>
  <nd ref="9264674724"/>
  <nd ref="9264674725"/>
  <nd ref="9264674726"/>
  <tag k="barrier" v="fence"/>
 </way>
 <way id="862117368" visible="true" version="2" changeset="113956960" timestamp="2021-11-18T18:35:12Z" user="mini-me" uid="3846961">
  <nd ref="8032696378"/>
  <nd ref="8032696377"/>
  <nd ref="8032696376"/>
  <nd ref="8032696375"/>
  <nd ref="9264674646"/>
  <nd ref="9264674647"/>
  <nd ref="9264674626"/>
  <tag k="railway" v="rail"/>
  <tag k="service" v="spur"/>
 </way>
 <way id="862117369" visible="true" version="2" changeset="113956960" timestamp="2021-11-18T18:35:12Z" user="mini-me" uid="3846961">
  <nd ref="2722808948"/>
  <nd ref="8032696379"/>
  <nd ref="8032696384"/>
  <nd ref="8032696383"/>
  <nd ref="8032696382"/>
  <nd ref="8032696381"/>
  <nd ref="8032696380"/>
  <nd ref="9264674620"/>
  <nd ref="9264674619"/>
  <nd ref="9264674618"/>
  <nd ref="9264674617"/>
  <nd ref="2722808947"/>
  <tag k="railway" v="rail"/>
  <tag k="service" v="spur"/>
 </way>
 <way id="1003596323" visible="true" version="3" changeset="131121458" timestamp="2023-01-10T20:41:05Z" user="Константин Гам" uid="392109">
  <nd ref="9260893449"/>
  <nd ref="9260893445"/>
  <nd ref="9260893458"/>
  <nd ref="9260893447"/>
  <nd ref="9260893443"/>
  <nd ref="9260893448"/>
  <tag k="access" v="private"/>
  <tag k="highway" v="service"/>
  <tag k="surface" v="asphalt"/>
 </way>
 <way id="1004087840" visible="true" version="1" changeset="113956960" timestamp="2021-11-18T18:35:12Z" user="mini-me" uid="3846961">
  <nd ref="9264674720"/>
  <nd ref="9264674645"/>
  <nd ref="9264674647"/>
  <nd ref="9264674655"/>
  <nd ref="9264674620"/>
  <nd ref="9264674719"/>
  <nd ref="9264674718"/>
  <nd ref="9264674717"/>
  <nd ref="9264674716"/>
  <nd ref="9264674715"/>
  <nd ref="1898280212"/>
  <nd ref="9264674714"/>
  <tag k="barrier" v="fence"/>
 </way>
 <way id="1293521550" visible="true" version="2" changeset="173663888" timestamp="2025-10-23T09:28:52Z" user="Константин Гам" uid="392109">
  <nd ref="13251498891"/>
  <nd ref="13251498893"/>
  <nd ref="13251498894"/>
  <nd ref="13251498890"/>
  <nd ref="13251498889"/>
  <nd ref="13251498888"/>
  <nd ref="13251498887"/>
  <nd ref="13251498886"/>
  <nd ref="13251498885"/>
  <nd ref="13251498884"/>
  <nd ref="13251498883"/>
  <nd ref="13251498882"/>
  <nd ref="13251498881"/>
  <tag k="access" v="private"/>
  <tag k="highway" v="service"/>
 </way>
 <way id="1374921260" visible="true" version="1" changeset="164536030" timestamp="2025-04-05T05:17:53Z" user="asdfwqer" uid="20626553">
  <nd ref="12730340353"/>
  <nd ref="12730340354"/>
  <nd ref="12730340355"/>
  <nd ref="12730340356"/>
  <nd ref="12730340357"/>
  <nd ref="12730340358"/>
  <nd ref="12730340359"/>
  <nd ref="12730340360"/>
  <nd ref="12730340361"/>
  <nd ref="12730340362"/>
  <nd ref="12730340363"/>
  <nd ref="12730340364"/>
  <nd ref="12730340365"/>
  <nd ref="12730340366"/>
  <nd ref="12730340367"/>
  <nd ref="12730340353"/>
  <tag k="natural" v="wood"/>
 </way>
 <way id="1431218050" visible="true" version="1" changeset="172170120" timestamp="2025-09-19T15:45:30Z" user="Константин Гам" uid="392109">
  <nd ref="13155830387"/>
  <nd ref="13155830386"/>
  <nd ref="13155830385"/>
  <nd ref="13155830384"/>
  <nd ref="13155830383"/>
  <nd ref="13155830382"/>
  <tag k="highway" v="service"/>
 </way>
 <way id="1444137254" visible="true" version="1" changeset="173663888" timestamp="2025-10-23T09:28:52Z" user="Константин Гам" uid="392109">
  <nd ref="8032696368"/>
  <nd ref="13251498878"/>
  <tag k="highway" v="footway"/>
  <tag k="surface" v="asphalt"/>
 </way>
 <way id="1489587202" visible="true" version="1" changeset="179971445" timestamp="2026-03-16T20:57:12Z" user="Ozon OSM1" uid="21851289">
  <nd ref="13653304487"/>
  <nd ref="13653304488"/>
  <nd ref="13653304489"/>
  <nd ref="13653304490"/>
  <nd ref="13653304491"/>
  <nd ref="13653304492"/>
  <nd ref="13653304493"/>
  <nd ref="13653304494"/>
  <nd ref="13653304495"/>
  <nd ref="13653304487"/>
  <tag k="building" v="yes"/>
 </way>
</osm>
