<?xml version="1.0" encoding="UTF-8"?>
<osm version="0.6" generator="openstreetmap-cgimap 2.1.0 (244686 spike-07.openstreetmap.org)" copyright="OpenStreetMap and contributors" attribution="http://www.openstreetmap.org/copyright" license="http://opendatacommons.org/licenses/odbl/1-0/">
 <bounds minlat="59.9482238" minlon="30.3324092" maxlat="59.9509188" maxlon="30.3377908"/>
 <node id="255233511" visible="true" version="2" changeset="7430534" timestamp="2011-03-01T16:24:38Z" user="tmprec" uid="136198" lat="59.9490323" lon="30.3291373"/>
 <node id="255233512" visible="true" version="2" changeset="7415503" timestamp="2011-02-27T21:17:16Z" user="tmprec" uid="136198" lat="59.9522432" lon="30.3454149"/>
 <node id="355211808" visible="true" version="1" changeset="729376" timestamp="2009-03-03T15:25:02Z" user="ZCC" uid="24305" lat="59.9493013" lon="30.3304171"/>
 <node id="355211812" visible="true" version="3" changeset="5479468" timestamp="2010-08-13T07:48:41Z" user="tmprec" uid="136198" lat="59.9501548" lon="30.3348876"/>
 <node id="600405716" visible="true" version="1" changeset="3472462" timestamp="2009-12-28T15:09:00Z" user="alexsaf" uid="81821" lat="59.9463191" lon="30.3374071"/>
 <node id="600405717" visible="true" version="2" changeset="44668880" timestamp="2016-12-25T20:01:50Z" user="mini-me" uid="3846961" lat="59.9447447" lon="30.3378738"/>
 <node id="600405720" visible="true" version="2" changeset="11071305" timestamp="2012-03-23T08:27:25Z" user="Felis Pimeja" uid="260756" lat="59.9383518" lon="30.3430472"/>
 <node id="600405721" visible="true" version="1" changeset="3472462" timestamp="2009-12-28T15:09:00Z" user="alexsaf" uid="81821" lat="59.9375920" lon="30.3434153"/>
 <node id="600405722" visible="true" version="3" changeset="44619391" timestamp="2016-12-23T12:23:11Z" user="mini-me" uid="3846961" lat="59.9354518" lon="30.3442439"/>
 <node id="600405723" visible="true" version="2" changeset="34031761" timestamp="2015-09-15T00:32:24Z" user="spilornis" uid="1976822" lat="59.9343751" lon="30.3438496"/>
 <node id="1038976274" visible="true" version="4" changeset="11071305" timestamp="2012-03-23T08:26:35Z" user="Felis Pimeja" uid="260756" lat="59.9402982" lon="30.3405073"/>
 <node id="1559928752" visible="true" version="1" changeset="10191144" timestamp="2011-12-24T00:06:59Z" user="Anton Khorev" uid="437809" lat="59.9486200" lon="30.3276020"/>
 <node id="1570469238" visible="true" version="1" changeset="10251959" timestamp="2011-12-31T05:40:19Z" user="Anton Khorev" uid="437809" lat="59.9332393" lon="30.3434317"/>
 <node id="1686862510" visible="true" version="1" changeset="11071305" timestamp="2012-03-23T08:25:12Z" user="Felis Pimeja" uid="260756" lat="59.9382162" lon="30.3431504"/>
 <node id="1686862669" visible="true" version="1" changeset="11071305" timestamp="2012-03-23T08:25:15Z" user="Felis Pimeja" uid="260756" lat="59.9384800" lon="30.3428879"/>
 <node id="1686863833" visible="true" version="1" changeset="11071305" timestamp="2012-03-23T08:25:35Z" user="Felis Pimeja" uid="260756" lat="59.9418206" lon="30.3385140"/>
 <node id="1686863917" visible="true" version="1" changeset="11071305" timestamp="2012-03-23T08:25:36Z" user="Felis Pimeja" uid="260756" lat="59.9419141" lon="30.3384051"/>
 <node id="1686864004" visible="true" version="1" changeset="11071305" timestamp="2012-03-23T08:25:38Z" user="Felis Pimeja" uid="260756" lat="59.9420060" lon="30.3383408"/>
 <node id="1686864331" visible="true" version="1" changeset="11071305" timestamp="2012-03-23T08:25:44Z" user="Felis Pimeja" uid="260756" lat="59.9423331" lon="30.3382674"/>
 <node id="4572032061" visible="true" version="1" changeset="44668880" timestamp="2016-12-25T20:01:48Z" user="mini-me" uid="3846961" lat="59.9451965" lon="30.3377998"/>
 <node id="8794622040" visible="true" version="1" changeset="105766202" timestamp="2021-06-03T09:10:01Z" user="mini-me" uid="3846961" lat="59.9332494" lon="30.3434354">
  <tag k="seamark:bridge:category" v="fixed"/>
  <tag k="seamark:bridge:clearance_height" v="3.0"/>
  <tag k="seamark:type" v="bridge"/>
 </node>
 <node id="8794622041" visible="true" version="1" changeset="105766202" timestamp="2021-06-03T09:10:01Z" user="mini-me" uid="3846961" lat="59.9380768" lon="30.3432095">
  <tag k="seamark:bridge:category" v="fixed"/>
  <tag k="seamark:bridge:clearance_height" v="3.2"/>
  <tag k="seamark:type" v="bridge"/>
 </node>
 <node id="8794622042" visible="true" version="1" changeset="105766202" timestamp="2021-06-03T09:10:01Z" user="mini-me" uid="3846961" lat="59.9478168" lon="30.3364234">
  <tag k="seamark:bridge:category" v="fixed"/>
  <tag k="seamark:bridge:clearance_height" v="3.2"/>
  <tag k="seamark:type" v="bridge"/>
 </node>
 <node id="8794622043" visible="true" version="1" changeset="105766202" timestamp="2021-06-03T09:10:01Z" user="mini-me" uid="3846961" lat="59.9421279" lon="30.3383134">
  <tag k="seamark:bridge:category" v="fixed"/>
  <tag k="seamark:bridge:clearance_height" v="2.5"/>
  <tag k="seamark:type" v="bridge"/>
 </node>
 <way id="24255525" visible="true" version="43" changeset="141361593" timestamp="2023-09-16T23:14:35Z" user="traveleditor" uid="8726248">
  <nd ref="355211812"/>
  <nd ref="8794622042"/>
  <nd ref="600405716"/>
  <nd ref="4572032061"/>
  <nd ref="600405717"/>
  <nd ref="1686864331"/>
  <nd ref="8794622043"/>
  <nd ref="1686864004"/>
  <nd ref="1686863917"/>
  <nd ref="1686863833"/>
  <nd ref="1038976274"/>
  <nd ref="1686862669"/>
  <nd ref="600405720"/>
  <nd ref="1686862510"/>
  <nd ref="8794622041"/>
  <nd ref="600405721"/>
  <nd ref="600405722"/>
  <nd ref="600405723"/>
  <nd ref="8794622040"/>
  <nd ref="1570469238"/>
  <tag k="admin_level" v="8"/>
  <tag k="boat" v="yes"/>
  <tag k="boundary" v="administrative"/>
  <tag k="gvr:code" v="01040300312102000008548"/>
  <tag k="have_riverbank" v="yes"/>
  <tag k="name" v="Фонтанка"/>
  <tag k="name:en" v="Fontanka"/>
  <tag k="name:fr" v="Fontanka"/>
  <tag k="name:uk" v="Фонтанка"/>
  <tag k="waterway" v="river"/>
 </way>
 <way id="71360173" visible="true" version="35" changeset="148410790" timestamp="2024-03-09T07:18:45Z" user="north79" uid="1204984">
  <nd ref="255233512"/>
  <nd ref="355211812"/>
  <tag k="admin_level" v="5"/>
  <tag k="boat" v="yes"/>
  <tag k="boundary" v="administrative"/>
  <tag k="CEMT" v="Vb"/>
  <tag k="have_riverbank" v="yes"/>
  <tag k="name" v="Нева"/>
  <tag k="name:bg" v="Нева"/>
  <tag k="name:ca" v="Riu Neva"/>
  <tag k="name:de" v="Newa"/>
  <tag k="name:en" v="Neva"/>
  <tag k="name:es" v="Río Neva"/>
  <tag k="name:fi" v="Neva"/>
  <tag k="name:fr" v="Neva"/>
  <tag k="name:hr" v="Neva"/>
  <tag k="name:ja" v="ネヴァ川"/>
  <tag k="name:nl" v="Neva"/>
  <tag k="name:ru" v="Нева"/>
  <tag k="name:sv" v="Neva"/>
  <tag k="name:uk" v="Нева"/>
  <tag k="name:zh" v="涅瓦河"/>
  <tag k="waterway" v="river"/>
  <tag k="wikidata" v="Q645"/>
  <tag k="wikipedia" v="ru:Нева"/>
 </way>
 <way id="79570071" visible="true" version="34" changeset="148410790" timestamp="2024-03-09T07:18:45Z" user="north79" uid="1204984">
  <nd ref="355211812"/>
  <nd ref="355211808"/>
  <nd ref="255233511"/>
  <nd ref="1559928752"/>
  <tag k="admin_level" v="5"/>
  <tag k="boat" v="yes"/>
  <tag k="boundary" v="administrative"/>
  <tag k="CEMT" v="Vb"/>
  <tag k="have_riverbank" v="yes"/>
  <tag k="name" v="Нева"/>
  <tag k="name:bg" v="Нева"/>
  <tag k="name:ca" v="Riu Neva"/>
  <tag k="name:de" v="Newa"/>
  <tag k="name:en" v="Neva"/>
  <tag k="name:es" v="Río Neva"/>
  <tag k="name:fi" v="Neva"/>
  <tag k="name:fr" v="Neva"/>
  <tag k="name:hr" v="Neva"/>
  <tag k="name:ja" v="ネヴァ川"/>
  <tag k="name:nl" v="Neva"/>
  <tag k="name:ru" v="Нева"/>
  <tag k="name:sv" v="Neva"/>
  <tag k="name:uk" v="Нева"/>
  <tag k="name:zh" v="涅瓦河"/>
  <tag k="waterway" v="river"/>
  <tag k="wikidata" v="Q645"/>
  <tag k="wikipedia" v="ru:Нева"/>
 </way>
 <relation id="337422" visible="true" version="317" changeset="188273025" timestamp="2026-08-30T21:27:33Z" user="GPMapper" uid="890496">
  <member type="way" ref="197668703" role="outer"/>
  <member type="way" ref="197668699" role="outer"/>
  <member type="way" ref="110520457" role="outer"/>
  <member type="way" ref="858917964" role="outer"/>
  <member type="way" ref="858917963" role="outer"/>
  <member type="way" ref="71513605" role="outer"/>
  <member type="way" ref="255395526" role="outer"/>
  <member type="way" ref="219039357" role="outer"/>
  <member type="way" ref="895882111" role="outer"/>
  <member type="way" ref="405794748" role="outer"/>
  <member type="way" ref="219039359" role="outer"/>
  <member type="way" ref="219039361" role="outer"/>
  <member type="way" ref="219043022" role="outer"/>
  <member type="way" ref="219043023" role="outer"/>
  <member type="way" ref="256803585" role="outer"/>
  <member type="way" ref="256803582" role="outer"/>
  <member type="way" ref="871409607" role="outer"/>
  <member type="way" ref="256803587" role="outer"/>
  <member type="way" ref="110520458" role="outer"/>
  <member type="way" ref="100599522" role="outer"/>
  <member type="way" ref="140757952" role="outer"/>
  <member type="way" ref="100599524" role="outer"/>
  <member type="way" ref="178770468" role="outer"/>
  <member type="way" ref="66252238" role="outer"/>
  <member type="way" ref="77908166" role="outer"/>
  <member type="way" ref="71360123" role="outer"/>
  <member type="way" ref="78008246" role="outer"/>
  <member type="way" ref="985798330" role="outer"/>
  <member type="way" ref="121660149" role="outer"/>
  <member type="way" ref="78008251" role="outer"/>
  <member type="way" ref="539191426" role="outer"/>
  <member type="way" ref="71376492" role="outer"/>
  <member type="way" ref="153372033" role="outer"/>
  <member type="way" ref="134127094" role="outer"/>
  <member type="way" ref="539191419" role="outer"/>
  <member type="way" ref="121039921" role="outer"/>
  <member type="way" ref="959173046" role="outer"/>
  <member type="way" ref="959173045" role="outer"/>
  <member type="way" ref="134127137" role="outer"/>
  <member type="way" ref="1532186517" role="outer"/>
  <member type="way" ref="1535639328" role="outer"/>
  <member type="way" ref="1553285039" role="outer"/>
  <member type="way" ref="133743593" role="outer"/>
  <member type="way" ref="133743621" role="outer"/>
  <member type="way" ref="133743623" role="outer"/>
  <member type="way" ref="133743596" role="outer"/>
  <member type="way" ref="133743627" role="outer"/>
  <member type="way" ref="195400695" role="outer"/>
  <member type="way" ref="195400727" role="outer"/>
  <member type="way" ref="195400685" role="outer"/>
  <member type="way" ref="195400699" role="outer"/>
  <member type="way" ref="195400675" role="outer"/>
  <member type="way" ref="195400760" role="outer"/>
  <member type="way" ref="195400671" role="outer"/>
  <member type="way" ref="195400663" role="outer"/>
  <member type="way" ref="133743625" role="outer"/>
  <member type="way" ref="88076891" role="outer"/>
  <member type="way" ref="174954911" role="outer"/>
  <member type="way" ref="211407436" role="outer"/>
  <member type="way" ref="84476685" role="outer"/>
  <member type="way" ref="211407449" role="outer"/>
  <member type="way" ref="78334115" role="outer"/>
  <member type="way" ref="88077010" role="outer"/>
  <member type="way" ref="46835387" role="outer"/>
  <member type="way" ref="46933962" role="outer"/>
  <member type="way" ref="46896163" role="outer"/>
  <member type="way" ref="46896170" role="outer"/>
  <member type="way" ref="111572199" role="outer"/>
  <member type="way" ref="121714558" role="outer"/>
  <member type="way" ref="121714539" role="outer"/>
  <member type="way" ref="190767163" role="outer"/>
  <member type="way" ref="172291856" role="outer"/>
  <member type="way" ref="155715677" role="outer"/>
  <member type="way" ref="46876345" role="outer"/>
  <member type="way" ref="508157667" role="outer"/>
  <member type="way" ref="508157668" role="outer"/>
  <member type="way" ref="72738433" role="outer"/>
  <member type="way" ref="46876347" role="outer"/>
  <member type="way" ref="45094303" role="outer"/>
  <member type="way" ref="72843682" role="outer"/>
  <member type="way" ref="72843683" role="outer"/>
  <member type="way" ref="72738428" role="outer"/>
  <member type="way" ref="110533019" role="outer"/>
  <member type="way" ref="110533021" role="outer"/>
  <member type="way" ref="894942467" role="outer"/>
  <member type="way" ref="894942466" role="outer"/>
  <member type="way" ref="149876087" role="outer"/>
  <member type="way" ref="149876086" role="outer"/>
  <member type="way" ref="45094302" role="outer"/>
  <member type="way" ref="110533027" role="outer"/>
  <member type="way" ref="1086854400" role="outer"/>
  <member type="way" ref="1086854401" role="outer"/>
  <member type="way" ref="1086854395" role="outer"/>
  <member type="way" ref="393621467" role="outer"/>
  <member type="way" ref="875095156" role="outer"/>
  <member type="way" ref="1086513892" role="outer"/>
  <member type="way" ref="1191662946" role="outer"/>
  <member type="way" ref="1086513895" role="outer"/>
  <member type="way" ref="1086513896" role="outer"/>
  <member type="way" ref="875095155" role="outer"/>
  <member type="way" ref="1086470140" role="outer"/>
  <member type="way" ref="1086470126" role="outer"/>
  <member type="way" ref="393621470" role="outer"/>
  <member type="way" ref="1086470133" role="outer"/>
  <member type="way" ref="1086470132" role="outer"/>
  <member type="way" ref="1086470141" role="outer"/>
  <member type="way" ref="1086470147" role="outer"/>
  <member type="way" ref="1086470143" role="outer"/>
  <member type="way" ref="1084701572" role="outer"/>
  <member type="way" ref="1086470148" role="outer"/>
  <member type="way" ref="1086470152" role="outer"/>
  <member type="way" ref="1086470151" role="outer"/>
  <member type="way" ref="1086470157" role="outer"/>
  <member type="way" ref="393621466" role="outer"/>
  <member type="way" ref="155045018" role="outer"/>
  <member type="way" ref="1278193334" role="outer"/>
  <member type="way" ref="1346444784" role="outer"/>
  <member type="way" ref="307679594" role="outer"/>
  <member type="way" ref="307679597" role="outer"/>
  <member type="way" ref="308024258" role="outer"/>
  <member type="way" ref="96849575" role="outer"/>
  <member type="way" ref="1366491439" role="outer"/>
  <member type="way" ref="96849576" role="outer"/>
  <member type="way" ref="87297376" role="outer"/>
  <member type="way" ref="1344407309" role="outer"/>
  <member type="way" ref="1344407311" role="outer"/>
  <member type="way" ref="1344407310" role="outer"/>
  <member type="way" ref="45885987" role="outer"/>
  <member type="way" ref="120171398" role="outer"/>
  <member type="way" ref="48647614" role="outer"/>
  <member type="way" ref="1377958882" role="outer"/>
  <member type="way" ref="225114693" role="outer"/>
  <member type="way" ref="225114697" role="outer"/>
  <member type="way" ref="45205339" role="outer"/>
  <member type="way" ref="118692224" role="outer"/>
  <member type="way" ref="219381340" role="outer"/>
  <member type="way" ref="525655426" role="outer"/>
  <member type="way" ref="525655427" role="outer"/>
  <member type="way" ref="219381339" role="outer"/>
  <member type="way" ref="172291857" role="outer"/>
  <member type="way" ref="1264589196" role="outer"/>
  <member type="way" ref="219365277" role="outer"/>
  <member type="way" ref="1061532016" role="outer"/>
  <member type="way" ref="1061532017" role="outer"/>
  <member type="way" ref="219365271" role="outer"/>
  <member type="way" ref="166380012" role="outer"/>
  <member type="way" ref="166380011" role="outer"/>
  <member type="way" ref="166380008" role="outer"/>
  <member type="way" ref="1190615778" role="outer"/>
  <member type="way" ref="46219771" role="outer"/>
  <member type="way" ref="1190615779" role="outer"/>
  <member type="way" ref="396437220" role="outer"/>
  <member type="way" ref="1190583438" role="outer"/>
  <member type="way" ref="1190583434" role="outer"/>
  <member type="way" ref="1190583437" role="outer"/>
  <member type="way" ref="130800586" role="outer"/>
  <member type="way" ref="375103108" role="outer"/>
  <member type="way" ref="125556601" role="outer"/>
  <member type="way" ref="125556591" role="outer"/>
  <member type="way" ref="158651989" role="outer"/>
  <member type="way" ref="1499881606" role="outer"/>
  <member type="way" ref="120321506" role="outer"/>
  <member type="way" ref="111595675" role="outer"/>
  <member type="way" ref="552664597" role="outer"/>
  <member type="way" ref="46219767" role="outer"/>
  <member type="way" ref="395316338" role="outer"/>
  <member type="way" ref="320045617" role="outer"/>
  <member type="way" ref="552664596" role="outer"/>
  <member type="way" ref="320045616" role="outer"/>
  <member type="way" ref="300238614" role="outer"/>
  <member type="way" ref="395305234" role="outer"/>
  <member type="way" ref="300238617" role="outer"/>
  <member type="way" ref="300238613" role="outer"/>
  <member type="way" ref="300238616" role="outer"/>
  <member type="way" ref="300238611" role="outer"/>
  <member type="way" ref="300238612" role="outer"/>
  <member type="way" ref="300238608" role="outer"/>
  <member type="way" ref="633301506" role="outer"/>
  <member type="way" ref="633301507" role="outer"/>
  <member type="way" ref="552664591" role="outer"/>
  <member type="way" ref="552664592" role="outer"/>
  <member type="way" ref="395305228" role="outer"/>
  <member type="way" ref="552664593" role="outer"/>
  <member type="way" ref="173194912" role="outer"/>
  <member type="way" ref="175729248" role="outer"/>
  <member type="way" ref="46219793" role="outer"/>
  <member type="way" ref="86226474" role="outer"/>
  <member type="way" ref="111595663" role="outer"/>
  <member type="way" ref="86226475" role="outer"/>
  <member type="way" ref="46737028" role="outer"/>
  <member type="way" ref="218847212" role="outer"/>
  <member type="way" ref="219149531" role="outer"/>
  <member type="way" ref="218847211" role="outer"/>
  <member type="way" ref="218847213" role="outer"/>
  <member type="way" ref="111567967" role="outer"/>
  <member type="way" ref="1005572791" role="outer"/>
  <member type="way" ref="1005572790" role="outer"/>
  <member type="way" ref="218983071" role="outer"/>
  <member type="way" ref="1005572787" role="outer"/>
  <member type="way" ref="1005572788" role="outer"/>
  <member type="way" ref="1320704864" role="outer"/>
  <member type="way" ref="1005572786" role="outer"/>
  <member type="way" ref="1005572784" role="outer"/>
  <member type="way" ref="1005572785" role="outer"/>
  <member type="way" ref="1344409410" role="outer"/>
  <member type="way" ref="218983070" role="outer"/>
  <member type="way" ref="1344409411" role="outer"/>
  <member type="way" ref="148712544" role="outer"/>
  <member type="way" ref="111567976" role="outer"/>
  <member type="way" ref="119498221" role="outer"/>
  <member type="way" ref="1369871870" role="outer"/>
  <member type="way" ref="1369871871" role="outer"/>
  <member type="way" ref="122103896" role="outer"/>
  <member type="way" ref="122103892" role="outer"/>
  <member type="way" ref="700922772" role="outer"/>
  <member type="way" ref="122103885" role="outer"/>
  <member type="way" ref="122103894" role="outer"/>
  <member type="way" ref="688935447" role="outer"/>
  <member type="way" ref="122103886" role="outer"/>
  <member type="way" ref="46737037" role="outer"/>
  <member type="way" ref="95924759" role="outer"/>
  <member type="way" ref="249035944" role="outer"/>
  <member type="way" ref="25896275" role="outer"/>
  <member type="way" ref="122923851" role="outer"/>
  <member type="way" ref="71824144" role="outer"/>
  <member type="way" ref="71824143" role="outer"/>
  <member type="way" ref="1228295443" role="outer"/>
  <member type="way" ref="180178495" role="outer"/>
  <member type="way" ref="71824197" role="outer"/>
  <member type="way" ref="48671377" role="outer"/>
  <member type="way" ref="223505547" role="outer"/>
  <member type="way" ref="1214808937" role="outer"/>
  <member type="way" ref="1215645681" role="outer"/>
  <member type="way" ref="71824178" role="outer"/>
  <member type="way" ref="1214808940" role="outer"/>
  <member type="way" ref="1476219655" role="outer"/>
  <member type="way" ref="746817986" role="outer"/>
  <member type="way" ref="1214808941" role="outer"/>
  <member type="way" ref="1215043080" role="outer"/>
  <member type="way" ref="1214808943" role="outer"/>
  <member type="way" ref="1214858640" role="outer"/>
  <member type="way" ref="1214858638" role="outer"/>
  <member type="way" ref="1214858644" role="outer"/>
  <member type="way" ref="1214858646" role="outer"/>
  <member type="way" ref="1214858642" role="outer"/>
  <member type="way" ref="1214808944" role="outer"/>
  <member type="way" ref="1214808942" role="outer"/>
  <member type="way" ref="255005422" role="outer"/>
  <member type="way" ref="137686099" role="outer"/>
  <member type="way" ref="137686097" role="outer"/>
  <member type="way" ref="255005418" role="outer"/>
  <member type="way" ref="492606592" role="outer"/>
  <member type="way" ref="1455794165" role="outer"/>
  <member type="way" ref="255005420" role="outer"/>
  <member type="way" ref="1455794166" role="outer"/>
  <member type="way" ref="71795733" role="outer"/>
  <member type="way" ref="255676791" role="outer"/>
  <member type="way" ref="256354388" role="outer"/>
  <member type="way" ref="256354379" role="outer"/>
  <member type="way" ref="256354383" role="outer"/>
  <member type="way" ref="256354391" role="outer"/>
  <member type="way" ref="284057956" role="outer"/>
  <member type="way" ref="256354389" role="outer"/>
  <member type="way" ref="256354390" role="outer"/>
  <member type="way" ref="256354392" role="outer"/>
  <member type="way" ref="172698817" role="outer"/>
  <member type="way" ref="148073412" role="outer"/>
  <member type="way" ref="256354385" role="outer"/>
  <member type="way" ref="256354377" role="outer"/>
  <member type="way" ref="237354076" role="outer"/>
  <member type="way" ref="237354075" role="outer"/>
  <member type="way" ref="82624270" role="outer"/>
  <member type="way" ref="82624265" role="outer"/>
  <member type="way" ref="82624269" role="outer"/>
  <member type="way" ref="103312832" role="outer"/>
  <member type="way" ref="1380286610" role="outer"/>
  <member type="way" ref="82624262" role="outer"/>
  <member type="way" ref="71589568" role="outer"/>
  <member type="way" ref="1380286611" role="outer"/>
  <member type="way" ref="4455156" role="outer"/>
  <member type="way" ref="197668701" role="outer"/>
  <member type="way" ref="395316349" role="inner"/>
  <member type="way" ref="1264589197" role="inner"/>
  <member type="way" ref="1507807773" role="inner"/>
  <member type="way" ref="1507807774" role="inner"/>
  <member type="way" ref="175195149" role="outer"/>
  <member type="node" ref="27490597" role="admin_centre"/>
  <member type="node" ref="2050243275" role="label"/>
  <member type="relation" ref="1115367" role="subarea"/>
  <member type="relation" ref="338636" role="subarea"/>
  <member type="relation" ref="1115366" role="subarea"/>
  <member type="relation" ref="1114902" role="subarea"/>
  <member type="relation" ref="338635" role="subarea"/>
  <member type="relation" ref="369514" role="subarea"/>
  <member type="relation" ref="1114252" role="subarea"/>
  <member type="relation" ref="337424" role="subarea"/>
  <member type="relation" ref="1114905" role="subarea"/>
  <member type="relation" ref="1115082" role="subarea"/>
  <member type="relation" ref="363103" role="subarea"/>
  <member type="relation" ref="1114809" role="subarea"/>
  <member type="relation" ref="367375" role="subarea"/>
  <member type="relation" ref="1114193" role="subarea"/>
  <member type="relation" ref="368287" role="subarea"/>
  <member type="relation" ref="1114806" role="subarea"/>
  <member type="relation" ref="1114895" role="subarea"/>
  <member type="relation" ref="1114354" role="subarea"/>
  <tag k="addr:country" v="RU"/>
  <tag k="admin_level" v="4"/>
  <tag k="alt_name:mk" v="Петроград"/>
  <tag k="alt_name:vi" v="Sankt-Peterburg"/>
  <tag k="boundary" v="administrative"/>
  <tag k="gost_7.67-2003" v="РОФ-СПБ"/>
  <tag k="int_name" v="Sankt-Peterburg"/>
  <tag k="int_ref" v="RU-SPE"/>
  <tag k="is_in:country" v="Russia"/>
  <tag k="is_in:country_code" v="RU"/>
  <tag k="ISO3166-2" v="RU-SPE"/>
  <tag k="name" v="Санкт-Петербург"/>
  <tag k="name:ab" v="Санқт-Петербург"/>
  <tag k="name:ar" v="سانت بطرسبرغ"/>
  <tag k="name:ast" v="San Petersburgu"/>
  <tag k="name:be" v="Санкт-Пецярбург"/>
  <tag k="name:be-tarask" v="Санкт-Пецярбург"/>
  <tag k="name:bg" v="Санкт Петербург"/>
  <tag k="name:ca" v="Sant Petersburg"/>
  <tag k="name:cs" v="Petrohrad"/>
  <tag k="name:da" v="Sankt Petersborg"/>
  <tag k="name:de" v="Sankt Petersburg"/>
  <tag k="name:el" v="Αγία Πετρούπολη"/>
  <tag k="name:en" v="Saint Petersburg"/>
  <tag k="name:eo" v="Sankt-Peterburgo"/>
  <tag k="name:es" v="San Petersburgo"/>
  <tag k="name:et" v="Peterburi"/>
  <tag k="name:fi" v="Pietari"/>
  <tag k="name:fr" v="Saint-Pétersbourg"/>
  <tag k="name:fy" v="Sint-Petersburch"/>
  <tag k="name:gl" v="San Petersburgo"/>
  <tag k="name:gsw" v="Sànkt-Peterschbùrri"/>
  <tag k="name:hr" v="Sankt Peterburg"/>
  <tag k="name:hu" v="Szentpétervár"/>
  <tag k="name:it" v="San Pietroburgo"/>
  <tag k="name:ja" v="サンクト ペテルブルク"/>
  <tag k="name:ko" v="상트페테르부르크"/>
  <tag k="name:ku" v="Sankt Petersburg"/>
  <tag k="name:lb" v="Sankt Péitersbuerg"/>
  <tag k="name:lt" v="Sankt Peterburgas"/>
  <tag k="name:lv" v="Sanktpēterburga"/>
  <tag k="name:mk" v="Санкт Петербург"/>
  <tag k="name:nb" v="Sankt Petersburg"/>
  <tag k="name:nl" v="Sint-Petersburg"/>
  <tag k="name:os" v="Бетъырбух"/>
  <tag k="name:pl" v="Sankt Petersburg"/>
  <tag k="name:pt" v="São Petersburgo"/>
  <tag k="name:ro" v="Sankt Petersburg"/>
  <tag k="name:ru" v="Санкт-Петербург"/>
  <tag k="name:sk" v="Petrohrad"/>
  <tag k="name:sl" v="Sankt Peterburg"/>
  <tag k="name:sr" v="Санкт Петербург"/>
  <tag k="name:sv" v="Sankt Petersburg"/>
  <tag k="name:tk" v="Sankt-Peterburg"/>
  <tag k="name:tzl" v="Sant Pairbuerg"/>
  <tag k="name:uk" v="Санкт-Петербурґ"/>
  <tag k="name:vi" v="Xanh Pê-téc-bua"/>
  <tag k="name:zh" v="圣彼得堡"/>
  <tag k="name:zh-Hans" v="圣彼得堡"/>
  <tag k="name:zh-Hant" v="聖彼得堡"/>
  <tag k="official_status" v="ru:город федерального значения"/>
  <tag k="old_alt_name:vi" v="Bỉ Đắc"/>
  <tag k="old_name:1914-08-31--1924-01-26" v="Петроград"/>
  <tag k="old_name:1924-01-26--1991-09-06" v="Ленинград"/>
  <tag k="old_name:ar" v="لينينغراد;بيتروغراد"/>
  <tag k="old_name:en" v="Petrograd;Leningrad"/>
  <tag k="old_name:eo" v="Petrogrado;Leningrado"/>
  <tag k="old_name:fr" v="Pétrograd;Léningrad"/>
  <tag k="old_name:hr" v="Petrograd;Lenjingrad"/>
  <tag k="old_name:ku" v="Leningrad"/>
  <tag k="old_name:mk" v="Ленинград"/>
  <tag k="old_name:os" v="Петроград;Ленинград"/>
  <tag k="old_name:vi" v="Petrograd;Leningrad"/>
  <tag k="population" v="5377503"/>
  <tag k="population:date" v="2022-01-01"/>
  <tag k="ref" v="RU-SPE"/>
  <tag k="type" v="boundary"/>
  <tag k="wikidata" v="Q656"/>
  <tag k="wikimedia_commons" v="Category:Saint Petersburg"/>
  <tag k="wikipedia" v="ru:Санкт-Петербург"/>
 </relation>
 <relation id="1114902" visible="true" version="70" changeset="176060920" timestamp="2025-12-17T17:33:30Z" user="Руслан Т" uid="12947635">
  <member type="way" ref="143832872" role="outer"/>
  <member type="way" ref="1346230452" role="outer"/>
  <member type="way" ref="183080181" role="outer"/>
  <member type="way" ref="71338519" role="outer"/>
  <member type="way" ref="71338512" role="outer"/>
  <member type="way" ref="144799761" role="outer"/>
  <member type="way" ref="144799752" role="outer"/>
  <member type="way" ref="145739766" role="outer"/>
  <member type="way" ref="338078584" role="outer"/>
  <member type="way" ref="145012997" role="outer"/>
  <member type="way" ref="164553663" role="outer"/>
  <member type="way" ref="164553661" role="outer"/>
  <member type="way" ref="164553671" role="outer"/>
  <member type="way" ref="34348576" role="outer"/>
  <member type="way" ref="78518216" role="outer"/>
  <member type="way" ref="79570071" role="outer"/>
  <member type="way" ref="71360173" role="outer"/>
  <member type="way" ref="71360186" role="outer"/>
  <member type="way" ref="79570065" role="outer"/>
  <member type="way" ref="71376485" role="outer"/>
  <member type="way" ref="78334117" role="outer"/>
  <member type="way" ref="79570059" role="outer"/>
  <member type="way" ref="46835377" role="outer"/>
  <member type="way" ref="1459350639" role="outer"/>
  <member type="way" ref="27755091" role="outer"/>
  <member type="way" ref="46835382" role="outer"/>
  <member type="way" ref="79570062" role="outer"/>
  <member type="way" ref="71338504" role="outer"/>
  <member type="way" ref="180061350" role="outer"/>
  <member type="way" ref="417334171" role="outer"/>
  <member type="way" ref="1455148711" role="outer"/>
  <member type="way" ref="172289861" role="outer"/>
  <member type="way" ref="181364102" role="outer"/>
  <member type="way" ref="386927710" role="outer"/>
  <member type="relation" ref="1198055" role="subarea"/>
  <member type="relation" ref="1198057" role="subarea"/>
  <member type="relation" ref="1198058" role="subarea"/>
  <member type="relation" ref="1198056" role="subarea"/>
  <member type="relation" ref="1198054" role="subarea"/>
  <member type="relation" ref="1198059" role="subarea"/>
  <tag k="addr:country" v="RU"/>
  <tag k="addr:region" v="Санкт-Петербург"/>
  <tag k="admin_level" v="5"/>
  <tag k="boundary" v="administrative"/>
  <tag k="name" v="Центральный район"/>
  <tag k="name:en" v="Tsentralny District"/>
  <tag k="name:pl" v="rejon centralny"/>
  <tag k="name:ru" v="Центральный район"/>
  <tag k="name:uk" v="Центральний район"/>
  <tag k="name:zh" v="中央区"/>
  <tag k="name:zh-Hans" v="中央区"/>
  <tag k="name:zh-Hant" v="中央區"/>
  <tag k="type" v="boundary"/>
  <tag k="url" v="http://www.gov.spb.ru/law?d&amp;nd=8414528&amp;nh=0&amp;header=010000004N01#I0"/>
  <tag k="wikidata" v="Q271014"/>
  <tag k="wikipedia" v="ru:Центральный район (Санкт-Петербург)"/>
 </relation>
 <relation id="1114905" visible="true" version="40" changeset="141361719" timestamp="2023-09-16T23:21:35Z" user="traveleditor" uid="8726248">
  <member type="way" ref="345138492" role="outer"/>
  <member type="way" ref="345390934" role="outer"/>
  <member type="way" ref="345138487" role="outer"/>
  <member type="way" ref="1119180414" role="outer"/>
  <member type="way" ref="337593741" role="outer"/>
  <member type="way" ref="1119245121" role="outer"/>
  <member type="way" ref="345138488" role="outer"/>
  <member type="way" ref="219158987" role="outer"/>
  <member type="way" ref="219158980" role="outer"/>
  <member type="way" ref="219158986" role="outer"/>
  <member type="way" ref="219158982" role="outer"/>
  <member type="way" ref="112174604" role="outer"/>
  <member type="way" ref="219158984" role="outer"/>
  <member type="way" ref="72322196" role="outer"/>
  <member type="way" ref="78518205" role="outer"/>
  <member type="way" ref="72322204" role="outer"/>
  <member type="way" ref="78518193" role="outer"/>
  <member type="way" ref="34348577" role="outer"/>
  <member type="way" ref="78518216" role="outer"/>
  <member type="way" ref="79570071" role="outer"/>
  <member type="way" ref="71360173" role="outer"/>
  <member type="way" ref="30746764" role="outer"/>
  <member type="way" ref="78518196" role="outer"/>
  <member type="way" ref="71360167" role="outer"/>
  <member type="way" ref="78518204" role="outer"/>
  <member type="way" ref="79629133" role="outer"/>
  <member type="way" ref="219155921" role="outer"/>
  <member type="way" ref="219155919" role="outer"/>
  <member type="way" ref="219155918" role="outer"/>
  <member type="relation" ref="1187394" role="subarea"/>
  <member type="relation" ref="1187396" role="subarea"/>
  <member type="relation" ref="1187391" role="subarea"/>
  <member type="relation" ref="1187395" role="subarea"/>
  <member type="relation" ref="1187393" role="subarea"/>
  <member type="relation" ref="1187392" role="subarea"/>
  <tag k="addr:country" v="RU"/>
  <tag k="addr:region" v="Санкт-Петербург"/>
  <tag k="admin_level" v="5"/>
  <tag k="boundary" v="administrative"/>
  <tag k="name" v="Петроградский район"/>
  <tag k="name:de" v="Petrograder Rajon"/>
  <tag k="name:en" v="Petrogradsky District"/>
  <tag k="name:pl" v="rejon pietrogradski"/>
  <tag k="name:ru" v="Петроградский район"/>
  <tag k="name:uk" v="Петроградський район"/>
  <tag k="name:zh" v="彼得格勒区"/>
  <tag k="name:zh-Hans" v="彼得格勒区"/>
  <tag k="name:zh-Hant" v="彼得格勒區"/>
  <tag k="type" v="boundary"/>
  <tag k="url" v="http://www.gov.spb.ru/law?d&amp;nd=8414528&amp;nh=0&amp;header=010000002L01#I0"/>
  <tag k="wikidata" v="Q270196"/>
  <tag k="wikipedia" v="ru:Петроградский район"/>
 </relation>
 <relation id="1187391" visible="true" version="57" changeset="141361719" timestamp="2023-09-16T23:21:35Z" user="traveleditor" uid="8726248">
  <member type="way" ref="142551861" role="outer"/>
  <member type="way" ref="385190282" role="outer"/>
  <member type="way" ref="157040752" role="outer"/>
  <member type="way" ref="172446041" role="outer"/>
  <member type="way" ref="30746764" role="outer"/>
  <member type="way" ref="71360173" role="outer"/>
  <member type="way" ref="79570071" role="outer"/>
  <tag k="addr:country" v="RU"/>
  <tag k="addr:region" v="Санкт-Петербург"/>
  <tag k="admin_level" v="8"/>
  <tag k="alt_name" v="округ Посадский"/>
  <tag k="boundary" v="administrative"/>
  <tag k="name" v="Посадский округ"/>
  <tag k="name:ru" v="Посадский округ"/>
  <tag k="name:uk" v="Посадський округ"/>
  <tag k="official_name" v="муниципальный округ Посадский"/>
  <tag k="official_status" v="ru:внутригородская территория города федерального значения"/>
  <tag k="oktmo:user" v="40391000"/>
  <tag k="old_name" v="Муниципальный округ № 60"/>
  <tag k="ref" v="60"/>
  <tag k="type" v="boundary"/>
  <tag k="url" v="http://www.gov.spb.ru/law?d&amp;nd=8414528&amp;nh=0&amp;header=010000002R01#I0"/>
  <tag k="website" v="http://mo60.ru"/>
  <tag k="wikidata" v="Q4373572"/>
  <tag k="wikipedia" v="ru:Посадский (муниципальный округ)"/>
 </relation>
 <relation id="1198055" visible="true" version="30" changeset="141361719" timestamp="2023-09-16T23:21:35Z" user="traveleditor" uid="8726248">
  <member type="way" ref="24255525" role="outer"/>
  <member type="way" ref="79570071" role="outer"/>
  <member type="way" ref="78518216" role="outer"/>
  <member type="way" ref="34348576" role="outer"/>
  <member type="way" ref="164553671" role="outer"/>
  <member type="way" ref="164553661" role="outer"/>
  <member type="way" ref="164553663" role="outer"/>
  <member type="way" ref="143519881" role="outer"/>
  <member type="way" ref="164553664" role="outer"/>
  <tag k="addr:country" v="RU"/>
  <tag k="addr:region" v="Санкт-Петербург"/>
  <tag k="admin_level" v="8"/>
  <tag k="boundary" v="administrative"/>
  <tag k="name" v="Дворцовый округ"/>
  <tag k="name:de" v="Palastviertel"/>
  <tag k="name:en" v="Palace District"/>
  <tag k="name:ru" v="Дворцовый округ"/>
  <tag k="name:uk" v="Палацовий округ"/>
  <tag k="official_name" v="муниципальный округ Дворцовый округ"/>
  <tag k="official_status" v="ru:внутригородская территория города федерального значения"/>
  <tag k="type" v="boundary"/>
  <tag k="url" v="http://www.gov.spb.ru/law?d&amp;nd=8414528&amp;nh=0&amp;header=010000004P01#I0"/>
  <tag k="wikidata" v="Q2742132"/>
  <tag k="wikipedia" v="ru:Дворцовый округ"/>
 </relation>
 <relation id="1198058" visible="true" version="49" changeset="166613675" timestamp="2025-05-22T13:27:32Z" user="Bobropiton" uid="2055718">
  <member type="way" ref="79570057" role="outer"/>
  <member type="way" ref="81509221" role="outer"/>
  <member type="way" ref="81509218" role="outer"/>
  <member type="way" ref="81509223" role="outer"/>
  <member type="way" ref="81509219" role="outer"/>
  <member type="way" ref="79570065" role="outer"/>
  <member type="way" ref="71360186" role="outer"/>
  <member type="way" ref="71360173" role="outer"/>
  <member type="way" ref="24255525" role="outer"/>
  <member type="way" ref="143520370" role="outer"/>
  <member type="way" ref="842692731" role="outer"/>
  <member type="way" ref="121643163" role="outer"/>
  <member type="way" ref="1084498025" role="outer"/>
  <member type="way" ref="172555956" role="outer"/>
  <member type="way" ref="495004519" role="outer"/>
  <member type="way" ref="495004520" role="outer"/>
  <tag k="addr:country" v="RU"/>
  <tag k="addr:region" v="Санкт-Петербург"/>
  <tag k="admin_level" v="8"/>
  <tag k="alt_name" v="округ Литейный"/>
  <tag k="boundary" v="administrative"/>
  <tag k="name" v="Литейный округ"/>
  <tag k="name:uk" v="Ливарний округ"/>
  <tag k="official_name" v="муниципальный округ Литейный округ"/>
  <tag k="official_status" v="ru:внутригородская территория города федерального значения"/>
  <tag k="type" v="boundary"/>
  <tag k="url" v="http://www.gov.spb.ru/law?d&amp;nd=8414528&amp;nh=0&amp;header=010000004T01#I0"/>
  <tag k="wikidata" v="Q3908546"/>
  <tag k="wikipedia" v="ru:Литейный округ"/>
 </relation>
 <relation id="1625710" visible="true" version="21" changeset="141361719" timestamp="2023-09-16T23:21:35Z" user="traveleditor" uid="8726248">
  <member type="way" ref="142545020" role="across"/>
  <member type="way" ref="309915522" role="across"/>
  <member type="way" ref="142545019" role="across"/>
  <member type="way" ref="79570071" role="under"/>
  <member type="way" ref="78518216" role="under"/>
  <member type="way" ref="142545023" role="across"/>
  <member type="way" ref="142545024" role="across"/>
  <member type="relation" ref="6793935" role="outline"/>
  <member type="way" ref="202626991" role="across"/>
  <member type="way" ref="202626988" role="across"/>
  <tag k="name" v="Троицкий мост"/>
  <tag k="name:fr" v="Pont de la Trinité"/>
  <tag k="name:ru" v="Троицкий мост"/>
  <tag k="type" v="bridge"/>
 </relation>
 <relation id="2811903" visible="true" version="51" changeset="144585355" timestamp="2023-11-29T12:06:43Z" user="Ipintza" uid="9630390">
  <member type="way" ref="23567397" role="main_stream"/>
  <member type="way" ref="128486700" role="main_stream"/>
  <member type="way" ref="125178901" role="main_stream"/>
  <member type="way" ref="121660132" role="main_stream"/>
  <member type="way" ref="121660130" role="main_stream"/>
  <member type="way" ref="125192458" role="main_stream"/>
  <member type="way" ref="128486702" role="main_stream"/>
  <member type="way" ref="24219658" role="main_stream"/>
  <member type="way" ref="121803178" role="main_stream"/>
  <member type="way" ref="128486698" role="main_stream"/>
  <member type="way" ref="508157668" role="main_stream"/>
  <member type="way" ref="508157667" role="main_stream"/>
  <member type="way" ref="46876345" role="main_stream"/>
  <member type="way" ref="155715677" role="main_stream"/>
  <member type="way" ref="46876344" role="main_stream"/>
  <member type="way" ref="46896182" role="main_stream"/>
  <member type="way" ref="791651475" role="main_stream"/>
  <member type="way" ref="46896193" role="main_stream"/>
  <member type="way" ref="24219655" role="main_stream"/>
  <member type="way" ref="46896166" role="main_stream"/>
  <member type="way" ref="46835378" role="main_stream"/>
  <member type="way" ref="46835377" role="main_stream"/>
  <member type="way" ref="79570059" role="main_stream"/>
  <member type="way" ref="78334117" role="main_stream"/>
  <member type="way" ref="71376485" role="main_stream"/>
  <member type="way" ref="79570065" role="main_stream"/>
  <member type="way" ref="71360186" role="main_stream"/>
  <member type="way" ref="71360173" role="main_stream"/>
  <member type="way" ref="79570071" role="main_stream"/>
  <member type="way" ref="78518216" role="main_stream"/>
  <member type="way" ref="34348577" role="main_stream"/>
  <member type="way" ref="78518193" role="main_stream"/>
  <member type="way" ref="72322204" role="main_stream"/>
  <member type="way" ref="78518205" role="main_stream"/>
  <member type="way" ref="72322196" role="main_stream"/>
  <member type="way" ref="219158978" role="main_stream"/>
  <member type="way" ref="71959351" role="side_stream"/>
  <member type="way" ref="816346775" role="side_stream"/>
  <member type="way" ref="362796529" role="side_stream"/>
  <member type="way" ref="34348576" role="side_stream"/>
  <member type="way" ref="30746764" role="side_stream"/>
  <member type="way" ref="78518196" role="side_stream"/>
  <member type="way" ref="71360167" role="side_stream"/>
  <member type="way" ref="78518204" role="side_stream"/>
  <member type="way" ref="79629133" role="side_stream"/>
  <member type="way" ref="219155917" role="side_stream"/>
  <tag k="gvr:code" v="01040300312102000008487"/>
  <tag k="name" v="Нева"/>
  <tag k="name:ca" v="Riu Nevà"/>
  <tag k="name:de" v="Newa"/>
  <tag k="name:en" v="Neva River"/>
  <tag k="name:fa" v="رودخانه نوا"/>
  <tag k="name:hr" v="Neva"/>
  <tag k="name:ru" v="Нева"/>
  <tag k="name:zh" v="涅瓦河"/>
  <tag k="type" v="waterway"/>
  <tag k="waterway" v="river"/>
  <tag k="wikidata" v="Q645"/>
  <tag k="wikipedia" v="ru:Нева"/>
 </relation>
 <relation id="3460127" visible="true" version="31" changeset="173446410" timestamp="2025-10-18T11:42:01Z" user="Triglav2018" uid="9040307">
  <member type="way" ref="24255525" role="main_stream"/>
  <member type="way" ref="79570067" role="main_stream"/>
  <member type="way" ref="71338512" role="main_stream"/>
  <member type="way" ref="71338516" role="main_stream"/>
  <member type="way" ref="72129939" role="main_stream"/>
  <member type="way" ref="71959348" role="main_stream"/>
  <member type="way" ref="72129952" role="main_stream"/>
  <member type="way" ref="689376039" role="main_stream"/>
  <tag k="destination" v="Большая Нева"/>
  <tag k="gvr:code" v="01040300312102000008548"/>
  <tag k="int_name" v="Fontanka"/>
  <tag k="name" v="Фонтанка"/>
  <tag k="name:ca" v="Riu Fontanka"/>
  <tag k="name:de" v="Fontanka"/>
  <tag k="name:en" v="Fontanka River"/>
  <tag k="name:fr" v="Fontanka"/>
  <tag k="name:ja" v="フォンタンカ川"/>
  <tag k="type" v="waterway"/>
  <tag k="waterway" v="river"/>
  <tag k="wikidata" v="Q590237"/>
  <tag k="wikipedia" v="ru:Фонтанка"/>
 </relation>
 <relation id="3808075" visible="true" version="15" changeset="141361719" timestamp="2023-09-16T23:21:35Z" user="traveleditor" uid="8726248">
  <member type="way" ref="24255525" role="under"/>
  <member type="relation" ref="3808074" role="outline"/>
  <tag k="name" v="Прачечный мост"/>
  <tag k="type" v="bridge"/>
 </relation>
 <relation id="5517954" visible="true" version="12" changeset="141361719" timestamp="2023-09-16T23:21:35Z" user="traveleditor" uid="8726248">
  <member type="way" ref="156427624" role="across"/>
  <member type="way" ref="371587757" role="across"/>
  <member type="relation" ref="5517944" role="outline"/>
  <member type="way" ref="24255525" role="under"/>
  <member type="way" ref="721749468" role="across"/>
  <member type="way" ref="721749465" role="across"/>
  <tag k="bridge" v="yes"/>
  <tag k="name" v="Пантелеймоновский мост"/>
  <tag k="name:ru" v="Пантелеймоновский мост"/>
  <tag k="type" v="bridge"/>
 </relation>
 <relation id="5537305" visible="true" version="10" changeset="141361719" timestamp="2023-09-16T23:21:35Z" user="traveleditor" uid="8726248">
  <member type="way" ref="372394925" role="across"/>
  <member type="way" ref="372394928" role="across"/>
  <member type="way" ref="372394912" role="across"/>
  <member type="way" ref="372394934" role="across"/>
  <member type="relation" ref="5537267" role="outline"/>
  <member type="way" ref="79570067" role="under"/>
  <member type="way" ref="24255525" role="under"/>
  <tag k="bridge" v="yes"/>
  <tag k="name" v="Аничков мост"/>
  <tag k="type" v="bridge"/>
 </relation>
 <relation id="5589468" visible="true" version="10" changeset="141361719" timestamp="2023-09-16T23:21:35Z" user="traveleditor" uid="8726248">
  <member type="way" ref="375582786" role="across"/>
  <member type="way" ref="375582779" role="across"/>
  <member type="way" ref="375582775" role="across"/>
  <member type="way" ref="375582785" role="across"/>
  <member type="way" ref="375582782" role="across"/>
  <member type="relation" ref="5589456" role="outline"/>
  <member type="way" ref="24255525" role="under"/>
  <tag k="name" v="мост Белинского"/>
  <tag k="type" v="bridge"/>
 </relation>
 <relation id="7294613" visible="true" version="185" changeset="158616789" timestamp="2024-11-01T12:36:12Z" user="user_21502703" uid="21502703">
  <member type="way" ref="816346775" role=""/>
  <member type="way" ref="71959351" role=""/>
  <member type="way" ref="362796529" role=""/>
  <member type="way" ref="34348576" role=""/>
  <member type="way" ref="78518216" role=""/>
  <member type="way" ref="79570071" role=""/>
  <member type="way" ref="71360173" role=""/>
  <member type="way" ref="71360186" role=""/>
  <member type="way" ref="79570065" role=""/>
  <member type="way" ref="71376485" role=""/>
  <member type="way" ref="78334117" role=""/>
  <member type="way" ref="79570059" role=""/>
  <member type="way" ref="46835377" role=""/>
  <member type="way" ref="46835378" role=""/>
  <member type="way" ref="46896166" role=""/>
  <member type="way" ref="24219655" role=""/>
  <member type="way" ref="46896193" role=""/>
  <member type="way" ref="791651475" role=""/>
  <member type="way" ref="46896182" role=""/>
  <member type="way" ref="46876344" role=""/>
  <member type="way" ref="155715677" role=""/>
  <member type="way" ref="46876345" role=""/>
  <member type="way" ref="508157667" role=""/>
  <member type="way" ref="508157668" role=""/>
  <member type="way" ref="128486698" role=""/>
  <member type="way" ref="121803178" role=""/>
  <member type="way" ref="24219658" role=""/>
  <member type="way" ref="128486702" role=""/>
  <member type="way" ref="125192458" role=""/>
  <member type="way" ref="121660130" role=""/>
  <member type="way" ref="121660132" role=""/>
  <member type="way" ref="125178901" role=""/>
  <member type="way" ref="128486700" role=""/>
  <member type="way" ref="23567397" role=""/>
  <member type="way" ref="496864990" role=""/>
  <member type="way" ref="496864991" role=""/>
  <member type="way" ref="1313063185" role=""/>
  <member type="way" ref="1313063184" role=""/>
  <member type="way" ref="65155633" role=""/>
  <member type="way" ref="107241235" role=""/>
  <member type="way" ref="897133091" role=""/>
  <member type="way" ref="897133092" role=""/>
  <member type="way" ref="897133093" role=""/>
  <member type="way" ref="27083478" role=""/>
  <member type="way" ref="406943946" role=""/>
  <member type="way" ref="22984339" role=""/>
  <member type="way" ref="5047348" role=""/>
  <member type="way" ref="406943593" role=""/>
  <member type="way" ref="496864993" role=""/>
  <member type="way" ref="824059620" role=""/>
  <member type="way" ref="824059621" role=""/>
  <member type="way" ref="294746122" role=""/>
  <member type="way" ref="891134624" role=""/>
  <member type="way" ref="920902793" role=""/>
  <member type="way" ref="891134627" role=""/>
  <member type="way" ref="891134625" role=""/>
  <member type="way" ref="294746123" role=""/>
  <member type="way" ref="26602310" role=""/>
  <member type="way" ref="241495059" role=""/>
  <member type="way" ref="241495060" role=""/>
  <member type="way" ref="37130215" role=""/>
  <member type="way" ref="239989549" role=""/>
  <member type="way" ref="239989555" role=""/>
  <member type="way" ref="239989556" role=""/>
  <member type="way" ref="239989553" role=""/>
  <member type="way" ref="239565749" role=""/>
  <member type="way" ref="239565743" role=""/>
  <member type="way" ref="239565748" role=""/>
  <member type="way" ref="239565746" role=""/>
  <member type="way" ref="239565747" role=""/>
  <member type="way" ref="239310013" role=""/>
  <member type="way" ref="37130227" role=""/>
  <member type="way" ref="39372578" role=""/>
  <member type="way" ref="1000313961" role=""/>
  <member type="way" ref="1000296422" role=""/>
  <member type="way" ref="208610421" role=""/>
  <member type="way" ref="208610420" role=""/>
  <member type="way" ref="315366132" role=""/>
  <member type="way" ref="93878813" role=""/>
  <member type="way" ref="315668464" role=""/>
  <member type="way" ref="93878842" role=""/>
  <member type="way" ref="488534871" role=""/>
  <member type="way" ref="223544641" role=""/>
  <member type="way" ref="223544644" role=""/>
  <member type="way" ref="694125576" role=""/>
  <member type="way" ref="223544645" role=""/>
  <member type="way" ref="108446419" role=""/>
  <member type="way" ref="1003676741" role=""/>
  <member type="way" ref="1003676740" role=""/>
  <member type="way" ref="1003676742" role=""/>
  <member type="way" ref="108446426" role=""/>
  <member type="way" ref="108456794" role=""/>
  <member type="way" ref="349159526" role=""/>
  <member type="way" ref="349159525" role=""/>
  <member type="way" ref="349159527" role=""/>
  <member type="way" ref="299254275" role=""/>
  <member type="way" ref="299254238" role=""/>
  <member type="way" ref="559827773" role=""/>
  <member type="way" ref="496864989" role=""/>
  <member type="way" ref="556033937" role=""/>
  <member type="way" ref="173016317" role=""/>
  <member type="way" ref="541521761" role=""/>
  <member type="way" ref="566272492" role=""/>
  <member type="way" ref="1298333597" role=""/>
  <member type="way" ref="496864994" role=""/>
  <member type="way" ref="541604100" role=""/>
  <member type="way" ref="541604099" role=""/>
  <member type="way" ref="541604096" role=""/>
  <member type="way" ref="641140522" role=""/>
  <member type="way" ref="541604095" role=""/>
  <member type="way" ref="25039461" role=""/>
  <member type="way" ref="541611011" role=""/>
  <member type="way" ref="646819964" role=""/>
  <member type="way" ref="646819965" role=""/>
  <member type="way" ref="541611009" role=""/>
  <member type="way" ref="541611015" role=""/>
  <member type="way" ref="541616690" role=""/>
  <member type="way" ref="25039837" role=""/>
  <member type="way" ref="1028303039" role=""/>
  <member type="way" ref="541616693" role=""/>
  <member type="way" ref="541616696" role=""/>
  <member type="way" ref="541616695" role=""/>
  <member type="way" ref="25039932" role=""/>
  <member type="way" ref="1314309169" role=""/>
  <member type="way" ref="25040103" role=""/>
  <member type="way" ref="1005676005" role=""/>
  <member type="way" ref="1005676004" role=""/>
  <member type="way" ref="1005676003" role=""/>
  <member type="way" ref="1005676002" role=""/>
  <member type="way" ref="34504298" role=""/>
  <member type="way" ref="1005676001" role=""/>
  <member type="way" ref="1005676000" role=""/>
  <member type="way" ref="1005675998" role=""/>
  <member type="way" ref="1005675996" role=""/>
  <member type="way" ref="1005675994" role=""/>
  <member type="way" ref="1005675993" role=""/>
  <member type="way" ref="412428113" role=""/>
  <member type="way" ref="411634266" role=""/>
  <member type="way" ref="411633952" role=""/>
  <member type="way" ref="425353775" role=""/>
  <member type="way" ref="425355495" role=""/>
  <member type="way" ref="425079930" role=""/>
  <member type="way" ref="425077767" role=""/>
  <member type="way" ref="425077766" role=""/>
  <member type="way" ref="425079932" role=""/>
  <member type="way" ref="425093376" role=""/>
  <member type="way" ref="425093378" role=""/>
  <member type="way" ref="425096749" role=""/>
  <member type="way" ref="426803983" role=""/>
  <member type="way" ref="415058508" role=""/>
  <member type="way" ref="415028434" role=""/>
  <member type="way" ref="412642171" role=""/>
  <member type="way" ref="454942626" role=""/>
  <member type="way" ref="412669020" role=""/>
  <member type="way" ref="412675402" role=""/>
  <member type="way" ref="412675404" role=""/>
  <member type="way" ref="1308109691" role=""/>
  <member type="way" ref="541560105" role=""/>
  <member type="way" ref="1308109693" role=""/>
  <member type="way" ref="541560106" role=""/>
  <member type="way" ref="833200419" role=""/>
  <member type="way" ref="833200423" role=""/>
  <member type="way" ref="167825337" role=""/>
  <member type="way" ref="29548268" role=""/>
  <member type="way" ref="51161450" role=""/>
  <member type="way" ref="541623531" role=""/>
  <member type="way" ref="541623529" role=""/>
  <member type="way" ref="51161449" role=""/>
  <member type="way" ref="1315769843" role=""/>
  <member type="way" ref="974114065" role=""/>
  <member type="way" ref="974114067" role=""/>
  <member type="way" ref="541629624" role=""/>
  <member type="way" ref="1315376612" role=""/>
  <member type="way" ref="541629637" role=""/>
  <member type="way" ref="888409170" role=""/>
  <member type="way" ref="974114068" role=""/>
  <member type="way" ref="1313833317" role=""/>
  <member type="way" ref="1315769845" role=""/>
  <member type="way" ref="541629660" role=""/>
  <member type="way" ref="1317021527" role=""/>
  <member type="way" ref="541629645" role=""/>
  <member type="way" ref="541630237" role=""/>
  <member type="way" ref="745272031" role=""/>
  <member type="way" ref="745272030" role=""/>
  <member type="way" ref="24588426" role=""/>
  <member type="way" ref="1023713206" role=""/>
  <member type="way" ref="1023713205" role=""/>
  <member type="way" ref="130260562" role=""/>
  <member type="way" ref="130247928" role=""/>
  <member type="way" ref="130275669" role=""/>
  <member type="way" ref="130279869" role=""/>
  <member type="way" ref="438463402" role=""/>
  <member type="way" ref="130208354" role=""/>
  <member type="way" ref="1069516116" role=""/>
  <member type="way" ref="130206844" role=""/>
  <member type="way" ref="909345564" role=""/>
  <member type="way" ref="170795806" role=""/>
  <member type="way" ref="170795805" role=""/>
  <member type="way" ref="820910629" role=""/>
  <member type="way" ref="130208353" role=""/>
  <member type="way" ref="268927503" role=""/>
  <member type="way" ref="24588508" role=""/>
  <member type="way" ref="181657470" role=""/>
  <member type="way" ref="181657465" role=""/>
  <member type="way" ref="181657461" role=""/>
  <member type="way" ref="181657475" role=""/>
  <member type="way" ref="52464692" role=""/>
  <member type="way" ref="52464689" role=""/>
  <member type="way" ref="823971947" role=""/>
  <member type="way" ref="24588509" role=""/>
  <member type="way" ref="306560435" role=""/>
  <member type="way" ref="1018610344" role=""/>
  <member type="way" ref="760595962" role=""/>
  <member type="way" ref="128883453" role=""/>
  <member type="way" ref="306560442" role=""/>
  <member type="way" ref="1084625778" role=""/>
  <member type="way" ref="30567896" role=""/>
  <member type="way" ref="128752713" role=""/>
  <member type="way" ref="677727660" role=""/>
  <member type="way" ref="555965072" role=""/>
  <member type="way" ref="745278732" role=""/>
  <member type="way" ref="745278731" role=""/>
  <member type="way" ref="24588510" role=""/>
  <member type="way" ref="24588511" role=""/>
  <member type="way" ref="745278729" role=""/>
  <member type="way" ref="24588512" role=""/>
  <member type="way" ref="64776668" role=""/>
  <member type="way" ref="64776663" role=""/>
  <member type="way" ref="24588513" role=""/>
  <member type="way" ref="155381700" role=""/>
  <member type="way" ref="24588514" role=""/>
  <member type="way" ref="24588515" role=""/>
  <member type="way" ref="745278733" role=""/>
  <member type="way" ref="498995374" role=""/>
  <member type="way" ref="24588519" role=""/>
  <member type="way" ref="173822951" role=""/>
  <member type="way" ref="745278736" role=""/>
  <member type="way" ref="162682945" role=""/>
  <member type="way" ref="497999826" role=""/>
  <member type="way" ref="108010677" role=""/>
  <member type="way" ref="107999709" role=""/>
  <member type="way" ref="1000445195" role=""/>
  <member type="way" ref="1000445196" role=""/>
  <member type="way" ref="1000449792" role=""/>
  <member type="way" ref="1000449791" role=""/>
  <member type="way" ref="108010680" role=""/>
  <tag k="alt_name:ca" v="Ruta comercial dels varegs als grecs"/>
  <tag k="historic" v="trade_route"/>
  <tag k="name" v="From the Varangians to the Greeks"/>
  <tag k="name:be" v="Шлях з варагаў у грэкі"/>
  <tag k="name:ca" v="Des dels varegs als grecs"/>
  <tag k="name:de" v="Von den Waranern bis zu den Griechen"/>
  <tag k="name:en" v="From the Varangians to the Greeks"/>
  <tag k="name:fr" v="Route commerciale des Varègues aux Grecs"/>
  <tag k="name:ru" v="Путь из варяг в греки"/>
  <tag k="name:uk" v="Шлях із варягів у греки"/>
  <tag k="route" v="historic"/>
  <tag k="type" v="route"/>
  <tag k="wikidata" v="Q378346"/>
  <tag k="wikipedia" v="be:Шлях з варагаў у грэкі"/>
 </relation>
 <relation id="10908402" visible="true" version="68" changeset="185979534" timestamp="2026-07-18T21:27:52Z" user="Cmapuk-noxa6bl4" uid="20024786">
  <member type="way" ref="1470915264" role=""/>
  <member type="way" ref="1470915263" role=""/>
  <member type="way" ref="144489148" role=""/>
  <member type="way" ref="144489145" role=""/>
  <member type="way" ref="1470915265" role=""/>
  <member type="way" ref="30417811" role=""/>
  <member type="way" ref="1490472671" role=""/>
  <member type="way" ref="857248328" role=""/>
  <member type="way" ref="50250427" role=""/>
  <member type="way" ref="59908473" role=""/>
  <member type="way" ref="59908544" role=""/>
  <member type="way" ref="131279454" role=""/>
  <member type="way" ref="144489147" role=""/>
  <member type="way" ref="144489146" role=""/>
  <member type="way" ref="60144851" role=""/>
  <member type="way" ref="60195293" role=""/>
  <member type="way" ref="169229639" role=""/>
  <member type="way" ref="169229643" role=""/>
  <member type="way" ref="169229642" role=""/>
  <member type="way" ref="169229640" role=""/>
  <member type="way" ref="60144854" role=""/>
  <member type="way" ref="59908522" role=""/>
  <member type="way" ref="131279453" role=""/>
  <member type="way" ref="816346775" role=""/>
  <member type="way" ref="71959351" role=""/>
  <member type="way" ref="362796529" role=""/>
  <member type="way" ref="34348576" role=""/>
  <member type="way" ref="78518216" role=""/>
  <member type="way" ref="79570071" role=""/>
  <member type="way" ref="71360173" role=""/>
  <member type="way" ref="71360186" role=""/>
  <member type="way" ref="79570065" role=""/>
  <member type="way" ref="78334117" role=""/>
  <member type="way" ref="79570059" role=""/>
  <member type="way" ref="46835377" role=""/>
  <member type="way" ref="46835378" role=""/>
  <member type="way" ref="46896166" role=""/>
  <member type="way" ref="24219655" role=""/>
  <member type="way" ref="46896193" role=""/>
  <member type="way" ref="791651475" role=""/>
  <member type="way" ref="46896182" role=""/>
  <member type="way" ref="46876344" role=""/>
  <member type="way" ref="155715677" role=""/>
  <member type="way" ref="46876345" role=""/>
  <member type="way" ref="508157667" role=""/>
  <member type="way" ref="508157668" role=""/>
  <member type="way" ref="128486698" role=""/>
  <member type="way" ref="121803178" role=""/>
  <member type="way" ref="24219658" role=""/>
  <member type="way" ref="128486702" role=""/>
  <member type="way" ref="125192458" role=""/>
  <member type="way" ref="121660130" role=""/>
  <member type="way" ref="121660132" role=""/>
  <member type="way" ref="125178901" role=""/>
  <member type="way" ref="128486700" role=""/>
  <member type="way" ref="23567397" role=""/>
  <member type="way" ref="496864990" role=""/>
  <member type="way" ref="824088652" role=""/>
  <member type="way" ref="824088653" role=""/>
  <member type="way" ref="112941126" role=""/>
  <member type="way" ref="112941068" role=""/>
  <member type="way" ref="416254317" role=""/>
  <member type="way" ref="112941029" role=""/>
  <member type="way" ref="23771371" role=""/>
  <member type="way" ref="112941071" role=""/>
  <member type="way" ref="713010894" role=""/>
  <member type="way" ref="260612718" role=""/>
  <member type="way" ref="260612722" role=""/>
  <member type="way" ref="26454845" role=""/>
  <member type="way" ref="713010891" role=""/>
  <member type="way" ref="713010892" role=""/>
  <member type="way" ref="198118516" role=""/>
  <member type="way" ref="157408122" role=""/>
  <member type="way" ref="240287647" role=""/>
  <member type="way" ref="198118514" role=""/>
  <member type="way" ref="26454838" role=""/>
  <member type="way" ref="231741178" role=""/>
  <member type="way" ref="26454841" role=""/>
  <member type="way" ref="28433211" role=""/>
  <member type="way" ref="824081140" role=""/>
  <member type="way" ref="26454839" role=""/>
  <member type="way" ref="358557777" role=""/>
  <member type="way" ref="358557776" role=""/>
  <member type="way" ref="358550036" role=""/>
  <member type="way" ref="358550035" role=""/>
  <member type="way" ref="358560045" role=""/>
  <member type="way" ref="358560043" role=""/>
  <member type="way" ref="358560317" role=""/>
  <member type="way" ref="358560316" role=""/>
  <member type="way" ref="358560488" role=""/>
  <member type="way" ref="358560487" role=""/>
  <member type="way" ref="26454853" role=""/>
  <member type="way" ref="266390293" role=""/>
  <member type="way" ref="266390294" role=""/>
  <member type="way" ref="358560671" role=""/>
  <member type="way" ref="358560670" role=""/>
  <member type="way" ref="1220046007" role=""/>
  <member type="way" ref="1220046008" role=""/>
  <member type="way" ref="1220046010" role=""/>
  <member type="way" ref="1020271532" role=""/>
  <member type="way" ref="1002946116" role=""/>
  <member type="way" ref="1020271530" role=""/>
  <member type="way" ref="1020271529" role=""/>
  <member type="way" ref="1020271525" role=""/>
  <member type="way" ref="1020271526" role=""/>
  <member type="way" ref="1020271524" role=""/>
  <member type="way" ref="26454857" role=""/>
  <member type="way" ref="358561569" role=""/>
  <member type="way" ref="358561564" role=""/>
  <member type="way" ref="358560986" role=""/>
  <tag k="int_ref" v="E 60"/>
  <tag k="name" v="International waterway E60"/>
  <tag k="network" v="e-waterway"/>
  <tag k="ref" v="E60"/>
  <tag k="ref:signed" v="no"/>
  <tag k="route" v="waterway"/>
  <tag k="type" v="route"/>
 </relation>
 <relation id="10908469" visible="true" version="89" changeset="166622506" timestamp="2025-05-22T17:05:34Z" user="Exe19" uid="11113489">
  <member type="way" ref="816346775" role=""/>
  <member type="way" ref="71959351" role=""/>
  <member type="way" ref="362796529" role=""/>
  <member type="way" ref="34348576" role=""/>
  <member type="way" ref="78518216" role=""/>
  <member type="way" ref="79570071" role=""/>
  <member type="way" ref="71360173" role=""/>
  <member type="way" ref="71360186" role=""/>
  <member type="way" ref="79570065" role=""/>
  <member type="way" ref="78334117" role=""/>
  <member type="way" ref="79570059" role=""/>
  <member type="way" ref="46835377" role=""/>
  <member type="way" ref="46835378" role=""/>
  <member type="way" ref="46896166" role=""/>
  <member type="way" ref="24219655" role=""/>
  <member type="way" ref="46896193" role=""/>
  <member type="way" ref="791651475" role=""/>
  <member type="way" ref="46896182" role=""/>
  <member type="way" ref="46876344" role=""/>
  <member type="way" ref="155715677" role=""/>
  <member type="way" ref="46876345" role=""/>
  <member type="way" ref="508157667" role=""/>
  <member type="way" ref="508157668" role=""/>
  <member type="way" ref="128486698" role=""/>
  <member type="way" ref="121803178" role=""/>
  <member type="way" ref="24219658" role=""/>
  <member type="way" ref="128486702" role=""/>
  <member type="way" ref="125192458" role=""/>
  <member type="way" ref="121660130" role=""/>
  <member type="way" ref="121660132" role=""/>
  <member type="way" ref="125178901" role=""/>
  <member type="way" ref="128486700" role=""/>
  <member type="way" ref="23567397" role=""/>
  <member type="way" ref="496864990" role=""/>
  <member type="way" ref="824088652" role=""/>
  <member type="way" ref="824088653" role=""/>
  <member type="way" ref="112941126" role=""/>
  <member type="way" ref="112941068" role=""/>
  <member type="way" ref="416254317" role=""/>
  <member type="way" ref="112941029" role=""/>
  <member type="way" ref="23771371" role=""/>
  <member type="way" ref="112941071" role=""/>
  <member type="way" ref="713010894" role=""/>
  <member type="way" ref="260612718" role=""/>
  <member type="way" ref="260612722" role=""/>
  <member type="way" ref="26454845" role=""/>
  <member type="way" ref="713010891" role=""/>
  <member type="way" ref="713010892" role=""/>
  <member type="way" ref="198118516" role=""/>
  <member type="way" ref="157408122" role=""/>
  <member type="way" ref="240287647" role=""/>
  <member type="way" ref="198118514" role=""/>
  <member type="way" ref="26454838" role=""/>
  <member type="way" ref="231741178" role=""/>
  <member type="way" ref="26454841" role=""/>
  <member type="way" ref="28433211" role=""/>
  <member type="way" ref="824398188" role=""/>
  <member type="way" ref="783905883" role=""/>
  <member type="way" ref="243385258" role=""/>
  <member type="way" ref="260133424" role=""/>
  <member type="way" ref="116334237" role=""/>
  <member type="way" ref="155432731" role=""/>
  <member type="way" ref="157279571" role=""/>
  <member type="way" ref="243385255" role=""/>
  <member type="way" ref="41055802" role=""/>
  <member type="way" ref="78789367" role=""/>
  <member type="way" ref="197499377" role=""/>
  <member type="way" ref="260790652" role=""/>
  <member type="way" ref="260790651" role=""/>
  <member type="way" ref="260791550" role=""/>
  <member type="way" ref="260791551" role=""/>
  <member type="way" ref="260794193" role=""/>
  <member type="way" ref="260794195" role=""/>
  <member type="way" ref="34000014" role=""/>
  <member type="way" ref="260795712" role=""/>
  <member type="way" ref="116334225" role=""/>
  <member type="way" ref="116334222" role=""/>
  <member type="way" ref="33999977" role=""/>
  <member type="way" ref="115117303" role=""/>
  <member type="way" ref="33999896" role=""/>
  <member type="way" ref="115172926" role=""/>
  <member type="way" ref="115172963" role=""/>
  <member type="way" ref="115172982" role=""/>
  <member type="way" ref="78781950" role=""/>
  <member type="way" ref="116606428" role=""/>
  <member type="way" ref="713010886" role=""/>
  <member type="way" ref="713010885" role=""/>
  <member type="way" ref="713010884" role=""/>
  <member type="way" ref="116606429" role=""/>
  <member type="way" ref="116606430" role=""/>
  <member type="way" ref="116291285" role=""/>
  <member type="way" ref="116291286" role=""/>
  <member type="way" ref="116288306" role=""/>
  <member type="way" ref="116288311" role=""/>
  <member type="way" ref="116288302" role=""/>
  <member type="way" ref="116288309" role=""/>
  <member type="way" ref="90967082" role=""/>
  <member type="way" ref="33619870" role=""/>
  <member type="way" ref="116288308" role=""/>
  <member type="way" ref="116288313" role=""/>
  <member type="way" ref="117065908" role=""/>
  <member type="way" ref="117065909" role=""/>
  <member type="way" ref="116288312" role=""/>
  <member type="way" ref="115816363" role=""/>
  <member type="way" ref="115816364" role=""/>
  <member type="way" ref="115826115" role=""/>
  <member type="way" ref="120137468" role=""/>
  <member type="way" ref="391507707" role=""/>
  <member type="way" ref="391507708" role=""/>
  <member type="way" ref="823706148" role=""/>
  <member type="way" ref="713010880" role=""/>
  <member type="way" ref="713010879" role=""/>
  <member type="way" ref="231974096" role=""/>
  <member type="way" ref="117122425" role=""/>
  <member type="way" ref="713010878" role=""/>
  <member type="way" ref="117122424" role=""/>
  <member type="way" ref="117122777" role=""/>
  <member type="way" ref="117122778" role=""/>
  <member type="way" ref="117122422" role=""/>
  <member type="way" ref="117122423" role=""/>
  <member type="way" ref="713010877" role=""/>
  <member type="way" ref="146498573" role=""/>
  <member type="way" ref="713010881" role=""/>
  <member type="way" ref="231974115" role=""/>
  <member type="way" ref="231974098" role=""/>
  <member type="way" ref="231974099" role=""/>
  <member type="way" ref="231974097" role=""/>
  <member type="way" ref="231974106" role=""/>
  <member type="way" ref="231974105" role=""/>
  <member type="way" ref="231974110" role=""/>
  <member type="way" ref="231974101" role=""/>
  <member type="way" ref="231974107" role=""/>
  <member type="way" ref="231974108" role=""/>
  <member type="way" ref="249490243" role=""/>
  <member type="way" ref="292124336" role=""/>
  <member type="way" ref="231974109" role=""/>
  <member type="way" ref="231974104" role=""/>
  <member type="way" ref="249490242" role=""/>
  <member type="way" ref="231974112" role=""/>
  <member type="way" ref="231974111" role=""/>
  <member type="way" ref="231974114" role=""/>
  <member type="way" ref="231974102" role=""/>
  <member type="way" ref="249203962" role=""/>
  <member type="way" ref="249196828" role=""/>
  <member type="way" ref="231974100" role=""/>
  <member type="way" ref="249178541" role=""/>
  <member type="way" ref="157221822" role=""/>
  <member type="way" ref="248770992" role=""/>
  <member type="way" ref="248770993" role=""/>
  <member type="way" ref="250255750" role=""/>
  <member type="way" ref="408121597" role=""/>
  <member type="way" ref="27308737" role=""/>
  <member type="way" ref="816344452" role=""/>
  <member type="way" ref="261657502" role=""/>
  <member type="way" ref="40809655" role=""/>
  <member type="way" ref="40809656" role=""/>
  <member type="way" ref="40809658" role=""/>
  <member type="way" ref="363008756" role=""/>
  <member type="way" ref="40809653" role=""/>
  <member type="way" ref="40809654" role=""/>
  <member type="way" ref="261657503" role=""/>
  <member type="way" ref="40809766" role=""/>
  <member type="way" ref="40809764" role=""/>
  <member type="way" ref="40809763" role=""/>
  <member type="way" ref="40809761" role=""/>
  <member type="way" ref="40809760" role=""/>
  <member type="way" ref="363008757" role=""/>
  <member type="way" ref="261657504" role=""/>
  <member type="way" ref="261657499" role=""/>
  <member type="way" ref="27308495" role=""/>
  <member type="way" ref="148917169" role=""/>
  <member type="way" ref="324899690" role=""/>
  <member type="way" ref="324899691" role=""/>
  <member type="way" ref="27308486" role=""/>
  <member type="way" ref="1066902734" role=""/>
  <member type="way" ref="302091707" role=""/>
  <member type="way" ref="302091704" role=""/>
  <member type="way" ref="119567321" role=""/>
  <member type="way" ref="119567319" role=""/>
  <member type="way" ref="119567325" role=""/>
  <member type="way" ref="119567315" role=""/>
  <member type="way" ref="119567316" role=""/>
  <member type="way" ref="119567318" role=""/>
  <member type="way" ref="119567322" role=""/>
  <member type="way" ref="119567328" role=""/>
  <member type="way" ref="119567323" role=""/>
  <member type="way" ref="371700505" role=""/>
  <member type="way" ref="372706947" role=""/>
  <member type="way" ref="371700504" role=""/>
  <member type="way" ref="371700506" role=""/>
  <member type="way" ref="371363775" role=""/>
  <member type="way" ref="1066902724" role=""/>
  <member type="way" ref="1066902733" role=""/>
  <member type="way" ref="508103232" role=""/>
  <member type="way" ref="508103287" role=""/>
  <member type="way" ref="508103295" role=""/>
  <member type="way" ref="508103282" role=""/>
  <member type="way" ref="670821940" role=""/>
  <member type="way" ref="670821944" role=""/>
  <member type="way" ref="17014912" role=""/>
  <member type="way" ref="670821943" role=""/>
  <member type="way" ref="117136471" role=""/>
  <member type="way" ref="670821942" role=""/>
  <member type="way" ref="37332618" role=""/>
  <member type="way" ref="508103259" role=""/>
  <member type="way" ref="508103272" role=""/>
  <member type="way" ref="508103245" role=""/>
  <member type="way" ref="37336039" role=""/>
  <member type="way" ref="119581348" role=""/>
  <member type="way" ref="119581350" role=""/>
  <member type="way" ref="119581349" role=""/>
  <member type="way" ref="119581346" role=""/>
  <member type="way" ref="119581354" role=""/>
  <member type="way" ref="119581352" role=""/>
  <member type="way" ref="119581356" role=""/>
  <member type="way" ref="119581347" role=""/>
  <member type="way" ref="119581351" role=""/>
  <member type="way" ref="119585293" role=""/>
  <member type="way" ref="69376453" role=""/>
  <member type="way" ref="119423353" role=""/>
  <member type="way" ref="119423328" role=""/>
  <member type="way" ref="119089557" role=""/>
  <member type="way" ref="69376388" role=""/>
  <member type="way" ref="119089561" role=""/>
  <member type="way" ref="133890997" role=""/>
  <member type="way" ref="119089556" role=""/>
  <member type="way" ref="133890998" role=""/>
  <member type="way" ref="119089549" role=""/>
  <member type="way" ref="119089551" role=""/>
  <member type="way" ref="134129607" role=""/>
  <member type="way" ref="134141448" role=""/>
  <member type="way" ref="134141447" role=""/>
  <member type="way" ref="119089544" role=""/>
  <member type="way" ref="134129606" role=""/>
  <member type="way" ref="70553656" role=""/>
  <member type="way" ref="119133620" role=""/>
  <member type="way" ref="130219375" role=""/>
  <member type="way" ref="69376397" role=""/>
  <member type="way" ref="130072481" role=""/>
  <member type="way" ref="130072479" role=""/>
  <member type="way" ref="130072484" role=""/>
  <member type="way" ref="131199278" role=""/>
  <member type="way" ref="131889384" role=""/>
  <member type="way" ref="130072480" role=""/>
  <member type="way" ref="130072482" role=""/>
  <member type="way" ref="131889382" role=""/>
  <member type="way" ref="130072483" role=""/>
  <member type="way" ref="131898822" role=""/>
  <member type="way" ref="131898816" role=""/>
  <member type="way" ref="70553657" role=""/>
  <member type="way" ref="131898818" role=""/>
  <member type="way" ref="120565105" role=""/>
  <member type="way" ref="131898821" role=""/>
  <member type="way" ref="70534140" role=""/>
  <member type="way" ref="119593156" role=""/>
  <member type="way" ref="119593163" role=""/>
  <member type="way" ref="119593168" role=""/>
  <member type="way" ref="119593164" role=""/>
  <member type="way" ref="119593166" role=""/>
  <member type="way" ref="35851660" role=""/>
  <member type="way" ref="119593158" role=""/>
  <member type="way" ref="121027789" role=""/>
  <member type="way" ref="119593162" role=""/>
  <member type="way" ref="121027786" role=""/>
  <member type="way" ref="121027781" role=""/>
  <member type="way" ref="306562098" role=""/>
  <member type="way" ref="306562099" role=""/>
  <member type="way" ref="306562100" role=""/>
  <member type="way" ref="306562096" role=""/>
  <member type="way" ref="306562097" role=""/>
  <member type="way" ref="69587537" role=""/>
  <member type="way" ref="69587534" role=""/>
  <member type="way" ref="26213889" role=""/>
  <member type="way" ref="882316239" role=""/>
  <member type="way" ref="882316238" role=""/>
  <tag k="int_ref" v="E 50"/>
  <tag k="name" v="International waterway E50"/>
  <tag k="name:uk" v="International waterway E50"/>
  <tag k="network" v="e-waterway"/>
  <tag k="ref" v="E50"/>
  <tag k="ref:signed" v="no"/>
  <tag k="route" v="waterway"/>
  <tag k="type" v="route"/>
 </relation>
 <relation id="11039846" visible="true" version="24" changeset="185115000" timestamp="2026-07-04T23:04:46Z" user="ndf_maypole" uid="20498931">
  <member type="relation" ref="10947511" role=""/>
  <member type="relation" ref="10945397" role=""/>
  <member type="relation" ref="10938707" role=""/>
  <member type="relation" ref="10933779" role=""/>
  <member type="relation" ref="10939409" role=""/>
  <member type="relation" ref="10993123" role=""/>
  <member type="relation" ref="10947684" role=""/>
  <member type="relation" ref="10896328" role=""/>
  <member type="relation" ref="10968112" role=""/>
  <member type="relation" ref="10968903" role=""/>
  <member type="relation" ref="10969464" role=""/>
  <member type="relation" ref="10986356" role=""/>
  <member type="relation" ref="10969463" role=""/>
  <member type="relation" ref="10986355" role=""/>
  <member type="relation" ref="10984952" role=""/>
  <member type="relation" ref="10986357" role=""/>
  <member type="relation" ref="10948424" role=""/>
  <member type="relation" ref="10983046" role=""/>
  <member type="relation" ref="10948500" role=""/>
  <member type="relation" ref="10983045" role=""/>
  <member type="relation" ref="10983044" role=""/>
  <member type="relation" ref="10950808" role=""/>
  <member type="relation" ref="10950903" role=""/>
  <member type="relation" ref="10948670" role=""/>
  <member type="relation" ref="10983043" role=""/>
  <member type="relation" ref="10904154" role=""/>
  <member type="relation" ref="10953892" role=""/>
  <member type="relation" ref="10954570" role=""/>
  <member type="relation" ref="6119975" role=""/>
  <member type="relation" ref="10953347" role=""/>
  <member type="relation" ref="10908469" role=""/>
  <member type="relation" ref="10908402" role=""/>
  <member type="relation" ref="11036805" role=""/>
  <member type="relation" ref="11038003" role=""/>
  <member type="relation" ref="11036804" role=""/>
  <member type="relation" ref="11038002" role=""/>
  <member type="relation" ref="11036470" role=""/>
  <member type="relation" ref="11036244" role=""/>
  <member type="relation" ref="11033963" role=""/>
  <member type="relation" ref="11034014" role=""/>
  <member type="relation" ref="11032134" role=""/>
  <member type="relation" ref="11032135" role=""/>
  <member type="relation" ref="11032136" role=""/>
  <member type="relation" ref="11031684" role=""/>
  <member type="relation" ref="11031627" role=""/>
  <member type="relation" ref="11031628" role=""/>
  <member type="relation" ref="11014109" role=""/>
  <member type="relation" ref="11014496" role=""/>
  <member type="relation" ref="11004787" role=""/>
  <member type="relation" ref="11016480" role=""/>
  <member type="relation" ref="10995533" role=""/>
  <member type="relation" ref="10974129" role=""/>
  <member type="relation" ref="10977421" role=""/>
  <member type="relation" ref="10999086" role=""/>
  <member type="relation" ref="10958904" role=""/>
  <member type="relation" ref="10958905" role=""/>
  <member type="relation" ref="6132294" role=""/>
  <member type="relation" ref="10993124" role=""/>
  <member type="relation" ref="11022078" role=""/>
  <member type="relation" ref="10950050" role=""/>
  <member type="relation" ref="11024431" role=""/>
  <member type="relation" ref="10322987" role=""/>
  <member type="relation" ref="11025556" role=""/>
  <member type="relation" ref="9844373" role=""/>
  <member type="relation" ref="11027480" role=""/>
  <member type="relation" ref="11027479" role=""/>
  <member type="relation" ref="10960101" role=""/>
  <member type="relation" ref="11029152" role=""/>
  <member type="relation" ref="10960100" role=""/>
  <member type="relation" ref="11029436" role=""/>
  <member type="relation" ref="10909023" role=""/>
  <member type="relation" ref="11020504" role=""/>
  <member type="relation" ref="11020525" role=""/>
  <member type="relation" ref="10956849" role=""/>
  <member type="relation" ref="11020298" role=""/>
  <member type="relation" ref="11003043" role=""/>
  <member type="relation" ref="11016808" role=""/>
  <member type="relation" ref="11021125" role=""/>
  <member type="relation" ref="10993382" role=""/>
  <member type="relation" ref="10993776" role=""/>
  <member type="relation" ref="10993383" role=""/>
  <member type="relation" ref="10960191" role=""/>
  <member type="relation" ref="10908753" role=""/>
  <member type="relation" ref="10993381" role=""/>
  <member type="relation" ref="11016519" role=""/>
  <member type="relation" ref="11016520" role=""/>
  <member type="relation" ref="11016518" role=""/>
  <member type="relation" ref="11017375" role=""/>
  <member type="relation" ref="11018886" role=""/>
  <member type="relation" ref="10962554" role=""/>
  <member type="relation" ref="10969743" role=""/>
  <member type="relation" ref="10962466" role=""/>
  <member type="relation" ref="10961559" role=""/>
  <tag k="name" v="Trans-European Inland Waterway network"/>
  <tag k="name:de" v="Transeuropäisches Binnenwasserstraßennetz"/>
  <tag k="name:en" v="Trans-European Inland Waterway network"/>
  <tag k="name:es" v="Red Transeuropea de Vías Navegables Interiores"/>
  <tag k="name:ru" v="Трансъевропейская сеть внутренних водных путей"/>
  <tag k="network" v="e-waterway"/>
  <tag k="note" v="This superrelation is ONLY suposed to include waterway route relations (not ways)"/>
  <tag k="type" v="network"/>
  <tag k="wikidata" v="Q7833519"/>
  <tag k="wikipedia" v="en:Trans-European Inland Waterway network"/>
 </relation>
 <relation id="11207522" visible="true" version="3" changeset="144585355" timestamp="2023-11-29T12:06:43Z" user="Ipintza" uid="9630390">
  <member type="way" ref="816346776" role=""/>
  <member type="way" ref="71959351" role=""/>
  <member type="way" ref="362796529" role=""/>
  <member type="way" ref="34348576" role=""/>
  <member type="way" ref="78518216" role=""/>
  <member type="way" ref="79570071" role=""/>
  <member type="way" ref="71360173" role=""/>
  <member type="way" ref="71360186" role=""/>
  <member type="way" ref="79570065" role=""/>
  <member type="way" ref="71376485" role=""/>
  <member type="way" ref="78334117" role=""/>
  <member type="way" ref="79570059" role=""/>
  <member type="way" ref="46835377" role=""/>
  <member type="way" ref="46835378" role=""/>
  <member type="way" ref="46896166" role=""/>
  <member type="way" ref="24219655" role=""/>
  <member type="way" ref="46896193" role=""/>
  <member type="way" ref="791651475" role=""/>
  <member type="way" ref="46896182" role=""/>
  <member type="way" ref="46876344" role=""/>
  <member type="way" ref="155715677" role=""/>
  <member type="way" ref="46876345" role=""/>
  <member type="way" ref="508157667" role=""/>
  <member type="way" ref="508157668" role=""/>
  <member type="way" ref="128486698" role=""/>
  <member type="way" ref="121803178" role=""/>
  <member type="way" ref="24219658" role=""/>
  <member type="way" ref="128486702" role=""/>
  <member type="way" ref="125192458" role=""/>
  <member type="way" ref="121660130" role=""/>
  <member type="way" ref="121660132" role=""/>
  <member type="way" ref="125178901" role=""/>
  <member type="way" ref="128486700" role=""/>
  <member type="way" ref="23567397" role=""/>
  <member type="way" ref="496864990" role=""/>
  <member type="way" ref="824088652" role=""/>
  <member type="way" ref="824088653" role=""/>
  <member type="way" ref="824088651" role=""/>
  <member type="way" ref="824088650" role=""/>
  <member type="way" ref="19791211" role=""/>
  <tag k="type" v="route"/>
  <tag k="waterway" v="navigation"/>
 </relation>
</osm>
