<?xml version="1.0" encoding="UTF-8"?>
<osm version="0.6" generator="openstreetmap-cgimap 2.1.0 (244698 spike-07.openstreetmap.org)" copyright="OpenStreetMap and contributors" attribution="http://www.openstreetmap.org/copyright" license="http://opendatacommons.org/licenses/odbl/1-0/">
 <bounds minlat="60.0905595" minlon="30.3116911" maxlat="60.0932544" maxlon="30.3170960"/>
 <node id="1103269513" visible="true" version="1" changeset="6967852" timestamp="2011-01-14T14:40:12Z" user="xronos" uid="104972" lat="60.0888126" lon="30.3156999"/>
 <node id="1103269526" visible="true" version="1" changeset="6967852" timestamp="2011-01-14T14:40:13Z" user="xronos" uid="104972" lat="60.0901247" lon="30.3186018"/>
 <node id="1103269545" visible="true" version="1" changeset="6967852" timestamp="2011-01-14T14:40:13Z" user="xronos" uid="104972" lat="60.0888098" lon="30.3106572"/>
 <node id="1103269552" visible="true" version="1" changeset="6967852" timestamp="2011-01-14T14:40:13Z" user="xronos" uid="104972" lat="60.0911672" lon="30.3096965"/>
 <node id="1103269554" visible="true" version="1" changeset="6967852" timestamp="2011-01-14T14:40:13Z" user="xronos" uid="104972" lat="60.0911784" lon="30.3074697"/>
 <node id="1103269555" visible="true" version="1" changeset="6967852" timestamp="2011-01-14T14:40:13Z" user="xronos" uid="104972" lat="60.0856685" lon="30.3152571"/>
 <node id="1103269583" visible="true" version="2" changeset="10251458" timestamp="2011-12-31T01:39:19Z" user="AlexTheTux" uid="367643" lat="60.0908648" lon="30.3146587"/>
 <node id="1103269611" visible="true" version="1" changeset="6967852" timestamp="2011-01-14T14:40:14Z" user="xronos" uid="104972" lat="60.0886446" lon="30.3107914"/>
 <node id="1103269632" visible="true" version="2" changeset="12463077" timestamp="2012-07-24T10:02:28Z" user="Danidin9" uid="395588" lat="60.0862930" lon="30.3131846"/>
 <node id="1103269641" visible="true" version="2" changeset="10251458" timestamp="2011-12-31T01:39:19Z" user="AlexTheTux" uid="367643" lat="60.0913965" lon="30.3081774"/>
 <node id="1103269643" visible="true" version="2" changeset="10251458" timestamp="2011-12-31T01:39:19Z" user="AlexTheTux" uid="367643" lat="60.0917013" lon="30.3117816"/>
 <node id="1103269669" visible="true" version="1" changeset="6967852" timestamp="2011-01-14T14:40:15Z" user="xronos" uid="104972" lat="60.0868279" lon="30.3166188"/>
 <node id="1103269694" visible="true" version="1" changeset="6967852" timestamp="2011-01-14T14:40:16Z" user="xronos" uid="104972" lat="60.0913694" lon="30.3110986"/>
 <node id="1103269700" visible="true" version="1" changeset="6967852" timestamp="2011-01-14T14:40:16Z" user="xronos" uid="104972" lat="60.0893455" lon="30.3070545"/>
 <node id="1103269705" visible="true" version="1" changeset="6967852" timestamp="2011-01-14T14:40:16Z" user="xronos" uid="104972" lat="60.0862510" lon="30.3154730"/>
 <node id="1103269731" visible="true" version="2" changeset="10251458" timestamp="2011-12-31T01:39:19Z" user="AlexTheTux" uid="367643" lat="60.0897109" lon="30.3155859"/>
 <node id="1103269732" visible="true" version="1" changeset="6967852" timestamp="2011-01-14T14:40:17Z" user="xronos" uid="104972" lat="60.0911841" lon="30.3102033"/>
 <node id="1103269734" visible="true" version="1" changeset="6967852" timestamp="2011-01-14T14:40:17Z" user="xronos" uid="104972" lat="60.0885088" lon="30.3071410"/>
 <node id="1103269742" visible="true" version="1" changeset="6967852" timestamp="2011-01-14T14:40:17Z" user="xronos" uid="104972" lat="60.0859970" lon="30.3155504"/>
 <node id="1103269755" visible="true" version="1" changeset="6967852" timestamp="2011-01-14T14:40:18Z" user="xronos" uid="104972" lat="60.0911672" lon="30.3094431"/>
 <node id="1103269757" visible="true" version="1" changeset="6967852" timestamp="2011-01-14T14:40:18Z" user="xronos" uid="104972" lat="60.0916136" lon="30.3133960"/>
 <node id="1103269771" visible="true" version="1" changeset="6967852" timestamp="2011-01-14T14:40:18Z" user="xronos" uid="104972" lat="60.0894833" lon="30.3159822"/>
 <node id="1103269790" visible="true" version="2" changeset="12463077" timestamp="2012-07-24T10:02:30Z" user="Danidin9" uid="395588" lat="60.0884433" lon="30.3102010"/>
 <node id="1103269812" visible="true" version="2" changeset="10251458" timestamp="2011-12-31T01:39:19Z" user="AlexTheTux" uid="367643" lat="60.0918473" lon="30.3123588"/>
 <node id="1103269823" visible="true" version="1" changeset="6967852" timestamp="2011-01-14T14:40:19Z" user="xronos" uid="104972" lat="60.0879790" lon="30.3160652"/>
 <node id="1103269824" visible="true" version="1" changeset="6967852" timestamp="2011-01-14T14:40:20Z" user="xronos" uid="104972" lat="60.0903670" lon="30.3152373"/>
 <node id="1103269835" visible="true" version="2" changeset="10251458" timestamp="2011-12-31T01:39:19Z" user="AlexTheTux" uid="367643" lat="60.0909075" lon="30.3146039"/>
 <node id="1103269851" visible="true" version="1" changeset="6967852" timestamp="2011-01-14T14:40:20Z" user="xronos" uid="104972" lat="60.0915631" lon="30.3114871"/>
 <node id="1103269853" visible="true" version="2" changeset="158108742" timestamp="2024-10-19T22:15:10Z" user="Cmapuk-noxa6bl4" uid="20024786" lat="60.0910829" lon="30.3074469"/>
 <node id="1103269854" visible="true" version="1" changeset="6967852" timestamp="2011-01-14T14:40:20Z" user="xronos" uid="104972" lat="60.0852130" lon="30.3147146"/>
 <node id="1103269865" visible="true" version="1" changeset="6967852" timestamp="2011-01-14T14:40:20Z" user="xronos" uid="104972" lat="60.0866678" lon="30.3164084"/>
 <node id="1103269867" visible="true" version="1" changeset="6967852" timestamp="2011-01-14T14:40:20Z" user="xronos" uid="104972" lat="60.0910240" lon="30.3145447"/>
 <node id="1103269871" visible="true" version="2" changeset="10251458" timestamp="2011-12-31T01:39:20Z" user="AlexTheTux" uid="367643" lat="60.0913360" lon="30.3084626"/>
 <node id="1103269884" visible="true" version="1" changeset="6967852" timestamp="2011-01-14T14:40:21Z" user="xronos" uid="104972" lat="60.0888046" lon="30.3106225"/>
 <node id="1103269889" visible="true" version="1" changeset="6967852" timestamp="2011-01-14T14:40:21Z" user="xronos" uid="104972" lat="60.0891040" lon="30.3071929"/>
 <node id="1103269891" visible="true" version="2" changeset="12463077" timestamp="2012-07-24T10:02:31Z" user="Danidin9" uid="395588" lat="60.0883865" lon="30.3113424"/>
 <node id="1103269914" visible="true" version="2" changeset="10251458" timestamp="2011-12-31T01:39:20Z" user="AlexTheTux" uid="367643" lat="60.0914790" lon="30.3079957"/>
 <node id="1103269916" visible="true" version="2" changeset="10251458" timestamp="2011-12-31T01:39:20Z" user="AlexTheTux" uid="367643" lat="60.0913911" lon="30.3137873"/>
 <node id="1103269929" visible="true" version="2" changeset="10251458" timestamp="2011-12-31T01:39:20Z" user="AlexTheTux" uid="367643" lat="60.0895916" lon="30.3157809"/>
 <node id="1103269952" visible="true" version="1" changeset="6967852" timestamp="2011-01-14T14:40:22Z" user="xronos" uid="104972" lat="60.0912514" lon="30.3108452"/>
 <node id="1103269969" visible="true" version="1" changeset="6967852" timestamp="2011-01-14T14:40:23Z" user="xronos" uid="104972" lat="60.0861709" lon="30.3153180"/>
 <node id="1103269975" visible="true" version="4" changeset="10028808" timestamp="2011-12-03T22:02:20Z" user="AlexTheTux" uid="367643" lat="60.0937772" lon="30.3161282">
  <tag k="note" v="Здесь ЛЭП заворачивает - все точно."/>
  <tag k="power" v="tower"/>
 </node>
 <node id="1103269984" visible="true" version="1" changeset="6967852" timestamp="2011-01-14T14:40:23Z" user="xronos" uid="104972" lat="60.0886359" lon="30.3108177"/>
 <node id="1103269999" visible="true" version="1" changeset="6967852" timestamp="2011-01-14T14:40:24Z" user="xronos" uid="104972" lat="60.0911841" lon="30.3099668"/>
 <node id="1103270003" visible="true" version="2" changeset="12463077" timestamp="2012-07-24T10:02:32Z" user="Danidin9" uid="395588" lat="60.0884425" lon="30.3101143"/>
 <node id="1103270005" visible="true" version="1" changeset="6967852" timestamp="2011-01-14T14:40:24Z" user="xronos" uid="104972" lat="60.0858562" lon="30.3154674"/>
 <node id="1103270014" visible="true" version="2" changeset="10251458" timestamp="2011-12-31T01:39:20Z" user="AlexTheTux" uid="367643" lat="60.0904967" lon="30.3150456"/>
 <node id="1103270016" visible="true" version="2" changeset="10251458" timestamp="2011-12-31T01:39:20Z" user="AlexTheTux" uid="367643" lat="60.0911957" lon="30.3091177"/>
 <node id="1103270018" visible="true" version="1" changeset="6967852" timestamp="2011-01-14T14:40:24Z" user="xronos" uid="104972" lat="60.0916894" lon="30.3131426"/>
 <node id="1103270042" visible="true" version="1" changeset="6967852" timestamp="2011-01-14T14:40:24Z" user="xronos" uid="104972" lat="60.0890472" lon="30.3156667"/>
 <node id="1103270047" visible="true" version="2" changeset="12463077" timestamp="2012-07-24T10:02:33Z" user="Danidin9" uid="395588" lat="60.0852633" lon="30.3141477"/>
 <node id="1103270062" visible="true" version="2" changeset="10251458" timestamp="2011-12-31T01:39:20Z" user="AlexTheTux" uid="367643" lat="60.0913602" lon="30.3082994"/>
 <node id="1103270063" visible="true" version="1" changeset="6967852" timestamp="2011-01-14T14:40:25Z" user="xronos" uid="104972" lat="60.0917821" lon="30.3120108"/>
 <node id="1103270075" visible="true" version="1" changeset="6967852" timestamp="2011-01-14T14:40:25Z" user="xronos" uid="104972" lat="60.0911957" lon="30.3070632"/>
 <node id="1103270079" visible="true" version="1" changeset="6967852" timestamp="2011-01-14T14:40:25Z" user="xronos" uid="104972" lat="60.0871785" lon="30.3167018"/>
 <node id="1103270083" visible="true" version="1" changeset="6967852" timestamp="2011-01-14T14:40:25Z" user="xronos" uid="104972" lat="60.0884592" lon="30.3101833"/>
 <node id="1103270102" visible="true" version="1" changeset="6967852" timestamp="2011-01-14T14:40:26Z" user="xronos" uid="104972" lat="60.0914789" lon="30.3113013"/>
 <node id="1103270110" visible="true" version="1" changeset="6967852" timestamp="2011-01-14T14:40:26Z" user="xronos" uid="104972" lat="60.0901434" lon="30.3060599"/>
 <node id="1103270115" visible="true" version="1" changeset="6967852" timestamp="2011-01-14T14:40:26Z" user="xronos" uid="104972" lat="60.0864221" lon="30.3159047"/>
 <node id="1103270116" visible="true" version="1" changeset="6967852" timestamp="2011-01-14T14:40:26Z" user="xronos" uid="104972" lat="60.0911419" lon="30.3143588"/>
 <node id="1103270132" visible="true" version="1" changeset="6967852" timestamp="2011-01-14T14:40:26Z" user="xronos" uid="104972" lat="60.0909546" lon="30.3146530"/>
 <node id="1103270136" visible="true" version="2" changeset="10251458" timestamp="2011-12-31T01:39:20Z" user="AlexTheTux" uid="367643" lat="60.0900364" lon="30.3154053"/>
 <node id="1103270138" visible="true" version="1" changeset="6967852" timestamp="2011-01-14T14:40:27Z" user="xronos" uid="104972" lat="60.0911756" lon="30.3106256"/>
 <node id="1103270146" visible="true" version="1" changeset="6967852" timestamp="2011-01-14T14:40:27Z" user="xronos" uid="104972" lat="60.0885563" lon="30.3070199"/>
 <node id="1103270147" visible="true" version="2" changeset="12463077" timestamp="2012-07-24T10:02:34Z" user="Danidin9" uid="395588" lat="60.0884270" lon="30.3105451"/>
 <node id="1103270161" visible="true" version="2" changeset="10251458" timestamp="2011-12-31T01:39:20Z" user="AlexTheTux" uid="367643" lat="60.0915720" lon="30.3077783"/>
 <node id="1103270163" visible="true" version="1" changeset="6967852" timestamp="2011-01-14T14:40:27Z" user="xronos" uid="104972" lat="60.0915210" lon="30.3135987"/>
 <node id="1103270167" visible="true" version="2" changeset="10251458" timestamp="2011-12-31T01:39:20Z" user="AlexTheTux" uid="367643" lat="60.0912641" lon="30.3087461"/>
 <node id="1103270182" visible="true" version="1" changeset="6967852" timestamp="2011-01-14T14:40:28Z" user="xronos" uid="104972" lat="60.0895275" lon="30.3159213"/>
 <node id="1103270209" visible="true" version="2" changeset="10251458" timestamp="2011-12-31T01:39:20Z" user="AlexTheTux" uid="367643" lat="60.0917873" lon="30.3128232"/>
 <node id="1258512752" visible="true" version="2" changeset="10251458" timestamp="2011-12-31T01:39:21Z" user="AlexTheTux" uid="367643" lat="60.0850444" lon="30.3193861">
  <tag k="power" v="tower"/>
 </node>
 <node id="1258512976" visible="true" version="5" changeset="15053433" timestamp="2013-02-16T16:28:56Z" user="Zverik" uid="290271" lat="60.0779620" lon="30.3220806">
  <tag k="material" v="steel"/>
  <tag k="power" v="tower"/>
  <tag k="ref" v="ПРГ5/22"/>
 </node>
 <node id="1258513198" visible="true" version="7" changeset="133051930" timestamp="2023-02-26T17:13:16Z" user="Pavel239" uid="354001" lat="60.0722689" lon="30.3242195">
  <tag k="material" v="steel"/>
  <tag k="power" v="tower"/>
  <tag k="ref" v="ПРГ5/25"/>
 </node>
 <node id="1258514040" visible="true" version="6" changeset="145712501" timestamp="2023-12-30T20:41:41Z" user="Pavel239" uid="354001" lat="60.0817160" lon="30.3206597">
  <tag k="design" v="barrel"/>
  <tag k="material" v="steel"/>
  <tag k="power" v="tower"/>
 </node>
 <node id="1258514189" visible="true" version="6" changeset="15061039" timestamp="2013-02-17T09:50:15Z" user="Zverik" uid="290271" lat="60.0757694" lon="30.3229187">
  <tag k="material" v="steel"/>
  <tag k="power" v="tower"/>
  <tag k="ref" v="ПРГ5/23"/>
 </node>
 <node id="1258514408" visible="true" version="7" changeset="89742971" timestamp="2020-08-21T11:29:47Z" user="Pavel239" uid="354001" lat="60.0711120" lon="30.3247074">
  <tag k="material" v="steel"/>
  <tag k="power" v="tower"/>
  <tag k="ref" v="ПРГ5/26"/>
 </node>
 <node id="1258514739" visible="true" version="5" changeset="132611416" timestamp="2023-02-16T05:54:34Z" user="OSM FTW" uid="17746333" lat="60.0796057" lon="30.3214793">
  <tag k="design" v="barrel"/>
  <tag k="line_attachment" v="anchor"/>
  <tag k="material" v="steel"/>
  <tag k="power" v="tower"/>
 </node>
 <node id="1258514748" visible="true" version="1" changeset="7955695" timestamp="2011-04-24T18:39:29Z" user="Danidin9" uid="395588" lat="60.0837001" lon="30.3199082">
  <tag k="power" v="tower"/>
 </node>
 <node id="1258514928" visible="true" version="2" changeset="9888829" timestamp="2011-11-20T19:34:09Z" user="AlexTheTux" uid="367643" lat="60.0872978" lon="30.3185208">
  <tag k="power" v="tower"/>
 </node>
 <node id="1258515297" visible="true" version="10" changeset="186446403" timestamp="2026-07-27T09:51:58Z" user="Stranger8" uid="24304009" lat="60.0735181" lon="30.3237821">
  <tag k="design" v="barrel"/>
  <tag k="line_attachment" v="anchor"/>
  <tag k="material" v="steel"/>
  <tag k="power" v="tower"/>
  <tag k="ref" v="ПРГ5/24"/>
 </node>
 <node id="1495241296" visible="true" version="1" changeset="9772433" timestamp="2011-11-08T11:41:52Z" user="xronos" uid="104972" lat="60.0841061" lon="30.3164439"/>
 <node id="1495241297" visible="true" version="1" changeset="9772433" timestamp="2011-11-08T11:41:52Z" user="xronos" uid="104972" lat="60.0841703" lon="30.3163942"/>
 <node id="1495241298" visible="true" version="1" changeset="9772433" timestamp="2011-11-08T11:41:52Z" user="xronos" uid="104972" lat="60.0843379" lon="30.3161984"/>
 <node id="1495241299" visible="true" version="1" changeset="9772433" timestamp="2011-11-08T11:41:53Z" user="xronos" uid="104972" lat="60.0846644" lon="30.3157395"/>
 <node id="1495241300" visible="true" version="1" changeset="9772433" timestamp="2011-11-08T11:41:53Z" user="xronos" uid="104972" lat="60.0848714" lon="30.3155583"/>
 <node id="1495241301" visible="true" version="2" changeset="10251458" timestamp="2011-12-31T01:39:25Z" user="AlexTheTux" uid="367643" lat="60.0849312" lon="30.3156205"/>
 <node id="1495241302" visible="true" version="1" changeset="9772433" timestamp="2011-11-08T11:41:53Z" user="xronos" uid="104972" lat="60.0849691" lon="30.3156021"/>
 <node id="1495241303" visible="true" version="1" changeset="9772433" timestamp="2011-11-08T11:41:53Z" user="xronos" uid="104972" lat="60.0849968" lon="30.3155671"/>
 <node id="1495241304" visible="true" version="1" changeset="9772433" timestamp="2011-11-08T11:41:53Z" user="xronos" uid="104972" lat="60.0850536" lon="30.3156284"/>
 <node id="1495241305" visible="true" version="1" changeset="9772433" timestamp="2011-11-08T11:41:53Z" user="xronos" uid="104972" lat="60.0850915" lon="30.3155086"/>
 <node id="1495241306" visible="true" version="1" changeset="9772433" timestamp="2011-11-08T11:41:53Z" user="xronos" uid="104972" lat="60.0851032" lon="30.3154706"/>
 <node id="1495241307" visible="true" version="1" changeset="9772433" timestamp="2011-11-08T11:41:53Z" user="xronos" uid="104972" lat="60.0851149" lon="30.3155787"/>
 <node id="1495241308" visible="true" version="1" changeset="9772433" timestamp="2011-11-08T11:41:53Z" user="xronos" uid="104972" lat="60.0852023" lon="30.3154706"/>
 <node id="1495241309" visible="true" version="1" changeset="9772433" timestamp="2011-11-08T11:41:53Z" user="xronos" uid="104972" lat="60.0856238" lon="30.3156648"/>
 <node id="1495241310" visible="true" version="1" changeset="9772433" timestamp="2011-11-08T11:41:53Z" user="xronos" uid="104972" lat="60.0858102" lon="30.3156518"/>
 <node id="1495241311" visible="true" version="2" changeset="10251458" timestamp="2011-12-31T01:39:25Z" user="AlexTheTux" uid="367643" lat="60.0861568" lon="30.3156286"/>
 <node id="1495241312" visible="true" version="2" changeset="10251458" timestamp="2011-12-31T01:39:25Z" user="AlexTheTux" uid="367643" lat="60.0865749" lon="30.3166186"/>
 <node id="1495241313" visible="true" version="1" changeset="9772433" timestamp="2011-11-08T11:41:53Z" user="xronos" uid="104972" lat="60.0866663" lon="30.3166494"/>
 <node id="1495241314" visible="true" version="2" changeset="10251458" timestamp="2011-12-31T01:39:25Z" user="AlexTheTux" uid="367643" lat="60.0867965" lon="30.3167244"/>
 <node id="1495241316" visible="true" version="2" changeset="10251458" timestamp="2011-12-31T01:39:25Z" user="AlexTheTux" uid="367643" lat="60.0871854" lon="30.3168094"/>
 <node id="1495241317" visible="true" version="1" changeset="9772433" timestamp="2011-11-08T11:41:53Z" user="xronos" uid="104972" lat="60.0877094" lon="30.3163808"/>
 <node id="1495241319" visible="true" version="1" changeset="9772433" timestamp="2011-11-08T11:41:53Z" user="xronos" uid="104972" lat="60.0880939" lon="30.3161034"/>
 <node id="1495241320" visible="true" version="1" changeset="9772433" timestamp="2011-11-08T11:41:54Z" user="xronos" uid="104972" lat="60.0883165" lon="30.3159669"/>
 <node id="1495241321" visible="true" version="1" changeset="9772433" timestamp="2011-11-08T11:41:54Z" user="xronos" uid="104972" lat="60.0885593" lon="30.3158828"/>
 <node id="1495241322" visible="true" version="2" changeset="10251458" timestamp="2011-12-31T01:39:25Z" user="AlexTheTux" uid="367643" lat="60.0888133" lon="30.3157671"/>
 <node id="1495241323" visible="true" version="2" changeset="10251458" timestamp="2011-12-31T01:39:25Z" user="AlexTheTux" uid="367643" lat="60.0890667" lon="30.3157085"/>
 <node id="1495241325" visible="true" version="2" changeset="10251458" timestamp="2011-12-31T01:39:25Z" user="AlexTheTux" uid="367643" lat="60.0893247" lon="30.3159322"/>
 <node id="1495241326" visible="true" version="2" changeset="10251235" timestamp="2011-12-31T00:45:23Z" user="AlexTheTux" uid="367643" lat="60.0894654" lon="30.3160766"/>
 <node id="1505748729" visible="true" version="5" changeset="132611416" timestamp="2023-02-16T05:54:34Z" user="OSM FTW" uid="17746333" lat="60.0662631" lon="30.3412337">
  <tag k="design" v="barrel"/>
  <tag k="line_attachment" v="anchor"/>
  <tag k="material" v="steel"/>
  <tag k="note" v="возможно, ПРГ3/58"/>
  <tag k="power" v="tower"/>
  <tag k="ref" v="ПРГ3/60"/>
 </node>
 <node id="1505748730" visible="true" version="5" changeset="132611132" timestamp="2023-02-16T05:38:47Z" user="OSM FTW" uid="17746333" lat="60.0664787" lon="30.3402076">
  <tag k="design" v="barrel"/>
  <tag k="line_attachment" v="anchor"/>
  <tag k="material" v="steel"/>
  <tag k="power" v="tower"/>
  <tag k="ref" v="ПРГ3/61"/>
 </node>
 <node id="1505748733" visible="true" version="5" changeset="19554274" timestamp="2013-12-20T18:15:33Z" user="Kaverzin3" uid="381925" lat="60.0668610" lon="30.3383152">
  <tag k="power" v="tower"/>
 </node>
 <node id="1505748739" visible="true" version="5" changeset="19554274" timestamp="2013-12-20T18:15:32Z" user="Kaverzin3" uid="381925" lat="60.0673590" lon="30.3358646">
  <tag k="power" v="tower"/>
  <tag k="ref" v="ПРГ5/33"/>
 </node>
 <node id="1505748740" visible="true" version="6" changeset="19554274" timestamp="2013-12-20T18:15:32Z" user="Kaverzin3" uid="381925" lat="60.0677415" lon="30.3339636">
  <tag k="power" v="tower"/>
 </node>
 <node id="1505748744" visible="true" version="5" changeset="19554274" timestamp="2013-12-20T18:15:32Z" user="Kaverzin3" uid="381925" lat="60.0681068" lon="30.3321443">
  <tag k="power" v="tower"/>
  <tag k="ref" v="ПРГ5/30"/>
 </node>
 <node id="1505748745" visible="true" version="6" changeset="19554274" timestamp="2013-12-20T18:15:32Z" user="Kaverzin3" uid="381925" lat="60.0685289" lon="30.3301001">
  <tag k="power" v="tower"/>
  <tag k="ref" v="ПРГ5/29"/>
 </node>
 <node id="1505748748" visible="true" version="6" changeset="19554274" timestamp="2013-12-20T18:15:32Z" user="Kaverzin3" uid="381925" lat="60.0689261" lon="30.3280711">
  <tag k="power" v="tower"/>
  <tag k="ref" v="ПРГ5/28"/>
 </node>
 <node id="1505748750" visible="true" version="6" changeset="15065122" timestamp="2013-02-17T15:28:18Z" user="Zverik" uid="290271" lat="60.0695259" lon="30.3252640">
  <tag k="material" v="steel"/>
  <tag k="power" v="tower"/>
  <tag k="ref" v="ПРГ5/27"/>
 </node>
 <node id="1510263488" visible="true" version="1" changeset="9888829" timestamp="2011-11-20T19:34:05Z" user="AlexTheTux" uid="367643" lat="60.0894953" lon="30.3176844">
  <tag k="power" v="tower"/>
 </node>
 <node id="1510263500" visible="true" version="1" changeset="9888829" timestamp="2011-11-20T19:34:05Z" user="AlexTheTux" uid="367643" lat="60.0919691" lon="30.3167567">
  <tag k="power" v="tower"/>
 </node>
 <node id="1570201781" visible="true" version="3" changeset="170898099" timestamp="2025-08-23T21:48:53Z" user="Константин Гам" uid="392109" lat="60.0831758" lon="30.3164212"/>
 <node id="1570201783" visible="true" version="2" changeset="170898099" timestamp="2025-08-23T21:48:53Z" user="Константин Гам" uid="392109" lat="60.0833346" lon="30.3163896"/>
 <node id="1570201794" visible="true" version="2" changeset="170898099" timestamp="2025-08-23T21:48:53Z" user="Константин Гам" uid="392109" lat="60.0834243" lon="30.3163857"/>
 <node id="1570201798" visible="true" version="2" changeset="170898099" timestamp="2025-08-23T21:48:53Z" user="Константин Гам" uid="392109" lat="60.0836151" lon="30.3164429"/>
 <node id="1570201800" visible="true" version="1" changeset="10251235" timestamp="2011-12-31T00:45:00Z" user="AlexTheTux" uid="367643" lat="60.0839322" lon="30.3164039"/>
 <node id="1570201823" visible="true" version="2" changeset="10251458" timestamp="2011-12-31T01:39:28Z" user="AlexTheTux" uid="367643" lat="60.0897202" lon="30.3156618"/>
 <node id="1570201830" visible="true" version="1" changeset="10251235" timestamp="2011-12-31T00:45:01Z" user="AlexTheTux" uid="367643" lat="60.0903649" lon="30.3152974"/>
 <node id="1570201832" visible="true" version="2" changeset="10251458" timestamp="2011-12-31T01:39:28Z" user="AlexTheTux" uid="367643" lat="60.0908740" lon="30.3146821"/>
 <node id="1570201834" visible="true" version="2" changeset="10251458" timestamp="2011-12-31T01:39:28Z" user="AlexTheTux" uid="367643" lat="60.0909711" lon="30.3147387"/>
 <node id="1570201837" visible="true" version="2" changeset="10251458" timestamp="2011-12-31T01:39:28Z" user="AlexTheTux" uid="367643" lat="60.0912438" lon="30.3106508"/>
 <node id="1570201838" visible="true" version="1" changeset="10251235" timestamp="2011-12-31T00:45:02Z" user="AlexTheTux" uid="367643" lat="60.0912111" lon="30.3096951"/>
 <node id="1570201839" visible="true" version="2" changeset="10251458" timestamp="2011-12-31T01:39:28Z" user="AlexTheTux" uid="367643" lat="60.0912506" lon="30.3103393"/>
 <node id="1570201840" visible="true" version="2" changeset="10251458" timestamp="2011-12-31T01:39:28Z" user="AlexTheTux" uid="367643" lat="60.0911457" lon="30.3144260"/>
 <node id="1570201855" visible="true" version="2" changeset="10251458" timestamp="2011-12-31T01:39:28Z" user="AlexTheTux" uid="367643" lat="60.0912257" lon="30.3090801"/>
 <node id="1570201856" visible="true" version="2" changeset="10251458" timestamp="2011-12-31T01:39:28Z" user="AlexTheTux" uid="367643" lat="60.0912754" lon="30.3107481"/>
 <node id="1570201857" visible="true" version="2" changeset="10251458" timestamp="2011-12-31T01:39:28Z" user="AlexTheTux" uid="367643" lat="60.0912886" lon="30.3087905"/>
 <node id="1570201858" visible="true" version="2" changeset="10251458" timestamp="2011-12-31T01:39:29Z" user="AlexTheTux" uid="367643" lat="60.0913783" lon="30.3109317"/>
 <node id="1570201859" visible="true" version="2" changeset="10251458" timestamp="2011-12-31T01:39:29Z" user="AlexTheTux" uid="367643" lat="60.0913960" lon="30.3083016"/>
 <node id="1570201860" visible="true" version="2" changeset="10251458" timestamp="2011-12-31T01:39:29Z" user="AlexTheTux" uid="367643" lat="60.0914123" lon="30.3138453"/>
 <node id="1570201861" visible="true" version="2" changeset="10251458" timestamp="2011-12-31T01:39:29Z" user="AlexTheTux" uid="367643" lat="60.0914615" lon="30.3081520"/>
 <node id="1570201862" visible="true" version="1" changeset="10251235" timestamp="2011-12-31T00:45:03Z" user="AlexTheTux" uid="367643" lat="60.0915180" lon="30.3113312"/>
 <node id="1570201863" visible="true" version="1" changeset="10251235" timestamp="2011-12-31T00:45:03Z" user="AlexTheTux" uid="367643" lat="60.0916064" lon="30.3135113"/>
 <node id="1570201865" visible="true" version="2" changeset="10251458" timestamp="2011-12-31T01:39:29Z" user="AlexTheTux" uid="367643" lat="60.0915743" lon="30.3078497"/>
 <node id="1570201867" visible="true" version="1" changeset="10251235" timestamp="2011-12-31T00:45:03Z" user="AlexTheTux" uid="367643" lat="60.0916692" lon="30.3116466"/>
 <node id="1570201871" visible="true" version="2" changeset="10251458" timestamp="2011-12-31T01:39:29Z" user="AlexTheTux" uid="367643" lat="60.0917277" lon="30.3131924"/>
 <node id="1570201883" visible="true" version="1" changeset="10251235" timestamp="2011-12-31T00:45:04Z" user="AlexTheTux" uid="367643" lat="60.0917543" lon="30.3118859"/>
 <node id="1570201885" visible="true" version="2" changeset="10251458" timestamp="2011-12-31T01:39:29Z" user="AlexTheTux" uid="367643" lat="60.0918390" lon="30.3127525"/>
 <node id="1570201888" visible="true" version="2" changeset="10251458" timestamp="2011-12-31T01:39:29Z" user="AlexTheTux" uid="367643" lat="60.0918247" lon="30.3120499"/>
 <node id="1570201889" visible="true" version="2" changeset="10251458" timestamp="2011-12-31T01:39:29Z" user="AlexTheTux" uid="367643" lat="60.0918857" lon="30.3123054"/>
 <node id="1570270383" visible="true" version="1" changeset="10251458" timestamp="2011-12-31T01:39:11Z" user="AlexTheTux" uid="367643" lat="60.0862593" lon="30.3157438"/>
 <node id="1570270386" visible="true" version="1" changeset="10251458" timestamp="2011-12-31T01:39:11Z" user="AlexTheTux" uid="367643" lat="60.0900313" lon="30.3154732"/>
 <node id="1570270387" visible="true" version="1" changeset="10251458" timestamp="2011-12-31T01:39:11Z" user="AlexTheTux" uid="367643" lat="60.0910901" lon="30.3145698"/>
 <node id="1570270388" visible="true" version="1" changeset="10251458" timestamp="2011-12-31T01:39:11Z" user="AlexTheTux" uid="367643" lat="60.0912580" lon="30.3101662"/>
 <node id="1570270390" visible="true" version="1" changeset="10251458" timestamp="2011-12-31T01:39:11Z" user="AlexTheTux" uid="367643" lat="60.0912835" lon="30.3141768"/>
 <node id="1570270391" visible="true" version="1" changeset="10251458" timestamp="2011-12-31T01:39:12Z" user="AlexTheTux" uid="367643" lat="60.0912847" lon="30.3089591"/>
 <node id="1570270393" visible="true" version="1" changeset="10251458" timestamp="2011-12-31T01:39:12Z" user="AlexTheTux" uid="367643" lat="60.0913763" lon="30.3084691"/>
 <node id="1570270395" visible="true" version="1" changeset="10251458" timestamp="2011-12-31T01:39:12Z" user="AlexTheTux" uid="367643" lat="60.0914348" lon="30.3111513"/>
 <node id="12269906039" visible="true" version="1" changeset="158108742" timestamp="2024-10-19T22:15:10Z" user="Cmapuk-noxa6bl4" uid="20024786" lat="60.0901413" lon="30.3180760"/>
 <node id="12269906040" visible="true" version="1" changeset="158108742" timestamp="2024-10-19T22:15:10Z" user="Cmapuk-noxa6bl4" uid="20024786" lat="60.0901734" lon="30.3177649"/>
 <node id="12269906041" visible="true" version="1" changeset="158108742" timestamp="2024-10-19T22:15:10Z" user="Cmapuk-noxa6bl4" uid="20024786" lat="60.0938699" lon="30.3136343"/>
 <node id="12269906042" visible="true" version="1" changeset="158108742" timestamp="2024-10-19T22:15:10Z" user="Cmapuk-noxa6bl4" uid="20024786" lat="60.0938873" lon="30.3135645"/>
 <node id="12269906043" visible="true" version="1" changeset="158108742" timestamp="2024-10-19T22:15:10Z" user="Cmapuk-noxa6bl4" uid="20024786" lat="60.0938873" lon="30.3135216"/>
 <node id="12269906044" visible="true" version="1" changeset="158108742" timestamp="2024-10-19T22:15:10Z" user="Cmapuk-noxa6bl4" uid="20024786" lat="60.0938579" lon="30.3134894"/>
 <node id="12269906045" visible="true" version="1" changeset="158108742" timestamp="2024-10-19T22:15:10Z" user="Cmapuk-noxa6bl4" uid="20024786" lat="60.0938244" lon="30.3135028"/>
 <node id="12269906046" visible="true" version="1" changeset="158108742" timestamp="2024-10-19T22:15:10Z" user="Cmapuk-noxa6bl4" uid="20024786" lat="60.0924403" lon="30.3150424"/>
 <node id="12269906047" visible="true" version="1" changeset="158108742" timestamp="2024-10-19T22:15:10Z" user="Cmapuk-noxa6bl4" uid="20024786" lat="60.0918880" lon="30.3156486"/>
 <node id="12269906048" visible="true" version="1" changeset="158108742" timestamp="2024-10-19T22:15:10Z" user="Cmapuk-noxa6bl4" uid="20024786" lat="60.0909973" lon="30.3166813"/>
 <node id="12269906049" visible="true" version="1" changeset="158108742" timestamp="2024-10-19T22:15:10Z" user="Cmapuk-noxa6bl4" uid="20024786" lat="60.0907766" lon="30.3169093"/>
 <node id="12269906050" visible="true" version="1" changeset="158108742" timestamp="2024-10-19T22:15:10Z" user="Cmapuk-noxa6bl4" uid="20024786" lat="60.0902777" lon="30.3174940"/>
 <node id="12269906051" visible="true" version="1" changeset="158108742" timestamp="2024-10-19T22:15:10Z" user="Cmapuk-noxa6bl4" uid="20024786" lat="60.0901547" lon="30.3176254"/>
 <node id="12269906052" visible="true" version="1" changeset="158108742" timestamp="2024-10-19T22:15:10Z" user="Cmapuk-noxa6bl4" uid="20024786" lat="60.0900785" lon="30.3176039"/>
 <node id="12269906053" visible="true" version="1" changeset="158108742" timestamp="2024-10-19T22:15:10Z" user="Cmapuk-noxa6bl4" uid="20024786" lat="60.0898083" lon="30.3164345"/>
 <node id="12269906054" visible="true" version="1" changeset="158108742" timestamp="2024-10-19T22:15:10Z" user="Cmapuk-noxa6bl4" uid="20024786" lat="60.0897815" lon="30.3162253"/>
 <node id="12269906055" visible="true" version="1" changeset="158108742" timestamp="2024-10-19T22:15:10Z" user="Cmapuk-noxa6bl4" uid="20024786" lat="60.0897936" lon="30.3160509"/>
 <node id="12269906056" visible="true" version="1" changeset="158108742" timestamp="2024-10-19T22:15:10Z" user="Cmapuk-noxa6bl4" uid="20024786" lat="60.0898511" lon="30.3158954"/>
 <node id="12269906057" visible="true" version="1" changeset="158108742" timestamp="2024-10-19T22:15:10Z" user="Cmapuk-noxa6bl4" uid="20024786" lat="60.0899099" lon="30.3157961"/>
 <node id="12269906058" visible="true" version="1" changeset="158108742" timestamp="2024-10-19T22:15:10Z" user="Cmapuk-noxa6bl4" uid="20024786" lat="60.0901346" lon="30.3156432"/>
 <node id="12269906059" visible="true" version="1" changeset="158108742" timestamp="2024-10-19T22:15:10Z" user="Cmapuk-noxa6bl4" uid="20024786" lat="60.0904824" lon="30.3153375"/>
 <node id="12269906060" visible="true" version="1" changeset="158108742" timestamp="2024-10-19T22:15:10Z" user="Cmapuk-noxa6bl4" uid="20024786" lat="60.0906576" lon="30.3151229"/>
 <node id="12269906061" visible="true" version="1" changeset="158108742" timestamp="2024-10-19T22:15:10Z" user="Cmapuk-noxa6bl4" uid="20024786" lat="60.0907485" lon="30.3151980"/>
 <node id="12269906062" visible="true" version="1" changeset="158108742" timestamp="2024-10-19T22:15:10Z" user="Cmapuk-noxa6bl4" uid="20024786" lat="60.0908314" lon="30.3150558"/>
 <node id="12269906063" visible="true" version="1" changeset="158108742" timestamp="2024-10-19T22:15:10Z" user="Cmapuk-noxa6bl4" uid="20024786" lat="60.0908956" lon="30.3149083"/>
 <node id="12269906064" visible="true" version="1" changeset="158108742" timestamp="2024-10-19T22:15:10Z" user="Cmapuk-noxa6bl4" uid="20024786" lat="60.0909719" lon="30.3148869"/>
 <node id="12269906065" visible="true" version="1" changeset="158108742" timestamp="2024-10-19T22:15:10Z" user="Cmapuk-noxa6bl4" uid="20024786" lat="60.0910561" lon="30.3148305"/>
 <node id="12269906066" visible="true" version="1" changeset="158108742" timestamp="2024-10-19T22:15:10Z" user="Cmapuk-noxa6bl4" uid="20024786" lat="60.0911725" lon="30.3146079"/>
 <node id="12269906067" visible="true" version="1" changeset="158108742" timestamp="2024-10-19T22:15:10Z" user="Cmapuk-noxa6bl4" uid="20024786" lat="60.0913758" lon="30.3141358"/>
 <node id="12269906068" visible="true" version="1" changeset="158108742" timestamp="2024-10-19T22:15:10Z" user="Cmapuk-noxa6bl4" uid="20024786" lat="60.0915617" lon="30.3137523"/>
 <node id="12269906069" visible="true" version="1" changeset="158108742" timestamp="2024-10-19T22:15:10Z" user="Cmapuk-noxa6bl4" uid="20024786" lat="60.0923935" lon="30.3128564"/>
 <node id="12269906070" visible="true" version="1" changeset="158108742" timestamp="2024-10-19T22:15:10Z" user="Cmapuk-noxa6bl4" uid="20024786" lat="60.0931010" lon="30.3121966"/>
 <node id="12269906071" visible="true" version="1" changeset="158108742" timestamp="2024-10-19T22:15:10Z" user="Cmapuk-noxa6bl4" uid="20024786" lat="60.0931063" lon="30.3121537"/>
 <node id="12269906072" visible="true" version="1" changeset="158108742" timestamp="2024-10-19T22:15:10Z" user="Cmapuk-noxa6bl4" uid="20024786" lat="60.0930996" lon="30.3121135"/>
 <node id="12269906073" visible="true" version="1" changeset="158108742" timestamp="2024-10-19T22:15:10Z" user="Cmapuk-noxa6bl4" uid="20024786" lat="60.0930782" lon="30.3120920"/>
 <node id="12269906074" visible="true" version="1" changeset="158108742" timestamp="2024-10-19T22:15:10Z" user="Cmapuk-noxa6bl4" uid="20024786" lat="60.0930515" lon="30.3121054"/>
 <node id="12269906075" visible="true" version="1" changeset="158108742" timestamp="2024-10-19T22:15:10Z" user="Cmapuk-noxa6bl4" uid="20024786" lat="60.0920030" lon="30.3131032"/>
 <node id="12269906076" visible="true" version="1" changeset="158108742" timestamp="2024-10-19T22:15:10Z" user="Cmapuk-noxa6bl4" uid="20024786" lat="60.0918826" lon="30.3132158"/>
 <node id="12269906077" visible="true" version="1" changeset="158108742" timestamp="2024-10-19T22:15:10Z" user="Cmapuk-noxa6bl4" uid="20024786" lat="60.0918385" lon="30.3131059"/>
 <node id="12269906078" visible="true" version="1" changeset="158108742" timestamp="2024-10-19T22:15:10Z" user="Cmapuk-noxa6bl4" uid="20024786" lat="60.0919120" lon="30.3128082"/>
 <node id="12269906079" visible="true" version="1" changeset="158108742" timestamp="2024-10-19T22:15:10Z" user="Cmapuk-noxa6bl4" uid="20024786" lat="60.0919334" lon="30.3124943"/>
 <node id="12269906080" visible="true" version="1" changeset="158108742" timestamp="2024-10-19T22:15:10Z" user="Cmapuk-noxa6bl4" uid="20024786" lat="60.0919334" lon="30.3121886"/>
 <node id="12269906081" visible="true" version="1" changeset="158108742" timestamp="2024-10-19T22:15:10Z" user="Cmapuk-noxa6bl4" uid="20024786" lat="60.0918813" lon="30.3119284"/>
 <node id="12269906082" visible="true" version="1" changeset="158108742" timestamp="2024-10-19T22:15:10Z" user="Cmapuk-noxa6bl4" uid="20024786" lat="60.0915764" lon="30.3112739"/>
 <node id="12269906083" visible="true" version="1" changeset="158108742" timestamp="2024-10-19T22:15:10Z" user="Cmapuk-noxa6bl4" uid="20024786" lat="60.0914507" lon="30.3109816"/>
 <node id="12269906084" visible="true" version="1" changeset="158108742" timestamp="2024-10-19T22:15:10Z" user="Cmapuk-noxa6bl4" uid="20024786" lat="60.0913905" lon="30.3107241"/>
 <node id="12269906085" visible="true" version="1" changeset="158108742" timestamp="2024-10-19T22:15:10Z" user="Cmapuk-noxa6bl4" uid="20024786" lat="60.0913624" lon="30.3104290"/>
 <node id="12269906086" visible="true" version="1" changeset="158108742" timestamp="2024-10-19T22:15:10Z" user="Cmapuk-noxa6bl4" uid="20024786" lat="60.0913691" lon="30.3099301"/>
 <node id="12269906087" visible="true" version="1" changeset="158108742" timestamp="2024-10-19T22:15:10Z" user="Cmapuk-noxa6bl4" uid="20024786" lat="60.0914052" lon="30.3091845"/>
 <node id="12269906088" visible="true" version="1" changeset="158108742" timestamp="2024-10-19T22:15:10Z" user="Cmapuk-noxa6bl4" uid="20024786" lat="60.0914667" lon="30.3086051"/>
 <node id="12269906089" visible="true" version="1" changeset="158108742" timestamp="2024-10-19T22:15:10Z" user="Cmapuk-noxa6bl4" uid="20024786" lat="60.0915041" lon="30.3084710"/>
 <node id="12269906090" visible="true" version="1" changeset="158108742" timestamp="2024-10-19T22:15:10Z" user="Cmapuk-noxa6bl4" uid="20024786" lat="60.0915576" lon="30.3083208"/>
 <node id="12269906091" visible="true" version="1" changeset="158108742" timestamp="2024-10-19T22:15:10Z" user="Cmapuk-noxa6bl4" uid="20024786" lat="60.0916205" lon="30.3082752"/>
 <node id="12269906092" visible="true" version="1" changeset="158108742" timestamp="2024-10-19T22:15:10Z" user="Cmapuk-noxa6bl4" uid="20024786" lat="60.0916793" lon="30.3082752"/>
 <node id="12269906093" visible="true" version="1" changeset="158108742" timestamp="2024-10-19T22:15:10Z" user="Cmapuk-noxa6bl4" uid="20024786" lat="60.0917409" lon="30.3084093"/>
 <node id="12269906094" visible="true" version="1" changeset="158108742" timestamp="2024-10-19T22:15:10Z" user="Cmapuk-noxa6bl4" uid="20024786" lat="60.0918331" lon="30.3086132"/>
 <node id="12269906095" visible="true" version="1" changeset="158108742" timestamp="2024-10-19T22:15:10Z" user="Cmapuk-noxa6bl4" uid="20024786" lat="60.0918840" lon="30.3087071"/>
 <node id="12269906096" visible="true" version="1" changeset="158108742" timestamp="2024-10-19T22:15:10Z" user="Cmapuk-noxa6bl4" uid="20024786" lat="60.0919522" lon="30.3086963"/>
 <way id="95100230" visible="true" version="1" changeset="6967852" timestamp="2011-01-14T14:40:30Z" user="xronos" uid="104972">
  <nd ref="1103269790"/>
  <nd ref="1103269984"/>
  <nd ref="1103269545"/>
  <nd ref="1103269835"/>
  <nd ref="1103269583"/>
  <nd ref="1103270014"/>
  <nd ref="1103269824"/>
  <nd ref="1103270136"/>
  <nd ref="1103269731"/>
  <nd ref="1103269929"/>
  <nd ref="1103270182"/>
  <nd ref="1103269771"/>
  <nd ref="1103270042"/>
  <nd ref="1103269513"/>
  <nd ref="1103269823"/>
  <nd ref="1103270079"/>
  <nd ref="1103269669"/>
  <nd ref="1103269865"/>
  <nd ref="1103270115"/>
  <nd ref="1103269705"/>
  <nd ref="1103269969"/>
  <nd ref="1103269742"/>
  <nd ref="1103270005"/>
  <nd ref="1103269555"/>
  <nd ref="1103269854"/>
  <nd ref="1103270047"/>
  <nd ref="1103269632"/>
  <nd ref="1103269891"/>
  <nd ref="1103270147"/>
  <nd ref="1103269790"/>
  <tag k="landuse" v="farmland"/>
 </way>
 <way id="95100235" visible="true" version="2" changeset="109931911" timestamp="2021-08-19T12:23:24Z" user="d-travel" uid="5743410">
  <nd ref="1103270083"/>
  <nd ref="1103269611"/>
  <nd ref="1103269884"/>
  <nd ref="1103270132"/>
  <nd ref="1103269867"/>
  <nd ref="1103270116"/>
  <nd ref="1103269916"/>
  <nd ref="1103270163"/>
  <nd ref="1103269757"/>
  <nd ref="1103270018"/>
  <nd ref="1103270209"/>
  <nd ref="1103269812"/>
  <nd ref="1103270063"/>
  <nd ref="1103269643"/>
  <nd ref="1103269851"/>
  <nd ref="1103270102"/>
  <nd ref="1103269694"/>
  <nd ref="1103269952"/>
  <nd ref="1103270138"/>
  <nd ref="1103269732"/>
  <nd ref="1103269999"/>
  <nd ref="1103269552"/>
  <nd ref="1103269755"/>
  <nd ref="1103270016"/>
  <nd ref="1103270167"/>
  <nd ref="1103269871"/>
  <nd ref="1103270062"/>
  <nd ref="1103269641"/>
  <nd ref="1103269914"/>
  <nd ref="1103270161"/>
  <nd ref="1103270075"/>
  <nd ref="1103269554"/>
  <nd ref="1103269853"/>
  <nd ref="1103270110"/>
  <nd ref="1103269700"/>
  <nd ref="1103269889"/>
  <nd ref="1103270146"/>
  <nd ref="1103269734"/>
  <nd ref="1103270003"/>
  <nd ref="1103270083"/>
  <tag k="landuse" v="farmland"/>
 </way>
 <way id="169785178" visible="true" version="3" changeset="28486111" timestamp="2015-01-29T13:37:06Z" user="arcth" uid="549888">
  <nd ref="1505748729"/>
  <nd ref="1505748730"/>
  <nd ref="1505748733"/>
  <nd ref="1505748739"/>
  <nd ref="1505748740"/>
  <nd ref="1505748744"/>
  <nd ref="1505748745"/>
  <nd ref="1505748748"/>
  <nd ref="1505748750"/>
  <nd ref="1258514408"/>
  <nd ref="1258513198"/>
  <nd ref="1258515297"/>
  <nd ref="1258514189"/>
  <nd ref="1258512976"/>
  <nd ref="1258514739"/>
  <nd ref="1258514040"/>
  <nd ref="1258514748"/>
  <nd ref="1258512752"/>
  <nd ref="1258514928"/>
  <nd ref="1510263488"/>
  <nd ref="1510263500"/>
  <nd ref="1103269975"/>
  <tag k="cables" v="6"/>
  <tag k="circuits" v="2"/>
  <tag k="power" v="line"/>
  <tag k="voltage" v="110000"/>
 </way>
 <way id="1326146061" visible="true" version="1" changeset="158108742" timestamp="2024-10-19T22:15:10Z" user="Cmapuk-noxa6bl4" uid="20024786">
  <nd ref="12269906096"/>
  <nd ref="12269906095"/>
  <nd ref="12269906094"/>
  <nd ref="12269906093"/>
  <nd ref="12269906092"/>
  <nd ref="12269906091"/>
  <nd ref="12269906090"/>
  <nd ref="12269906089"/>
  <nd ref="12269906088"/>
  <nd ref="12269906087"/>
  <nd ref="12269906086"/>
  <nd ref="12269906085"/>
  <nd ref="12269906084"/>
  <nd ref="12269906083"/>
  <nd ref="12269906082"/>
  <nd ref="12269906081"/>
  <nd ref="12269906080"/>
  <nd ref="12269906079"/>
  <nd ref="12269906078"/>
  <nd ref="12269906077"/>
  <nd ref="12269906076"/>
  <nd ref="12269906075"/>
  <nd ref="12269906074"/>
  <nd ref="12269906073"/>
  <nd ref="12269906072"/>
  <nd ref="12269906071"/>
  <nd ref="12269906070"/>
  <nd ref="12269906069"/>
  <nd ref="12269906068"/>
  <nd ref="12269906067"/>
  <nd ref="12269906066"/>
  <nd ref="12269906065"/>
  <nd ref="12269906064"/>
  <nd ref="12269906063"/>
  <nd ref="12269906062"/>
  <nd ref="12269906061"/>
  <nd ref="12269906060"/>
  <nd ref="12269906059"/>
  <nd ref="12269906058"/>
  <nd ref="12269906057"/>
  <nd ref="12269906056"/>
  <nd ref="12269906055"/>
  <nd ref="12269906054"/>
  <nd ref="12269906053"/>
  <nd ref="12269906052"/>
  <nd ref="12269906051"/>
  <nd ref="12269906050"/>
  <nd ref="12269906049"/>
  <nd ref="12269906048"/>
  <nd ref="12269906047"/>
  <nd ref="12269906046"/>
  <nd ref="12269906045"/>
  <nd ref="12269906044"/>
  <nd ref="12269906043"/>
  <nd ref="12269906042"/>
  <nd ref="12269906041"/>
  <nd ref="12269906040"/>
  <nd ref="12269906039"/>
  <nd ref="1103269526"/>
 </way>
 <way id="1367333758" visible="true" version="1" changeset="163611140" timestamp="2025-03-14T13:48:43Z" user="MosKartograf" uid="382604">
  <nd ref="1570201865"/>
  <nd ref="1570201861"/>
  <nd ref="1570201859"/>
  <nd ref="1570270393"/>
  <nd ref="1570201857"/>
  <nd ref="1570270391"/>
  <nd ref="1570201855"/>
  <nd ref="1570201838"/>
  <nd ref="1570270388"/>
  <nd ref="1570201839"/>
  <nd ref="1570201837"/>
  <nd ref="1570201856"/>
  <nd ref="1570201858"/>
  <nd ref="1570270395"/>
  <nd ref="1570201862"/>
  <nd ref="1570201867"/>
  <nd ref="1570201883"/>
  <nd ref="1570201888"/>
  <nd ref="1570201889"/>
  <nd ref="1570201885"/>
  <nd ref="1570201871"/>
  <nd ref="1570201863"/>
  <nd ref="1570201860"/>
  <nd ref="1570270390"/>
  <nd ref="1570201840"/>
  <nd ref="1570270387"/>
  <nd ref="1570201834"/>
  <nd ref="1570201832"/>
  <nd ref="1570201830"/>
  <nd ref="1570270386"/>
  <nd ref="1570201823"/>
  <nd ref="1495241326"/>
  <nd ref="1495241325"/>
  <nd ref="1495241323"/>
  <nd ref="1495241322"/>
  <nd ref="1495241321"/>
  <nd ref="1495241320"/>
  <nd ref="1495241319"/>
  <nd ref="1495241317"/>
  <nd ref="1495241316"/>
  <nd ref="1495241314"/>
  <nd ref="1495241313"/>
  <nd ref="1495241312"/>
  <nd ref="1570270383"/>
  <nd ref="1495241311"/>
  <nd ref="1495241310"/>
  <nd ref="1495241309"/>
  <nd ref="1495241308"/>
  <nd ref="1495241306"/>
  <nd ref="1495241305"/>
  <nd ref="1495241307"/>
  <nd ref="1495241304"/>
  <nd ref="1495241303"/>
  <nd ref="1495241302"/>
  <nd ref="1495241301"/>
  <nd ref="1495241300"/>
  <nd ref="1495241299"/>
  <nd ref="1495241298"/>
  <nd ref="1495241297"/>
  <nd ref="1495241296"/>
  <nd ref="1570201800"/>
  <nd ref="1570201798"/>
  <nd ref="1570201794"/>
  <nd ref="1570201783"/>
  <nd ref="1570201781"/>
  <tag k="boat" v="no"/>
  <tag k="name" v="Старожиловка"/>
  <tag k="waterway" v="river"/>
  <tag k="wikidata" v="Q4440375"/>
  <tag k="wikipedia" v="ru:Старожиловка (река)"/>
 </way>
 <relation id="18182041" visible="true" version="1" changeset="158108742" timestamp="2024-10-19T22:15:10Z" user="Cmapuk-noxa6bl4" uid="20024786">
  <member type="way" ref="1326146060" role="outer"/>
  <member type="way" ref="1326146057" role="outer"/>
  <member type="way" ref="1326146055" role="outer"/>
  <member type="way" ref="1326146061" role="outer"/>
  <tag k="landuse" v="farmland"/>
  <tag k="type" v="multipolygon"/>
 </relation>
</osm>
