<?xml version="1.0" encoding="UTF-8"?>
<osm version="0.6" generator="openstreetmap-cgimap 2.1.0 (244684 spike-07.openstreetmap.org)" copyright="OpenStreetMap and contributors" attribution="http://www.openstreetmap.org/copyright" license="http://opendatacommons.org/licenses/odbl/1-0/">
 <bounds minlat="60.0905595" minlon="30.3882072" maxlat="60.0932544" maxlon="30.3936121"/>
 <node id="1820240550" visible="true" version="3" changeset="131522978" timestamp="2023-01-20T21:04:52Z" user="mini-me" uid="3846961" lat="60.0903157" lon="30.3865559"/>
 <node id="3583201363" visible="true" version="4" changeset="149256130" timestamp="2024-03-28T08:24:54Z" user="asdfwqer" uid="20626553" lat="60.0909790" lon="30.3913967"/>
 <node id="3583201364" visible="true" version="2" changeset="33512667" timestamp="2015-08-22T19:56:53Z" user="Ilgn" uid="165883" lat="60.0916719" lon="30.3933378"/>
 <node id="5407071639" visible="true" version="2" changeset="149256130" timestamp="2024-03-28T08:24:54Z" user="asdfwqer" uid="20626553" lat="60.0912560" lon="30.3910343"/>
 <node id="5407071640" visible="true" version="1" changeset="56291601" timestamp="2018-02-12T11:45:59Z" user="d-travel" uid="5743410" lat="60.0928221" lon="30.3903414"/>
 <node id="5407071641" visible="true" version="1" changeset="56291601" timestamp="2018-02-12T11:45:59Z" user="d-travel" uid="5743410" lat="60.0938010" lon="30.3882600"/>
 <node id="5407071642" visible="true" version="3" changeset="153159966" timestamp="2024-06-25T14:21:07Z" user="asdfwqer" uid="20626553" lat="60.0942986" lon="30.3875179"/>
 <node id="5599177282" visible="true" version="2" changeset="132131395" timestamp="2023-02-05T23:13:16Z" user="Pavel239" uid="354001" lat="60.0905766" lon="30.3905856"/>
 <node id="5599177293" visible="true" version="2" changeset="149256130" timestamp="2024-03-28T08:24:54Z" user="asdfwqer" uid="20626553" lat="60.0906079" lon="30.3906866">
  <tag k="barrier" v="gate"/>
 </node>
 <node id="5599177294" visible="true" version="2" changeset="149256130" timestamp="2024-03-28T08:24:54Z" user="asdfwqer" uid="20626553" lat="60.0911209" lon="30.3917286"/>
 <node id="7319470869" visible="true" version="2" changeset="149256130" timestamp="2024-03-28T08:24:54Z" user="asdfwqer" uid="20626553" lat="60.0884062" lon="30.3909670"/>
 <node id="7319470870" visible="true" version="2" changeset="149256130" timestamp="2024-03-28T08:24:54Z" user="asdfwqer" uid="20626553" lat="60.0881079" lon="30.3944352"/>
 <node id="7319470871" visible="true" version="2" changeset="149256130" timestamp="2024-03-28T08:24:54Z" user="asdfwqer" uid="20626553" lat="60.0885566" lon="30.3948393"/>
 <node id="7319470872" visible="true" version="3" changeset="149256130" timestamp="2024-03-28T08:24:54Z" user="asdfwqer" uid="20626553" lat="60.0889890" lon="30.3950258"/>
 <node id="7319470873" visible="true" version="2" changeset="142586375" timestamp="2023-10-14T17:29:43Z" user="Pavel239" uid="354001" lat="60.0890955" lon="30.3950340"/>
 <node id="7319470874" visible="true" version="3" changeset="149256130" timestamp="2024-03-28T08:24:54Z" user="asdfwqer" uid="20626553" lat="60.0895159" lon="30.3949855"/>
 <node id="7319470875" visible="true" version="3" changeset="149256130" timestamp="2024-03-28T08:24:54Z" user="asdfwqer" uid="20626553" lat="60.0894440" lon="30.3957511"/>
 <node id="7319470876" visible="true" version="3" changeset="149256130" timestamp="2024-03-28T08:24:54Z" user="asdfwqer" uid="20626553" lat="60.0902062" lon="30.3956568"/>
 <node id="7319470877" visible="true" version="3" changeset="149256130" timestamp="2024-03-28T08:24:54Z" user="asdfwqer" uid="20626553" lat="60.0917587" lon="30.3947479"/>
 <node id="7319470878" visible="true" version="3" changeset="149256130" timestamp="2024-03-28T08:24:54Z" user="asdfwqer" uid="20626553" lat="60.0918372" lon="30.3944411"/>
 <node id="7319470879" visible="true" version="2" changeset="132767157" timestamp="2023-02-19T22:04:54Z" user="Pavel239" uid="354001" lat="60.0917596" lon="30.3937812"/>
 <node id="7319470880" visible="true" version="4" changeset="159252225" timestamp="2024-11-17T17:24:11Z" user="asdfwqer" uid="20626553" lat="60.0913595" lon="30.3925403"/>
 <node id="7319470881" visible="true" version="1" changeset="82485399" timestamp="2020-03-22T14:51:32Z" user="Константин Гам" uid="392109" lat="60.0903045" lon="30.3895354"/>
 <node id="9853323987" visible="true" version="2" changeset="142586375" timestamp="2023-10-14T17:29:43Z" user="Pavel239" uid="354001" lat="60.0909755" lon="30.3937230"/>
 <node id="9853323988" visible="true" version="2" changeset="142586375" timestamp="2023-10-14T17:29:43Z" user="Pavel239" uid="354001" lat="60.0910680" lon="30.3941719"/>
 <node id="9853323989" visible="true" version="2" changeset="142586375" timestamp="2023-10-14T17:29:43Z" user="Pavel239" uid="354001" lat="60.0915303" lon="30.3937887"/>
 <node id="9853323990" visible="true" version="2" changeset="142586375" timestamp="2023-10-14T17:29:43Z" user="Pavel239" uid="354001" lat="60.0914378" lon="30.3933399"/>
 <node id="9853323991" visible="true" version="2" changeset="149256130" timestamp="2024-03-28T08:24:54Z" user="asdfwqer" uid="20626553" lat="60.0897762" lon="30.3941754"/>
 <node id="9853323992" visible="true" version="2" changeset="149256130" timestamp="2024-03-28T08:24:54Z" user="asdfwqer" uid="20626553" lat="60.0898315" lon="30.3944436"/>
 <node id="9853323993" visible="true" version="2" changeset="149256130" timestamp="2024-03-28T08:24:54Z" user="asdfwqer" uid="20626553" lat="60.0906625" lon="30.3937542"/>
 <node id="9853323994" visible="true" version="2" changeset="149256130" timestamp="2024-03-28T08:24:54Z" user="asdfwqer" uid="20626553" lat="60.0906072" lon="30.3934862"/>
 <node id="10609163018" visible="true" version="1" changeset="132131395" timestamp="2023-02-05T23:13:16Z" user="Pavel239" uid="354001" lat="60.0926710" lon="30.3907990"/>
 <node id="10609163019" visible="true" version="1" changeset="132131395" timestamp="2023-02-05T23:13:16Z" user="Pavel239" uid="354001" lat="60.0927773" lon="30.3915075"/>
 <node id="10609163020" visible="true" version="1" changeset="132131395" timestamp="2023-02-05T23:13:16Z" user="Pavel239" uid="354001" lat="60.0917052" lon="30.3921063"/>
 <node id="10609163021" visible="true" version="1" changeset="132131395" timestamp="2023-02-05T23:13:16Z" user="Pavel239" uid="354001" lat="60.0916102" lon="30.3914394"/>
 <node id="10609163022" visible="true" version="1" changeset="132131395" timestamp="2023-02-05T23:13:16Z" user="Pavel239" uid="354001" lat="60.0891080" lon="30.3918112"/>
 <node id="10609163023" visible="true" version="1" changeset="132131395" timestamp="2023-02-05T23:13:16Z" user="Pavel239" uid="354001" lat="60.0890481" lon="30.3920973"/>
 <node id="10609163024" visible="true" version="1" changeset="132131395" timestamp="2023-02-05T23:13:16Z" user="Pavel239" uid="354001" lat="60.0889482" lon="30.3932532"/>
 <node id="10679387603" visible="true" version="1" changeset="132767157" timestamp="2023-02-19T22:04:54Z" user="Pavel239" uid="354001" lat="60.0926612" lon="30.3906437"/>
 <node id="10679387604" visible="true" version="1" changeset="132767157" timestamp="2023-02-19T22:04:54Z" user="Pavel239" uid="354001" lat="60.0915798" lon="30.3912910"/>
 <node id="10679387605" visible="true" version="1" changeset="132767157" timestamp="2023-02-19T22:04:54Z" user="Pavel239" uid="354001" lat="60.0915111" lon="30.3914498"/>
 <node id="10679387606" visible="true" version="1" changeset="132767157" timestamp="2023-02-19T22:04:54Z" user="Pavel239" uid="354001" lat="60.0927479" lon="30.3907731"/>
 <node id="10679387607" visible="true" version="1" changeset="132767157" timestamp="2023-02-19T22:04:54Z" user="Pavel239" uid="354001" lat="60.0928508" lon="30.3916066"/>
 <node id="10679387608" visible="true" version="2" changeset="159252225" timestamp="2024-11-17T17:24:11Z" user="asdfwqer" uid="20626553" lat="60.0917266" lon="30.3928906"/>
 <node id="10679387609" visible="true" version="2" changeset="149256130" timestamp="2024-03-28T08:24:54Z" user="asdfwqer" uid="20626553" lat="60.0916922" lon="30.3930034">
  <tag k="barrier" v="gate"/>
 </node>
 <node id="10679387610" visible="true" version="1" changeset="132767157" timestamp="2023-02-19T22:04:54Z" user="Pavel239" uid="354001" lat="60.0916022" lon="30.3931367"/>
 <node id="10679387611" visible="true" version="1" changeset="132767157" timestamp="2023-02-19T22:04:54Z" user="Pavel239" uid="354001" lat="60.0915373" lon="30.3916273">
  <tag k="crossing" v="uncontrolled"/>
  <tag k="highway" v="crossing"/>
 </node>
 <node id="10679387612" visible="true" version="2" changeset="149256130" timestamp="2024-03-28T08:24:54Z" user="asdfwqer" uid="20626553" lat="60.0918118" lon="30.3946549"/>
 <node id="10679387613" visible="true" version="1" changeset="132767157" timestamp="2023-02-19T22:04:54Z" user="Pavel239" uid="354001" lat="60.0919111" lon="30.3942249"/>
 <node id="10679387620" visible="true" version="1" changeset="132767157" timestamp="2023-02-19T22:04:54Z" user="Pavel239" uid="354001" lat="60.0911773" lon="30.3888462"/>
 <node id="10679387621" visible="true" version="1" changeset="132767157" timestamp="2023-02-19T22:04:54Z" user="Pavel239" uid="354001" lat="60.0906582" lon="30.3892511"/>
 <node id="10679387622" visible="true" version="1" changeset="132767157" timestamp="2023-02-19T22:04:54Z" user="Pavel239" uid="354001" lat="60.0905309" lon="30.3894178"/>
 <node id="10679387623" visible="true" version="1" changeset="132767157" timestamp="2023-02-19T22:04:54Z" user="Pavel239" uid="354001" lat="60.0904851" lon="30.3895709"/>
 <node id="10679387624" visible="true" version="1" changeset="132767157" timestamp="2023-02-19T22:04:54Z" user="Pavel239" uid="354001" lat="60.0904919" lon="30.3897376"/>
 <node id="10679387625" visible="true" version="2" changeset="149256130" timestamp="2024-03-28T08:24:54Z" user="asdfwqer" uid="20626553" lat="60.0911056" lon="30.3914296"/>
 <node id="10679387626" visible="true" version="1" changeset="132767157" timestamp="2023-02-19T22:04:54Z" user="Pavel239" uid="354001" lat="60.0915132" lon="30.3889074"/>
 <node id="10679387627" visible="true" version="2" changeset="149256130" timestamp="2024-03-28T08:24:54Z" user="asdfwqer" uid="20626553" lat="60.0920839" lon="30.3908491"/>
 <node id="10679387628" visible="true" version="1" changeset="132767157" timestamp="2023-02-19T22:04:54Z" user="Pavel239" uid="354001" lat="60.0906676" lon="30.3939440"/>
 <node id="10679387629" visible="true" version="2" changeset="149256130" timestamp="2024-03-28T08:24:54Z" user="asdfwqer" uid="20626553" lat="60.0908990" lon="30.3935570"/>
 <node id="10679387630" visible="true" version="1" changeset="132767157" timestamp="2023-02-19T22:04:54Z" user="Pavel239" uid="354001" lat="60.0915663" lon="30.3930332"/>
 <node id="10679387631" visible="true" version="1" changeset="132767157" timestamp="2023-02-19T22:04:54Z" user="Pavel239" uid="354001" lat="60.0901940" lon="30.3943073"/>
 <node id="11050148333" visible="true" version="1" changeset="138598565" timestamp="2023-07-17T00:26:41Z" user="Pavel239" uid="354001" lat="60.0928822" lon="30.3903755"/>
 <node id="11050148334" visible="true" version="1" changeset="138598565" timestamp="2023-07-17T00:26:41Z" user="Pavel239" uid="354001" lat="60.0930069" lon="30.3910656"/>
 <node id="11050148335" visible="true" version="2" changeset="149256130" timestamp="2024-03-28T08:24:54Z" user="asdfwqer" uid="20626553" lat="60.0929518" lon="30.3918218"/>
 <node id="11050148336" visible="true" version="2" changeset="149256130" timestamp="2024-03-28T08:24:54Z" user="asdfwqer" uid="20626553" lat="60.0931260" lon="30.3926425"/>
 <node id="11050148337" visible="true" version="1" changeset="138598565" timestamp="2023-07-17T00:26:41Z" user="Pavel239" uid="354001" lat="60.0935835" lon="30.3928590"/>
 <node id="11050148338" visible="true" version="1" changeset="138598565" timestamp="2023-07-17T00:26:41Z" user="Pavel239" uid="354001" lat="60.0927101" lon="30.3938562"/>
 <node id="11050148339" visible="true" version="2" changeset="149256130" timestamp="2024-03-28T08:24:54Z" user="asdfwqer" uid="20626553" lat="60.0921447" lon="30.3943774"/>
 <node id="11050148340" visible="true" version="3" changeset="159252225" timestamp="2024-11-17T17:24:11Z" user="asdfwqer" uid="20626553" lat="60.0919274" lon="30.3938736"/>
 <node id="11768437429" visible="true" version="1" changeset="149256130" timestamp="2024-03-28T08:24:54Z" user="asdfwqer" uid="20626553" lat="60.0889664" lon="30.3930424"/>
 <node id="11768437432" visible="true" version="1" changeset="149256130" timestamp="2024-03-28T08:24:54Z" user="asdfwqer" uid="20626553" lat="60.0896751" lon="30.3913379"/>
 <node id="11768437433" visible="true" version="1" changeset="149256130" timestamp="2024-03-28T08:24:54Z" user="asdfwqer" uid="20626553" lat="60.0895070" lon="30.3904141"/>
 <node id="11768437434" visible="true" version="1" changeset="149256130" timestamp="2024-03-28T08:24:54Z" user="asdfwqer" uid="20626553" lat="60.0903243" lon="30.3898125"/>
 <node id="11768437435" visible="true" version="1" changeset="149256130" timestamp="2024-03-28T08:24:54Z" user="asdfwqer" uid="20626553" lat="60.0897518" lon="30.3902340"/>
 <node id="11768437436" visible="true" version="1" changeset="149256130" timestamp="2024-03-28T08:24:54Z" user="asdfwqer" uid="20626553" lat="60.0899095" lon="30.3911424"/>
 <node id="11768437464" visible="true" version="1" changeset="149256130" timestamp="2024-03-28T08:24:54Z" user="asdfwqer" uid="20626553" lat="60.0892579" lon="30.3903426"/>
 <node id="11768437490" visible="true" version="1" changeset="149256130" timestamp="2024-03-28T08:24:54Z" user="asdfwqer" uid="20626553" lat="60.0906866" lon="30.3906259"/>
 <node id="11768437491" visible="true" version="1" changeset="149256130" timestamp="2024-03-28T08:24:54Z" user="asdfwqer" uid="20626553" lat="60.0905165" lon="30.3907571"/>
 <node id="11768437492" visible="true" version="1" changeset="149256130" timestamp="2024-03-28T08:24:54Z" user="asdfwqer" uid="20626553" lat="60.0907568" lon="30.3912702"/>
 <node id="11768437493" visible="true" version="1" changeset="149256130" timestamp="2024-03-28T08:24:54Z" user="asdfwqer" uid="20626553" lat="60.0906835" lon="30.3908718"/>
 <node id="11768437494" visible="true" version="1" changeset="149256130" timestamp="2024-03-28T08:24:54Z" user="asdfwqer" uid="20626553" lat="60.0907079" lon="30.3954915"/>
 <node id="11768437495" visible="true" version="1" changeset="149256130" timestamp="2024-03-28T08:24:54Z" user="asdfwqer" uid="20626553" lat="60.0910018" lon="30.3953364"/>
 <node id="11768437496" visible="true" version="1" changeset="149256130" timestamp="2024-03-28T08:24:54Z" user="asdfwqer" uid="20626553" lat="60.0918375" lon="30.3941564"/>
 <node id="11768437497" visible="true" version="1" changeset="149256130" timestamp="2024-03-28T08:24:54Z" user="asdfwqer" uid="20626553" lat="60.0915679" lon="30.3932663"/>
 <node id="11768437498" visible="true" version="1" changeset="149256130" timestamp="2024-03-28T08:24:54Z" user="asdfwqer" uid="20626553" lat="60.0915348" lon="30.3932946"/>
 <node id="11768437499" visible="true" version="1" changeset="149256130" timestamp="2024-03-28T08:24:54Z" user="asdfwqer" uid="20626553" lat="60.0915098" lon="30.3931774"/>
 <node id="11768437500" visible="true" version="1" changeset="149256130" timestamp="2024-03-28T08:24:54Z" user="asdfwqer" uid="20626553" lat="60.0915430" lon="30.3931491"/>
 <node id="11768437501" visible="true" version="1" changeset="149256130" timestamp="2024-03-28T08:24:54Z" user="asdfwqer" uid="20626553" lat="60.0916055" lon="30.3933133"/>
 <node id="11768437502" visible="true" version="1" changeset="149256130" timestamp="2024-03-28T08:24:54Z" user="asdfwqer" uid="20626553" lat="60.0896194" lon="30.3944131"/>
 <node id="11768437503" visible="true" version="1" changeset="149256130" timestamp="2024-03-28T08:24:54Z" user="asdfwqer" uid="20626553" lat="60.0897808" lon="30.3939193"/>
 <node id="11768437504" visible="true" version="1" changeset="149256130" timestamp="2024-03-28T08:24:54Z" user="asdfwqer" uid="20626553" lat="60.0900533" lon="30.3937299"/>
 <node id="11768437505" visible="true" version="1" changeset="149256130" timestamp="2024-03-28T08:24:54Z" user="asdfwqer" uid="20626553" lat="60.0908710" lon="30.3932983"/>
 <node id="11768437506" visible="true" version="1" changeset="149256130" timestamp="2024-03-28T08:24:54Z" user="asdfwqer" uid="20626553" lat="60.0914656" lon="30.3930117"/>
 <node id="11768437515" visible="true" version="1" changeset="149256130" timestamp="2024-03-28T08:24:54Z" user="asdfwqer" uid="20626553" lat="60.0911691" lon="30.3949145"/>
 <node id="11768437516" visible="true" version="1" changeset="149256130" timestamp="2024-03-28T08:24:54Z" user="asdfwqer" uid="20626553" lat="60.0917261" lon="30.3944902"/>
 <node id="11768437517" visible="true" version="1" changeset="149256130" timestamp="2024-03-28T08:24:54Z" user="asdfwqer" uid="20626553" lat="60.0914487" lon="30.3931255"/>
 <node id="11768437518" visible="true" version="1" changeset="149256130" timestamp="2024-03-28T08:24:54Z" user="asdfwqer" uid="20626553" lat="60.0908716" lon="30.3948560"/>
 <node id="11768437519" visible="true" version="1" changeset="149256130" timestamp="2024-03-28T08:24:54Z" user="asdfwqer" uid="20626553" lat="60.0910924" lon="30.3946699"/>
 <node id="11768437520" visible="true" version="1" changeset="149256130" timestamp="2024-03-28T08:24:54Z" user="asdfwqer" uid="20626553" lat="60.0908455" lon="30.3933835"/>
 <node id="11768437521" visible="true" version="1" changeset="149256130" timestamp="2024-03-28T08:24:54Z" user="asdfwqer" uid="20626553" lat="60.0906500" lon="30.3935461"/>
 <node id="11768437522" visible="true" version="1" changeset="149256130" timestamp="2024-03-28T08:24:54Z" user="asdfwqer" uid="20626553" lat="60.0907275" lon="30.3939345"/>
 <node id="11768437523" visible="true" version="1" changeset="149256130" timestamp="2024-03-28T08:24:54Z" user="asdfwqer" uid="20626553" lat="60.0906824" lon="30.3939761"/>
 <node id="11768437525" visible="true" version="1" changeset="149256130" timestamp="2024-03-28T08:24:54Z" user="asdfwqer" uid="20626553" lat="60.0916701" lon="30.3931978"/>
 <node id="11768437526" visible="true" version="1" changeset="149256130" timestamp="2024-03-28T08:24:54Z" user="asdfwqer" uid="20626553" lat="60.0917205" lon="30.3930765"/>
 <node id="11768437527" visible="true" version="1" changeset="149256130" timestamp="2024-03-28T08:24:54Z" user="asdfwqer" uid="20626553" lat="60.0916565" lon="30.3929113"/>
 <node id="11768437528" visible="true" version="1" changeset="149256130" timestamp="2024-03-28T08:24:54Z" user="asdfwqer" uid="20626553" lat="60.0915781" lon="30.3929145"/>
 <node id="11768437529" visible="true" version="1" changeset="149256130" timestamp="2024-03-28T08:24:54Z" user="asdfwqer" uid="20626553" lat="60.0912340" lon="30.3918764"/>
 <node id="11768437530" visible="true" version="1" changeset="149256130" timestamp="2024-03-28T08:24:54Z" user="asdfwqer" uid="20626553" lat="60.0912361" lon="30.3917577"/>
 <node id="11768437531" visible="true" version="1" changeset="149256130" timestamp="2024-03-28T08:24:54Z" user="asdfwqer" uid="20626553" lat="60.0911869" lon="30.3916046"/>
 <node id="11768437532" visible="true" version="1" changeset="149256130" timestamp="2024-03-28T08:24:54Z" user="asdfwqer" uid="20626553" lat="60.0911547" lon="30.3916039"/>
 <node id="11768437533" visible="true" version="1" changeset="149256130" timestamp="2024-03-28T08:24:54Z" user="asdfwqer" uid="20626553" lat="60.0930795" lon="30.3924610"/>
 <node id="11768437534" visible="true" version="1" changeset="149256130" timestamp="2024-03-28T08:24:54Z" user="asdfwqer" uid="20626553" lat="60.0930606" lon="30.3922708"/>
 <node id="11768437535" visible="true" version="1" changeset="149256130" timestamp="2024-03-28T08:24:54Z" user="asdfwqer" uid="20626553" lat="60.0930472" lon="30.3920769"/>
 <node id="11768437536" visible="true" version="1" changeset="149256130" timestamp="2024-03-28T08:24:54Z" user="asdfwqer" uid="20626553" lat="60.0930026" lon="30.3919302"/>
 <node id="11768437537" visible="true" version="1" changeset="149256130" timestamp="2024-03-28T08:24:54Z" user="asdfwqer" uid="20626553" lat="60.0912067" lon="30.3916662">
  <tag k="barrier" v="gate"/>
 </node>
 <node id="11768437538" visible="true" version="1" changeset="149256130" timestamp="2024-03-28T08:24:54Z" user="asdfwqer" uid="20626553" lat="60.0910274" lon="30.3918530"/>
 <node id="11768437539" visible="true" version="1" changeset="149256130" timestamp="2024-03-28T08:24:54Z" user="asdfwqer" uid="20626553" lat="60.0909916" lon="30.3919069"/>
 <node id="11768437540" visible="true" version="1" changeset="149256130" timestamp="2024-03-28T08:24:54Z" user="asdfwqer" uid="20626553" lat="60.0909346" lon="30.3917544"/>
 <node id="11768437541" visible="true" version="1" changeset="149256130" timestamp="2024-03-28T08:24:54Z" user="asdfwqer" uid="20626553" lat="60.0909704" lon="30.3917006"/>
 <node id="11768437542" visible="true" version="1" changeset="149256130" timestamp="2024-03-28T08:24:54Z" user="asdfwqer" uid="20626553" lat="60.0910566" lon="30.3912945">
  <tag k="barrier" v="gate"/>
 </node>
 <node id="11768437543" visible="true" version="1" changeset="149256130" timestamp="2024-03-28T08:24:54Z" user="asdfwqer" uid="20626553" lat="60.0927282" lon="30.3907084"/>
 <node id="11768437544" visible="true" version="1" changeset="149256130" timestamp="2024-03-28T08:24:54Z" user="asdfwqer" uid="20626553" lat="60.0926976" lon="30.3906435"/>
 <node id="11768437545" visible="true" version="1" changeset="149256130" timestamp="2024-03-28T08:24:54Z" user="asdfwqer" uid="20626553" lat="60.0929764" lon="30.3930873"/>
 <node id="11768437546" visible="true" version="1" changeset="149256130" timestamp="2024-03-28T08:24:54Z" user="asdfwqer" uid="20626553" lat="60.0930784" lon="30.3929728"/>
 <node id="11768437547" visible="true" version="1" changeset="149256130" timestamp="2024-03-28T08:24:54Z" user="asdfwqer" uid="20626553" lat="60.0930237" lon="30.3927766"/>
 <node id="11768437548" visible="true" version="1" changeset="149256130" timestamp="2024-03-28T08:24:54Z" user="asdfwqer" uid="20626553" lat="60.0929216" lon="30.3928912"/>
 <node id="11768437549" visible="true" version="1" changeset="149256130" timestamp="2024-03-28T08:24:54Z" user="asdfwqer" uid="20626553" lat="60.0928340" lon="30.3932429"/>
 <node id="11768437550" visible="true" version="1" changeset="149256130" timestamp="2024-03-28T08:24:54Z" user="asdfwqer" uid="20626553" lat="60.0929361" lon="30.3931283"/>
 <node id="11768437551" visible="true" version="1" changeset="149256130" timestamp="2024-03-28T08:24:54Z" user="asdfwqer" uid="20626553" lat="60.0928813" lon="30.3929322"/>
 <node id="11768437552" visible="true" version="1" changeset="149256130" timestamp="2024-03-28T08:24:54Z" user="asdfwqer" uid="20626553" lat="60.0927793" lon="30.3930467"/>
 <node id="11768437553" visible="true" version="1" changeset="149256130" timestamp="2024-03-28T08:24:54Z" user="asdfwqer" uid="20626553" lat="60.0927881" lon="30.3932147"/>
 <node id="11768437554" visible="true" version="1" changeset="149256130" timestamp="2024-03-28T08:24:54Z" user="asdfwqer" uid="20626553" lat="60.0927458" lon="30.3932567"/>
 <node id="11768437555" visible="true" version="1" changeset="149256130" timestamp="2024-03-28T08:24:54Z" user="asdfwqer" uid="20626553" lat="60.0927273" lon="30.3931819"/>
 <node id="11768437556" visible="true" version="1" changeset="149256130" timestamp="2024-03-28T08:24:54Z" user="asdfwqer" uid="20626553" lat="60.0927696" lon="30.3931399"/>
 <node id="11768437557" visible="true" version="1" changeset="149256130" timestamp="2024-03-28T08:24:54Z" user="asdfwqer" uid="20626553" lat="60.0909876" lon="30.3914966"/>
 <node id="11768437558" visible="true" version="1" changeset="149256130" timestamp="2024-03-28T08:24:54Z" user="asdfwqer" uid="20626553" lat="60.0908089" lon="30.3911827"/>
 <node id="11768437559" visible="true" version="1" changeset="149256130" timestamp="2024-03-28T08:24:54Z" user="asdfwqer" uid="20626553" lat="60.0905253" lon="30.3907503"/>
 <node id="11768437560" visible="true" version="2" changeset="159252225" timestamp="2024-11-17T17:24:11Z" user="asdfwqer" uid="20626553" lat="60.0909472" lon="30.3914851"/>
 <node id="11768437561" visible="true" version="2" changeset="159252225" timestamp="2024-11-17T17:24:11Z" user="asdfwqer" uid="20626553" lat="60.0907327" lon="30.3918140"/>
 <node id="11768437562" visible="true" version="2" changeset="159252225" timestamp="2024-11-17T17:24:11Z" user="asdfwqer" uid="20626553" lat="60.0905536" lon="30.3919083"/>
 <node id="11768437563" visible="true" version="2" changeset="159252225" timestamp="2024-11-17T17:24:11Z" user="asdfwqer" uid="20626553" lat="60.0904342" lon="30.3920066"/>
 <node id="11768437564" visible="true" version="2" changeset="159252225" timestamp="2024-11-17T17:24:11Z" user="asdfwqer" uid="20626553" lat="60.0902256" lon="30.3922406"/>
 <node id="11768437565" visible="true" version="2" changeset="159252225" timestamp="2024-11-17T17:24:11Z" user="asdfwqer" uid="20626553" lat="60.0901063" lon="30.3923302"/>
 <node id="11768437566" visible="true" version="2" changeset="159252225" timestamp="2024-11-17T17:24:11Z" user="asdfwqer" uid="20626553" lat="60.0900626" lon="30.3922940"/>
 <node id="11768437567" visible="true" version="1" changeset="149256130" timestamp="2024-03-28T08:24:54Z" user="asdfwqer" uid="20626553" lat="60.0900861" lon="30.3921771"/>
 <node id="11768437568" visible="true" version="2" changeset="159252225" timestamp="2024-11-17T17:24:11Z" user="asdfwqer" uid="20626553" lat="60.0901099" lon="30.3920068"/>
 <node id="11768437573" visible="true" version="2" changeset="159252225" timestamp="2024-11-17T17:24:11Z" user="asdfwqer" uid="20626553" lat="60.0900979" lon="30.3918275"/>
 <node id="11768437574" visible="true" version="1" changeset="149256130" timestamp="2024-03-28T08:24:54Z" user="asdfwqer" uid="20626553" lat="60.0900966" lon="30.3916547"/>
 <node id="11768437575" visible="true" version="1" changeset="149256130" timestamp="2024-03-28T08:24:54Z" user="asdfwqer" uid="20626553" lat="60.0900903" lon="30.3915662"/>
 <node id="11768437576" visible="true" version="1" changeset="149256130" timestamp="2024-03-28T08:24:54Z" user="asdfwqer" uid="20626553" lat="60.0901701" lon="30.3913977"/>
 <node id="11768437577" visible="true" version="1" changeset="149256130" timestamp="2024-03-28T08:24:54Z" user="asdfwqer" uid="20626553" lat="60.0903529" lon="30.3912334"/>
 <node id="11768437578" visible="true" version="1" changeset="149256130" timestamp="2024-03-28T08:24:54Z" user="asdfwqer" uid="20626553" lat="60.0904495" lon="30.3912966"/>
 <node id="11768437579" visible="true" version="1" changeset="149256130" timestamp="2024-03-28T08:24:54Z" user="asdfwqer" uid="20626553" lat="60.0905419" lon="30.3914651"/>
 <node id="11768437580" visible="true" version="1" changeset="149256130" timestamp="2024-03-28T08:24:54Z" user="asdfwqer" uid="20626553" lat="60.0906302" lon="30.3915409"/>
 <node id="11768437581" visible="true" version="1" changeset="149256130" timestamp="2024-03-28T08:24:54Z" user="asdfwqer" uid="20626553" lat="60.0906743" lon="30.3914609"/>
 <node id="11768437582" visible="true" version="1" changeset="149256130" timestamp="2024-03-28T08:24:54Z" user="asdfwqer" uid="20626553" lat="60.0907220" lon="30.3914133"/>
 <node id="11768437583" visible="true" version="2" changeset="159252225" timestamp="2024-11-17T17:24:11Z" user="asdfwqer" uid="20626553" lat="60.0908360" lon="30.3913339"/>
 <node id="11768437584" visible="true" version="1" changeset="149256130" timestamp="2024-03-28T08:24:54Z" user="asdfwqer" uid="20626553" lat="60.0914892" lon="30.3930937">
  <tag k="barrier" v="gate"/>
 </node>
 <node id="11768437586" visible="true" version="2" changeset="159252225" timestamp="2024-11-17T17:24:11Z" user="asdfwqer" uid="20626553" lat="60.0913744" lon="30.3925797"/>
 <node id="11768437588" visible="true" version="1" changeset="149256130" timestamp="2024-03-28T08:24:54Z" user="asdfwqer" uid="20626553" lat="60.0910782" lon="30.3931984"/>
 <node id="11768437589" visible="true" version="1" changeset="149256130" timestamp="2024-03-28T08:24:54Z" user="asdfwqer" uid="20626553" lat="60.0909303" lon="30.3911190"/>
 <node id="11768437590" visible="true" version="1" changeset="149256130" timestamp="2024-03-28T08:24:54Z" user="asdfwqer" uid="20626553" lat="60.0907021" lon="30.3905181"/>
 <node id="11768437591" visible="true" version="3" changeset="165169575" timestamp="2025-04-19T20:07:22Z" user="Pavel239" uid="354001" lat="60.0903726" lon="30.3895747"/>
 <node id="11768437593" visible="true" version="2" changeset="158368211" timestamp="2024-10-26T10:33:19Z" user="Константин Гам" uid="392109" lat="60.0904176" lon="30.3893706"/>
 <node id="11768437595" visible="true" version="2" changeset="158368211" timestamp="2024-10-26T10:33:19Z" user="Константин Гам" uid="392109" lat="60.0904851" lon="30.3892704"/>
 <node id="11768437597" visible="true" version="2" changeset="158368211" timestamp="2024-10-26T10:33:19Z" user="Константин Гам" uid="392109" lat="60.0913340" lon="30.3885665"/>
 <node id="11768437598" visible="true" version="2" changeset="158368211" timestamp="2024-10-26T10:33:19Z" user="Константин Гам" uid="392109" lat="60.0891579" lon="30.3831652"/>
 <node id="11768437600" visible="true" version="2" changeset="158368211" timestamp="2024-10-26T10:33:19Z" user="Константин Гам" uid="392109" lat="60.0900226" lon="30.3860552"/>
 <node id="11768437601" visible="true" version="2" changeset="158368211" timestamp="2024-10-26T10:33:19Z" user="Константин Гам" uid="392109" lat="60.0902060" lon="30.3865508"/>
 <node id="11768437602" visible="true" version="2" changeset="158368211" timestamp="2024-10-26T10:33:19Z" user="Константин Гам" uid="392109" lat="60.0902940" lon="30.3867239"/>
 <node id="11768437603" visible="true" version="1" changeset="149256130" timestamp="2024-03-28T08:24:54Z" user="asdfwqer" uid="20626553" lat="60.0907129" lon="30.3873542"/>
 <node id="11768437604" visible="true" version="2" changeset="158368211" timestamp="2024-10-26T10:33:19Z" user="Константин Гам" uid="392109" lat="60.0913450" lon="30.3884939"/>
 <node id="11768437605" visible="true" version="1" changeset="149256130" timestamp="2024-03-28T08:24:54Z" user="asdfwqer" uid="20626553" lat="60.0903583" lon="30.3866954"/>
 <node id="11768437606" visible="true" version="2" changeset="158368211" timestamp="2024-10-26T10:33:19Z" user="Константин Гам" uid="392109" lat="60.0913938" lon="30.3884848"/>
 <node id="11768437616" visible="true" version="2" changeset="159252225" timestamp="2024-11-17T17:24:11Z" user="asdfwqer" uid="20626553" lat="60.0919450" lon="30.3939523"/>
 <node id="11768437617" visible="true" version="1" changeset="149256130" timestamp="2024-03-28T08:24:54Z" user="asdfwqer" uid="20626553" lat="60.0920714" lon="30.3943394"/>
 <node id="11768437618" visible="true" version="1" changeset="149256130" timestamp="2024-03-28T08:24:54Z" user="asdfwqer" uid="20626553" lat="60.0921188" lon="30.3944293"/>
 <node id="11768437619" visible="true" version="1" changeset="149256130" timestamp="2024-03-28T08:24:54Z" user="asdfwqer" uid="20626553" lat="60.0921649" lon="30.3944447"/>
 <node id="11768437620" visible="true" version="1" changeset="149256130" timestamp="2024-03-28T08:24:54Z" user="asdfwqer" uid="20626553" lat="60.0922097" lon="30.3944267"/>
 <node id="11768437621" visible="true" version="1" changeset="149256130" timestamp="2024-03-28T08:24:54Z" user="asdfwqer" uid="20626553" lat="60.0923403" lon="30.3942983"/>
 <node id="11768437679" visible="true" version="1" changeset="149256130" timestamp="2024-03-28T08:24:54Z" user="asdfwqer" uid="20626553" lat="60.0928257" lon="30.3855400"/>
 <node id="11768437680" visible="true" version="1" changeset="149256130" timestamp="2024-03-28T08:24:54Z" user="asdfwqer" uid="20626553" lat="60.0928771" lon="30.3860037"/>
 <node id="11768437681" visible="true" version="1" changeset="149256130" timestamp="2024-03-28T08:24:54Z" user="asdfwqer" uid="20626553" lat="60.0925368" lon="30.3867184"/>
 <node id="11768437682" visible="true" version="1" changeset="149256130" timestamp="2024-03-28T08:24:54Z" user="asdfwqer" uid="20626553" lat="60.0925593" lon="30.3870210"/>
 <node id="11768437683" visible="true" version="1" changeset="149256130" timestamp="2024-03-28T08:24:54Z" user="asdfwqer" uid="20626553" lat="60.0923731" lon="30.3875168"/>
 <node id="11768437684" visible="true" version="1" changeset="149256130" timestamp="2024-03-28T08:24:54Z" user="asdfwqer" uid="20626553" lat="60.0918915" lon="30.3879998"/>
 <node id="11768437685" visible="true" version="1" changeset="149256130" timestamp="2024-03-28T08:24:54Z" user="asdfwqer" uid="20626553" lat="60.0914645" lon="30.3883926"/>
 <node id="11768437686" visible="true" version="1" changeset="149256130" timestamp="2024-03-28T08:24:54Z" user="asdfwqer" uid="20626553" lat="60.0913007" lon="30.3883604"/>
 <node id="11768437687" visible="true" version="1" changeset="149256130" timestamp="2024-03-28T08:24:54Z" user="asdfwqer" uid="20626553" lat="60.0911819" lon="30.3880320"/>
 <node id="11768437688" visible="true" version="1" changeset="149256130" timestamp="2024-03-28T08:24:54Z" user="asdfwqer" uid="20626553" lat="60.0908865" lon="30.3874782"/>
 <node id="11768437689" visible="true" version="1" changeset="149256130" timestamp="2024-03-28T08:24:54Z" user="asdfwqer" uid="20626553" lat="60.0910053" lon="30.3873687"/>
 <node id="11768437690" visible="true" version="1" changeset="149256130" timestamp="2024-03-28T08:24:54Z" user="asdfwqer" uid="20626553" lat="60.0911691" lon="30.3874847"/>
 <node id="11768437691" visible="true" version="1" changeset="149256130" timestamp="2024-03-28T08:24:54Z" user="asdfwqer" uid="20626553" lat="60.0913039" lon="30.3873494"/>
 <node id="11768437692" visible="true" version="1" changeset="149256130" timestamp="2024-03-28T08:24:54Z" user="asdfwqer" uid="20626553" lat="60.0911627" lon="30.3863514"/>
 <node id="11768437693" visible="true" version="1" changeset="149256130" timestamp="2024-03-28T08:24:54Z" user="asdfwqer" uid="20626553" lat="60.0914645" lon="30.3857525"/>
 <node id="11768437694" visible="true" version="1" changeset="149256130" timestamp="2024-03-28T08:24:54Z" user="asdfwqer" uid="20626553" lat="60.0915479" lon="30.3858491"/>
 <node id="11768437695" visible="true" version="1" changeset="149256130" timestamp="2024-03-28T08:24:54Z" user="asdfwqer" uid="20626553" lat="60.0915800" lon="30.3857396"/>
 <node id="11768437696" visible="true" version="1" changeset="149256130" timestamp="2024-03-28T08:24:54Z" user="asdfwqer" uid="20626553" lat="60.0915800" lon="30.3855787"/>
 <node id="11768437697" visible="true" version="1" changeset="149256130" timestamp="2024-03-28T08:24:54Z" user="asdfwqer" uid="20626553" lat="60.0917085" lon="30.3850571"/>
 <node id="11768437698" visible="true" version="1" changeset="149256130" timestamp="2024-03-28T08:24:54Z" user="asdfwqer" uid="20626553" lat="60.0924856" lon="30.3843196"/>
 <node id="11768437699" visible="true" version="1" changeset="149256130" timestamp="2024-03-28T08:24:54Z" user="asdfwqer" uid="20626553" lat="60.0924158" lon="30.3842497"/>
 <node id="11768437700" visible="true" version="1" changeset="149256130" timestamp="2024-03-28T08:24:54Z" user="asdfwqer" uid="20626553" lat="60.0927961" lon="30.3860232"/>
 <node id="11768437701" visible="true" version="1" changeset="149256130" timestamp="2024-03-28T08:24:54Z" user="asdfwqer" uid="20626553" lat="60.0923328" lon="30.3858192"/>
 <node id="11768437702" visible="true" version="1" changeset="149256130" timestamp="2024-03-28T08:24:54Z" user="asdfwqer" uid="20626553" lat="60.0926461" lon="30.3856501"/>
 <node id="11768437703" visible="true" version="1" changeset="149256130" timestamp="2024-03-28T08:24:54Z" user="asdfwqer" uid="20626553" lat="60.0925347" lon="30.3853898"/>
 <node id="11768437704" visible="true" version="1" changeset="149256130" timestamp="2024-03-28T08:24:54Z" user="asdfwqer" uid="20626553" lat="60.0923368" lon="30.3854915"/>
 <node id="11768437705" visible="true" version="1" changeset="149256130" timestamp="2024-03-28T08:24:54Z" user="asdfwqer" uid="20626553" lat="60.0921368" lon="30.3906904"/>
 <node id="11768437706" visible="true" version="1" changeset="149256130" timestamp="2024-03-28T08:24:54Z" user="asdfwqer" uid="20626553" lat="60.0917619" lon="30.3893832"/>
 <node id="11768437707" visible="true" version="1" changeset="149256130" timestamp="2024-03-28T08:24:54Z" user="asdfwqer" uid="20626553" lat="60.0920899" lon="30.3883323"/>
 <node id="11768437708" visible="true" version="1" changeset="149256130" timestamp="2024-03-28T08:24:54Z" user="asdfwqer" uid="20626553" lat="60.0940708" lon="30.3868115"/>
 <node id="11768437709" visible="true" version="1" changeset="149256130" timestamp="2024-03-28T08:24:54Z" user="asdfwqer" uid="20626553" lat="60.0941389" lon="30.3872985"/>
 <node id="11768437710" visible="true" version="1" changeset="149256130" timestamp="2024-03-28T08:24:54Z" user="asdfwqer" uid="20626553" lat="60.0933594" lon="30.3884690"/>
 <node id="11768437711" visible="true" version="1" changeset="149256130" timestamp="2024-03-28T08:24:54Z" user="asdfwqer" uid="20626553" lat="60.0933296" lon="30.3887510"/>
 <node id="11768437712" visible="true" version="1" changeset="149256130" timestamp="2024-03-28T08:24:54Z" user="asdfwqer" uid="20626553" lat="60.0927545" lon="30.3902376"/>
 <node id="11768437713" visible="true" version="1" changeset="149256130" timestamp="2024-03-28T08:24:54Z" user="asdfwqer" uid="20626553" lat="60.0929288" lon="30.3902111"/>
 <node id="11768437714" visible="true" version="1" changeset="149256130" timestamp="2024-03-28T08:24:54Z" user="asdfwqer" uid="20626553" lat="60.0934866" lon="30.3890531"/>
 <node id="11768437715" visible="true" version="1" changeset="149256130" timestamp="2024-03-28T08:24:54Z" user="asdfwqer" uid="20626553" lat="60.0943086" lon="30.3877498"/>
 <node id="11768437716" visible="true" version="1" changeset="149256130" timestamp="2024-03-28T08:24:54Z" user="asdfwqer" uid="20626553" lat="60.0944280" lon="30.3882523"/>
 <node id="11768437717" visible="true" version="1" changeset="149256130" timestamp="2024-03-28T08:24:54Z" user="asdfwqer" uid="20626553" lat="60.0943125" lon="30.3886252"/>
 <node id="11768437718" visible="true" version="1" changeset="149256130" timestamp="2024-03-28T08:24:54Z" user="asdfwqer" uid="20626553" lat="60.0935981" lon="30.3894535"/>
 <node id="11768437719" visible="true" version="1" changeset="149256130" timestamp="2024-03-28T08:24:54Z" user="asdfwqer" uid="20626553" lat="60.0932791" lon="30.3898814"/>
 <node id="11768437720" visible="true" version="1" changeset="149256130" timestamp="2024-03-28T08:24:54Z" user="asdfwqer" uid="20626553" lat="60.0940151" lon="30.3924572"/>
 <node id="11768437721" visible="true" version="1" changeset="149256130" timestamp="2024-03-28T08:24:54Z" user="asdfwqer" uid="20626553" lat="60.0936905" lon="30.3928286"/>
 <node id="11768437722" visible="true" version="1" changeset="149256130" timestamp="2024-03-28T08:24:54Z" user="asdfwqer" uid="20626553" lat="60.0935801" lon="30.3927877"/>
 <node id="11768437723" visible="true" version="1" changeset="149256130" timestamp="2024-03-28T08:24:54Z" user="asdfwqer" uid="20626553" lat="60.0932199" lon="30.3926276"/>
 <node id="11768437724" visible="true" version="1" changeset="149256130" timestamp="2024-03-28T08:24:54Z" user="asdfwqer" uid="20626553" lat="60.0931723" lon="30.3925117"/>
 <node id="11768437725" visible="true" version="1" changeset="149256130" timestamp="2024-03-28T08:24:54Z" user="asdfwqer" uid="20626553" lat="60.0932539" lon="30.3923447"/>
 <node id="11768437726" visible="true" version="1" changeset="149256130" timestamp="2024-03-28T08:24:54Z" user="asdfwqer" uid="20626553" lat="60.0935920" lon="30.3923004"/>
 <node id="11768437727" visible="true" version="1" changeset="149256130" timestamp="2024-03-28T08:24:54Z" user="asdfwqer" uid="20626553" lat="60.0938332" lon="30.3922970"/>
 <node id="11768437728" visible="true" version="1" changeset="149256130" timestamp="2024-03-28T08:24:54Z" user="asdfwqer" uid="20626553" lat="60.0939437" lon="30.3923038"/>
 <node id="11768437729" visible="true" version="1" changeset="149256130" timestamp="2024-03-28T08:24:54Z" user="asdfwqer" uid="20626553" lat="60.0940100" lon="30.3923447"/>
 <node id="12348765594" visible="true" version="1" changeset="159252225" timestamp="2024-11-17T17:24:11Z" user="asdfwqer" uid="20626553" lat="60.0919151" lon="30.3937956"/>
 <node id="12348765595" visible="true" version="1" changeset="159252225" timestamp="2024-11-17T17:24:11Z" user="asdfwqer" uid="20626553" lat="60.0919159" lon="30.3937359"/>
 <node id="12348765596" visible="true" version="1" changeset="159252225" timestamp="2024-11-17T17:24:11Z" user="asdfwqer" uid="20626553" lat="60.0919186" lon="30.3936883"/>
 <node id="12348765597" visible="true" version="1" changeset="159252225" timestamp="2024-11-17T17:24:11Z" user="asdfwqer" uid="20626553" lat="60.0918997" lon="30.3935379"/>
 <node id="12348765598" visible="true" version="1" changeset="159252225" timestamp="2024-11-17T17:24:11Z" user="asdfwqer" uid="20626553" lat="60.0919117" lon="30.3934508"/>
 <node id="12348765599" visible="true" version="1" changeset="159252225" timestamp="2024-11-17T17:24:11Z" user="asdfwqer" uid="20626553" lat="60.0919355" lon="30.3933894"/>
 <node id="12348765600" visible="true" version="1" changeset="159252225" timestamp="2024-11-17T17:24:11Z" user="asdfwqer" uid="20626553" lat="60.0923929" lon="30.3930872"/>
 <node id="12348768501" visible="true" version="1" changeset="159252225" timestamp="2024-11-17T17:24:11Z" user="asdfwqer" uid="20626553" lat="60.0924458" lon="30.3929836"/>
 <node id="12348768502" visible="true" version="1" changeset="159252225" timestamp="2024-11-17T17:24:11Z" user="asdfwqer" uid="20626553" lat="60.0924631" lon="30.3928105"/>
 <node id="12348768503" visible="true" version="1" changeset="159252225" timestamp="2024-11-17T17:24:11Z" user="asdfwqer" uid="20626553" lat="60.0925010" lon="30.3927170"/>
 <node id="12348768504" visible="true" version="1" changeset="159252225" timestamp="2024-11-17T17:24:11Z" user="asdfwqer" uid="20626553" lat="60.0929256" lon="30.3923951"/>
 <node id="12348768505" visible="true" version="1" changeset="159252225" timestamp="2024-11-17T17:24:11Z" user="asdfwqer" uid="20626553" lat="60.0928318" lon="30.3922542"/>
 <node id="12348768506" visible="true" version="1" changeset="159252225" timestamp="2024-11-17T17:24:11Z" user="asdfwqer" uid="20626553" lat="60.0917171" lon="30.3929521"/>
 <node id="12348768507" visible="true" version="1" changeset="159252225" timestamp="2024-11-17T17:24:11Z" user="asdfwqer" uid="20626553" lat="60.0916834" lon="30.3928118"/>
 <node id="12348768508" visible="true" version="1" changeset="159252225" timestamp="2024-11-17T17:24:11Z" user="asdfwqer" uid="20626553" lat="60.0916429" lon="30.3928381"/>
 <node id="12348768509" visible="true" version="1" changeset="159252225" timestamp="2024-11-17T17:24:11Z" user="asdfwqer" uid="20626553" lat="60.0916292" lon="30.3927535"/>
 <node id="12348768510" visible="true" version="1" changeset="159252225" timestamp="2024-11-17T17:24:11Z" user="asdfwqer" uid="20626553" lat="60.0916698" lon="30.3927272"/>
 <node id="12348768511" visible="true" version="1" changeset="159252225" timestamp="2024-11-17T17:24:11Z" user="asdfwqer" uid="20626553" lat="60.0916579" lon="30.3926001"/>
 <node id="12348768512" visible="true" version="1" changeset="159252225" timestamp="2024-11-17T17:24:11Z" user="asdfwqer" uid="20626553" lat="60.0916118" lon="30.3926281"/>
 <node id="12348768513" visible="true" version="1" changeset="159252225" timestamp="2024-11-17T17:24:11Z" user="asdfwqer" uid="20626553" lat="60.0914795" lon="30.3917544"/>
 <node id="12348768514" visible="true" version="1" changeset="159252225" timestamp="2024-11-17T17:24:11Z" user="asdfwqer" uid="20626553" lat="60.0915256" lon="30.3917263"/>
 <node id="12348768515" visible="true" version="1" changeset="159252225" timestamp="2024-11-17T17:24:11Z" user="asdfwqer" uid="20626553" lat="60.0914929" lon="30.3929742"/>
 <node id="12348768516" visible="true" version="1" changeset="159252225" timestamp="2024-11-17T17:24:11Z" user="asdfwqer" uid="20626553" lat="60.0912696" lon="30.3923028"/>
 <node id="12348768517" visible="true" version="1" changeset="159252225" timestamp="2024-11-17T17:24:11Z" user="asdfwqer" uid="20626553" lat="60.0914150" lon="30.3927150">
  <tag k="barrier" v="gate"/>
 </node>
 <node id="12348768518" visible="true" version="1" changeset="159252225" timestamp="2024-11-17T17:24:11Z" user="asdfwqer" uid="20626553" lat="60.0912211" lon="30.3920221"/>
 <node id="12348768519" visible="true" version="1" changeset="159252225" timestamp="2024-11-17T17:24:11Z" user="asdfwqer" uid="20626553" lat="60.0911631" lon="30.3920487"/>
 <node id="12348768520" visible="true" version="1" changeset="159252225" timestamp="2024-11-17T17:24:11Z" user="asdfwqer" uid="20626553" lat="60.0907162" lon="30.3919197"/>
 <node id="12348768521" visible="true" version="1" changeset="159252225" timestamp="2024-11-17T17:24:11Z" user="asdfwqer" uid="20626553" lat="60.0890600" lon="30.3931755"/>
 <node id="12348768522" visible="true" version="1" changeset="159252225" timestamp="2024-11-17T17:24:11Z" user="asdfwqer" uid="20626553" lat="60.0909677" lon="30.3924916"/>
 <node id="12348768523" visible="true" version="1" changeset="159252225" timestamp="2024-11-17T17:24:11Z" user="asdfwqer" uid="20626553" lat="60.0911935" lon="30.3923286"/>
 <node id="12348768524" visible="true" version="1" changeset="159252225" timestamp="2024-11-17T17:24:11Z" user="asdfwqer" uid="20626553" lat="60.0911258" lon="30.3921066"/>
 <node id="12348768525" visible="true" version="1" changeset="159252225" timestamp="2024-11-17T17:24:11Z" user="asdfwqer" uid="20626553" lat="60.0907373" lon="30.3920115"/>
 <node id="12348768526" visible="true" version="1" changeset="159252225" timestamp="2024-11-17T17:24:11Z" user="asdfwqer" uid="20626553" lat="60.0911315" lon="30.3920411">
  <tag k="barrier" v="lift_gate"/>
 </node>
 <node id="12348768527" visible="true" version="1" changeset="159252225" timestamp="2024-11-17T17:24:11Z" user="asdfwqer" uid="20626553" lat="60.0911560" lon="30.3922056">
  <tag k="barrier" v="gate"/>
 </node>
 <node id="12348768528" visible="true" version="1" changeset="159252225" timestamp="2024-11-17T17:24:11Z" user="asdfwqer" uid="20626553" lat="60.0911372" lon="30.3919248"/>
 <node id="12348768529" visible="true" version="1" changeset="159252225" timestamp="2024-11-17T17:24:11Z" user="asdfwqer" uid="20626553" lat="60.0909462" lon="30.3916350"/>
 <node id="12348768530" visible="true" version="1" changeset="159252225" timestamp="2024-11-17T17:24:11Z" user="asdfwqer" uid="20626553" lat="60.0910087" lon="30.3915571"/>
 <node id="12348768531" visible="true" version="2" changeset="165169575" timestamp="2025-04-19T20:07:22Z" user="Pavel239" uid="354001" lat="60.0904486" lon="30.3897918"/>
 <node id="12348768532" visible="true" version="1" changeset="159252225" timestamp="2024-11-17T17:24:11Z" user="asdfwqer" uid="20626553" lat="60.0909706" lon="30.3915630"/>
 <node id="12348768533" visible="true" version="1" changeset="159252225" timestamp="2024-11-17T17:24:11Z" user="asdfwqer" uid="20626553" lat="60.0909269" lon="30.3916442"/>
 <node id="12348768534" visible="true" version="1" changeset="159252225" timestamp="2024-11-17T17:24:11Z" user="asdfwqer" uid="20626553" lat="60.0909418" lon="30.3916953"/>
 <node id="13191765087" visible="true" version="1" changeset="172813677" timestamp="2025-10-04T01:22:12Z" user="Pavel239" uid="354001" lat="60.0917506" lon="30.3901635"/>
 <node id="13191765088" visible="true" version="1" changeset="172813677" timestamp="2025-10-04T01:22:12Z" user="Pavel239" uid="354001" lat="60.0918910" lon="30.3906204"/>
 <node id="13191765089" visible="true" version="1" changeset="172813677" timestamp="2025-10-04T01:22:12Z" user="Pavel239" uid="354001" lat="60.0916203" lon="30.3909549"/>
 <node id="13191765090" visible="true" version="1" changeset="172813677" timestamp="2025-10-04T01:22:12Z" user="Pavel239" uid="354001" lat="60.0915902" lon="30.3908569"/>
 <node id="13191765091" visible="true" version="1" changeset="172813677" timestamp="2025-10-04T01:22:12Z" user="Pavel239" uid="354001" lat="60.0914996" lon="30.3909688"/>
 <node id="13191765092" visible="true" version="1" changeset="172813677" timestamp="2025-10-04T01:22:12Z" user="Pavel239" uid="354001" lat="60.0913894" lon="30.3906101"/>
 <way id="352554872" visible="true" version="7" changeset="159252225" timestamp="2024-11-17T17:24:11Z" user="asdfwqer" uid="20626553">
  <nd ref="10679387613"/>
  <nd ref="3583201364"/>
  <nd ref="10679387610"/>
  <nd ref="10679387630"/>
  <nd ref="12348768518"/>
  <nd ref="5599177294"/>
  <nd ref="3583201363"/>
  <nd ref="11768437493"/>
  <nd ref="5599177293"/>
  <nd ref="5599177282"/>
  <nd ref="11768437436"/>
  <nd ref="11768437432"/>
  <nd ref="10609163022"/>
  <nd ref="10609163023"/>
  <nd ref="11768437429"/>
  <nd ref="10609163024"/>
  <tag k="highway" v="service"/>
  <tag k="note" v="Дорога к заводу или складу"/>
  <tag k="surface" v="asphalt"/>
 </way>
 <way id="560701371" visible="true" version="2" changeset="149256130" timestamp="2024-03-28T08:24:54Z" user="asdfwqer" uid="20626553">
  <nd ref="5407071642"/>
  <nd ref="5407071641"/>
  <nd ref="5407071640"/>
  <tag k="waterway" v="ditch"/>
 </way>
 <way id="585961281" visible="true" version="3" changeset="149256130" timestamp="2024-03-28T08:24:54Z" user="asdfwqer" uid="20626553">
  <nd ref="3583201363"/>
  <nd ref="11768437542"/>
  <nd ref="5407071639"/>
  <tag k="highway" v="service"/>
  <tag k="note" v="Дорога к заводу или складу"/>
  <tag k="surface" v="asphalt"/>
 </way>
 <way id="783641274" visible="true" version="4" changeset="159252225" timestamp="2024-11-17T17:24:11Z" user="asdfwqer" uid="20626553">
  <nd ref="7319470881"/>
  <nd ref="11768437490"/>
  <nd ref="5599177293"/>
  <nd ref="11768437559"/>
  <nd ref="11768437492"/>
  <nd ref="11768437558"/>
  <nd ref="11768437557"/>
  <nd ref="12348768530"/>
  <nd ref="12348768528"/>
  <nd ref="12348768526"/>
  <nd ref="12348768524"/>
  <nd ref="12348768527"/>
  <nd ref="12348768523"/>
  <nd ref="12348768516"/>
  <nd ref="7319470880"/>
  <nd ref="11768437586"/>
  <nd ref="12348768517"/>
  <nd ref="12348768515"/>
  <nd ref="11768437506"/>
  <nd ref="11768437584"/>
  <nd ref="11768437499"/>
  <nd ref="11768437500"/>
  <nd ref="11768437497"/>
  <nd ref="11768437501"/>
  <nd ref="7319470879"/>
  <nd ref="11768437496"/>
  <nd ref="7319470878"/>
  <nd ref="10679387612"/>
  <nd ref="7319470877"/>
  <nd ref="11768437495"/>
  <nd ref="11768437494"/>
  <nd ref="7319470876"/>
  <nd ref="7319470875"/>
  <nd ref="7319470874"/>
  <nd ref="7319470873"/>
  <nd ref="7319470872"/>
  <nd ref="7319470871"/>
  <nd ref="7319470870"/>
  <nd ref="7319470869"/>
  <nd ref="11768437464"/>
  <nd ref="7319470881"/>
  <tag k="landuse" v="industrial"/>
 </way>
 <way id="1074216237" visible="true" version="2" changeset="163313280" timestamp="2025-03-07T07:20:45Z" user="Ozon OSM7" uid="22471995">
  <nd ref="9853323990"/>
  <nd ref="9853323989"/>
  <nd ref="9853323988"/>
  <nd ref="9853323987"/>
  <nd ref="9853323990"/>
  <tag k="addr:housenumber" v="1 к2"/>
  <tag k="addr:street" v="улица Карагандинская"/>
  <tag k="building" v="yes"/>
 </way>
 <way id="1074216238" visible="true" version="1" changeset="122957265" timestamp="2022-06-28T13:11:51Z" user="GaM&amp;Ko" uid="14115937">
  <nd ref="9853323994"/>
  <nd ref="9853323993"/>
  <nd ref="9853323992"/>
  <nd ref="9853323991"/>
  <nd ref="9853323994"/>
  <tag k="building" v="yes"/>
 </way>
 <way id="1138160360" visible="true" version="2" changeset="178097362" timestamp="2026-02-04T14:22:38Z" user="Ozon OSM13" uid="22779724">
  <nd ref="10609163018"/>
  <nd ref="10609163019"/>
  <nd ref="10609163020"/>
  <nd ref="10609163021"/>
  <nd ref="10609163018"/>
  <tag k="addr:housenumber" v="2 к1"/>
  <tag k="addr:street" v="Карагандинская улица"/>
  <tag k="building" v="yes"/>
 </way>
 <way id="1147759589" visible="true" version="2" changeset="149256130" timestamp="2024-03-28T08:24:54Z" user="asdfwqer" uid="20626553">
  <nd ref="10679387607"/>
  <nd ref="10679387606"/>
  <nd ref="11768437543"/>
  <nd ref="11768437544"/>
  <nd ref="10679387603"/>
  <nd ref="10679387604"/>
  <nd ref="10679387605"/>
  <nd ref="11768437537"/>
  <nd ref="5599177294"/>
  <tag k="highway" v="service"/>
 </way>
 <way id="1147759590" visible="true" version="2" changeset="159252225" timestamp="2024-11-17T17:24:11Z" user="asdfwqer" uid="20626553">
  <nd ref="10679387610"/>
  <nd ref="10679387609"/>
  <nd ref="12348768506"/>
  <nd ref="10679387608"/>
  <nd ref="10679387611"/>
  <nd ref="10679387605"/>
  <tag k="highway" v="service"/>
 </way>
 <way id="1147759593" visible="true" version="2" changeset="149256130" timestamp="2024-03-28T08:24:54Z" user="asdfwqer" uid="20626553">
  <nd ref="10679387627"/>
  <nd ref="10679387626"/>
  <nd ref="10679387620"/>
  <nd ref="10679387621"/>
  <nd ref="10679387622"/>
  <nd ref="10679387623"/>
  <nd ref="10679387624"/>
  <nd ref="11768437542"/>
  <nd ref="10679387625"/>
  <tag k="barrier" v="fence"/>
 </way>
 <way id="1147759594" visible="true" version="2" changeset="149256130" timestamp="2024-03-28T08:24:54Z" user="asdfwqer" uid="20626553">
  <nd ref="10679387631"/>
  <nd ref="10679387628"/>
  <nd ref="10679387629"/>
  <nd ref="11768437517"/>
  <nd ref="11768437584"/>
  <nd ref="10679387630"/>
  <tag k="highway" v="service"/>
 </way>
 <way id="1190064074" visible="true" version="3" changeset="159252225" timestamp="2024-11-17T17:24:11Z" user="asdfwqer" uid="20626553">
  <nd ref="11050148333"/>
  <nd ref="11050148334"/>
  <nd ref="11050148335"/>
  <nd ref="11768437536"/>
  <nd ref="11768437535"/>
  <nd ref="11768437534"/>
  <nd ref="11768437533"/>
  <nd ref="11050148336"/>
  <nd ref="11050148337"/>
  <nd ref="11050148338"/>
  <nd ref="11050148339"/>
  <nd ref="11050148340"/>
  <nd ref="11768437525"/>
  <nd ref="11768437526"/>
  <nd ref="10679387609"/>
  <nd ref="11768437527"/>
  <nd ref="11768437528"/>
  <nd ref="11768437529"/>
  <nd ref="11768437530"/>
  <nd ref="11768437537"/>
  <nd ref="11768437531"/>
  <nd ref="11768437532"/>
  <nd ref="10679387625"/>
  <nd ref="10679387627"/>
  <nd ref="11050148333"/>
  <tag k="landuse" v="industrial"/>
 </way>
 <way id="1267043391" visible="true" version="1" changeset="149256130" timestamp="2024-03-28T08:24:54Z" user="asdfwqer" uid="20626553">
  <nd ref="11768437432"/>
  <nd ref="11768437433"/>
  <nd ref="11768437435"/>
  <nd ref="11768437434"/>
  <nd ref="5599177282"/>
  <tag k="highway" v="service"/>
 </way>
 <way id="1267043398" visible="true" version="1" changeset="149256130" timestamp="2024-03-28T08:24:54Z" user="asdfwqer" uid="20626553">
  <nd ref="7319470874"/>
  <nd ref="7319470873"/>
  <nd ref="7319470872"/>
  <nd ref="7319470871"/>
  <nd ref="7319470870"/>
  <nd ref="7319470869"/>
  <nd ref="11768437464"/>
  <nd ref="7319470881"/>
  <nd ref="11768437490"/>
  <nd ref="5599177293"/>
  <nd ref="11768437559"/>
  <nd ref="11768437491"/>
  <nd ref="11768437492"/>
  <tag k="barrier" v="fence"/>
 </way>
 <way id="1267043399" visible="true" version="1" changeset="149256130" timestamp="2024-03-28T08:24:54Z" user="asdfwqer" uid="20626553">
  <nd ref="11768437497"/>
  <nd ref="11768437498"/>
  <nd ref="11768437499"/>
  <nd ref="11768437500"/>
  <nd ref="11768437497"/>
  <tag k="building" v="yes"/>
 </way>
 <way id="1267043400" visible="true" version="2" changeset="159252225" timestamp="2024-11-17T17:24:11Z" user="asdfwqer" uid="20626553">
  <nd ref="11768437497"/>
  <nd ref="11768437501"/>
  <nd ref="7319470879"/>
  <nd ref="11768437496"/>
  <nd ref="7319470878"/>
  <nd ref="10679387612"/>
  <nd ref="7319470877"/>
  <nd ref="11768437495"/>
  <nd ref="11768437494"/>
  <nd ref="7319470876"/>
  <nd ref="7319470875"/>
  <nd ref="7319470874"/>
  <nd ref="11768437502"/>
  <nd ref="11768437503"/>
  <nd ref="11768437504"/>
  <nd ref="11768437505"/>
  <nd ref="11768437588"/>
  <nd ref="11768437506"/>
  <nd ref="11768437584"/>
  <nd ref="11768437499"/>
  <tag k="barrier" v="fence"/>
 </way>
 <way id="1267043403" visible="true" version="1" changeset="149256130" timestamp="2024-03-28T08:24:54Z" user="asdfwqer" uid="20626553">
  <nd ref="10679387629"/>
  <nd ref="11768437515"/>
  <nd ref="11768437516"/>
  <nd ref="11768437517"/>
  <tag k="highway" v="service"/>
 </way>
 <way id="1267043404" visible="true" version="1" changeset="149256130" timestamp="2024-03-28T08:24:54Z" user="asdfwqer" uid="20626553">
  <nd ref="11768437518"/>
  <nd ref="11768437519"/>
  <nd ref="11768437520"/>
  <nd ref="11768437521"/>
  <nd ref="11768437522"/>
  <nd ref="11768437523"/>
  <nd ref="11768437518"/>
  <tag k="area:highway" v="service"/>
 </way>
 <way id="1267043405" visible="true" version="2" changeset="159252225" timestamp="2024-11-17T17:24:11Z" user="asdfwqer" uid="20626553">
  <nd ref="11050148335"/>
  <nd ref="11768437536"/>
  <nd ref="11768437535"/>
  <nd ref="11768437534"/>
  <nd ref="11768437533"/>
  <nd ref="11050148336"/>
  <nd ref="11050148337"/>
  <nd ref="11050148338"/>
  <nd ref="11050148339"/>
  <nd ref="11050148340"/>
  <nd ref="11768437525"/>
  <nd ref="11768437526"/>
  <nd ref="10679387609"/>
  <nd ref="11768437527"/>
  <nd ref="11768437528"/>
  <nd ref="11768437529"/>
  <nd ref="11768437530"/>
  <nd ref="11768437537"/>
  <nd ref="11768437531"/>
  <nd ref="11768437532"/>
  <nd ref="10679387625"/>
  <nd ref="10679387627"/>
  <nd ref="11050148333"/>
  <tag k="barrier" v="fence"/>
 </way>
 <way id="1267043406" visible="true" version="1" changeset="149256130" timestamp="2024-03-28T08:24:54Z" user="asdfwqer" uid="20626553">
  <nd ref="11768437538"/>
  <nd ref="11768437539"/>
  <nd ref="11768437540"/>
  <nd ref="11768437541"/>
  <nd ref="11768437538"/>
  <tag k="building" v="yes"/>
 </way>
 <way id="1267043407" visible="true" version="1" changeset="149256130" timestamp="2024-03-28T08:24:54Z" user="asdfwqer" uid="20626553">
  <nd ref="11768437545"/>
  <nd ref="11768437546"/>
  <nd ref="11768437547"/>
  <nd ref="11768437548"/>
  <nd ref="11768437545"/>
  <tag k="natural" v="water"/>
 </way>
 <way id="1267043408" visible="true" version="1" changeset="149256130" timestamp="2024-03-28T08:24:54Z" user="asdfwqer" uid="20626553">
  <nd ref="11768437549"/>
  <nd ref="11768437550"/>
  <nd ref="11768437551"/>
  <nd ref="11768437552"/>
  <nd ref="11768437549"/>
  <tag k="natural" v="water"/>
 </way>
 <way id="1267043409" visible="true" version="1" changeset="149256130" timestamp="2024-03-28T08:24:54Z" user="asdfwqer" uid="20626553">
  <nd ref="11768437553"/>
  <nd ref="11768437554"/>
  <nd ref="11768437555"/>
  <nd ref="11768437556"/>
  <nd ref="11768437553"/>
  <tag k="natural" v="water"/>
 </way>
 <way id="1267043410" visible="true" version="2" changeset="159252225" timestamp="2024-11-17T17:24:11Z" user="asdfwqer" uid="20626553">
  <nd ref="11768437560"/>
  <nd ref="12348768532"/>
  <nd ref="12348768533"/>
  <nd ref="12348768534"/>
  <nd ref="11768437561"/>
  <nd ref="11768437562"/>
  <nd ref="11768437563"/>
  <nd ref="11768437564"/>
  <nd ref="11768437565"/>
  <nd ref="11768437566"/>
  <nd ref="11768437567"/>
  <nd ref="11768437568"/>
  <nd ref="11768437573"/>
  <nd ref="11768437574"/>
  <nd ref="11768437575"/>
  <nd ref="11768437576"/>
  <nd ref="11768437577"/>
  <nd ref="11768437578"/>
  <nd ref="11768437579"/>
  <nd ref="11768437580"/>
  <nd ref="11768437581"/>
  <nd ref="11768437582"/>
  <nd ref="11768437583"/>
  <nd ref="11768437560"/>
  <tag k="natural" v="wood"/>
 </way>
 <way id="1267043412" visible="true" version="3" changeset="159252225" timestamp="2024-11-17T17:24:11Z" user="asdfwqer" uid="20626553">
  <nd ref="11768437591"/>
  <nd ref="11768437593"/>
  <nd ref="11768437595"/>
  <nd ref="11768437597"/>
  <nd ref="11768437606"/>
  <nd ref="11768437605"/>
  <nd ref="1820240550"/>
  <tag k="highway" v="footway"/>
  <tag k="lit" v="no"/>
  <tag k="surface" v="compacted"/>
 </way>
 <way id="1267043413" visible="true" version="2" changeset="158368211" timestamp="2024-10-26T10:33:19Z" user="Константин Гам" uid="392109">
  <nd ref="11768437598"/>
  <nd ref="11768437600"/>
  <nd ref="11768437601"/>
  <nd ref="11768437602"/>
  <nd ref="11768437603"/>
  <nd ref="11768437604"/>
  <tag k="barrier" v="fence"/>
 </way>
 <way id="1267043416" visible="true" version="1" changeset="149256130" timestamp="2024-03-28T08:24:54Z" user="asdfwqer" uid="20626553">
  <nd ref="10679387624"/>
  <nd ref="11768437542"/>
  <nd ref="10679387625"/>
  <nd ref="10679387627"/>
  <nd ref="10679387626"/>
  <nd ref="10679387620"/>
  <nd ref="10679387621"/>
  <nd ref="10679387622"/>
  <nd ref="10679387623"/>
  <nd ref="10679387624"/>
  <tag k="landuse" v="industrial"/>
 </way>
 <way id="1267043417" visible="true" version="2" changeset="159252225" timestamp="2024-11-17T17:24:11Z" user="asdfwqer" uid="20626553">
  <nd ref="12348768504"/>
  <nd ref="12348768503"/>
  <nd ref="12348768502"/>
  <nd ref="12348768501"/>
  <nd ref="12348765600"/>
  <nd ref="12348765599"/>
  <nd ref="12348765598"/>
  <nd ref="12348765597"/>
  <nd ref="12348765596"/>
  <nd ref="12348765595"/>
  <nd ref="12348765594"/>
  <nd ref="11768437616"/>
  <nd ref="11768437617"/>
  <nd ref="11768437618"/>
  <nd ref="11768437619"/>
  <nd ref="11768437620"/>
  <nd ref="11768437621"/>
  <tag k="man_made" v="embankment"/>
 </way>
 <way id="1267043428" visible="true" version="1" changeset="149256130" timestamp="2024-03-28T08:24:54Z" user="asdfwqer" uid="20626553">
  <nd ref="11768437679"/>
  <nd ref="11768437680"/>
  <nd ref="11768437700"/>
  <nd ref="11768437702"/>
  <nd ref="11768437703"/>
  <nd ref="11768437704"/>
  <nd ref="11768437701"/>
  <nd ref="11768437681"/>
  <nd ref="11768437682"/>
  <nd ref="11768437683"/>
  <nd ref="11768437684"/>
  <nd ref="11768437685"/>
  <nd ref="11768437686"/>
  <nd ref="11768437687"/>
  <nd ref="11768437688"/>
  <nd ref="11768437689"/>
  <nd ref="11768437690"/>
  <nd ref="11768437691"/>
  <nd ref="11768437692"/>
  <nd ref="11768437693"/>
  <nd ref="11768437694"/>
  <nd ref="11768437695"/>
  <nd ref="11768437696"/>
  <nd ref="11768437697"/>
  <nd ref="11768437699"/>
  <nd ref="11768437698"/>
  <nd ref="11768437679"/>
  <tag k="natural" v="wood"/>
 </way>
 <way id="1267043429" visible="true" version="1" changeset="149256130" timestamp="2024-03-28T08:24:54Z" user="asdfwqer" uid="20626553">
  <nd ref="11768437705"/>
  <nd ref="11768437706"/>
  <nd ref="11768437707"/>
  <nd ref="11768437708"/>
  <nd ref="11768437709"/>
  <nd ref="11768437710"/>
  <nd ref="11768437711"/>
  <nd ref="11768437712"/>
  <nd ref="11768437705"/>
  <tag k="natural" v="wood"/>
 </way>
 <way id="1267043430" visible="true" version="1" changeset="149256130" timestamp="2024-03-28T08:24:54Z" user="asdfwqer" uid="20626553">
  <nd ref="11768437713"/>
  <nd ref="11768437714"/>
  <nd ref="11768437715"/>
  <nd ref="11768437716"/>
  <nd ref="11768437717"/>
  <nd ref="11768437718"/>
  <nd ref="11768437719"/>
  <nd ref="11768437713"/>
  <tag k="natural" v="wood"/>
 </way>
 <way id="1267043431" visible="true" version="1" changeset="149256130" timestamp="2024-03-28T08:24:54Z" user="asdfwqer" uid="20626553">
  <nd ref="11768437720"/>
  <nd ref="11768437721"/>
  <nd ref="11768437722"/>
  <nd ref="11768437723"/>
  <nd ref="11768437724"/>
  <nd ref="11768437725"/>
  <nd ref="11768437726"/>
  <nd ref="11768437727"/>
  <nd ref="11768437728"/>
  <nd ref="11768437729"/>
  <nd ref="11768437720"/>
  <tag k="natural" v="wood"/>
 </way>
 <way id="1334831802" visible="true" version="1" changeset="159252225" timestamp="2024-11-17T17:24:11Z" user="asdfwqer" uid="20626553">
  <nd ref="10679387608"/>
  <nd ref="12348768505"/>
  <tag k="highway" v="track"/>
 </way>
 <way id="1334831803" visible="true" version="1" changeset="159252225" timestamp="2024-11-17T17:24:11Z" user="asdfwqer" uid="20626553">
  <nd ref="12348768507"/>
  <nd ref="12348768508"/>
  <nd ref="12348768509"/>
  <nd ref="12348768510"/>
  <nd ref="12348768507"/>
  <tag k="building" v="yes"/>
 </way>
 <way id="1334831804" visible="true" version="1" changeset="159252225" timestamp="2024-11-17T17:24:11Z" user="asdfwqer" uid="20626553">
  <nd ref="12348768511"/>
  <nd ref="12348768512"/>
  <nd ref="12348768513"/>
  <nd ref="12348768514"/>
  <nd ref="12348768511"/>
  <tag k="amenity" v="parking"/>
 </way>
 <way id="1334831805" visible="true" version="1" changeset="159252225" timestamp="2024-11-17T17:24:11Z" user="asdfwqer" uid="20626553">
  <nd ref="11768437506"/>
  <nd ref="12348768515"/>
  <nd ref="12348768517"/>
  <nd ref="11768437586"/>
  <nd ref="7319470880"/>
  <nd ref="12348768516"/>
  <tag k="barrier" v="fence"/>
 </way>
 <way id="1334831806" visible="true" version="1" changeset="159252225" timestamp="2024-11-17T17:24:11Z" user="asdfwqer" uid="20626553">
  <nd ref="12348768518"/>
  <nd ref="12348768519"/>
  <nd ref="12348768526"/>
  <nd ref="12348768520"/>
  <nd ref="12348768521"/>
  <tag k="highway" v="service"/>
 </way>
 <way id="1334831807" visible="true" version="1" changeset="159252225" timestamp="2024-11-17T17:24:11Z" user="asdfwqer" uid="20626553">
  <nd ref="12348768522"/>
  <nd ref="12348768523"/>
  <nd ref="12348768527"/>
  <nd ref="12348768524"/>
  <nd ref="12348768525"/>
  <tag k="barrier" v="wall"/>
 </way>
 <way id="1334831808" visible="true" version="1" changeset="159252225" timestamp="2024-11-17T17:24:11Z" user="asdfwqer" uid="20626553">
  <nd ref="11768437541"/>
  <nd ref="12348768529"/>
  <nd ref="12348768530"/>
  <tag k="barrier" v="fence"/>
 </way>
 <way id="1334831809" visible="true" version="1" changeset="159252225" timestamp="2024-11-17T17:24:11Z" user="asdfwqer" uid="20626553">
  <nd ref="3583201363"/>
  <nd ref="11768437589"/>
  <nd ref="11768437590"/>
  <nd ref="12348768531"/>
  <nd ref="11768437591"/>
  <tag k="highway" v="service"/>
  <tag k="lit" v="no"/>
  <tag k="surface" v="compacted"/>
 </way>
 <way id="1435219647" visible="true" version="1" changeset="172813677" timestamp="2025-10-04T01:22:12Z" user="Pavel239" uid="354001">
  <nd ref="13191765087"/>
  <nd ref="13191765088"/>
  <nd ref="13191765089"/>
  <nd ref="13191765090"/>
  <nd ref="13191765091"/>
  <nd ref="13191765092"/>
  <nd ref="13191765087"/>
  <tag k="building" v="yes"/>
 </way>
</osm>
