<?xml version="1.0" encoding="UTF-8"?>
<osm version="0.6" generator="openstreetmap-cgimap 2.1.0 (244703 spike-07.openstreetmap.org)" copyright="OpenStreetMap and contributors" attribution="http://www.openstreetmap.org/copyright" license="http://opendatacommons.org/licenses/odbl/1-0/">
 <bounds minlat="60.0905595" minlon="30.2963879" maxlat="60.0932544" maxlon="30.3017928"/>
 <node id="1103138386" visible="true" version="2" changeset="9888829" timestamp="2011-11-20T19:34:09Z" user="AlexTheTux" uid="367643" lat="60.0907416" lon="30.3032352">
  <tag k="power" v="tower"/>
 </node>
 <node id="1103138717" visible="true" version="3" changeset="9888829" timestamp="2011-11-20T19:34:09Z" user="AlexTheTux" uid="367643" lat="60.0955603" lon="30.3085446">
  <tag k="power" v="tower"/>
 </node>
 <node id="1103269975" visible="true" version="4" changeset="10028808" timestamp="2011-12-03T22:02:20Z" user="AlexTheTux" uid="367643" lat="60.0937772" lon="30.3161282">
  <tag k="note" v="Здесь ЛЭП заворачивает - все точно."/>
  <tag k="power" v="tower"/>
 </node>
 <node id="1510263493" visible="true" version="1" changeset="9888829" timestamp="2011-11-20T19:34:05Z" user="AlexTheTux" uid="367643" lat="60.0917648" lon="30.2992258">
  <tag k="power" v="tower"/>
 </node>
 <node id="1510263503" visible="true" version="1" changeset="9888829" timestamp="2011-11-20T19:34:05Z" user="AlexTheTux" uid="367643" lat="60.0923528" lon="30.3049666">
  <tag k="power" v="tower"/>
 </node>
 <node id="1510263506" visible="true" version="1" changeset="9888829" timestamp="2011-11-20T19:34:05Z" user="AlexTheTux" uid="367643" lat="60.0928846" lon="30.2946324">
  <tag k="power" v="tower"/>
 </node>
 <node id="1510263509" visible="true" version="1" changeset="9888829" timestamp="2011-11-20T19:34:05Z" user="AlexTheTux" uid="367643" lat="60.0936828" lon="30.2913740">
  <tag k="power" v="tower"/>
 </node>
 <node id="1510263511" visible="true" version="1" changeset="9888829" timestamp="2011-11-20T19:34:05Z" user="AlexTheTux" uid="367643" lat="60.0939548" lon="30.3067541">
  <tag k="power" v="tower"/>
 </node>
 <node id="1510263512" visible="true" version="1" changeset="9888829" timestamp="2011-11-20T19:34:05Z" user="AlexTheTux" uid="367643" lat="60.0945603" lon="30.3127140">
  <tag k="power" v="tower"/>
 </node>
 <node id="1510263517" visible="true" version="1" changeset="9888829" timestamp="2011-11-20T19:34:06Z" user="AlexTheTux" uid="367643" lat="60.0949604" lon="30.2896374">
  <tag k="power" v="tower"/>
 </node>
 <node id="1510263519" visible="true" version="1" changeset="9888829" timestamp="2011-11-20T19:34:06Z" user="AlexTheTux" uid="367643" lat="60.0966779" lon="30.2872275">
  <tag k="power" v="tower"/>
 </node>
 <node id="1510263525" visible="true" version="1" changeset="9888829" timestamp="2011-11-20T19:34:06Z" user="AlexTheTux" uid="367643" lat="60.0982572" lon="30.2842407">
  <tag k="power" v="tower"/>
 </node>
 <node id="1510263526" visible="true" version="1" changeset="9888829" timestamp="2011-11-20T19:34:06Z" user="AlexTheTux" uid="367643" lat="60.0998787" lon="30.2823117">
  <tag k="power" v="tower"/>
 </node>
 <node id="1582847440" visible="true" version="1" changeset="10333667" timestamp="2012-01-08T16:47:48Z" user="AlexTheTux" uid="367643" lat="60.1000578" lon="30.2792935">
  <tag k="power" v="tower"/>
 </node>
 <node id="3759857020" visible="true" version="1" changeset="34256853" timestamp="2015-09-26T06:23:12Z" user="Danidin9" uid="395588" lat="60.0845513" lon="30.3236245"/>
 <node id="8796273440" visible="true" version="1" changeset="105797633" timestamp="2021-06-03T19:31:30Z" user="sleemp" uid="8660675" lat="60.0914787" lon="30.3032541"/>
 <node id="8796273441" visible="true" version="1" changeset="105797633" timestamp="2021-06-03T19:31:30Z" user="sleemp" uid="8660675" lat="60.0913503" lon="30.3032058"/>
 <node id="8796273442" visible="true" version="1" changeset="105797633" timestamp="2021-06-03T19:31:30Z" user="sleemp" uid="8660675" lat="60.0912380" lon="30.3030825"/>
 <node id="8796273443" visible="true" version="1" changeset="105797633" timestamp="2021-06-03T19:31:30Z" user="sleemp" uid="8660675" lat="60.0912139" lon="30.3028357"/>
 <node id="8796273444" visible="true" version="1" changeset="105797633" timestamp="2021-06-03T19:31:30Z" user="sleemp" uid="8660675" lat="60.0913183" lon="30.3024495"/>
 <node id="8796273445" visible="true" version="1" changeset="105797633" timestamp="2021-06-03T19:31:30Z" user="sleemp" uid="8660675" lat="60.0916900" lon="30.3012103"/>
 <node id="8796273446" visible="true" version="1" changeset="105797633" timestamp="2021-06-03T19:31:30Z" user="sleemp" uid="8660675" lat="60.0917435" lon="30.3011513"/>
 <node id="8796273447" visible="true" version="1" changeset="105797633" timestamp="2021-06-03T19:31:30Z" user="sleemp" uid="8660675" lat="60.0918345" lon="30.3011566"/>
 <node id="8796273448" visible="true" version="1" changeset="105797633" timestamp="2021-06-03T19:31:30Z" user="sleemp" uid="8660675" lat="60.0918612" lon="30.3013873"/>
 <node id="8796273449" visible="true" version="1" changeset="105797633" timestamp="2021-06-03T19:31:30Z" user="sleemp" uid="8660675" lat="60.0918211" lon="30.3017360"/>
 <node id="8796273450" visible="true" version="1" changeset="105797633" timestamp="2021-06-03T19:31:30Z" user="sleemp" uid="8660675" lat="60.0916499" lon="30.3024870"/>
 <node id="8796273451" visible="true" version="1" changeset="105797633" timestamp="2021-06-03T19:31:30Z" user="sleemp" uid="8660675" lat="60.0916045" lon="30.3029162"/>
 <node id="8796273452" visible="true" version="1" changeset="105797633" timestamp="2021-06-03T19:31:30Z" user="sleemp" uid="8660675" lat="60.0920832" lon="30.3031683"/>
 <node id="8796273453" visible="true" version="1" changeset="105797633" timestamp="2021-06-03T19:31:30Z" user="sleemp" uid="8660675" lat="60.0924550" lon="30.3035116"/>
 <node id="8796273454" visible="true" version="2" changeset="181669747" timestamp="2026-04-22T12:00:57Z" user="Константин Гам" uid="392109" lat="60.0927947" lon="30.3040024"/>
 <node id="8796273455" visible="true" version="2" changeset="181669747" timestamp="2026-04-22T12:00:57Z" user="Константин Гам" uid="392109" lat="60.0930916" lon="30.3043645"/>
 <node id="9019994743" visible="true" version="3" changeset="170898099" timestamp="2025-08-23T21:49:02Z" user="Константин Гам" uid="392109" lat="60.0854144" lon="30.3218176"/>
 <node id="11504764737" visible="true" version="1" changeset="146086517" timestamp="2024-01-10T01:46:05Z" user="Pavel239" uid="354001" lat="60.0847419" lon="30.3229048"/>
 <node id="11504764738" visible="true" version="1" changeset="146086517" timestamp="2024-01-10T01:46:05Z" user="Pavel239" uid="354001" lat="60.0856835" lon="30.3214385"/>
 <node id="11504764739" visible="true" version="1" changeset="146086517" timestamp="2024-01-10T01:46:05Z" user="Pavel239" uid="354001" lat="60.0870332" lon="30.3166610"/>
 <node id="11504764740" visible="true" version="1" changeset="146086517" timestamp="2024-01-10T01:46:05Z" user="Pavel239" uid="354001" lat="60.0860091" lon="30.3205396"/>
 <node id="11504764741" visible="true" version="1" changeset="146086517" timestamp="2024-01-10T01:46:05Z" user="Pavel239" uid="354001" lat="60.0906096" lon="30.3017451"/>
 <node id="11504764742" visible="true" version="1" changeset="146086517" timestamp="2024-01-10T01:46:05Z" user="Pavel239" uid="354001" lat="60.0934721" lon="30.2908623"/>
 <node id="11504764743" visible="true" version="1" changeset="146086517" timestamp="2024-01-10T01:46:05Z" user="Pavel239" uid="354001" lat="60.0955101" lon="30.2873969"/>
 <node id="11504764744" visible="true" version="1" changeset="146086517" timestamp="2024-01-10T01:46:05Z" user="Pavel239" uid="354001" lat="60.0966936" lon="30.2842889"/>
 <node id="11504764745" visible="true" version="1" changeset="146086517" timestamp="2024-01-10T01:46:05Z" user="Pavel239" uid="354001" lat="60.0971323" lon="30.2811329"/>
 <node id="11504764746" visible="true" version="1" changeset="146086517" timestamp="2024-01-10T01:46:05Z" user="Pavel239" uid="354001" lat="60.0963834" lon="30.2768087"/>
 <node id="11504764747" visible="true" version="1" changeset="146086517" timestamp="2024-01-10T01:46:05Z" user="Pavel239" uid="354001" lat="60.0947781" lon="30.2663918"/>
 <node id="11504764748" visible="true" version="1" changeset="146086517" timestamp="2024-01-10T01:46:05Z" user="Pavel239" uid="354001" lat="60.0932631" lon="30.2576677"/>
 <node id="11504764749" visible="true" version="2" changeset="158987273" timestamp="2024-11-10T22:10:18Z" user="Константин Гам" uid="392109" lat="60.0929369" lon="30.2569408"/>
 <way id="325212672" visible="true" version="1" changeset="28486111" timestamp="2015-01-29T13:37:04Z" user="arcth" uid="549888">
  <nd ref="1103269975"/>
  <nd ref="1510263512"/>
  <nd ref="1103138717"/>
  <nd ref="1510263511"/>
  <nd ref="1510263503"/>
  <nd ref="1103138386"/>
  <nd ref="1510263493"/>
  <nd ref="1510263506"/>
  <nd ref="1510263509"/>
  <nd ref="1510263517"/>
  <nd ref="1510263519"/>
  <nd ref="1510263525"/>
  <nd ref="1510263526"/>
  <nd ref="1582847440"/>
  <tag k="cables" v="6"/>
  <tag k="circuits" v="2"/>
  <tag k="power" v="line"/>
  <tag k="voltage" v="110000"/>
 </way>
 <way id="950166488" visible="true" version="3" changeset="181669747" timestamp="2026-04-22T12:00:57Z" user="Константин Гам" uid="392109">
  <nd ref="8796273455"/>
  <nd ref="8796273454"/>
  <nd ref="8796273453"/>
  <nd ref="8796273452"/>
  <nd ref="8796273451"/>
  <nd ref="8796273450"/>
  <nd ref="8796273449"/>
  <nd ref="8796273448"/>
  <nd ref="8796273447"/>
  <nd ref="8796273446"/>
  <nd ref="8796273445"/>
  <nd ref="8796273444"/>
  <nd ref="8796273443"/>
  <nd ref="8796273442"/>
  <nd ref="8796273441"/>
  <nd ref="8796273440"/>
  <nd ref="8796273451"/>
  <tag k="highway" v="track"/>
  <tag k="surface" v="ground"/>
 </way>
 <way id="1235629648" visible="true" version="2" changeset="146086517" timestamp="2024-01-10T01:46:05Z" user="Pavel239" uid="354001">
  <nd ref="3759857020"/>
  <nd ref="11504764737"/>
  <nd ref="9019994743"/>
  <nd ref="11504764738"/>
  <nd ref="11504764740"/>
  <nd ref="11504764739"/>
  <nd ref="11504764741"/>
  <nd ref="11504764742"/>
  <nd ref="11504764743"/>
  <nd ref="11504764744"/>
  <nd ref="11504764745"/>
  <nd ref="11504764746"/>
  <nd ref="11504764747"/>
  <nd ref="11504764748"/>
  <nd ref="11504764749"/>
  <tag k="highway" v="proposed"/>
  <tag k="note" v="Планируемая улица от Выборгского шоссе до Ольгинской дор."/>
  <tag k="proposed" v="tertiary"/>
  <tag k="source" v="Генплан-2040"/>
 </way>
</osm>
