{
  "type": "FeatureCollection",
  "name": "moscow_zil_-1_+0_c0c4ab4d_tie_in_stress",
  "crs": {
    "type": "name",
    "properties": {
      "name": "EPSG:4326"
    }
  },
  "metadata": {
    "dataset_version": "osm_building_anchored_routing_scenes_v3",
    "parent_scene_id": "moscow_zil_-1_+0_c0c4ab4d",
    "split": "train",
    "city": "Москва ЗИЛ",
    "seed": "moscow_zil",
    "research_bucket": "tie_in_stress",
    "source_research_bucket": "shared_pipe",
    "research_bucket_is_ground_truth": false,
    "bbox_south_west_north_east": [
      55.6900169,
      37.6396094,
      55.6927118,
      37.6443906
    ],
    "real_data_source": "OpenStreetMap via Overpass API",
    "source_file": "data/real_geojson_places/shared_pipe/002_moscow_zil_-1_+0_c0c4ab4d.geojson",
    "real_layers": [
      "restrictions",
      "consumer_building_footprints"
    ],
    "synthetic_layers": [
      "source",
      "heat_network",
      "heat_chamber",
      "heat_demand"
    ],
    "consumer_selection": "deterministic points inside real OSM building footprints",
    "flow_model": "synthetic proxy derived from building footprint area; not metered demand",
    "note": "OSM buildings anchor consumers; heat demand and seed network are synthetic proxies."
  },
  "features": [
    {
      "type": "Feature",
      "properties": {
        "id": "moscow_zil_-1_+0_c0c4ab4d_tie_in_stress_osm_way_48844733_1",
        "object_type": "restriction",
        "restriction_type": "road",
        "name": "",
        "osm_kind": "road",
        "osm_id": 48844733,
        "osm_type": "way",
        "osm_tags": {
          "highway": "service"
        },
        "case_id": "moscow_zil_-1_+0_c0c4ab4d_tie_in_stress"
      },
      "geometry": {
        "type": "LineString",
        "coordinates": [
          [
            37.6373792,
            55.686963
          ],
          [
            37.6397219,
            55.6885754
          ],
          [
            37.642174,
            55.6900773
          ]
        ]
      }
    },
    {
      "type": "Feature",
      "properties": {
        "id": "moscow_zil_-1_+0_c0c4ab4d_tie_in_stress_osm_way_1446961824_2",
        "object_type": "restriction",
        "restriction_type": "road",
        "name": "бульвар Павла Филонова",
        "osm_kind": "road",
        "osm_id": 1446961824,
        "osm_type": "way",
        "osm_tags": {
          "highway": "construction",
          "name": "бульвар Павла Филонова"
        },
        "case_id": "moscow_zil_-1_+0_c0c4ab4d_tie_in_stress"
      },
      "geometry": {
        "type": "LineString",
        "coordinates": [
          [
            37.6411564,
            55.6906069
          ],
          [
            37.642819,
            55.691007
          ],
          [
            37.64447,
            55.691464
          ],
          [
            37.648173,
            55.692468
          ],
          [
            37.6489408,
            55.6927032
          ],
          [
            37.6503913,
            55.6931475
          ],
          [
            37.650579,
            55.693181
          ],
          [
            37.6534883,
            55.6939804
          ]
        ]
      }
    },
    {
      "type": "Feature",
      "properties": {
        "id": "moscow_zil_-1_+0_c0c4ab4d_tie_in_stress_osm_way_1447114881_3",
        "object_type": "restriction",
        "restriction_type": "road",
        "name": "улица Ильи Чашника",
        "osm_kind": "road",
        "osm_id": 1447114881,
        "osm_type": "way",
        "osm_tags": {
          "highway": "residential",
          "name": "улица Ильи Чашника"
        },
        "case_id": "moscow_zil_-1_+0_c0c4ab4d_tie_in_stress"
      },
      "geometry": {
        "type": "LineString",
        "coordinates": [
          [
            37.6398796,
            55.6912715
          ],
          [
            37.6411564,
            55.6906069
          ],
          [
            37.642174,
            55.6900773
          ],
          [
            37.6432962,
            55.6894932
          ],
          [
            37.6449812,
            55.6886162
          ],
          [
            37.6466325,
            55.6877567
          ],
          [
            37.6468474,
            55.6876448
          ]
        ]
      }
    },
    {
      "type": "Feature",
      "properties": {
        "id": "moscow_zil_-1_+0_c0c4ab4d_tie_in_stress_osm_way_1447114882_4",
        "object_type": "restriction",
        "restriction_type": "road",
        "name": "",
        "osm_kind": "road",
        "osm_id": 1447114882,
        "osm_type": "way",
        "osm_tags": {
          "highway": "construction"
        },
        "case_id": "moscow_zil_-1_+0_c0c4ab4d_tie_in_stress"
      },
      "geometry": {
        "type": "LineString",
        "coordinates": [
          [
            37.6409519,
            55.6919745
          ],
          [
            37.642819,
            55.691007
          ],
          [
            37.6444567,
            55.6901929
          ]
        ]
      }
    },
    {
      "type": "Feature",
      "properties": {
        "id": "moscow_zil_-1_+0_c0c4ab4d_tie_in_stress_osm_way_1447114884_5",
        "object_type": "restriction",
        "restriction_type": "road",
        "name": "улица Суетина",
        "osm_kind": "road",
        "osm_id": 1447114884,
        "osm_type": "way",
        "osm_tags": {
          "highway": "construction",
          "name": "улица Суетина"
        },
        "case_id": "moscow_zil_-1_+0_c0c4ab4d_tie_in_stress"
      },
      "geometry": {
        "type": "LineString",
        "coordinates": [
          [
            37.6491211,
            55.6892509
          ],
          [
            37.6473416,
            55.6900726
          ],
          [
            37.6456829,
            55.6909304
          ],
          [
            37.64447,
            55.691464
          ],
          [
            37.642139,
            55.6926762
          ]
        ]
      }
    },
    {
      "type": "Feature",
      "properties": {
        "id": "moscow_zil_-1_+0_c0c4ab4d_tie_in_stress_osm_way_1447114885_6",
        "object_type": "restriction",
        "restriction_type": "road",
        "name": "проектируемый проезд № 7021А",
        "osm_kind": "road",
        "osm_id": 1447114885,
        "osm_type": "way",
        "osm_tags": {
          "highway": "construction",
          "name": "проектируемый проезд № 7021А"
        },
        "case_id": "moscow_zil_-1_+0_c0c4ab4d_tie_in_stress"
      },
      "geometry": {
        "type": "LineString",
        "coordinates": [
          [
            37.637007,
            55.6893884
          ],
          [
            37.6374864,
            55.6897026
          ],
          [
            37.6398796,
            55.6912715
          ],
          [
            37.6409519,
            55.6919745
          ],
          [
            37.642139,
            55.6926762
          ],
          [
            37.6435097,
            55.6935225
          ],
          [
            37.644667,
            55.694237
          ],
          [
            37.6462515,
            55.6953275
          ],
          [
            37.6488073,
            55.6971274
          ]
        ]
      }
    },
    {
      "type": "Feature",
      "properties": {
        "id": "moscow_zil_-1_+0_c0c4ab4d_tie_in_stress_osm_way_1452790704_7",
        "object_type": "restriction",
        "restriction_type": "oks",
        "name": "",
        "osm_kind": "building",
        "osm_id": 1452790704,
        "osm_type": "way",
        "osm_tags": {
          "building": "construction"
        },
        "case_id": "moscow_zil_-1_+0_c0c4ab4d_tie_in_stress",
        "selected_as_heat_demand_proxy": true,
        "connection_point_id": "moscow_zil_-1_+0_c0c4ab4d_tie_in_stress_cp_2"
      },
      "geometry": {
        "type": "Polygon",
        "coordinates": [
          [
            [
              37.6423183,
              55.6910081
            ],
            [
              37.6422158,
              55.6911325
            ],
            [
              37.6415911,
              55.6909691
            ],
            [
              37.6414416,
              55.69093
            ],
            [
              37.6415441,
              55.6908055
            ],
            [
              37.6416908,
              55.6908439
            ],
            [
              37.6423183,
              55.6910081
            ]
          ]
        ]
      }
    },
    {
      "type": "Feature",
      "properties": {
        "id": "moscow_zil_-1_+0_c0c4ab4d_tie_in_stress_osm_way_1452790708_8",
        "object_type": "restriction",
        "restriction_type": "oks",
        "name": "",
        "osm_kind": "building",
        "osm_id": 1452790708,
        "osm_type": "way",
        "osm_tags": {
          "building": "construction"
        },
        "case_id": "moscow_zil_-1_+0_c0c4ab4d_tie_in_stress"
      },
      "geometry": {
        "type": "Polygon",
        "coordinates": [
          [
            [
              37.6412565,
              55.6915202
            ],
            [
              37.6414343,
              55.6916324
            ],
            [
              37.6415407,
              55.6915788
            ],
            [
              37.641995,
              55.6913501
            ],
            [
              37.642101,
              55.6912967
            ],
            [
              37.6419231,
              55.6911845
            ],
            [
              37.6418171,
              55.6912379
            ],
            [
              37.6413629,
              55.6914666
            ],
            [
              37.6412565,
              55.6915202
            ]
          ]
        ]
      }
    },
    {
      "type": "Feature",
      "properties": {
        "id": "moscow_zil_-1_+0_c0c4ab4d_tie_in_stress_osm_way_1452790709_9",
        "object_type": "restriction",
        "restriction_type": "oks",
        "name": "",
        "osm_kind": "building",
        "osm_id": 1452790709,
        "osm_type": "way",
        "osm_tags": {
          "building": "construction"
        },
        "case_id": "moscow_zil_-1_+0_c0c4ab4d_tie_in_stress"
      },
      "geometry": {
        "type": "Polygon",
        "coordinates": [
          [
            [
              37.6406777,
              55.6915508
            ],
            [
              37.6410798,
              55.6918084
            ],
            [
              37.641307,
              55.6916957
            ],
            [
              37.6409049,
              55.6914381
            ],
            [
              37.6406777,
              55.6915508
            ]
          ]
        ]
      }
    },
    {
      "type": "Feature",
      "properties": {
        "id": "moscow_zil_-1_+0_c0c4ab4d_tie_in_stress_osm_way_1452790710_10",
        "object_type": "restriction",
        "restriction_type": "oks",
        "name": "",
        "osm_kind": "building",
        "osm_id": 1452790710,
        "osm_type": "way",
        "osm_tags": {
          "building": "construction"
        },
        "case_id": "moscow_zil_-1_+0_c0c4ab4d_tie_in_stress"
      },
      "geometry": {
        "type": "Polygon",
        "coordinates": [
          [
            [
              37.6402043,
              55.6912625
            ],
            [
              37.6403739,
              55.6913651
            ],
            [
              37.6406949,
              55.6911966
            ],
            [
              37.641155,
              55.6909549
            ],
            [
              37.6409854,
              55.6908523
            ],
            [
              37.6405253,
              55.691094
            ],
            [
              37.6402043,
              55.6912625
            ]
          ]
        ]
      }
    },
    {
      "type": "Feature",
      "properties": {
        "id": "moscow_zil_-1_+0_c0c4ab4d_tie_in_stress_osm_way_1452917820_11",
        "object_type": "restriction",
        "restriction_type": "oks",
        "name": "",
        "osm_kind": "building",
        "osm_id": 1452917820,
        "osm_type": "way",
        "osm_tags": {
          "building": "construction"
        },
        "case_id": "moscow_zil_-1_+0_c0c4ab4d_tie_in_stress"
      },
      "geometry": {
        "type": "Polygon",
        "coordinates": [
          [
            [
              37.643488,
              55.689998
            ],
            [
              37.643712,
              55.689974
            ],
            [
              37.6434405,
              55.6898009
            ],
            [
              37.643274,
              55.689701
            ],
            [
              37.6426832,
              55.6899951
            ],
            [
              37.6428414,
              55.690182
            ],
            [
              37.6430623,
              55.6901356
            ],
            [
              37.6429764,
              55.6900276
            ],
            [
              37.6432965,
              55.6898743
            ],
            [
              37.643488,
              55.689998
            ]
          ]
        ]
      }
    },
    {
      "type": "Feature",
      "properties": {
        "id": "moscow_zil_-1_+0_c0c4ab4d_tie_in_stress_osm_way_1452917826_12",
        "object_type": "restriction",
        "restriction_type": "oks",
        "name": "",
        "osm_kind": "building",
        "osm_id": 1452917826,
        "osm_type": "way",
        "osm_tags": {
          "building": "construction"
        },
        "case_id": "moscow_zil_-1_+0_c0c4ab4d_tie_in_stress"
      },
      "geometry": {
        "type": "Polygon",
        "coordinates": [
          [
            [
              37.643668,
              55.690408
            ],
            [
              37.644066,
              55.690197
            ],
            [
              37.64386,
              55.690075
            ],
            [
              37.643535,
              55.690248
            ],
            [
              37.643668,
              55.690408
            ]
          ]
        ]
      }
    },
    {
      "type": "Feature",
      "properties": {
        "id": "moscow_zil_-1_+0_c0c4ab4d_tie_in_stress_osm_way_1452917827_13",
        "object_type": "restriction",
        "restriction_type": "oks",
        "name": "",
        "osm_kind": "building",
        "osm_id": 1452917827,
        "osm_type": "way",
        "osm_tags": {
          "building": "construction"
        },
        "case_id": "moscow_zil_-1_+0_c0c4ab4d_tie_in_stress",
        "selected_as_heat_demand_proxy": true,
        "connection_point_id": "moscow_zil_-1_+0_c0c4ab4d_tie_in_stress_cp_1"
      },
      "geometry": {
        "type": "Polygon",
        "coordinates": [
          [
            [
              37.642178,
              55.690259
            ],
            [
              37.642382,
              55.690388
            ],
            [
              37.642659,
              55.690328
            ],
            [
              37.642548,
              55.690185
            ],
            [
              37.64245,
              55.690209
            ],
            [
              37.64237,
              55.69016
            ],
            [
              37.642178,
              55.690259
            ]
          ]
        ]
      }
    },
    {
      "type": "Feature",
      "properties": {
        "id": "moscow_zil_-1_+0_c0c4ab4d_tie_in_stress_osm_way_1453043198_14",
        "object_type": "restriction",
        "restriction_type": "oks",
        "name": "",
        "osm_kind": "building",
        "osm_id": 1453043198,
        "osm_type": "way",
        "osm_tags": {
          "building": "construction"
        },
        "case_id": "moscow_zil_-1_+0_c0c4ab4d_tie_in_stress"
      },
      "geometry": {
        "type": "Polygon",
        "coordinates": [
          [
            [
              37.641368,
              55.691947
            ],
            [
              37.641786,
              55.692215
            ],
            [
              37.641945,
              55.692134
            ],
            [
              37.641529,
              55.691865
            ],
            [
              37.641368,
              55.691947
            ]
          ]
        ]
      }
    },
    {
      "type": "Feature",
      "properties": {
        "id": "moscow_zil_-1_+0_c0c4ab4d_tie_in_stress_osm_way_1453043199_15",
        "object_type": "restriction",
        "restriction_type": "oks",
        "name": "",
        "osm_kind": "building",
        "osm_id": 1453043199,
        "osm_type": "way",
        "osm_tags": {
          "building": "construction"
        },
        "case_id": "moscow_zil_-1_+0_c0c4ab4d_tie_in_stress"
      },
      "geometry": {
        "type": "Polygon",
        "coordinates": [
          [
            [
              37.642603,
              55.691283
            ],
            [
              37.642831,
              55.69116
            ],
            [
              37.643303,
              55.691287
            ],
            [
              37.643093,
              55.691377
            ],
            [
              37.642868,
              55.691323
            ],
            [
              37.642759,
              55.691379
            ],
            [
              37.642603,
              55.691283
            ]
          ]
        ]
      }
    },
    {
      "type": "Feature",
      "properties": {
        "id": "moscow_zil_-1_+0_c0c4ab4d_tie_in_stress_osm_way_1453043200_16",
        "object_type": "restriction",
        "restriction_type": "oks",
        "name": "",
        "osm_kind": "building",
        "osm_id": 1453043200,
        "osm_type": "way",
        "osm_tags": {
          "building": "construction"
        },
        "case_id": "moscow_zil_-1_+0_c0c4ab4d_tie_in_stress",
        "selected_as_heat_demand_proxy": true,
        "connection_point_id": "moscow_zil_-1_+0_c0c4ab4d_tie_in_stress_cp_5"
      },
      "geometry": {
        "type": "Polygon",
        "coordinates": [
          [
            [
              37.643676,
              55.69156
            ],
            [
              37.643579,
              55.691535
            ],
            [
              37.643787,
              55.691423
            ],
            [
              37.643676,
              55.69156
            ]
          ]
        ]
      }
    },
    {
      "type": "Feature",
      "properties": {
        "id": "moscow_zil_-1_+0_c0c4ab4d_tie_in_stress_osm_way_1453043201_17",
        "object_type": "restriction",
        "restriction_type": "oks",
        "name": "",
        "osm_kind": "building",
        "osm_id": 1453043201,
        "osm_type": "way",
        "osm_tags": {
          "building": "construction"
        },
        "case_id": "moscow_zil_-1_+0_c0c4ab4d_tie_in_stress",
        "selected_as_heat_demand_proxy": true,
        "connection_point_id": "moscow_zil_-1_+0_c0c4ab4d_tie_in_stress_cp_6"
      },
      "geometry": {
        "type": "Polygon",
        "coordinates": [
          [
            [
              37.643928,
              55.691624
            ],
            [
              37.643676,
              55.69156
            ],
            [
              37.643787,
              55.691423
            ],
            [
              37.644039,
              55.691488
            ],
            [
              37.643928,
              55.691624
            ]
          ]
        ]
      }
    },
    {
      "type": "Feature",
      "properties": {
        "id": "moscow_zil_-1_+0_c0c4ab4d_tie_in_stress_osm_way_1453043202_18",
        "object_type": "restriction",
        "restriction_type": "oks",
        "name": "",
        "osm_kind": "building",
        "osm_id": 1453043202,
        "osm_type": "way",
        "osm_tags": {
          "building": "construction"
        },
        "case_id": "moscow_zil_-1_+0_c0c4ab4d_tie_in_stress"
      },
      "geometry": {
        "type": "Polygon",
        "coordinates": [
          [
            [
              37.641894,
              55.691656
            ],
            [
              37.642375,
              55.691405
            ],
            [
              37.642533,
              55.691499
            ],
            [
              37.642053,
              55.691752
            ],
            [
              37.641894,
              55.691656
            ]
          ]
        ]
      }
    },
    {
      "type": "Feature",
      "properties": {
        "id": "moscow_zil_-1_+0_c0c4ab4d_tie_in_stress_osm_way_1453043203_19",
        "object_type": "restriction",
        "restriction_type": "oks",
        "name": "",
        "osm_kind": "building",
        "osm_id": 1453043203,
        "osm_type": "way",
        "osm_tags": {
          "building": "construction"
        },
        "case_id": "moscow_zil_-1_+0_c0c4ab4d_tie_in_stress"
      },
      "geometry": {
        "type": "Polygon",
        "coordinates": [
          [
            [
              37.642668,
              55.692062
            ],
            [
              37.64262,
              55.692036
            ],
            [
              37.643018,
              55.691817
            ],
            [
              37.643167,
              55.691919
            ],
            [
              37.642889,
              55.691944
            ],
            [
              37.642668,
              55.692062
            ]
          ]
        ]
      }
    },
    {
      "type": "Feature",
      "properties": {
        "id": "moscow_zil_-1_+0_c0c4ab4d_tie_in_stress_osm_way_1453043204_20",
        "object_type": "restriction",
        "restriction_type": "oks",
        "name": "",
        "osm_kind": "building",
        "osm_id": 1453043204,
        "osm_type": "way",
        "osm_tags": {
          "building": "construction"
        },
        "case_id": "moscow_zil_-1_+0_c0c4ab4d_tie_in_stress"
      },
      "geometry": {
        "type": "Polygon",
        "coordinates": [
          [
            [
              37.643206,
              55.691944
            ],
            [
              37.643419,
              55.691832
            ],
            [
              37.643237,
              55.691707
            ],
            [
              37.643018,
              55.691817
            ],
            [
              37.643167,
              55.691919
            ],
            [
              37.643206,
              55.691944
            ]
          ]
        ]
      }
    },
    {
      "type": "Feature",
      "properties": {
        "id": "moscow_zil_-1_+0_c0c4ab4d_tie_in_stress_osm_way_1453043205_21",
        "object_type": "restriction",
        "restriction_type": "oks",
        "name": "",
        "osm_kind": "building",
        "osm_id": 1453043205,
        "osm_type": "way",
        "osm_tags": {
          "building": "construction"
        },
        "case_id": "moscow_zil_-1_+0_c0c4ab4d_tie_in_stress",
        "selected_as_heat_demand_proxy": true,
        "connection_point_id": "moscow_zil_-1_+0_c0c4ab4d_tie_in_stress_cp_7"
      },
      "geometry": {
        "type": "Polygon",
        "coordinates": [
          [
            [
              37.642668,
              55.692062
            ],
            [
              37.642889,
              55.691944
            ],
            [
              37.643046,
              55.692084
            ],
            [
              37.642862,
              55.692184
            ],
            [
              37.642668,
              55.692062
            ]
          ]
        ]
      }
    },
    {
      "type": "Feature",
      "properties": {
        "id": "moscow_zil_-1_+0_c0c4ab4d_tie_in_stress_osm_way_1453043206_22",
        "object_type": "restriction",
        "restriction_type": "oks",
        "name": "",
        "osm_kind": "building",
        "osm_id": 1453043206,
        "osm_type": "way",
        "osm_tags": {
          "building": "construction"
        },
        "case_id": "moscow_zil_-1_+0_c0c4ab4d_tie_in_stress",
        "selected_as_heat_demand_proxy": true,
        "connection_point_id": "moscow_zil_-1_+0_c0c4ab4d_tie_in_stress_cp_8"
      },
      "geometry": {
        "type": "Polygon",
        "coordinates": [
          [
            [
              37.641938,
              55.692333
            ],
            [
              37.642207,
              55.692195
            ],
            [
              37.642432,
              55.692334
            ],
            [
              37.642161,
              55.692472
            ],
            [
              37.641938,
              55.692333
            ]
          ]
        ]
      }
    },
    {
      "type": "Feature",
      "properties": {
        "id": "moscow_zil_-1_+0_c0c4ab4d_tie_in_stress_osm_way_1453408616_23",
        "object_type": "restriction",
        "restriction_type": "oks",
        "name": "",
        "osm_kind": "building",
        "osm_id": 1453408616,
        "osm_type": "way",
        "osm_tags": {
          "building": "construction"
        },
        "case_id": "moscow_zil_-1_+0_c0c4ab4d_tie_in_stress",
        "selected_as_heat_demand_proxy": true,
        "connection_point_id": "moscow_zil_-1_+0_c0c4ab4d_tie_in_stress_cp_3"
      },
      "geometry": {
        "type": "Polygon",
        "coordinates": [
          [
            [
              37.64291,
              55.690808
            ],
            [
              37.6423702,
              55.690653
            ],
            [
              37.6422504,
              55.6906194
            ],
            [
              37.641735,
              55.690478
            ],
            [
              37.6419,
              55.690387
            ],
            [
              37.6423456,
              55.6905117
            ],
            [
              37.6424655,
              55.6905454
            ],
            [
              37.64282,
              55.690637
            ],
            [
              37.642999,
              55.69054
            ],
            [
              37.64327,
              55.690388
            ],
            [
              37.643416,
              55.690543
            ],
            [
              37.643167,
              55.690673
            ],
            [
              37.64291,
              55.690808
            ]
          ]
        ]
      }
    },
    {
      "type": "Feature",
      "properties": {
        "id": "moscow_zil_-1_+0_c0c4ab4d_tie_in_stress_osm_way_1453516884_24",
        "object_type": "restriction",
        "restriction_type": "oks",
        "name": "",
        "osm_kind": "building",
        "osm_id": 1453516884,
        "osm_type": "way",
        "osm_tags": {
          "building": "construction"
        },
        "case_id": "moscow_zil_-1_+0_c0c4ab4d_tie_in_stress"
      },
      "geometry": {
        "type": "Polygon",
        "coordinates": [
          [
            [
              37.644529,
              55.691265
            ],
            [
              37.6443333,
              55.6912106
            ],
            [
              37.6443447,
              55.6911978
            ],
            [
              37.6442901,
              55.6911818
            ],
            [
              37.6443859,
              55.6910781
            ],
            [
              37.6444406,
              55.6910941
            ],
            [
              37.644454,
              55.691085
            ],
            [
              37.644525,
              55.691107
            ],
            [
              37.6445846,
              55.691077
            ],
            [
              37.6446653,
              55.691035
            ],
            [
              37.6447038,
              55.6910584
            ],
            [
              37.6448442,
              55.6909852
            ],
            [
              37.644792,
              55.6909534
            ],
            [
              37.64487,
              55.6909127
            ],
            [
              37.6449315,
              55.6908806
            ],
            [
              37.6448022,
              55.690801
            ],
            [
              37.645003,
              55.6907688
            ],
            [
              37.6450685,
              55.6908093
            ],
            [
              37.6452257,
              55.6909063
            ],
            [
              37.6450282,
              55.6910092
            ],
            [
              37.6449502,
              55.6910499
            ],
            [
              37.6449084,
              55.6910243
            ],
            [
              37.644768,
              55.6910975
            ],
            [
              37.6448129,
              55.6911249
            ],
            [
              37.6447322,
              55.691167
            ],
            [
              37.644529,
              55.691265
            ]
          ]
        ]
      }
    },
    {
      "type": "Feature",
      "properties": {
        "id": "moscow_zil_-1_+0_c0c4ab4d_tie_in_stress_osm_way_1453918200_25",
        "object_type": "restriction",
        "restriction_type": "road",
        "name": "бульвар Павла Филонова",
        "osm_kind": "road",
        "osm_id": 1453918200,
        "osm_type": "way",
        "osm_tags": {
          "highway": "path",
          "name": "бульвар Павла Филонова"
        },
        "case_id": "moscow_zil_-1_+0_c0c4ab4d_tie_in_stress"
      },
      "geometry": {
        "type": "LineString",
        "coordinates": [
          [
            37.6338879,
            55.6885095
          ],
          [
            37.637007,
            55.6893884
          ],
          [
            37.6377322,
            55.6895807
          ],
          [
            37.6411564,
            55.6906069
          ]
        ]
      }
    },
    {
      "type": "Feature",
      "properties": {
        "id": "moscow_zil_-1_+0_c0c4ab4d_tie_in_stress_osm_way_1454188180_26",
        "object_type": "restriction",
        "restriction_type": "oks",
        "name": "",
        "osm_kind": "building",
        "osm_id": 1454188180,
        "osm_type": "way",
        "osm_tags": {
          "building": "construction"
        },
        "case_id": "moscow_zil_-1_+0_c0c4ab4d_tie_in_stress"
      },
      "geometry": {
        "type": "Polygon",
        "coordinates": [
          [
            [
              37.6437135,
              55.6908011
            ],
            [
              37.6436156,
              55.690775
            ],
            [
              37.6439112,
              55.6906349
            ],
            [
              37.6439874,
              55.6905928
            ],
            [
              37.6443704,
              55.6903818
            ],
            [
              37.644532,
              55.6904749
            ],
            [
              37.6447028,
              55.6905836
            ],
            [
              37.6446261,
              55.6907018
            ],
            [
              37.6443918,
              55.6905522
            ],
            [
              37.644149,
              55.690686
            ],
            [
              37.644022,
              55.6906587
            ],
            [
              37.6437135,
              55.6908011
            ]
          ]
        ]
      }
    },
    {
      "type": "Feature",
      "properties": {
        "id": "moscow_zil_-1_+0_c0c4ab4d_tie_in_stress_osm_way_1454343570_27",
        "object_type": "restriction",
        "restriction_type": "oks",
        "name": "",
        "osm_kind": "building",
        "osm_id": 1454343570,
        "osm_type": "way",
        "osm_tags": {
          "building": "construction"
        },
        "case_id": "moscow_zil_-1_+0_c0c4ab4d_tie_in_stress",
        "selected_as_heat_demand_proxy": true,
        "connection_point_id": "moscow_zil_-1_+0_c0c4ab4d_tie_in_stress_cp_4"
      },
      "geometry": {
        "type": "Polygon",
        "coordinates": [
          [
            [
              37.6442901,
              55.6911818
            ],
            [
              37.6442764,
              55.6911966
            ],
            [
              37.6438691,
              55.6910769
            ],
            [
              37.6438791,
              55.6910665
            ],
            [
              37.6437923,
              55.6910412
            ],
            [
              37.6437822,
              55.6910531
            ],
            [
              37.643323,
              55.690926
            ],
            [
              37.643535,
              55.690815
            ],
            [
              37.6439055,
              55.6909169
            ],
            [
              37.6438917,
              55.6909328
            ],
            [
              37.6439786,
              55.6909581
            ],
            [
              37.6439923,
              55.6909437
            ],
            [
              37.6443996,
              55.6910634
            ],
            [
              37.6443859,
              55.6910781
            ],
            [
              37.6442901,
              55.6911818
            ]
          ]
        ]
      }
    },
    {
      "type": "Feature",
      "properties": {
        "id": "moscow_zil_-1_+0_c0c4ab4d_tie_in_stress_source",
        "object_type": "source",
        "case_id": "moscow_zil_-1_+0_c0c4ab4d_tie_in_stress"
      },
      "geometry": {
        "type": "Point",
        "coordinates": [
          37.63992814666666,
          55.69136435
        ]
      }
    },
    {
      "type": "Feature",
      "properties": {
        "id": "moscow_zil_-1_+0_c0c4ab4d_tie_in_stress_existing_network_a",
        "object_type": "heat_network",
        "diameter": 700,
        "flow_tph": 260.0,
        "upstream_object_id": "moscow_zil_-1_+0_c0c4ab4d_tie_in_stress_source",
        "case_id": "moscow_zil_-1_+0_c0c4ab4d_tie_in_stress"
      },
      "geometry": {
        "type": "LineString",
        "coordinates": [
          [
            37.63992814666666,
            55.69136435
          ],
          [
            37.64056564,
            55.6909152
          ]
        ]
      }
    },
    {
      "type": "Feature",
      "properties": {
        "id": "moscow_zil_-1_+0_c0c4ab4d_tie_in_stress_existing_network_b",
        "object_type": "heat_network",
        "diameter": 600,
        "flow_tph": 220.0,
        "upstream_object_id": "moscow_zil_-1_+0_c0c4ab4d_tie_in_stress_source",
        "case_id": "moscow_zil_-1_+0_c0c4ab4d_tie_in_stress"
      },
      "geometry": {
        "type": "LineString",
        "coordinates": [
          [
            37.64056564,
            55.6909152
          ],
          [
            37.64104376,
            55.69136435
          ]
        ]
      }
    },
    {
      "type": "Feature",
      "properties": {
        "id": "moscow_zil_-1_+0_c0c4ab4d_tie_in_stress_existing_network_c",
        "object_type": "heat_network",
        "diameter": 500,
        "flow_tph": 180.0,
        "upstream_object_id": "moscow_zil_-1_+0_c0c4ab4d_tie_in_stress_source",
        "case_id": "moscow_zil_-1_+0_c0c4ab4d_tie_in_stress"
      },
      "geometry": {
        "type": "LineString",
        "coordinates": [
          [
            37.64056564,
            55.6909152
          ],
          [
            37.64072501333333,
            55.6918135
          ]
        ]
      }
    },
    {
      "type": "Feature",
      "properties": {
        "id": "moscow_zil_-1_+0_c0c4ab4d_tie_in_stress_existing_chamber_low",
        "object_type": "heat_chamber",
        "diameter": 700,
        "upstream_object_id": "moscow_zil_-1_+0_c0c4ab4d_tie_in_stress_source",
        "case_id": "moscow_zil_-1_+0_c0c4ab4d_tie_in_stress"
      },
      "geometry": {
        "type": "Point",
        "coordinates": [
          37.64056564,
          55.6909152
        ]
      }
    },
    {
      "type": "Feature",
      "properties": {
        "id": "moscow_zil_-1_+0_c0c4ab4d_tie_in_stress_existing_chamber_mid",
        "object_type": "heat_chamber",
        "diameter": 600,
        "upstream_object_id": "moscow_zil_-1_+0_c0c4ab4d_tie_in_stress_source",
        "case_id": "moscow_zil_-1_+0_c0c4ab4d_tie_in_stress"
      },
      "geometry": {
        "type": "Point",
        "coordinates": [
          37.64104376,
          55.69136435
        ]
      }
    },
    {
      "type": "Feature",
      "properties": {
        "id": "moscow_zil_-1_+0_c0c4ab4d_tie_in_stress_existing_chamber_high",
        "object_type": "heat_chamber",
        "diameter": 500,
        "upstream_object_id": "moscow_zil_-1_+0_c0c4ab4d_tie_in_stress_source",
        "case_id": "moscow_zil_-1_+0_c0c4ab4d_tie_in_stress"
      },
      "geometry": {
        "type": "Point",
        "coordinates": [
          37.64072501333333,
          55.6918135
        ]
      }
    },
    {
      "type": "Feature",
      "properties": {
        "id": "moscow_zil_-1_+0_c0c4ab4d_tie_in_stress_cp_1",
        "object_type": "oks_connection_point",
        "flow_tph": 5.0,
        "case_id": "moscow_zil_-1_+0_c0c4ab4d_tie_in_stress",
        "consumer_role": "osm_building_heat_demand_proxy",
        "source_building_osm_id": 1452917827,
        "source_building_osm_type": "way",
        "source_building_name": "",
        "source_building_tags": {
          "building": "construction"
        },
        "footprint_area_m2": 435.84,
        "flow_basis": "synthetic_proxy_from_osm_footprint_area",
        "stress_bucket": "tie_in_stress"
      },
      "geometry": {
        "type": "Point",
        "coordinates": [
          37.64244167113318,
          55.69030424006087
        ]
      }
    },
    {
      "type": "Feature",
      "properties": {
        "id": "moscow_zil_-1_+0_c0c4ab4d_tie_in_stress_cp_2",
        "object_type": "oks_connection_point",
        "flow_tph": 9.088,
        "case_id": "moscow_zil_-1_+0_c0c4ab4d_tie_in_stress",
        "consumer_role": "osm_building_heat_demand_proxy",
        "source_building_osm_id": 1452790704,
        "source_building_osm_type": "way",
        "source_building_name": "",
        "source_building_tags": {
          "building": "construction"
        },
        "footprint_area_m2": 817.96,
        "flow_basis": "synthetic_proxy_from_osm_footprint_area",
        "stress_bucket": "tie_in_stress"
      },
      "geometry": {
        "type": "Point",
        "coordinates": [
          37.64188165683941,
          55.690971597387325
        ]
      }
    },
    {
      "type": "Feature",
      "properties": {
        "id": "moscow_zil_-1_+0_c0c4ab4d_tie_in_stress_cp_3",
        "object_type": "oks_connection_point",
        "flow_tph": 19.515,
        "case_id": "moscow_zil_-1_+0_c0c4ab4d_tie_in_stress",
        "consumer_role": "osm_building_heat_demand_proxy",
        "source_building_osm_id": 1453408616,
        "source_building_osm_type": "way",
        "source_building_name": "",
        "source_building_tags": {
          "building": "construction"
        },
        "footprint_area_m2": 1756.31,
        "flow_basis": "synthetic_proxy_from_osm_footprint_area",
        "stress_bucket": "tie_in_stress"
      },
      "geometry": {
        "type": "Point",
        "coordinates": [
          37.64313583333333,
          55.690562416666666
        ]
      }
    },
    {
      "type": "Feature",
      "properties": {
        "id": "moscow_zil_-1_+0_c0c4ab4d_tie_in_stress_cp_4",
        "object_type": "oks_connection_point",
        "flow_tph": 11.75,
        "case_id": "moscow_zil_-1_+0_c0c4ab4d_tie_in_stress",
        "consumer_role": "osm_building_heat_demand_proxy",
        "source_building_osm_id": 1454343570,
        "source_building_osm_type": "way",
        "source_building_name": "",
        "source_building_tags": {
          "building": "construction"
        },
        "footprint_area_m2": 1057.46,
        "flow_basis": "synthetic_proxy_from_osm_footprint_area",
        "stress_bucket": "tie_in_stress"
      },
      "geometry": {
        "type": "Point",
        "coordinates": [
          37.6438775092732,
          55.690993236406975
        ]
      }
    },
    {
      "type": "Feature",
      "properties": {
        "id": "moscow_zil_-1_+0_c0c4ab4d_tie_in_stress_cp_5",
        "object_type": "oks_connection_point",
        "flow_tph": 5.0,
        "case_id": "moscow_zil_-1_+0_c0c4ab4d_tie_in_stress",
        "consumer_role": "osm_building_heat_demand_proxy",
        "source_building_osm_id": 1453043200,
        "source_building_osm_type": "way",
        "source_building_name": "",
        "source_building_tags": {
          "building": "construction"
        },
        "footprint_area_m2": 56.1,
        "flow_basis": "synthetic_proxy_from_osm_footprint_area",
        "stress_bucket": "tie_in_stress"
      },
      "geometry": {
        "type": "Point",
        "coordinates": [
          37.64364833333334,
          55.691525750000004
        ]
      }
    },
    {
      "type": "Feature",
      "properties": {
        "id": "moscow_zil_-1_+0_c0c4ab4d_tie_in_stress_cp_6",
        "object_type": "oks_connection_point",
        "flow_tph": 5.0,
        "case_id": "moscow_zil_-1_+0_c0c4ab4d_tie_in_stress",
        "consumer_role": "osm_building_heat_demand_proxy",
        "source_building_osm_id": 1453043201,
        "source_building_osm_type": "way",
        "source_building_name": "",
        "source_building_tags": {
          "building": "construction"
        },
        "footprint_area_m2": 290.27,
        "flow_basis": "synthetic_proxy_from_osm_footprint_area",
        "stress_bucket": "tie_in_stress"
      },
      "geometry": {
        "type": "Point",
        "coordinates": [
          37.64385482537211,
          55.691519883071784
        ]
      }
    },
    {
      "type": "Feature",
      "properties": {
        "id": "moscow_zil_-1_+0_c0c4ab4d_tie_in_stress_cp_7",
        "object_type": "oks_connection_point",
        "flow_tph": 5.0,
        "case_id": "moscow_zil_-1_+0_c0c4ab4d_tie_in_stress",
        "consumer_role": "osm_building_heat_demand_proxy",
        "source_building_osm_id": 1453043205,
        "source_building_osm_type": "way",
        "source_building_name": "",
        "source_building_tags": {
          "building": "construction"
        },
        "footprint_area_m2": 318.91,
        "flow_basis": "synthetic_proxy_from_osm_footprint_area",
        "stress_bucket": "tie_in_stress"
      },
      "geometry": {
        "type": "Point",
        "coordinates": [
          37.64284457341485,
          55.69203860063868
        ]
      }
    },
    {
      "type": "Feature",
      "properties": {
        "id": "moscow_zil_-1_+0_c0c4ab4d_tie_in_stress_cp_8",
        "object_type": "oks_connection_point",
        "flow_tph": 5.312,
        "case_id": "moscow_zil_-1_+0_c0c4ab4d_tie_in_stress",
        "consumer_role": "osm_building_heat_demand_proxy",
        "source_building_osm_id": 1453043206,
        "source_building_osm_type": "way",
        "source_building_name": "",
        "source_building_tags": {
          "building": "construction"
        },
        "footprint_area_m2": 478.06,
        "flow_basis": "synthetic_proxy_from_osm_footprint_area",
        "stress_bucket": "tie_in_stress"
      },
      "geometry": {
        "type": "Point",
        "coordinates": [
          37.64214947177288,
          55.692281431589834
        ]
      }
    }
  ]
}