{
  "type": "FeatureCollection",
  "name": "spb_parnas_+0_+0_86e095d0_tie_in_stress",
  "crs": {
    "type": "name",
    "properties": {
      "name": "EPSG:4326"
    }
  },
  "metadata": {
    "dataset_version": "osm_building_anchored_routing_scenes_v3",
    "parent_scene_id": "spb_parnas_+0_+0_86e095d0",
    "split": "test",
    "city": "Санкт-Петербург Парнас",
    "seed": "spb_parnas",
    "research_bucket": "tie_in_stress",
    "source_research_bucket": "shared_pipe",
    "research_bucket_is_ground_truth": false,
    "bbox_south_west_north_east": [
      60.0676525,
      30.3422994,
      60.0703475,
      30.3477006
    ],
    "real_data_source": "OpenStreetMap via Overpass API",
    "source_file": "data/real_geojson_places/shared_pipe/022_spb_parnas_+0_+0_86e095d0.geojson",
    "real_layers": [
      "restrictions",
      "consumer_building_footprints"
    ],
    "synthetic_layers": [
      "source",
      "heat_network",
      "heat_chamber",
      "heat_demand"
    ],
    "consumer_selection": "deterministic points inside real OSM building footprints",
    "flow_model": "synthetic proxy derived from building footprint area; not metered demand",
    "note": "OSM buildings anchor consumers; heat demand and seed network are synthetic proxies."
  },
  "features": [
    {
      "type": "Feature",
      "properties": {
        "id": "spb_parnas_+0_+0_86e095d0_tie_in_stress_osm_way_118372875_1",
        "object_type": "restriction",
        "restriction_type": "road",
        "name": "проспект Энгельса",
        "osm_kind": "major_road",
        "osm_id": 118372875,
        "osm_type": "way",
        "osm_tags": {
          "highway": "primary",
          "name": "проспект Энгельса"
        },
        "case_id": "spb_parnas_+0_+0_86e095d0_tie_in_stress"
      },
      "geometry": {
        "type": "LineString",
        "coordinates": [
          [
            30.3483394,
            60.0699303
          ],
          [
            30.3472278,
            60.0685836
          ],
          [
            30.3468459,
            60.0681142
          ],
          [
            30.3464424,
            60.0676201
          ],
          [
            30.3461393,
            60.0672749
          ],
          [
            30.3458446,
            60.0670074
          ],
          [
            30.345258,
            60.0665234
          ]
        ]
      }
    },
    {
      "type": "Feature",
      "properties": {
        "id": "spb_parnas_+0_+0_86e095d0_tie_in_stress_osm_way_138646314_2",
        "object_type": "restriction",
        "restriction_type": "road",
        "name": "",
        "osm_kind": "road",
        "osm_id": 138646314,
        "osm_type": "way",
        "osm_tags": {
          "highway": "service"
        },
        "case_id": "spb_parnas_+0_+0_86e095d0_tie_in_stress"
      },
      "geometry": {
        "type": "LineString",
        "coordinates": [
          [
            30.3435902,
            60.0697653
          ],
          [
            30.343498,
            60.0696626
          ],
          [
            30.3434202,
            60.0696359
          ],
          [
            30.3429292,
            60.0695304
          ],
          [
            30.3427141,
            60.0695688
          ],
          [
            30.3416685,
            60.0697794
          ]
        ]
      }
    },
    {
      "type": "Feature",
      "properties": {
        "id": "spb_parnas_+0_+0_86e095d0_tie_in_stress_osm_way_138646315_3",
        "object_type": "restriction",
        "restriction_type": "road",
        "name": "",
        "osm_kind": "road",
        "osm_id": 138646315,
        "osm_type": "way",
        "osm_tags": {
          "highway": "service"
        },
        "case_id": "spb_parnas_+0_+0_86e095d0_tie_in_stress"
      },
      "geometry": {
        "type": "LineString",
        "coordinates": [
          [
            30.3435902,
            60.0697653
          ],
          [
            30.3430287,
            60.0698835
          ],
          [
            30.3428449,
            60.06992
          ],
          [
            30.3410759,
            60.0702712
          ],
          [
            30.3408414,
            60.0703172
          ]
        ]
      }
    },
    {
      "type": "Feature",
      "properties": {
        "id": "spb_parnas_+0_+0_86e095d0_tie_in_stress_osm_way_170990148_4",
        "object_type": "restriction",
        "restriction_type": "road",
        "name": "",
        "osm_kind": "road",
        "osm_id": 170990148,
        "osm_type": "way",
        "osm_tags": {
          "highway": "service"
        },
        "case_id": "spb_parnas_+0_+0_86e095d0_tie_in_stress"
      },
      "geometry": {
        "type": "LineString",
        "coordinates": [
          [
            30.3410403,
            60.066986
          ],
          [
            30.3411905,
            60.0670235
          ],
          [
            30.3412683,
            60.0670811
          ],
          [
            30.3414346,
            60.0673287
          ],
          [
            30.3414641,
            60.067421
          ],
          [
            30.3415857,
            60.0675513
          ],
          [
            30.3417391,
            60.0676999
          ],
          [
            30.3418216,
            60.0677649
          ],
          [
            30.3421083,
            60.0680818
          ],
          [
            30.3428113,
            60.0689673
          ]
        ]
      }
    },
    {
      "type": "Feature",
      "properties": {
        "id": "spb_parnas_+0_+0_86e095d0_tie_in_stress_osm_way_183044102_5",
        "object_type": "restriction",
        "restriction_type": "road",
        "name": "",
        "osm_kind": "road",
        "osm_id": 183044102,
        "osm_type": "way",
        "osm_tags": {
          "highway": "service"
        },
        "case_id": "spb_parnas_+0_+0_86e095d0_tie_in_stress"
      },
      "geometry": {
        "type": "LineString",
        "coordinates": [
          [
            30.3473539,
            60.0685591
          ],
          [
            30.3475719,
            60.0685151
          ],
          [
            30.3477832,
            60.0684747
          ],
          [
            30.3480151,
            60.0684304
          ],
          [
            30.3483011,
            60.0684337
          ],
          [
            30.3483642,
            60.0684219
          ],
          [
            30.3484325,
            60.0684079
          ],
          [
            30.3487229,
            60.0683484
          ]
        ]
      }
    },
    {
      "type": "Feature",
      "properties": {
        "id": "spb_parnas_+0_+0_86e095d0_tie_in_stress_osm_way_183044105_6",
        "object_type": "restriction",
        "restriction_type": "road",
        "name": "",
        "osm_kind": "road",
        "osm_id": 183044105,
        "osm_type": "way",
        "osm_tags": {
          "highway": "service"
        },
        "case_id": "spb_parnas_+0_+0_86e095d0_tie_in_stress"
      },
      "geometry": {
        "type": "LineString",
        "coordinates": [
          [
            30.3475719,
            60.0685151
          ],
          [
            30.3477281,
            60.068427
          ],
          [
            30.3487284,
            60.0682329
          ],
          [
            30.3489409,
            60.068195
          ]
        ]
      }
    },
    {
      "type": "Feature",
      "properties": {
        "id": "spb_parnas_+0_+0_86e095d0_tie_in_stress_osm_way_187811893_7",
        "object_type": "restriction",
        "restriction_type": "road",
        "name": "",
        "osm_kind": "road",
        "osm_id": 187811893,
        "osm_type": "way",
        "osm_tags": {
          "highway": "footway"
        },
        "case_id": "spb_parnas_+0_+0_86e095d0_tie_in_stress"
      },
      "geometry": {
        "type": "LineString",
        "coordinates": [
          [
            30.3406873,
            60.0667674
          ],
          [
            30.340851,
            60.0668251
          ],
          [
            30.34143,
            60.0669833
          ],
          [
            30.3418618,
            60.0671145
          ],
          [
            30.3419061,
            60.0671305
          ],
          [
            30.341949,
            60.067158
          ],
          [
            30.3423081,
            60.067595
          ],
          [
            30.3428773,
            60.0682877
          ],
          [
            30.3440224,
            60.069681
          ],
          [
            30.3440475,
            60.0697115
          ],
          [
            30.3441607,
            60.0698489
          ],
          [
            30.3446579,
            60.0704646
          ],
          [
            30.3451546,
            60.0710772
          ],
          [
            30.3456264,
            60.0716641
          ]
        ]
      }
    },
    {
      "type": "Feature",
      "properties": {
        "id": "spb_parnas_+0_+0_86e095d0_tie_in_stress_osm_way_317086701_8",
        "object_type": "restriction",
        "restriction_type": "road",
        "name": "",
        "osm_kind": "road",
        "osm_id": 317086701,
        "osm_type": "way",
        "osm_tags": {
          "highway": "service"
        },
        "case_id": "spb_parnas_+0_+0_86e095d0_tie_in_stress"
      },
      "geometry": {
        "type": "LineString",
        "coordinates": [
          [
            30.3422988,
            60.0690783
          ],
          [
            30.3425785,
            60.0690177
          ],
          [
            30.3428113,
            60.0689673
          ]
        ]
      }
    },
    {
      "type": "Feature",
      "properties": {
        "id": "spb_parnas_+0_+0_86e095d0_tie_in_stress_osm_way_317090552_9",
        "object_type": "restriction",
        "restriction_type": "oks",
        "name": "",
        "osm_kind": "building",
        "osm_id": 317090552,
        "osm_type": "way",
        "osm_tags": {
          "building": "hangar"
        },
        "case_id": "spb_parnas_+0_+0_86e095d0_tie_in_stress",
        "selected_as_heat_demand_proxy": true,
        "connection_point_id": "spb_parnas_+0_+0_86e095d0_tie_in_stress_cp_7"
      },
      "geometry": {
        "type": "Polygon",
        "coordinates": [
          [
            [
              30.3417743,
              60.0696734
            ],
            [
              30.3424623,
              60.0695352
            ],
            [
              30.3423599,
              60.0694123
            ],
            [
              30.3416749,
              60.0695509
            ],
            [
              30.3417743,
              60.0696734
            ]
          ]
        ]
      }
    },
    {
      "type": "Feature",
      "properties": {
        "id": "spb_parnas_+0_+0_86e095d0_tie_in_stress_osm_way_317090568_10",
        "object_type": "restriction",
        "restriction_type": "oks",
        "name": "",
        "osm_kind": "building",
        "osm_id": 317090568,
        "osm_type": "way",
        "osm_tags": {
          "building": "hangar"
        },
        "case_id": "spb_parnas_+0_+0_86e095d0_tie_in_stress",
        "selected_as_heat_demand_proxy": true,
        "connection_point_id": "spb_parnas_+0_+0_86e095d0_tie_in_stress_cp_6"
      },
      "geometry": {
        "type": "Polygon",
        "coordinates": [
          [
            [
              30.341896,
              60.0698145
            ],
            [
              30.3423855,
              60.0697122
            ],
            [
              30.342499,
              60.0698476
            ],
            [
              30.3420095,
              60.0699498
            ],
            [
              30.341896,
              60.0698145
            ]
          ]
        ]
      }
    },
    {
      "type": "Feature",
      "properties": {
        "id": "spb_parnas_+0_+0_86e095d0_tie_in_stress_osm_way_1215207010_11",
        "object_type": "restriction",
        "restriction_type": "oks",
        "name": "Детская поликлиника №71",
        "osm_kind": "building",
        "osm_id": 1215207010,
        "osm_type": "way",
        "osm_tags": {
          "building": "policlinic",
          "name": "Детская поликлиника №71"
        },
        "case_id": "spb_parnas_+0_+0_86e095d0_tie_in_stress",
        "selected_as_heat_demand_proxy": true,
        "connection_point_id": "spb_parnas_+0_+0_86e095d0_tie_in_stress_cp_8"
      },
      "geometry": {
        "type": "Polygon",
        "coordinates": [
          [
            [
              30.341695,
              60.0708367
            ],
            [
              30.341331,
              60.0703903
            ],
            [
              30.3416379,
              60.070328
            ],
            [
              30.3416799,
              60.0703795
            ],
            [
              30.3419256,
              60.0703295
            ],
            [
              30.3418975,
              60.0702951
            ],
            [
              30.3420994,
              60.070254
            ],
            [
              30.34233,
              60.0702072
            ],
            [
              30.3423585,
              60.0702422
            ],
            [
              30.3425821,
              60.0701968
            ],
            [
              30.3425445,
              60.0701508
            ],
            [
              30.3428344,
              60.0700919
            ],
            [
              30.3432006,
              60.0705403
            ],
            [
              30.3429108,
              60.0705992
            ],
            [
              30.3427012,
              60.0703425
            ],
            [
              30.3423914,
              60.0704055
            ],
            [
              30.3425906,
              60.0706495
            ],
            [
              30.3422967,
              60.0707092
            ],
            [
              30.342099,
              60.0704669
            ],
            [
              30.3417989,
              60.0705278
            ],
            [
              30.3420003,
              60.0707748
            ],
            [
              30.341695,
              60.0708367
            ]
          ]
        ]
      }
    },
    {
      "type": "Feature",
      "properties": {
        "id": "spb_parnas_+0_+0_86e095d0_tie_in_stress_osm_way_1215207023_12",
        "object_type": "restriction",
        "restriction_type": "oks",
        "name": "Поликлиника №117",
        "osm_kind": "building",
        "osm_id": 1215207023,
        "osm_type": "way",
        "osm_tags": {
          "building": "yes",
          "name": "Поликлиника №117"
        },
        "case_id": "spb_parnas_+0_+0_86e095d0_tie_in_stress",
        "selected_as_heat_demand_proxy": true,
        "connection_point_id": "spb_parnas_+0_+0_86e095d0_tie_in_stress_cp_5"
      },
      "geometry": {
        "type": "Polygon",
        "coordinates": [
          [
            [
              30.3448658,
              60.0710545
            ],
            [
              30.3447507,
              60.0709169
            ],
            [
              30.3446451,
              60.0709388
            ],
            [
              30.3444384,
              60.0706803
            ],
            [
              30.3444962,
              60.0706688
            ],
            [
              30.3443767,
              60.0705194
            ],
            [
              30.3442445,
              60.0703542
            ],
            [
              30.3441868,
              60.0703657
            ],
            [
              30.3440171,
              60.0701535
            ],
            [
              30.3441194,
              60.0701333
            ],
            [
              30.3439882,
              60.0699764
            ],
            [
              30.3433527,
              60.0701086
            ],
            [
              30.3434789,
              60.0702596
            ],
            [
              30.3437196,
              60.0702095
            ],
            [
              30.3438383,
              60.0703514
            ],
            [
              30.3437533,
              60.0703691
            ],
            [
              30.3437669,
              60.0703855
            ],
            [
              30.3441623,
              60.0708585
            ],
            [
              30.3442244,
              60.0708455
            ],
            [
              30.3443397,
              60.0709834
            ],
            [
              30.3440956,
              60.0710342
            ],
            [
              30.3442241,
              60.071188
            ],
            [
              30.3448658,
              60.0710545
            ]
          ]
        ]
      }
    },
    {
      "type": "Feature",
      "properties": {
        "id": "spb_parnas_+0_+0_86e095d0_tie_in_stress_osm_way_1221262146_13",
        "object_type": "restriction",
        "restriction_type": "road",
        "name": "",
        "osm_kind": "road",
        "osm_id": 1221262146,
        "osm_type": "way",
        "osm_tags": {
          "highway": "service"
        },
        "case_id": "spb_parnas_+0_+0_86e095d0_tie_in_stress"
      },
      "geometry": {
        "type": "LineString",
        "coordinates": [
          [
            30.3473539,
            60.0685591
          ],
          [
            30.3472278,
            60.0685836
          ]
        ]
      }
    },
    {
      "type": "Feature",
      "properties": {
        "id": "spb_parnas_+0_+0_86e095d0_tie_in_stress_osm_way_1266746005_14",
        "object_type": "restriction",
        "restriction_type": "road",
        "name": "",
        "osm_kind": "road",
        "osm_id": 1266746005,
        "osm_type": "way",
        "osm_tags": {
          "highway": "service"
        },
        "case_id": "spb_parnas_+0_+0_86e095d0_tie_in_stress"
      },
      "geometry": {
        "type": "LineString",
        "coordinates": [
          [
            30.3441371,
            60.0696534
          ],
          [
            30.3440224,
            60.069681
          ],
          [
            30.3435902,
            60.0697653
          ]
        ]
      }
    },
    {
      "type": "Feature",
      "properties": {
        "id": "spb_parnas_+0_+0_86e095d0_tie_in_stress_osm_way_1332710478_15",
        "object_type": "restriction",
        "restriction_type": "road",
        "name": "Толубеевский проезд",
        "osm_kind": "road",
        "osm_id": 1332710478,
        "osm_type": "way",
        "osm_tags": {
          "highway": "residential",
          "name": "Толубеевский проезд"
        },
        "case_id": "spb_parnas_+0_+0_86e095d0_tie_in_stress"
      },
      "geometry": {
        "type": "LineString",
        "coordinates": [
          [
            30.3482029,
            60.0746267
          ],
          [
            30.3480956,
            60.0744906
          ],
          [
            30.3473965,
            60.0736362
          ],
          [
            30.346629,
            60.0726977
          ],
          [
            30.3459596,
            60.0718722
          ],
          [
            30.3458617,
            60.0717527
          ],
          [
            30.3457583,
            60.0716266
          ],
          [
            30.3452871,
            60.0710518
          ],
          [
            30.3442818,
            60.0698253
          ],
          [
            30.3441371,
            60.0696534
          ],
          [
            30.3441007,
            60.069607
          ],
          [
            30.3430087,
            60.0682612
          ],
          [
            30.3424449,
            60.0675664
          ],
          [
            30.3423996,
            60.0675106
          ],
          [
            30.3422621,
            60.067347
          ],
          [
            30.3420952,
            60.067166
          ]
        ]
      }
    },
    {
      "type": "Feature",
      "properties": {
        "id": "spb_parnas_+0_+0_86e095d0_tie_in_stress_osm_way_1362017651_16",
        "object_type": "restriction",
        "restriction_type": "road",
        "name": "проспект Энгельса",
        "osm_kind": "major_road",
        "osm_id": 1362017651,
        "osm_type": "way",
        "osm_tags": {
          "highway": "primary",
          "name": "проспект Энгельса"
        },
        "case_id": "spb_parnas_+0_+0_86e095d0_tie_in_stress"
      },
      "geometry": {
        "type": "LineString",
        "coordinates": [
          [
            30.3460378,
            60.0669577
          ],
          [
            30.3462917,
            60.0672474
          ],
          [
            30.3465706,
            60.0675944
          ],
          [
            30.3469771,
            60.0680881
          ],
          [
            30.3473539,
            60.0685591
          ],
          [
            30.3478931,
            60.0692206
          ],
          [
            30.3486083,
            60.0701034
          ]
        ]
      }
    },
    {
      "type": "Feature",
      "properties": {
        "id": "spb_parnas_+0_+0_86e095d0_tie_in_stress_osm_way_1382926192_17",
        "object_type": "restriction",
        "restriction_type": "road",
        "name": "",
        "osm_kind": "road",
        "osm_id": 1382926192,
        "osm_type": "way",
        "osm_tags": {
          "highway": "service"
        },
        "case_id": "spb_parnas_+0_+0_86e095d0_tie_in_stress"
      },
      "geometry": {
        "type": "LineString",
        "coordinates": [
          [
            30.3440389,
            60.0698731
          ],
          [
            30.3441247,
            60.0698561
          ]
        ]
      }
    },
    {
      "type": "Feature",
      "properties": {
        "id": "spb_parnas_+0_+0_86e095d0_tie_in_stress_osm_way_1382926193_18",
        "object_type": "restriction",
        "restriction_type": "road",
        "name": "",
        "osm_kind": "road",
        "osm_id": 1382926193,
        "osm_type": "way",
        "osm_tags": {
          "highway": "service"
        },
        "case_id": "spb_parnas_+0_+0_86e095d0_tie_in_stress"
      },
      "geometry": {
        "type": "LineString",
        "coordinates": [
          [
            30.3430666,
            60.0699322
          ],
          [
            30.3430528,
            60.0699145
          ],
          [
            30.3430287,
            60.0698835
          ]
        ]
      }
    },
    {
      "type": "Feature",
      "properties": {
        "id": "spb_parnas_+0_+0_86e095d0_tie_in_stress_osm_way_1382926196_19",
        "object_type": "restriction",
        "restriction_type": "road",
        "name": "",
        "osm_kind": "road",
        "osm_id": 1382926196,
        "osm_type": "way",
        "osm_tags": {
          "highway": "service"
        },
        "case_id": "spb_parnas_+0_+0_86e095d0_tie_in_stress"
      },
      "geometry": {
        "type": "LineString",
        "coordinates": [
          [
            30.3441247,
            60.0698561
          ],
          [
            30.3441607,
            60.0698489
          ],
          [
            30.3442818,
            60.0698253
          ],
          [
            30.3444014,
            60.0698017
          ]
        ]
      }
    },
    {
      "type": "Feature",
      "properties": {
        "id": "spb_parnas_+0_+0_86e095d0_tie_in_stress_osm_way_1382926201_20",
        "object_type": "restriction",
        "restriction_type": "road",
        "name": "",
        "osm_kind": "road",
        "osm_id": 1382926201,
        "osm_type": "way",
        "osm_tags": {
          "highway": "service"
        },
        "case_id": "spb_parnas_+0_+0_86e095d0_tie_in_stress"
      },
      "geometry": {
        "type": "LineString",
        "coordinates": [
          [
            30.3431601,
            60.0700516
          ],
          [
            30.3431827,
            60.0701108
          ],
          [
            30.3433214,
            60.0702775
          ],
          [
            30.343502,
            60.0703247
          ],
          [
            30.3440218,
            60.0709409
          ],
          [
            30.3439327,
            60.0710202
          ],
          [
            30.344151,
            60.0712801
          ],
          [
            30.3449585,
            60.07112
          ]
        ]
      }
    },
    {
      "type": "Feature",
      "properties": {
        "id": "spb_parnas_+0_+0_86e095d0_tie_in_stress_osm_way_1382926202_21",
        "object_type": "restriction",
        "restriction_type": "road",
        "name": "",
        "osm_kind": "road",
        "osm_id": 1382926202,
        "osm_type": "way",
        "osm_tags": {
          "highway": "service"
        },
        "case_id": "spb_parnas_+0_+0_86e095d0_tie_in_stress"
      },
      "geometry": {
        "type": "LineString",
        "coordinates": [
          [
            30.3449585,
            60.07112
          ],
          [
            30.3450349,
            60.0711033
          ],
          [
            30.344858,
            60.0708697
          ],
          [
            30.344777,
            60.0708179
          ],
          [
            30.3445161,
            60.0704924
          ],
          [
            30.3442433,
            60.0701532
          ],
          [
            30.344221,
            60.0700967
          ],
          [
            30.3440389,
            60.0698731
          ],
          [
            30.3431601,
            60.0700516
          ],
          [
            30.3430666,
            60.0699322
          ]
        ]
      }
    },
    {
      "type": "Feature",
      "properties": {
        "id": "spb_parnas_+0_+0_86e095d0_tie_in_stress_osm_way_1393276563_22",
        "object_type": "restriction",
        "restriction_type": "road",
        "name": "",
        "osm_kind": "road",
        "osm_id": 1393276563,
        "osm_type": "way",
        "osm_tags": {
          "highway": "service"
        },
        "case_id": "spb_parnas_+0_+0_86e095d0_tie_in_stress"
      },
      "geometry": {
        "type": "LineString",
        "coordinates": [
          [
            30.3430087,
            60.0682612
          ],
          [
            30.3431279,
            60.0682373
          ]
        ]
      }
    },
    {
      "type": "Feature",
      "properties": {
        "id": "spb_parnas_+0_+0_86e095d0_tie_in_stress_osm_way_1393276569_23",
        "object_type": "restriction",
        "restriction_type": "road",
        "name": "",
        "osm_kind": "road",
        "osm_id": 1393276569,
        "osm_type": "way",
        "osm_tags": {
          "highway": "service"
        },
        "case_id": "spb_parnas_+0_+0_86e095d0_tie_in_stress"
      },
      "geometry": {
        "type": "LineString",
        "coordinates": [
          [
            30.3428773,
            60.0682877
          ],
          [
            30.3430087,
            60.0682612
          ]
        ]
      }
    },
    {
      "type": "Feature",
      "properties": {
        "id": "spb_parnas_+0_+0_86e095d0_tie_in_stress_osm_way_1393276573_24",
        "object_type": "restriction",
        "restriction_type": "road",
        "name": "Толубеевский проезд",
        "osm_kind": "road",
        "osm_id": 1393276573,
        "osm_type": "way",
        "osm_tags": {
          "highway": "residential",
          "name": "Толубеевский проезд"
        },
        "case_id": "spb_parnas_+0_+0_86e095d0_tie_in_stress"
      },
      "geometry": {
        "type": "LineString",
        "coordinates": [
          [
            30.342295,
            60.0672202
          ],
          [
            30.3425217,
            60.0674932
          ],
          [
            30.3425615,
            60.0675421
          ],
          [
            30.3431279,
            60.0682373
          ],
          [
            30.3442232,
            60.0695816
          ],
          [
            30.3442649,
            60.0696303
          ],
          [
            30.3444014,
            60.0698017
          ],
          [
            30.3453949,
            60.0710311
          ],
          [
            30.3458641,
            60.0716056
          ],
          [
            30.345971,
            60.0717304
          ],
          [
            30.3460724,
            60.0718488
          ],
          [
            30.346746,
            60.0726736
          ],
          [
            30.3475121,
            60.0736116
          ],
          [
            30.3482119,
            60.0744675
          ],
          [
            30.3483206,
            60.0746029
          ]
        ]
      }
    },
    {
      "type": "Feature",
      "properties": {
        "id": "spb_parnas_+0_+0_86e095d0_tie_in_stress_osm_way_1393276578_25",
        "object_type": "restriction",
        "restriction_type": "road",
        "name": "",
        "osm_kind": "road",
        "osm_id": 1393276578,
        "osm_type": "way",
        "osm_tags": {
          "highway": "service"
        },
        "case_id": "spb_parnas_+0_+0_86e095d0_tie_in_stress"
      },
      "geometry": {
        "type": "LineString",
        "coordinates": [
          [
            30.3442649,
            60.0696303
          ],
          [
            30.3441371,
            60.0696534
          ]
        ]
      }
    },
    {
      "type": "Feature",
      "properties": {
        "id": "spb_parnas_+0_+0_86e095d0_tie_in_stress_osm_way_1495601173_26",
        "object_type": "restriction",
        "restriction_type": "oks",
        "name": "",
        "osm_kind": "building",
        "osm_id": 1495601173,
        "osm_type": "way",
        "osm_tags": {
          "building": "yes"
        },
        "case_id": "spb_parnas_+0_+0_86e095d0_tie_in_stress",
        "selected_as_heat_demand_proxy": true,
        "connection_point_id": "spb_parnas_+0_+0_86e095d0_tie_in_stress_cp_1"
      },
      "geometry": {
        "type": "Polygon",
        "coordinates": [
          [
            [
              30.3426892,
              60.0695402
            ],
            [
              30.3424989,
              60.0695792
            ],
            [
              30.3424623,
              60.0695352
            ],
            [
              30.3423599,
              60.0694123
            ],
            [
              30.3423258,
              60.0693713
            ],
            [
              30.3425097,
              60.0693332
            ],
            [
              30.3426892,
              60.0695402
            ]
          ]
        ]
      }
    },
    {
      "type": "Feature",
      "properties": {
        "id": "spb_parnas_+0_+0_86e095d0_tie_in_stress_osm_way_1495601174_27",
        "object_type": "restriction",
        "restriction_type": "oks",
        "name": "",
        "osm_kind": "building",
        "osm_id": 1495601174,
        "osm_type": "way",
        "osm_tags": {
          "building": "yes"
        },
        "case_id": "spb_parnas_+0_+0_86e095d0_tie_in_stress",
        "selected_as_heat_demand_proxy": true,
        "connection_point_id": "spb_parnas_+0_+0_86e095d0_tie_in_stress_cp_3"
      },
      "geometry": {
        "type": "Polygon",
        "coordinates": [
          [
            [
              30.3428211,
              60.0697033
            ],
            [
              30.342701,
              60.0697271
            ],
            [
              30.3426671,
              60.0697338
            ],
            [
              30.3425779,
              60.0696216
            ],
            [
              30.3427319,
              60.0695912
            ],
            [
              30.3428211,
              60.0697033
            ]
          ]
        ]
      }
    },
    {
      "type": "Feature",
      "properties": {
        "id": "spb_parnas_+0_+0_86e095d0_tie_in_stress_osm_way_1495601175_28",
        "object_type": "restriction",
        "restriction_type": "oks",
        "name": "",
        "osm_kind": "building",
        "osm_id": 1495601175,
        "osm_type": "way",
        "osm_tags": {
          "building": "yes"
        },
        "case_id": "spb_parnas_+0_+0_86e095d0_tie_in_stress",
        "selected_as_heat_demand_proxy": true,
        "connection_point_id": "spb_parnas_+0_+0_86e095d0_tie_in_stress_cp_4"
      },
      "geometry": {
        "type": "Polygon",
        "coordinates": [
          [
            [
              30.3428969,
              60.069798
            ],
            [
              30.3427764,
              60.069822
            ],
            [
              30.342701,
              60.0697271
            ],
            [
              30.3428211,
              60.0697033
            ],
            [
              30.3428969,
              60.069798
            ]
          ]
        ]
      }
    },
    {
      "type": "Feature",
      "properties": {
        "id": "spb_parnas_+0_+0_86e095d0_tie_in_stress_osm_way_1495601180_29",
        "object_type": "restriction",
        "restriction_type": "road",
        "name": "",
        "osm_kind": "road",
        "osm_id": 1495601180,
        "osm_type": "way",
        "osm_tags": {
          "highway": "service"
        },
        "case_id": "spb_parnas_+0_+0_86e095d0_tie_in_stress"
      },
      "geometry": {
        "type": "LineString",
        "coordinates": [
          [
            30.3411286,
            60.0703308
          ],
          [
            30.3411566,
            60.0703661
          ],
          [
            30.3416181,
            60.0709476
          ],
          [
            30.3422104,
            60.0708303
          ],
          [
            30.3428183,
            60.0707099
          ],
          [
            30.3433859,
            60.0705975
          ],
          [
            30.342914,
            60.0700048
          ],
          [
            30.342885,
            60.0699685
          ]
        ]
      }
    },
    {
      "type": "Feature",
      "properties": {
        "id": "spb_parnas_+0_+0_86e095d0_tie_in_stress_osm_way_1495601181_30",
        "object_type": "restriction",
        "restriction_type": "road",
        "name": "",
        "osm_kind": "road",
        "osm_id": 1495601181,
        "osm_type": "way",
        "osm_tags": {
          "highway": "service"
        },
        "case_id": "spb_parnas_+0_+0_86e095d0_tie_in_stress"
      },
      "geometry": {
        "type": "LineString",
        "coordinates": [
          [
            30.3411566,
            60.0703661
          ],
          [
            30.3420388,
            60.0701847
          ],
          [
            30.342914,
            60.0700048
          ]
        ]
      }
    },
    {
      "type": "Feature",
      "properties": {
        "id": "spb_parnas_+0_+0_86e095d0_tie_in_stress_osm_way_1495601183_31",
        "object_type": "restriction",
        "restriction_type": "road",
        "name": "",
        "osm_kind": "road",
        "osm_id": 1495601183,
        "osm_type": "way",
        "osm_tags": {
          "highway": "service"
        },
        "case_id": "spb_parnas_+0_+0_86e095d0_tie_in_stress"
      },
      "geometry": {
        "type": "LineString",
        "coordinates": [
          [
            30.342885,
            60.0699685
          ],
          [
            30.342871,
            60.0699515
          ],
          [
            30.3428449,
            60.06992
          ]
        ]
      }
    },
    {
      "type": "Feature",
      "properties": {
        "id": "spb_parnas_+0_+0_86e095d0_tie_in_stress_osm_way_1495601190_32",
        "object_type": "restriction",
        "restriction_type": "road",
        "name": "",
        "osm_kind": "road",
        "osm_id": 1495601190,
        "osm_type": "way",
        "osm_tags": {
          "highway": "footway"
        },
        "case_id": "spb_parnas_+0_+0_86e095d0_tie_in_stress"
      },
      "geometry": {
        "type": "LineString",
        "coordinates": [
          [
            30.3440475,
            60.0697115
          ],
          [
            30.3430528,
            60.0699145
          ],
          [
            30.342918,
            60.069942
          ],
          [
            30.342871,
            60.0699515
          ],
          [
            30.3419917,
            60.070131
          ],
          [
            30.3411109,
            60.0703107
          ],
          [
            30.3408892,
            60.0703559
          ]
        ]
      }
    },
    {
      "type": "Feature",
      "properties": {
        "id": "spb_parnas_+0_+0_86e095d0_tie_in_stress_osm_way_1495601191_33",
        "object_type": "restriction",
        "restriction_type": "road",
        "name": "",
        "osm_kind": "road",
        "osm_id": 1495601191,
        "osm_type": "way",
        "osm_tags": {
          "highway": "footway"
        },
        "case_id": "spb_parnas_+0_+0_86e095d0_tie_in_stress"
      },
      "geometry": {
        "type": "LineString",
        "coordinates": [
          [
            30.3432717,
            60.0705371
          ],
          [
            30.3428925,
            60.0700769
          ],
          [
            30.3428658,
            60.0700656
          ],
          [
            30.3428351,
            60.0700646
          ],
          [
            30.3425625,
            60.0701137
          ],
          [
            30.342503,
            60.0701433
          ],
          [
            30.3423062,
            60.0701812
          ],
          [
            30.3422222,
            60.0701812
          ],
          [
            30.3420649,
            60.0702145
          ],
          [
            30.3418943,
            60.0702507
          ],
          [
            30.3418184,
            60.0702834
          ],
          [
            30.3416421,
            60.0703172
          ],
          [
            30.3415684,
            60.0703141
          ],
          [
            30.3413101,
            60.0703663
          ],
          [
            30.3412691,
            60.0703878
          ],
          [
            30.3412691,
            60.0704215
          ],
          [
            30.3416237,
            60.0708745
          ],
          [
            30.3416647,
            60.070894
          ],
          [
            30.34172,
            60.070896
          ],
          [
            30.3420623,
            60.0708316
          ],
          [
            30.3420972,
            60.0708142
          ],
          [
            30.3421115,
            60.0707856
          ],
          [
            30.3420336,
            60.0706894
          ],
          [
            30.3420869,
            60.0706778
          ],
          [
            30.3421464,
            60.0706649
          ],
          [
            30.3422222,
            60.0707631
          ],
          [
            30.342253,
            60.0707764
          ],
          [
            30.3422981,
            60.0707784
          ],
          [
            30.3426793,
            60.0707017
          ],
          [
            30.3427039,
            60.0706823
          ],
          [
            30.3426998,
            60.0706557
          ],
          [
            30.3426363,
            60.0705841
          ],
          [
            30.3427075,
            60.0705704
          ],
          [
            30.3427695,
            60.0705585
          ],
          [
            30.3428351,
            60.0706322
          ],
          [
            30.3428761,
            60.0706455
          ],
          [
            30.3429396,
            60.0706465
          ],
          [
            30.3432389,
            60.0705882
          ],
          [
            30.3432676,
            60.0705657
          ],
          [
            30.3432717,
            60.0705371
          ]
        ]
      }
    },
    {
      "type": "Feature",
      "properties": {
        "id": "spb_parnas_+0_+0_86e095d0_tie_in_stress_osm_way_1495601194_34",
        "object_type": "restriction",
        "restriction_type": "oks",
        "name": "",
        "osm_kind": "building",
        "osm_id": 1495601194,
        "osm_type": "way",
        "osm_tags": {
          "building": "roof"
        },
        "case_id": "spb_parnas_+0_+0_86e095d0_tie_in_stress",
        "selected_as_heat_demand_proxy": true,
        "connection_point_id": "spb_parnas_+0_+0_86e095d0_tie_in_stress_cp_2"
      },
      "geometry": {
        "type": "Polygon",
        "coordinates": [
          [
            [
              30.3435837,
              60.069932
            ],
            [
              30.3432343,
              60.0700026
            ],
            [
              30.3431869,
              60.0699443
            ],
            [
              30.3435363,
              60.0698736
            ],
            [
              30.3435837,
              60.069932
            ]
          ]
        ]
      }
    },
    {
      "type": "Feature",
      "properties": {
        "id": "spb_parnas_+0_+0_86e095d0_tie_in_stress_osm_way_1495601195_35",
        "object_type": "restriction",
        "restriction_type": "road",
        "name": "",
        "osm_kind": "road",
        "osm_id": 1495601195,
        "osm_type": "way",
        "osm_tags": {
          "highway": "footway"
        },
        "case_id": "spb_parnas_+0_+0_86e095d0_tie_in_stress"
      },
      "geometry": {
        "type": "LineString",
        "coordinates": [
          [
            30.3429317,
            60.0699588
          ],
          [
            30.342918,
            60.069942
          ]
        ]
      }
    },
    {
      "type": "Feature",
      "properties": {
        "id": "spb_parnas_+0_+0_86e095d0_tie_in_stress_osm_way_1495601199_36",
        "object_type": "restriction",
        "restriction_type": "road",
        "name": "",
        "osm_kind": "road",
        "osm_id": 1495601199,
        "osm_type": "way",
        "osm_tags": {
          "highway": "footway"
        },
        "case_id": "spb_parnas_+0_+0_86e095d0_tie_in_stress"
      },
      "geometry": {
        "type": "LineString",
        "coordinates": [
          [
            30.3444594,
            60.0705034
          ],
          [
            30.3441725,
            60.0701538
          ],
          [
            30.3441752,
            60.0701035
          ],
          [
            30.3440393,
            60.0699461
          ],
          [
            30.3440066,
            60.0699326
          ],
          [
            30.3439658,
            60.0699366
          ],
          [
            30.3432777,
            60.0700778
          ],
          [
            30.343256,
            60.0700995
          ],
          [
            30.3432614,
            60.0701293
          ],
          [
            30.3433784,
            60.0702637
          ],
          [
            30.3435851,
            60.0703044
          ],
          [
            30.3441589,
            60.070976
          ],
          [
            30.3440393,
            60.0710018
          ],
          [
            30.3440121,
            60.071029
          ],
          [
            30.3440121,
            60.0710615
          ],
          [
            30.3441372,
            60.0712067
          ],
          [
            30.3441834,
            60.0712264
          ],
          [
            30.3442405,
            60.0712244
          ],
          [
            30.3448905,
            60.0710887
          ],
          [
            30.3449286,
            60.0710737
          ],
          [
            30.3449286,
            60.0710453
          ],
          [
            30.3448131,
            60.0709019
          ],
          [
            30.3447541,
            60.0708684
          ],
          [
            30.3444594,
            60.0705034
          ]
        ]
      }
    },
    {
      "type": "Feature",
      "properties": {
        "id": "spb_parnas_+0_+0_86e095d0_tie_in_stress_osm_way_1495601215_37",
        "object_type": "restriction",
        "restriction_type": "road",
        "name": "",
        "osm_kind": "road",
        "osm_id": 1495601215,
        "osm_type": "way",
        "osm_tags": {
          "highway": "service"
        },
        "case_id": "spb_parnas_+0_+0_86e095d0_tie_in_stress"
      },
      "geometry": {
        "type": "LineString",
        "coordinates": [
          [
            30.3429292,
            60.0695304
          ],
          [
            30.3426731,
            60.0692557
          ],
          [
            30.3425994,
            60.0691734
          ],
          [
            30.3425889,
            60.0691068
          ],
          [
            30.3425785,
            60.0690177
          ]
        ]
      }
    },
    {
      "type": "Feature",
      "properties": {
        "id": "spb_parnas_+0_+0_86e095d0_tie_in_stress_source",
        "object_type": "source",
        "case_id": "spb_parnas_+0_+0_86e095d0_tie_in_stress"
      },
      "geometry": {
        "type": "Point",
        "coordinates": [
          30.342659480000002,
          60.069
        ]
      }
    },
    {
      "type": "Feature",
      "properties": {
        "id": "spb_parnas_+0_+0_86e095d0_tie_in_stress_existing_network_a",
        "object_type": "heat_network",
        "diameter": 700,
        "flow_tph": 260.0,
        "upstream_object_id": "spb_parnas_+0_+0_86e095d0_tie_in_stress_source",
        "case_id": "spb_parnas_+0_+0_86e095d0_tie_in_stress"
      },
      "geometry": {
        "type": "LineString",
        "coordinates": [
          [
            30.342659480000002,
            60.069
          ],
          [
            30.343559680000002,
            60.06855083333333
          ]
        ]
      }
    },
    {
      "type": "Feature",
      "properties": {
        "id": "spb_parnas_+0_+0_86e095d0_tie_in_stress_existing_network_b",
        "object_type": "heat_network",
        "diameter": 600,
        "flow_tph": 220.0,
        "upstream_object_id": "spb_parnas_+0_+0_86e095d0_tie_in_stress_source",
        "case_id": "spb_parnas_+0_+0_86e095d0_tie_in_stress"
      },
      "geometry": {
        "type": "LineString",
        "coordinates": [
          [
            30.343559680000002,
            60.06855083333333
          ],
          [
            30.343919760000002,
            60.069
          ]
        ]
      }
    },
    {
      "type": "Feature",
      "properties": {
        "id": "spb_parnas_+0_+0_86e095d0_tie_in_stress_existing_network_c",
        "object_type": "heat_network",
        "diameter": 500,
        "flow_tph": 180.0,
        "upstream_object_id": "spb_parnas_+0_+0_86e095d0_tie_in_stress_source",
        "case_id": "spb_parnas_+0_+0_86e095d0_tie_in_stress"
      },
      "geometry": {
        "type": "LineString",
        "coordinates": [
          [
            30.343559680000002,
            60.06855083333333
          ],
          [
            30.343739720000002,
            60.069449166666665
          ]
        ]
      }
    },
    {
      "type": "Feature",
      "properties": {
        "id": "spb_parnas_+0_+0_86e095d0_tie_in_stress_existing_chamber_low",
        "object_type": "heat_chamber",
        "diameter": 700,
        "upstream_object_id": "spb_parnas_+0_+0_86e095d0_tie_in_stress_source",
        "case_id": "spb_parnas_+0_+0_86e095d0_tie_in_stress"
      },
      "geometry": {
        "type": "Point",
        "coordinates": [
          30.343559680000002,
          60.06855083333333
        ]
      }
    },
    {
      "type": "Feature",
      "properties": {
        "id": "spb_parnas_+0_+0_86e095d0_tie_in_stress_existing_chamber_mid",
        "object_type": "heat_chamber",
        "diameter": 600,
        "upstream_object_id": "spb_parnas_+0_+0_86e095d0_tie_in_stress_source",
        "case_id": "spb_parnas_+0_+0_86e095d0_tie_in_stress"
      },
      "geometry": {
        "type": "Point",
        "coordinates": [
          30.343919760000002,
          60.069
        ]
      }
    },
    {
      "type": "Feature",
      "properties": {
        "id": "spb_parnas_+0_+0_86e095d0_tie_in_stress_existing_chamber_high",
        "object_type": "heat_chamber",
        "diameter": 500,
        "upstream_object_id": "spb_parnas_+0_+0_86e095d0_tie_in_stress_source",
        "case_id": "spb_parnas_+0_+0_86e095d0_tie_in_stress"
      },
      "geometry": {
        "type": "Point",
        "coordinates": [
          30.343739720000002,
          60.069449166666665
        ]
      }
    },
    {
      "type": "Feature",
      "properties": {
        "id": "spb_parnas_+0_+0_86e095d0_tie_in_stress_cp_1",
        "object_type": "oks_connection_point",
        "flow_tph": 5.0,
        "case_id": "spb_parnas_+0_+0_86e095d0_tie_in_stress",
        "consumer_role": "osm_building_heat_demand_proxy",
        "source_building_osm_id": 1495601173,
        "source_building_osm_type": "way",
        "source_building_name": "",
        "source_building_tags": {
          "building": "yes"
        },
        "footprint_area_m2": 282.02,
        "flow_basis": "synthetic_proxy_from_osm_footprint_area",
        "stress_bucket": "tie_in_stress"
      },
      "geometry": {
        "type": "Point",
        "coordinates": [
          30.342502300977202,
          60.06944841022829
        ]
      }
    },
    {
      "type": "Feature",
      "properties": {
        "id": "spb_parnas_+0_+0_86e095d0_tie_in_stress_cp_2",
        "object_type": "oks_connection_point",
        "flow_tph": 5.0,
        "case_id": "spb_parnas_+0_+0_86e095d0_tie_in_stress",
        "consumer_role": "osm_building_heat_demand_proxy",
        "source_building_osm_id": 1495601194,
        "source_building_osm_type": "way",
        "source_building_name": "",
        "source_building_tags": {
          "building": "roof"
        },
        "footprint_area_m2": 146.77,
        "flow_basis": "synthetic_proxy_from_osm_footprint_area",
        "stress_bucket": "tie_in_stress"
      },
      "geometry": {
        "type": "Point",
        "coordinates": [
          30.3433853,
          60.0699381
        ]
      }
    },
    {
      "type": "Feature",
      "properties": {
        "id": "spb_parnas_+0_+0_86e095d0_tie_in_stress_cp_3",
        "object_type": "oks_connection_point",
        "flow_tph": 5.0,
        "case_id": "spb_parnas_+0_+0_86e095d0_tie_in_stress",
        "consumer_role": "osm_building_heat_demand_proxy",
        "source_building_osm_id": 1495601174,
        "source_building_osm_type": "way",
        "source_building_name": "",
        "source_building_tags": {
          "building": "yes"
        },
        "footprint_area_m2": 123.59,
        "flow_basis": "synthetic_proxy_from_osm_footprint_area",
        "stress_bucket": "tie_in_stress"
      },
      "geometry": {
        "type": "Point",
        "coordinates": [
          30.342681488368846,
          60.069626836260255
        ]
      }
    },
    {
      "type": "Feature",
      "properties": {
        "id": "spb_parnas_+0_+0_86e095d0_tie_in_stress_cp_4",
        "object_type": "oks_connection_point",
        "flow_tph": 5.0,
        "case_id": "spb_parnas_+0_+0_86e095d0_tie_in_stress",
        "consumer_role": "osm_building_heat_demand_proxy",
        "source_building_osm_id": 1495601175,
        "source_building_osm_type": "way",
        "source_building_name": "",
        "source_building_tags": {
          "building": "yes"
        },
        "footprint_area_m2": 81.69,
        "flow_basis": "synthetic_proxy_from_osm_footprint_area",
        "stress_bucket": "tie_in_stress"
      },
      "geometry": {
        "type": "Point",
        "coordinates": [
          30.342798950000002,
          60.06976265
        ]
      }
    },
    {
      "type": "Feature",
      "properties": {
        "id": "spb_parnas_+0_+0_86e095d0_tie_in_stress_cp_5",
        "object_type": "oks_connection_point",
        "flow_tph": 38.124,
        "case_id": "spb_parnas_+0_+0_86e095d0_tie_in_stress",
        "consumer_role": "osm_building_heat_demand_proxy",
        "source_building_osm_id": 1215207023,
        "source_building_osm_type": "way",
        "source_building_name": "Поликлиника №117",
        "source_building_tags": {
          "building": "yes",
          "name": "Поликлиника №117"
        },
        "footprint_area_m2": 3431.2,
        "flow_basis": "synthetic_proxy_from_osm_footprint_area",
        "stress_bucket": "tie_in_stress"
      },
      "geometry": {
        "type": "Point",
        "coordinates": [
          30.344144973729815,
          60.07058374405274
        ]
      }
    },
    {
      "type": "Feature",
      "properties": {
        "id": "spb_parnas_+0_+0_86e095d0_tie_in_stress_cp_6",
        "object_type": "oks_connection_point",
        "flow_tph": 5.349,
        "case_id": "spb_parnas_+0_+0_86e095d0_tie_in_stress",
        "consumer_role": "osm_building_heat_demand_proxy",
        "source_building_osm_id": 317090568,
        "source_building_osm_type": "way",
        "source_building_name": "",
        "source_building_tags": {
          "building": "hangar"
        },
        "footprint_area_m2": 481.42,
        "flow_basis": "synthetic_proxy_from_osm_footprint_area",
        "stress_bucket": "tie_in_stress"
      },
      "geometry": {
        "type": "Point",
        "coordinates": [
          30.34218682375373,
          60.069809837937726
        ]
      }
    },
    {
      "type": "Feature",
      "properties": {
        "id": "spb_parnas_+0_+0_86e095d0_tie_in_stress_cp_7",
        "object_type": "oks_connection_point",
        "flow_tph": 6.746,
        "case_id": "spb_parnas_+0_+0_86e095d0_tie_in_stress",
        "consumer_role": "osm_building_heat_demand_proxy",
        "source_building_osm_id": 317090552,
        "source_building_osm_type": "way",
        "source_building_name": "",
        "source_building_tags": {
          "building": "hangar"
        },
        "footprint_area_m2": 607.17,
        "flow_basis": "synthetic_proxy_from_osm_footprint_area",
        "stress_bucket": "tie_in_stress"
      },
      "geometry": {
        "type": "Point",
        "coordinates": [
          30.3420686,
          60.069542850000005
        ]
      }
    },
    {
      "type": "Feature",
      "properties": {
        "id": "spb_parnas_+0_+0_86e095d0_tie_in_stress_cp_8",
        "object_type": "oks_connection_point",
        "flow_tph": 38.885,
        "case_id": "spb_parnas_+0_+0_86e095d0_tie_in_stress",
        "consumer_role": "osm_building_heat_demand_proxy",
        "source_building_osm_id": 1215207010,
        "source_building_osm_type": "way",
        "source_building_name": "Детская поликлиника №71",
        "source_building_tags": {
          "building": "policlinic",
          "name": "Детская поликлиника №71"
        },
        "footprint_area_m2": 3499.68,
        "flow_basis": "synthetic_proxy_from_osm_footprint_area",
        "stress_bucket": "tie_in_stress"
      },
      "geometry": {
        "type": "Point",
        "coordinates": [
          30.342241650476705,
          60.0704369503653
        ]
      }
    }
  ]
}