{
  "type": "FeatureCollection",
  "name": "kazan_center_+1_+3_b9eed37d_tie_in_stress",
  "crs": {
    "type": "name",
    "properties": {
      "name": "EPSG:4326"
    }
  },
  "metadata": {
    "dataset_version": "osm_building_anchored_routing_scenes_v3",
    "parent_scene_id": "kazan_center_+1_+3_b9eed37d",
    "split": "validation",
    "city": "Казань",
    "seed": "kazan_center",
    "research_bucket": "tie_in_stress",
    "source_research_bucket": "fifty_fifty",
    "research_bucket_is_ground_truth": false,
    "bbox_south_west_north_east": [
      55.8023882,
      49.144752,
      55.8050831,
      49.149547
    ],
    "real_data_source": "OpenStreetMap via Overpass API",
    "source_file": "data/real_geojson_places/fifty_fifty/085_kazan_center_+1_+3_b9eed37d.geojson",
    "real_layers": [
      "restrictions",
      "consumer_building_footprints"
    ],
    "synthetic_layers": [
      "source",
      "heat_network",
      "heat_chamber",
      "heat_demand"
    ],
    "consumer_selection": "deterministic points inside real OSM building footprints",
    "flow_model": "synthetic proxy derived from building footprint area; not metered demand",
    "note": "OSM buildings anchor consumers; heat demand and seed network are synthetic proxies."
  },
  "features": [
    {
      "type": "Feature",
      "properties": {
        "id": "kazan_center_+1_+3_b9eed37d_tie_in_stress_osm_way_58971381_1",
        "object_type": "restriction",
        "restriction_type": "road",
        "name": "Подлужная улица",
        "osm_kind": "road",
        "osm_id": 58971381,
        "osm_type": "way",
        "osm_tags": {
          "highway": "tertiary",
          "name": "Подлужная улица"
        },
        "case_id": "kazan_center_+1_+3_b9eed37d_tie_in_stress"
      },
      "geometry": {
        "type": "LineString",
        "coordinates": [
          [
            49.140054,
            55.8009989
          ],
          [
            49.1401677,
            55.801011
          ],
          [
            49.1402764,
            55.8010333
          ],
          [
            49.140775,
            55.801212
          ],
          [
            49.1413925,
            55.8014032
          ],
          [
            49.1416448,
            55.8014823
          ],
          [
            49.1420635,
            55.8016135
          ],
          [
            49.1422962,
            55.8016902
          ],
          [
            49.1427649,
            55.8018446
          ],
          [
            49.1429932,
            55.8019199
          ],
          [
            49.1441088,
            55.8022875
          ],
          [
            49.1447025,
            55.802477
          ],
          [
            49.144897,
            55.8025366
          ],
          [
            49.1455053,
            55.8027229
          ],
          [
            49.1456623,
            55.8027718
          ],
          [
            49.1457565,
            55.8028022
          ],
          [
            49.1466252,
            55.8030829
          ],
          [
            49.1471548,
            55.803254
          ],
          [
            49.1480146,
            55.8035319
          ],
          [
            49.1482852,
            55.8036193
          ],
          [
            49.1485603,
            55.8037071
          ],
          [
            49.1488515,
            55.8038
          ],
          [
            49.1491548,
            55.8038978
          ],
          [
            49.14924,
            55.8039253
          ]
        ]
      }
    },
    {
      "type": "Feature",
      "properties": {
        "id": "kazan_center_+1_+3_b9eed37d_tie_in_stress_osm_way_80229117_2",
        "object_type": "restriction",
        "restriction_type": "road",
        "name": "мост Миллениум",
        "osm_kind": "major_road",
        "osm_id": 80229117,
        "osm_type": "way",
        "osm_tags": {
          "highway": "primary",
          "name": "мост Миллениум"
        },
        "case_id": "kazan_center_+1_+3_b9eed37d_tie_in_stress"
      },
      "geometry": {
        "type": "LineString",
        "coordinates": [
          [
            49.1410045,
            55.8071597
          ],
          [
            49.1433247,
            55.806524
          ],
          [
            49.1454322,
            55.8059765
          ],
          [
            49.1462853,
            55.8057413
          ],
          [
            49.1469715,
            55.805499
          ],
          [
            49.1475469,
            55.8052464
          ],
          [
            49.1480631,
            55.8049819
          ],
          [
            49.1484159,
            55.8047687
          ],
          [
            49.148786,
            55.8045041
          ],
          [
            49.1490611,
            55.8042848
          ],
          [
            49.1494141,
            55.8039503
          ],
          [
            49.1497187,
            55.8036165
          ],
          [
            49.149864,
            55.8034127
          ],
          [
            49.1502601,
            55.8028648
          ],
          [
            49.1505453,
            55.8024558
          ]
        ]
      }
    },
    {
      "type": "Feature",
      "properties": {
        "id": "kazan_center_+1_+3_b9eed37d_tie_in_stress_osm_way_91645154_3",
        "object_type": "restriction",
        "restriction_type": "oks",
        "name": "",
        "osm_kind": "building",
        "osm_id": 91645154,
        "osm_type": "way",
        "osm_tags": {
          "building": "yes"
        },
        "case_id": "kazan_center_+1_+3_b9eed37d_tie_in_stress"
      },
      "geometry": {
        "type": "Polygon",
        "coordinates": [
          [
            [
              49.1461089,
              55.8024395
            ],
            [
              49.146292,
              55.8024823
            ],
            [
              49.1463684,
              55.8023788
            ],
            [
              49.1461853,
              55.802336
            ],
            [
              49.1461089,
              55.8024395
            ]
          ]
        ]
      }
    },
    {
      "type": "Feature",
      "properties": {
        "id": "kazan_center_+1_+3_b9eed37d_tie_in_stress_osm_way_91645159_4",
        "object_type": "restriction",
        "restriction_type": "oks",
        "name": "",
        "osm_kind": "building",
        "osm_id": 91645159,
        "osm_type": "way",
        "osm_tags": {
          "building": "yes"
        },
        "case_id": "kazan_center_+1_+3_b9eed37d_tie_in_stress"
      },
      "geometry": {
        "type": "Polygon",
        "coordinates": [
          [
            [
              49.1469971,
              55.8033614
            ],
            [
              49.1469227,
              55.803336
            ],
            [
              49.1468351,
              55.8034173
            ],
            [
              49.1469095,
              55.8034426
            ],
            [
              49.1469971,
              55.8033614
            ]
          ]
        ]
      }
    },
    {
      "type": "Feature",
      "properties": {
        "id": "kazan_center_+1_+3_b9eed37d_tie_in_stress_osm_way_91645170_5",
        "object_type": "restriction",
        "restriction_type": "oks",
        "name": "",
        "osm_kind": "building",
        "osm_id": 91645170,
        "osm_type": "way",
        "osm_tags": {
          "building": "yes"
        },
        "case_id": "kazan_center_+1_+3_b9eed37d_tie_in_stress"
      },
      "geometry": {
        "type": "Polygon",
        "coordinates": [
          [
            [
              49.1470651,
              55.8035627
            ],
            [
              49.1471717,
              55.8034638
            ],
            [
              49.1470172,
              55.8034112
            ],
            [
              49.1469106,
              55.8035101
            ],
            [
              49.1470651,
              55.8035627
            ]
          ]
        ]
      }
    },
    {
      "type": "Feature",
      "properties": {
        "id": "kazan_center_+1_+3_b9eed37d_tie_in_stress_osm_way_91645179_6",
        "object_type": "restriction",
        "restriction_type": "oks",
        "name": "",
        "osm_kind": "building",
        "osm_id": 91645179,
        "osm_type": "way",
        "osm_tags": {
          "building": "service"
        },
        "case_id": "kazan_center_+1_+3_b9eed37d_tie_in_stress",
        "selected_as_heat_demand_proxy": true,
        "connection_point_id": "kazan_center_+1_+3_b9eed37d_tie_in_stress_cp_3"
      },
      "geometry": {
        "type": "Polygon",
        "coordinates": [
          [
            [
              49.1483679,
              55.8034753
            ],
            [
              49.1484416,
              55.803392
            ],
            [
              49.1483378,
              55.803363
            ],
            [
              49.1482641,
              55.8034463
            ],
            [
              49.1483679,
              55.8034753
            ]
          ]
        ]
      }
    },
    {
      "type": "Feature",
      "properties": {
        "id": "kazan_center_+1_+3_b9eed37d_tie_in_stress_osm_way_91645184_7",
        "object_type": "restriction",
        "restriction_type": "oks",
        "name": "",
        "osm_kind": "building",
        "osm_id": 91645184,
        "osm_type": "way",
        "osm_tags": {
          "building": "yes"
        },
        "case_id": "kazan_center_+1_+3_b9eed37d_tie_in_stress",
        "selected_as_heat_demand_proxy": true,
        "connection_point_id": "kazan_center_+1_+3_b9eed37d_tie_in_stress_cp_5"
      },
      "geometry": {
        "type": "Polygon",
        "coordinates": [
          [
            [
              49.1476611,
              55.8035708
            ],
            [
              49.1475505,
              55.8036543
            ],
            [
              49.1477293,
              55.8037134
            ],
            [
              49.1476576,
              55.8037756
            ],
            [
              49.148223,
              55.8039755
            ],
            [
              49.148403,
              55.8038123
            ],
            [
              49.1476611,
              55.8035708
            ]
          ]
        ]
      }
    },
    {
      "type": "Feature",
      "properties": {
        "id": "kazan_center_+1_+3_b9eed37d_tie_in_stress_osm_way_91645186_8",
        "object_type": "restriction",
        "restriction_type": "oks",
        "name": "",
        "osm_kind": "building",
        "osm_id": 91645186,
        "osm_type": "way",
        "osm_tags": {
          "building": "commercial"
        },
        "case_id": "kazan_center_+1_+3_b9eed37d_tie_in_stress",
        "selected_as_heat_demand_proxy": true,
        "connection_point_id": "kazan_center_+1_+3_b9eed37d_tie_in_stress_cp_2"
      },
      "geometry": {
        "type": "Polygon",
        "coordinates": [
          [
            [
              49.1484019,
              55.8030754
            ],
            [
              49.147659,
              55.8028379
            ],
            [
              49.1474671,
              55.8030276
            ],
            [
              49.14821,
              55.8032651
            ],
            [
              49.1484019,
              55.8030754
            ]
          ]
        ]
      }
    },
    {
      "type": "Feature",
      "properties": {
        "id": "kazan_center_+1_+3_b9eed37d_tie_in_stress_osm_way_91645202_9",
        "object_type": "restriction",
        "restriction_type": "road",
        "name": "",
        "osm_kind": "road",
        "osm_id": 91645202,
        "osm_type": "way",
        "osm_tags": {
          "highway": "tertiary"
        },
        "case_id": "kazan_center_+1_+3_b9eed37d_tie_in_stress"
      },
      "geometry": {
        "type": "LineString",
        "coordinates": [
          [
            49.14924,
            55.8039253
          ],
          [
            49.1494665,
            55.8040027
          ],
          [
            49.1494909,
            55.804011
          ],
          [
            49.1499446,
            55.8041538
          ]
        ]
      }
    },
    {
      "type": "Feature",
      "properties": {
        "id": "kazan_center_+1_+3_b9eed37d_tie_in_stress_osm_way_91645207_10",
        "object_type": "restriction",
        "restriction_type": "road",
        "name": "Поперечно-Подлужная улица",
        "osm_kind": "road",
        "osm_id": 91645207,
        "osm_type": "way",
        "osm_tags": {
          "highway": "residential",
          "name": "Поперечно-Подлужная улица"
        },
        "case_id": "kazan_center_+1_+3_b9eed37d_tie_in_stress"
      },
      "geometry": {
        "type": "LineString",
        "coordinates": [
          [
            49.1456623,
            55.8027718
          ],
          [
            49.1457327,
            55.8026935
          ],
          [
            49.1459669,
            55.802433
          ],
          [
            49.1461886,
            55.8021149
          ],
          [
            49.1464629,
            55.8017466
          ],
          [
            49.1467051,
            55.8014214
          ],
          [
            49.1467984,
            55.8013737
          ],
          [
            49.1468749,
            55.8013346
          ],
          [
            49.1474531,
            55.8013933
          ],
          [
            49.1477671,
            55.8014188
          ],
          [
            49.1481525,
            55.8014901
          ],
          [
            49.1484906,
            55.80158
          ],
          [
            49.1487941,
            55.8016313
          ],
          [
            49.1489573,
            55.8016812
          ],
          [
            49.1490702,
            55.8017708
          ],
          [
            49.1490592,
            55.8018698
          ]
        ]
      }
    },
    {
      "type": "Feature",
      "properties": {
        "id": "kazan_center_+1_+3_b9eed37d_tie_in_stress_osm_way_91645208_11",
        "object_type": "restriction",
        "restriction_type": "oks",
        "name": "",
        "osm_kind": "building",
        "osm_id": 91645208,
        "osm_type": "way",
        "osm_tags": {
          "building": "yes"
        },
        "case_id": "kazan_center_+1_+3_b9eed37d_tie_in_stress"
      },
      "geometry": {
        "type": "Polygon",
        "coordinates": [
          [
            [
              49.1473816,
              55.8023242
            ],
            [
              49.147584,
              55.8023717
            ],
            [
              49.1475532,
              55.8024131
            ],
            [
              49.1476898,
              55.8024452
            ],
            [
              49.1476076,
              55.8025557
            ],
            [
              49.1474687,
              55.8025231
            ],
            [
              49.1474554,
              55.802541
            ],
            [
              49.147244,
              55.8024914
            ],
            [
              49.1472779,
              55.8024458
            ],
            [
              49.1472115,
              55.8024302
            ],
            [
              49.1472592,
              55.8023662
            ],
            [
              49.1473368,
              55.8023844
            ],
            [
              49.1473816,
              55.8023242
            ]
          ]
        ]
      }
    },
    {
      "type": "Feature",
      "properties": {
        "id": "kazan_center_+1_+3_b9eed37d_tie_in_stress_osm_way_91645209_12",
        "object_type": "restriction",
        "restriction_type": "oks",
        "name": "",
        "osm_kind": "building",
        "osm_id": 91645209,
        "osm_type": "way",
        "osm_tags": {
          "building": "yes"
        },
        "case_id": "kazan_center_+1_+3_b9eed37d_tie_in_stress",
        "selected_as_heat_demand_proxy": true,
        "connection_point_id": "kazan_center_+1_+3_b9eed37d_tie_in_stress_cp_7"
      },
      "geometry": {
        "type": "Polygon",
        "coordinates": [
          [
            [
              49.1474949,
              55.8036409
            ],
            [
              49.1476021,
              55.8035415
            ],
            [
              49.1474793,
              55.8034997
            ],
            [
              49.1473722,
              55.8035991
            ],
            [
              49.1474949,
              55.8036409
            ]
          ]
        ]
      }
    },
    {
      "type": "Feature",
      "properties": {
        "id": "kazan_center_+1_+3_b9eed37d_tie_in_stress_osm_way_91645215_13",
        "object_type": "restriction",
        "restriction_type": "oks",
        "name": "",
        "osm_kind": "building",
        "osm_id": 91645215,
        "osm_type": "way",
        "osm_tags": {
          "building": "yes"
        },
        "case_id": "kazan_center_+1_+3_b9eed37d_tie_in_stress"
      },
      "geometry": {
        "type": "Polygon",
        "coordinates": [
          [
            [
              49.1467201,
              55.8035023
            ],
            [
              49.146512,
              55.8034314
            ],
            [
              49.1464346,
              55.8035032
            ],
            [
              49.1466427,
              55.8035741
            ],
            [
              49.1467201,
              55.8035023
            ]
          ]
        ]
      }
    },
    {
      "type": "Feature",
      "properties": {
        "id": "kazan_center_+1_+3_b9eed37d_tie_in_stress_osm_way_91645216_14",
        "object_type": "restriction",
        "restriction_type": "oks",
        "name": "",
        "osm_kind": "building",
        "osm_id": 91645216,
        "osm_type": "way",
        "osm_tags": {
          "building": "yes"
        },
        "case_id": "kazan_center_+1_+3_b9eed37d_tie_in_stress",
        "selected_as_heat_demand_proxy": true,
        "connection_point_id": "kazan_center_+1_+3_b9eed37d_tie_in_stress_cp_6"
      },
      "geometry": {
        "type": "Polygon",
        "coordinates": [
          [
            [
              49.1491851,
              55.803716
            ],
            [
              49.149033,
              55.8036669
            ],
            [
              49.1489823,
              55.8037166
            ],
            [
              49.1491344,
              55.8037657
            ],
            [
              49.1491851,
              55.803716
            ]
          ]
        ]
      }
    },
    {
      "type": "Feature",
      "properties": {
        "id": "kazan_center_+1_+3_b9eed37d_tie_in_stress_osm_way_91645230_15",
        "object_type": "restriction",
        "restriction_type": "oks",
        "name": "",
        "osm_kind": "building",
        "osm_id": 91645230,
        "osm_type": "way",
        "osm_tags": {
          "building": "yes"
        },
        "case_id": "kazan_center_+1_+3_b9eed37d_tie_in_stress"
      },
      "geometry": {
        "type": "Polygon",
        "coordinates": [
          [
            [
              49.1467273,
              55.8034058
            ],
            [
              49.1468184,
              55.8033214
            ],
            [
              49.1466778,
              55.8032734
            ],
            [
              49.1465867,
              55.8033579
            ],
            [
              49.1467273,
              55.8034058
            ]
          ]
        ]
      }
    },
    {
      "type": "Feature",
      "properties": {
        "id": "kazan_center_+1_+3_b9eed37d_tie_in_stress_osm_way_91645231_16",
        "object_type": "restriction",
        "restriction_type": "oks",
        "name": "",
        "osm_kind": "building",
        "osm_id": 91645231,
        "osm_type": "way",
        "osm_tags": {
          "building": "yes"
        },
        "case_id": "kazan_center_+1_+3_b9eed37d_tie_in_stress",
        "selected_as_heat_demand_proxy": true,
        "connection_point_id": "kazan_center_+1_+3_b9eed37d_tie_in_stress_cp_4"
      },
      "geometry": {
        "type": "Polygon",
        "coordinates": [
          [
            [
              49.1491641,
              55.8035179
            ],
            [
              49.1490328,
              55.8034766
            ],
            [
              49.1489398,
              55.80357
            ],
            [
              49.1490712,
              55.8036113
            ],
            [
              49.1491641,
              55.8035179
            ]
          ]
        ]
      }
    },
    {
      "type": "Feature",
      "properties": {
        "id": "kazan_center_+1_+3_b9eed37d_tie_in_stress_osm_way_91645243_17",
        "object_type": "restriction",
        "restriction_type": "oks",
        "name": "",
        "osm_kind": "building",
        "osm_id": 91645243,
        "osm_type": "way",
        "osm_tags": {
          "building": "yes"
        },
        "case_id": "kazan_center_+1_+3_b9eed37d_tie_in_stress"
      },
      "geometry": {
        "type": "Polygon",
        "coordinates": [
          [
            [
              49.1464308,
              55.8025233
            ],
            [
              49.1465406,
              55.8025502
            ],
            [
              49.146582,
              55.8024969
            ],
            [
              49.1464721,
              55.80247
            ],
            [
              49.1464308,
              55.8025233
            ]
          ]
        ]
      }
    },
    {
      "type": "Feature",
      "properties": {
        "id": "kazan_center_+1_+3_b9eed37d_tie_in_stress_osm_way_119815394_18",
        "object_type": "restriction",
        "restriction_type": "road",
        "name": "",
        "osm_kind": "road",
        "osm_id": 119815394,
        "osm_type": "way",
        "osm_tags": {
          "highway": "service"
        },
        "case_id": "kazan_center_+1_+3_b9eed37d_tie_in_stress"
      },
      "geometry": {
        "type": "LineString",
        "coordinates": [
          [
            49.1433862,
            55.8026964
          ],
          [
            49.1442657,
            55.8029374
          ],
          [
            49.1447216,
            55.8030501
          ],
          [
            49.1452307,
            55.8031803
          ]
        ]
      }
    },
    {
      "type": "Feature",
      "properties": {
        "id": "kazan_center_+1_+3_b9eed37d_tie_in_stress_osm_way_137124583_19",
        "object_type": "restriction",
        "restriction_type": "road",
        "name": "мост Миллениум",
        "osm_kind": "major_road",
        "osm_id": 137124583,
        "osm_type": "way",
        "osm_tags": {
          "highway": "primary",
          "name": "мост Миллениум"
        },
        "case_id": "kazan_center_+1_+3_b9eed37d_tie_in_stress"
      },
      "geometry": {
        "type": "LineString",
        "coordinates": [
          [
            49.1508293,
            55.8025218
          ],
          [
            49.1504277,
            55.8031126
          ],
          [
            49.1500437,
            55.8036435
          ],
          [
            49.149776,
            55.8039555
          ],
          [
            49.1495144,
            55.8042014
          ],
          [
            49.1493017,
            55.8044021
          ],
          [
            49.149089,
            55.8045787
          ],
          [
            49.1486339,
            55.8048912
          ],
          [
            49.1483086,
            55.8050951
          ],
          [
            49.1479439,
            55.8052908
          ],
          [
            49.1475282,
            55.8054883
          ],
          [
            49.1470632,
            55.8056776
          ],
          [
            49.1466479,
            55.8058273
          ],
          [
            49.1461055,
            55.8059978
          ],
          [
            49.1455406,
            55.8061529
          ],
          [
            49.1448853,
            55.8063249
          ],
          [
            49.1434782,
            55.8067049
          ],
          [
            49.1411372,
            55.8073237
          ]
        ]
      }
    },
    {
      "type": "Feature",
      "properties": {
        "id": "kazan_center_+1_+3_b9eed37d_tie_in_stress_osm_way_222366786_20",
        "object_type": "restriction",
        "restriction_type": "road",
        "name": "",
        "osm_kind": "road",
        "osm_id": 222366786,
        "osm_type": "way",
        "osm_tags": {
          "highway": "footway"
        },
        "case_id": "kazan_center_+1_+3_b9eed37d_tie_in_stress"
      },
      "geometry": {
        "type": "LineString",
        "coordinates": [
          [
            49.14119,
            55.8073888
          ],
          [
            49.1435272,
            55.8067629
          ],
          [
            49.1449585,
            55.8063818
          ],
          [
            49.1455981,
            55.8062151
          ],
          [
            49.1461509,
            55.8060637
          ],
          [
            49.1467179,
            55.8058896
          ],
          [
            49.1471386,
            55.805737
          ],
          [
            49.1475881,
            55.8055492
          ],
          [
            49.1480281,
            55.805348
          ],
          [
            49.1484061,
            55.8051457
          ],
          [
            49.1486935,
            55.8049593
          ],
          [
            49.1491818,
            55.8046239
          ],
          [
            49.1493975,
            55.8044504
          ],
          [
            49.1496287,
            55.8042427
          ],
          [
            49.1498677,
            55.8040106
          ],
          [
            49.1501218,
            55.803719
          ],
          [
            49.1505485,
            55.8031232
          ],
          [
            49.1509496,
            55.8025497
          ]
        ]
      }
    },
    {
      "type": "Feature",
      "properties": {
        "id": "kazan_center_+1_+3_b9eed37d_tie_in_stress_osm_way_243897663_21",
        "object_type": "restriction",
        "restriction_type": "road",
        "name": "",
        "osm_kind": "road",
        "osm_id": 243897663,
        "osm_type": "way",
        "osm_tags": {
          "highway": "tertiary"
        },
        "case_id": "kazan_center_+1_+3_b9eed37d_tie_in_stress"
      },
      "geometry": {
        "type": "LineString",
        "coordinates": [
          [
            49.14924,
            55.8039253
          ],
          [
            49.1495354,
            55.8035457
          ],
          [
            49.149831,
            55.8031048
          ],
          [
            49.1499828,
            55.8027889
          ],
          [
            49.1500678,
            55.8024312
          ],
          [
            49.1500737,
            55.8024063
          ],
          [
            49.1501341,
            55.8020625
          ],
          [
            49.1501566,
            55.8017032
          ],
          [
            49.1501818,
            55.801426
          ],
          [
            49.1502037,
            55.8013226
          ]
        ]
      }
    },
    {
      "type": "Feature",
      "properties": {
        "id": "kazan_center_+1_+3_b9eed37d_tie_in_stress_osm_way_273757241_22",
        "object_type": "restriction",
        "restriction_type": "road",
        "name": "",
        "osm_kind": "road",
        "osm_id": 273757241,
        "osm_type": "way",
        "osm_tags": {
          "highway": "footway"
        },
        "case_id": "kazan_center_+1_+3_b9eed37d_tie_in_stress"
      },
      "geometry": {
        "type": "LineString",
        "coordinates": [
          [
            49.1504455,
            55.8024327
          ],
          [
            49.1501215,
            55.802871
          ],
          [
            49.1497562,
            55.8033814
          ],
          [
            49.1495983,
            55.8035829
          ],
          [
            49.1493017,
            55.8039184
          ],
          [
            49.1489561,
            55.8042327
          ],
          [
            49.1486936,
            55.8044535
          ],
          [
            49.1483381,
            55.8047091
          ],
          [
            49.1479707,
            55.8049314
          ],
          [
            49.1474852,
            55.8051952
          ],
          [
            49.1469045,
            55.8054417
          ],
          [
            49.1462303,
            55.8056809
          ],
          [
            49.1453973,
            55.8059177
          ],
          [
            49.1432888,
            55.8064757
          ],
          [
            49.1409562,
            55.8071001
          ]
        ]
      }
    },
    {
      "type": "Feature",
      "properties": {
        "id": "kazan_center_+1_+3_b9eed37d_tie_in_stress_osm_way_411232256_23",
        "object_type": "restriction",
        "restriction_type": "oks",
        "name": "",
        "osm_kind": "building",
        "osm_id": 411232256,
        "osm_type": "way",
        "osm_tags": {
          "building": "detached"
        },
        "case_id": "kazan_center_+1_+3_b9eed37d_tie_in_stress"
      },
      "geometry": {
        "type": "Polygon",
        "coordinates": [
          [
            [
              49.1496751,
              55.802793
            ],
            [
              49.1497555,
              55.8027041
            ],
            [
              49.1496517,
              55.8026744
            ],
            [
              49.1496204,
              55.8027091
            ],
            [
              49.1495656,
              55.8026934
            ],
            [
              49.1495165,
              55.8027477
            ],
            [
              49.1496751,
              55.802793
            ]
          ]
        ]
      }
    },
    {
      "type": "Feature",
      "properties": {
        "id": "kazan_center_+1_+3_b9eed37d_tie_in_stress_osm_way_411232258_24",
        "object_type": "restriction",
        "restriction_type": "road",
        "name": "",
        "osm_kind": "road",
        "osm_id": 411232258,
        "osm_type": "way",
        "osm_tags": {
          "highway": "service"
        },
        "case_id": "kazan_center_+1_+3_b9eed37d_tie_in_stress"
      },
      "geometry": {
        "type": "LineString",
        "coordinates": [
          [
            49.1490592,
            55.8018698
          ],
          [
            49.14879,
            55.8023167
          ],
          [
            49.1494069,
            55.8024749
          ],
          [
            49.1496965,
            55.8025986
          ]
        ]
      }
    },
    {
      "type": "Feature",
      "properties": {
        "id": "kazan_center_+1_+3_b9eed37d_tie_in_stress_osm_way_850489927_25",
        "object_type": "restriction",
        "restriction_type": "park",
        "name": "Экстрим-парк «Урам»",
        "osm_kind": "green",
        "osm_id": 850489927,
        "osm_type": "way",
        "osm_tags": {
          "leisure": "park",
          "name": "Экстрим-парк «Урам»"
        },
        "case_id": "kazan_center_+1_+3_b9eed37d_tie_in_stress"
      },
      "geometry": {
        "type": "Polygon",
        "coordinates": [
          [
            [
              49.1449589,
              55.8035495
            ],
            [
              49.1453781,
              55.8034946
            ],
            [
              49.1486317,
              55.8044489
            ],
            [
              49.1478154,
              55.8049617
            ],
            [
              49.1469984,
              55.8053701
            ],
            [
              49.1462746,
              55.8056227
            ],
            [
              49.1446366,
              55.8060587
            ],
            [
              49.1436636,
              55.8045987
            ],
            [
              49.1431082,
              55.8038372
            ],
            [
              49.1427676,
              55.8035371
            ],
            [
              49.1424027,
              55.8032628
            ],
            [
              49.142123,
              55.8030999
            ],
            [
              49.1416846,
              55.8028934
            ],
            [
              49.1417272,
              55.802802
            ],
            [
              49.1423675,
              55.8029716
            ],
            [
              49.1430065,
              55.8030973
            ],
            [
              49.1437865,
              55.803293
            ],
            [
              49.1444212,
              55.8034515
            ],
            [
              49.1449589,
              55.8035495
            ]
          ]
        ]
      }
    },
    {
      "type": "Feature",
      "properties": {
        "id": "kazan_center_+1_+3_b9eed37d_tie_in_stress_osm_way_973924084_26",
        "object_type": "restriction",
        "restriction_type": "oks",
        "name": "Крытый центр Урам",
        "osm_kind": "building",
        "osm_id": 973924084,
        "osm_type": "way",
        "osm_tags": {
          "building": "yes",
          "leisure": "sports_centre",
          "name": "Крытый центр Урам"
        },
        "case_id": "kazan_center_+1_+3_b9eed37d_tie_in_stress",
        "selected_as_heat_demand_proxy": true,
        "connection_point_id": "kazan_center_+1_+3_b9eed37d_tie_in_stress_cp_8"
      },
      "geometry": {
        "type": "Polygon",
        "coordinates": [
          [
            [
              49.145164,
              55.8041151
            ],
            [
              49.1455433,
              55.8037051
            ],
            [
              49.1470873,
              55.8041563
            ],
            [
              49.1467081,
              55.8045663
            ],
            [
              49.145164,
              55.8041151
            ]
          ]
        ]
      }
    },
    {
      "type": "Feature",
      "properties": {
        "id": "kazan_center_+1_+3_b9eed37d_tie_in_stress_osm_way_973924085_27",
        "object_type": "restriction",
        "restriction_type": "road",
        "name": "",
        "osm_kind": "road",
        "osm_id": 973924085,
        "osm_type": "way",
        "osm_tags": {
          "highway": "footway"
        },
        "case_id": "kazan_center_+1_+3_b9eed37d_tie_in_stress"
      },
      "geometry": {
        "type": "LineString",
        "coordinates": [
          [
            49.1451112,
            55.8035612
          ],
          [
            49.1451973,
            55.8035916
          ],
          [
            49.14715,
            55.8041533
          ],
          [
            49.1474596,
            55.8042423
          ],
          [
            49.1477115,
            55.8042562
          ],
          [
            49.147819,
            55.8042621
          ],
          [
            49.1479352,
            55.8042874
          ],
          [
            49.148356,
            55.8043788
          ],
          [
            49.1483852,
            55.8043852
          ],
          [
            49.1485837,
            55.8044559
          ]
        ]
      }
    },
    {
      "type": "Feature",
      "properties": {
        "id": "kazan_center_+1_+3_b9eed37d_tie_in_stress_osm_way_1057568966_28",
        "object_type": "restriction",
        "restriction_type": "road",
        "name": "",
        "osm_kind": "road",
        "osm_id": 1057568966,
        "osm_type": "way",
        "osm_tags": {
          "highway": "footway"
        },
        "case_id": "kazan_center_+1_+3_b9eed37d_tie_in_stress"
      },
      "geometry": {
        "type": "LineString",
        "coordinates": [
          [
            49.1440759,
            55.8051594
          ],
          [
            49.1452981,
            55.8049309
          ],
          [
            49.1466261,
            55.8046827
          ],
          [
            49.1466944,
            55.8046613
          ],
          [
            49.1468088,
            55.8046941
          ],
          [
            49.1471082,
            55.8047306
          ],
          [
            49.1471633,
            55.8047445
          ],
          [
            49.1473225,
            55.8047846
          ],
          [
            49.1476112,
            55.8048856
          ],
          [
            49.147764,
            55.8049657
          ]
        ]
      }
    },
    {
      "type": "Feature",
      "properties": {
        "id": "kazan_center_+1_+3_b9eed37d_tie_in_stress_osm_way_1057568969_29",
        "object_type": "restriction",
        "restriction_type": "road",
        "name": "",
        "osm_kind": "road",
        "osm_id": 1057568969,
        "osm_type": "way",
        "osm_tags": {
          "highway": "footway"
        },
        "case_id": "kazan_center_+1_+3_b9eed37d_tie_in_stress"
      },
      "geometry": {
        "type": "LineString",
        "coordinates": [
          [
            49.1444757,
            55.8041412
          ],
          [
            49.1445828,
            55.8042353
          ],
          [
            49.1446766,
            55.8043178
          ],
          [
            49.1448505,
            55.8044863
          ],
          [
            49.1451503,
            55.8047695
          ],
          [
            49.1452981,
            55.8049309
          ],
          [
            49.1454629,
            55.8051182
          ],
          [
            49.1459334,
            55.8056398
          ],
          [
            49.1459657,
            55.8056777
          ]
        ]
      }
    },
    {
      "type": "Feature",
      "properties": {
        "id": "kazan_center_+1_+3_b9eed37d_tie_in_stress_osm_way_1057568970_30",
        "object_type": "restriction",
        "restriction_type": "road",
        "name": "",
        "osm_kind": "road",
        "osm_id": 1057568970,
        "osm_type": "way",
        "osm_tags": {
          "highway": "footway"
        },
        "case_id": "kazan_center_+1_+3_b9eed37d_tie_in_stress"
      },
      "geometry": {
        "type": "LineString",
        "coordinates": [
          [
            49.1436609,
            55.8045428
          ],
          [
            49.1441641,
            55.8044211
          ],
          [
            49.1444911,
            55.8042918
          ],
          [
            49.1445828,
            55.8042353
          ],
          [
            49.1447505,
            55.8041321
          ],
          [
            49.1447904,
            55.8040845
          ],
          [
            49.1448648,
            55.803996
          ]
        ]
      }
    },
    {
      "type": "Feature",
      "properties": {
        "id": "kazan_center_+1_+3_b9eed37d_tie_in_stress_osm_way_1057568971_31",
        "object_type": "restriction",
        "restriction_type": "road",
        "name": "",
        "osm_kind": "road",
        "osm_id": 1057568971,
        "osm_type": "way",
        "osm_tags": {
          "highway": "footway"
        },
        "case_id": "kazan_center_+1_+3_b9eed37d_tie_in_stress"
      },
      "geometry": {
        "type": "LineString",
        "coordinates": [
          [
            49.1446946,
            55.8037356
          ],
          [
            49.1448921,
            55.8037981
          ],
          [
            49.1449368,
            55.8039058
          ]
        ]
      }
    },
    {
      "type": "Feature",
      "properties": {
        "id": "kazan_center_+1_+3_b9eed37d_tie_in_stress_osm_way_1057568974_32",
        "object_type": "restriction",
        "restriction_type": "oks",
        "name": "Экостанция",
        "osm_kind": "building",
        "osm_id": 1057568974,
        "osm_type": "way",
        "osm_tags": {
          "building": "yes",
          "name": "Экостанция"
        },
        "case_id": "kazan_center_+1_+3_b9eed37d_tie_in_stress"
      },
      "geometry": {
        "type": "Polygon",
        "coordinates": [
          [
            [
              49.1448107,
              55.8039585
            ],
            [
              49.1448004,
              55.8039756
            ],
            [
              49.1447808,
              55.8039898
            ],
            [
              49.1447539,
              55.8039996
            ],
            [
              49.1447228,
              55.8040038
            ],
            [
              49.1446909,
              55.8040022
            ],
            [
              49.1446618,
              55.8039947
            ],
            [
              49.1446386,
              55.8039823
            ],
            [
              49.1446242,
              55.8039667
            ],
            [
              49.1446195,
              55.8039494
            ],
            [
              49.1446248,
              55.803932
            ],
            [
              49.1446398,
              55.8039167
            ],
            [
              49.1446627,
              55.8039047
            ],
            [
              49.1446912,
              55.8038975
            ],
            [
              49.1447223,
              55.8038959
            ],
            [
              49.1447527,
              55.8038999
            ],
            [
              49.1447798,
              55.8039095
            ],
            [
              49.1447999,
              55.8039236
            ],
            [
              49.1448106,
              55.8039406
            ],
            [
              49.1448107,
              55.8039585
            ]
          ]
        ]
      }
    },
    {
      "type": "Feature",
      "properties": {
        "id": "kazan_center_+1_+3_b9eed37d_tie_in_stress_osm_way_1057568975_33",
        "object_type": "restriction",
        "restriction_type": "road",
        "name": "",
        "osm_kind": "road",
        "osm_id": 1057568975,
        "osm_type": "way",
        "osm_tags": {
          "highway": "footway"
        },
        "case_id": "kazan_center_+1_+3_b9eed37d_tie_in_stress"
      },
      "geometry": {
        "type": "LineString",
        "coordinates": [
          [
            49.1454555,
            55.8027736
          ],
          [
            49.1455053,
            55.8027229
          ],
          [
            49.1455813,
            55.8026456
          ]
        ]
      }
    },
    {
      "type": "Feature",
      "properties": {
        "id": "kazan_center_+1_+3_b9eed37d_tie_in_stress_osm_way_1057568976_34",
        "object_type": "restriction",
        "restriction_type": "oks",
        "name": "",
        "osm_kind": "building",
        "osm_id": 1057568976,
        "osm_type": "way",
        "osm_tags": {
          "building": "yes"
        },
        "case_id": "kazan_center_+1_+3_b9eed37d_tie_in_stress"
      },
      "geometry": {
        "type": "Polygon",
        "coordinates": [
          [
            [
              49.1459384,
              55.8026936
            ],
            [
              49.146621,
              55.8029141
            ],
            [
              49.1467353,
              55.802796
            ],
            [
              49.146149,
              55.8026169
            ],
            [
              49.1462433,
              55.8025218
            ],
            [
              49.1460087,
              55.8024484
            ],
            [
              49.1459226,
              55.8026133
            ],
            [
              49.145964,
              55.8026348
            ],
            [
              49.1459384,
              55.8026936
            ]
          ]
        ]
      }
    },
    {
      "type": "Feature",
      "properties": {
        "id": "kazan_center_+1_+3_b9eed37d_tie_in_stress_osm_way_1057568977_35",
        "object_type": "restriction",
        "restriction_type": "road",
        "name": "",
        "osm_kind": "road",
        "osm_id": 1057568977,
        "osm_type": "way",
        "osm_tags": {
          "highway": "footway"
        },
        "case_id": "kazan_center_+1_+3_b9eed37d_tie_in_stress"
      },
      "geometry": {
        "type": "LineString",
        "coordinates": [
          [
            49.1402112,
            55.8009169
          ],
          [
            49.1402532,
            55.8009289
          ],
          [
            49.1402857,
            55.8009394
          ],
          [
            49.14036,
            55.8009632
          ],
          [
            49.1414763,
            55.8013205
          ],
          [
            49.1417117,
            55.8013958
          ],
          [
            49.1421147,
            55.8015266
          ],
          [
            49.1423716,
            55.8016035
          ],
          [
            49.1430698,
            55.801841
          ],
          [
            49.1443203,
            55.8022441
          ],
          [
            49.1449787,
            55.8024537
          ],
          [
            49.1455813,
            55.8026456
          ],
          [
            49.1457327,
            55.8026935
          ],
          [
            49.1466763,
            55.803012
          ],
          [
            49.1472145,
            55.8031936
          ],
          [
            49.1480702,
            55.8034824
          ],
          [
            49.1488937,
            55.803755
          ]
        ]
      }
    },
    {
      "type": "Feature",
      "properties": {
        "id": "kazan_center_+1_+3_b9eed37d_tie_in_stress_osm_way_1057568978_36",
        "object_type": "restriction",
        "restriction_type": "road",
        "name": "",
        "osm_kind": "road",
        "osm_id": 1057568978,
        "osm_type": "way",
        "osm_tags": {
          "highway": "footway"
        },
        "case_id": "kazan_center_+1_+3_b9eed37d_tie_in_stress"
      },
      "geometry": {
        "type": "LineString",
        "coordinates": [
          [
            49.1457032,
            55.8028538
          ],
          [
            49.145334,
            55.8032071
          ],
          [
            49.1451642,
            55.8033902
          ],
          [
            49.1451112,
            55.8035612
          ],
          [
            49.1448921,
            55.8037981
          ]
        ]
      }
    },
    {
      "type": "Feature",
      "properties": {
        "id": "kazan_center_+1_+3_b9eed37d_tie_in_stress_osm_way_1057568979_37",
        "object_type": "restriction",
        "restriction_type": "road",
        "name": "",
        "osm_kind": "road",
        "osm_id": 1057568979,
        "osm_type": "way",
        "osm_tags": {
          "highway": "footway"
        },
        "case_id": "kazan_center_+1_+3_b9eed37d_tie_in_stress"
      },
      "geometry": {
        "type": "LineString",
        "coordinates": [
          [
            49.1449368,
            55.8039058
          ],
          [
            49.1448648,
            55.803996
          ]
        ]
      }
    },
    {
      "type": "Feature",
      "properties": {
        "id": "kazan_center_+1_+3_b9eed37d_tie_in_stress_osm_way_1057568980_38",
        "object_type": "restriction",
        "restriction_type": "road",
        "name": "",
        "osm_kind": "road",
        "osm_id": 1057568980,
        "osm_type": "way",
        "osm_tags": {
          "highway": "footway"
        },
        "case_id": "kazan_center_+1_+3_b9eed37d_tie_in_stress"
      },
      "geometry": {
        "type": "LineString",
        "coordinates": [
          [
            49.1447904,
            55.8040845
          ],
          [
            49.1466275,
            55.8046373
          ],
          [
            49.1466944,
            55.8046613
          ]
        ]
      }
    },
    {
      "type": "Feature",
      "properties": {
        "id": "kazan_center_+1_+3_b9eed37d_tie_in_stress_osm_way_1057568985_39",
        "object_type": "restriction",
        "restriction_type": "road",
        "name": "",
        "osm_kind": "road",
        "osm_id": 1057568985,
        "osm_type": "way",
        "osm_tags": {
          "highway": "footway"
        },
        "case_id": "kazan_center_+1_+3_b9eed37d_tie_in_stress"
      },
      "geometry": {
        "type": "LineString",
        "coordinates": [
          [
            49.1466944,
            55.8046613
          ],
          [
            49.14715,
            55.8041533
          ]
        ]
      }
    },
    {
      "type": "Feature",
      "properties": {
        "id": "kazan_center_+1_+3_b9eed37d_tie_in_stress_osm_way_1057568986_40",
        "object_type": "restriction",
        "restriction_type": "road",
        "name": "",
        "osm_kind": "road",
        "osm_id": 1057568986,
        "osm_type": "way",
        "osm_tags": {
          "highway": "footway"
        },
        "case_id": "kazan_center_+1_+3_b9eed37d_tie_in_stress"
      },
      "geometry": {
        "type": "LineString",
        "coordinates": [
          [
            49.1466944,
            55.8046613
          ],
          [
            49.1472519,
            55.8044424
          ],
          [
            49.1473839,
            55.8043906
          ],
          [
            49.1477115,
            55.8042562
          ]
        ]
      }
    },
    {
      "type": "Feature",
      "properties": {
        "id": "kazan_center_+1_+3_b9eed37d_tie_in_stress_osm_way_1057568987_41",
        "object_type": "restriction",
        "restriction_type": "road",
        "name": "",
        "osm_kind": "road",
        "osm_id": 1057568987,
        "osm_type": "way",
        "osm_tags": {
          "highway": "footway"
        },
        "case_id": "kazan_center_+1_+3_b9eed37d_tie_in_stress"
      },
      "geometry": {
        "type": "LineString",
        "coordinates": [
          [
            49.1471633,
            55.8047445
          ],
          [
            49.1474381,
            55.8047097
          ],
          [
            49.1478305,
            55.8046093
          ],
          [
            49.147974,
            55.8045663
          ],
          [
            49.1480486,
            55.8045603
          ],
          [
            49.1482419,
            55.8045448
          ],
          [
            49.1483472,
            55.8045573
          ],
          [
            49.1483983,
            55.804578
          ]
        ]
      }
    },
    {
      "type": "Feature",
      "properties": {
        "id": "kazan_center_+1_+3_b9eed37d_tie_in_stress_osm_way_1057568988_42",
        "object_type": "restriction",
        "restriction_type": "road",
        "name": "",
        "osm_kind": "road",
        "osm_id": 1057568988,
        "osm_type": "way",
        "osm_tags": {
          "highway": "footway"
        },
        "case_id": "kazan_center_+1_+3_b9eed37d_tie_in_stress"
      },
      "geometry": {
        "type": "LineString",
        "coordinates": [
          [
            49.1472519,
            55.8044424
          ],
          [
            49.1480486,
            55.8045603
          ]
        ]
      }
    },
    {
      "type": "Feature",
      "properties": {
        "id": "kazan_center_+1_+3_b9eed37d_tie_in_stress_osm_way_1057568989_43",
        "object_type": "restriction",
        "restriction_type": "road",
        "name": "",
        "osm_kind": "road",
        "osm_id": 1057568989,
        "osm_type": "way",
        "osm_tags": {
          "highway": "footway"
        },
        "case_id": "kazan_center_+1_+3_b9eed37d_tie_in_stress"
      },
      "geometry": {
        "type": "LineString",
        "coordinates": [
          [
            49.1479352,
            55.8042874
          ],
          [
            49.1480761,
            55.8043637
          ],
          [
            49.1482898,
            55.8044946
          ],
          [
            49.1483472,
            55.8045573
          ]
        ]
      }
    },
    {
      "type": "Feature",
      "properties": {
        "id": "kazan_center_+1_+3_b9eed37d_tie_in_stress_osm_way_1057569000_44",
        "object_type": "restriction",
        "restriction_type": "road",
        "name": "",
        "osm_kind": "road",
        "osm_id": 1057569000,
        "osm_type": "way",
        "osm_tags": {
          "highway": "footway"
        },
        "case_id": "kazan_center_+1_+3_b9eed37d_tie_in_stress"
      },
      "geometry": {
        "type": "LineString",
        "coordinates": [
          [
            49.1446607,
            55.8060165
          ],
          [
            49.1459657,
            55.8056777
          ],
          [
            49.1467134,
            55.8054371
          ],
          [
            49.1473789,
            55.8051434
          ],
          [
            49.147764,
            55.8049657
          ],
          [
            49.1483983,
            55.804578
          ],
          [
            49.1485837,
            55.8044559
          ],
          [
            49.1490619,
            55.8040773
          ],
          [
            49.1491627,
            55.8039895
          ]
        ]
      }
    },
    {
      "type": "Feature",
      "properties": {
        "id": "kazan_center_+1_+3_b9eed37d_tie_in_stress_osm_way_1057569001_45",
        "object_type": "restriction",
        "restriction_type": "road",
        "name": "",
        "osm_kind": "road",
        "osm_id": 1057569001,
        "osm_type": "way",
        "osm_tags": {
          "highway": "service"
        },
        "case_id": "kazan_center_+1_+3_b9eed37d_tie_in_stress"
      },
      "geometry": {
        "type": "LineString",
        "coordinates": [
          [
            49.1493949,
            55.8040922
          ],
          [
            49.149294,
            55.8042034
          ],
          [
            49.1489048,
            55.8045609
          ],
          [
            49.1482077,
            55.8050131
          ]
        ]
      }
    },
    {
      "type": "Feature",
      "properties": {
        "id": "kazan_center_+1_+3_b9eed37d_tie_in_stress_osm_way_1058638605_46",
        "object_type": "restriction",
        "restriction_type": "park",
        "name": "",
        "osm_kind": "green",
        "osm_id": 1058638605,
        "osm_type": "way",
        "osm_tags": {
          "landuse": "grass"
        },
        "case_id": "kazan_center_+1_+3_b9eed37d_tie_in_stress"
      },
      "geometry": {
        "type": "Polygon",
        "coordinates": [
          [
            [
              49.1468277,
              55.80464
            ],
            [
              49.1468209,
              55.8046654
            ],
            [
              49.1468683,
              55.8046857
            ],
            [
              49.1471683,
              55.8047174
            ],
            [
              49.1475765,
              55.8046578
            ],
            [
              49.1478517,
              55.8045893
            ],
            [
              49.1478674,
              55.8045576
            ],
            [
              49.1478066,
              55.8045386
            ],
            [
              49.1475021,
              55.8044943
            ],
            [
              49.1472765,
              55.8044689
            ],
            [
              49.1468277,
              55.80464
            ]
          ]
        ]
      }
    },
    {
      "type": "Feature",
      "properties": {
        "id": "kazan_center_+1_+3_b9eed37d_tie_in_stress_osm_way_1058638606_47",
        "object_type": "restriction",
        "restriction_type": "park",
        "name": "",
        "osm_kind": "green",
        "osm_id": 1058638606,
        "osm_type": "way",
        "osm_tags": {
          "landuse": "grass"
        },
        "case_id": "kazan_center_+1_+3_b9eed37d_tie_in_stress"
      },
      "geometry": {
        "type": "Polygon",
        "coordinates": [
          [
            [
              49.1465345,
              55.8047161
            ],
            [
              49.1471773,
              55.8052181
            ],
            [
              49.1477073,
              55.8049645
            ],
            [
              49.1476013,
              55.8049012
            ],
            [
              49.1472292,
              55.8047782
            ],
            [
              49.1470871,
              55.8047503
            ],
            [
              49.146945,
              55.8047262
            ],
            [
              49.1468006,
              55.8047161
            ],
            [
              49.146663,
              55.804692
            ],
            [
              49.1465345,
              55.8047161
            ]
          ]
        ]
      }
    },
    {
      "type": "Feature",
      "properties": {
        "id": "kazan_center_+1_+3_b9eed37d_tie_in_stress_osm_way_1058638607_48",
        "object_type": "restriction",
        "restriction_type": "park",
        "name": "",
        "osm_kind": "green",
        "osm_id": 1058638607,
        "osm_type": "way",
        "osm_tags": {
          "landuse": "grass"
        },
        "case_id": "kazan_center_+1_+3_b9eed37d_tie_in_stress"
      },
      "geometry": {
        "type": "Polygon",
        "coordinates": [
          [
            [
              49.1473171,
              55.8047617
            ],
            [
              49.1475517,
              55.8048353
            ],
            [
              49.1477479,
              55.8049341
            ],
            [
              49.1483208,
              55.8045881
            ],
            [
              49.1482802,
              55.8045665
            ],
            [
              49.1482351,
              55.8045627
            ],
            [
              49.1480953,
              55.8045703
            ],
            [
              49.1478291,
              55.8046248
            ],
            [
              49.1475739,
              55.8046931
            ],
            [
              49.1473794,
              55.8047285
            ],
            [
              49.1473083,
              55.8047375
            ],
            [
              49.1473171,
              55.8047617
            ]
          ]
        ]
      }
    },
    {
      "type": "Feature",
      "properties": {
        "id": "kazan_center_+1_+3_b9eed37d_tie_in_stress_osm_way_1058638608_49",
        "object_type": "restriction",
        "restriction_type": "park",
        "name": "",
        "osm_kind": "green",
        "osm_id": 1058638608,
        "osm_type": "way",
        "osm_tags": {
          "landuse": "grass"
        },
        "case_id": "kazan_center_+1_+3_b9eed37d_tie_in_stress"
      },
      "geometry": {
        "type": "Polygon",
        "coordinates": [
          [
            [
              49.1474148,
              55.8044221
            ],
            [
              49.1475445,
              55.8043733
            ],
            [
              49.1476855,
              55.804294
            ],
            [
              49.1477283,
              55.8042858
            ],
            [
              49.1478749,
              55.80432
            ],
            [
              49.1481038,
              55.8044151
            ],
            [
              49.1482245,
              55.8044854
            ],
            [
              49.1482809,
              55.804514
            ],
            [
              49.1482629,
              55.8045285
            ],
            [
              49.1482042,
              55.80454
            ],
            [
              49.1480508,
              55.8045387
            ],
            [
              49.147752,
              55.8045045
            ],
            [
              49.1474452,
              55.8044595
            ],
            [
              49.1473945,
              55.8044423
            ],
            [
              49.1474148,
              55.8044221
            ]
          ]
        ]
      }
    },
    {
      "type": "Feature",
      "properties": {
        "id": "kazan_center_+1_+3_b9eed37d_tie_in_stress_osm_way_1058638609_50",
        "object_type": "restriction",
        "restriction_type": "park",
        "name": "",
        "osm_kind": "green",
        "osm_id": 1058638609,
        "osm_type": "way",
        "osm_tags": {
          "landuse": "grass"
        },
        "case_id": "kazan_center_+1_+3_b9eed37d_tie_in_stress"
      },
      "geometry": {
        "type": "Polygon",
        "coordinates": [
          [
            [
              49.1481003,
              55.8043479
            ],
            [
              49.1483281,
              55.8043992
            ],
            [
              49.1485074,
              55.8044562
            ],
            [
              49.1484003,
              55.8045348
            ],
            [
              49.1482638,
              55.8044607
            ],
            [
              49.1480936,
              55.8043631
            ],
            [
              49.1481003,
              55.8043479
            ]
          ]
        ]
      }
    },
    {
      "type": "Feature",
      "properties": {
        "id": "kazan_center_+1_+3_b9eed37d_tie_in_stress_osm_way_1180625801_51",
        "object_type": "restriction",
        "restriction_type": "road",
        "name": "",
        "osm_kind": "road",
        "osm_id": 1180625801,
        "osm_type": "way",
        "osm_tags": {
          "highway": "footway"
        },
        "case_id": "kazan_center_+1_+3_b9eed37d_tie_in_stress"
      },
      "geometry": {
        "type": "LineString",
        "coordinates": [
          [
            49.1488937,
            55.803755
          ],
          [
            49.1488515,
            55.8038
          ],
          [
            49.1487901,
            55.8038665
          ]
        ]
      }
    },
    {
      "type": "Feature",
      "properties": {
        "id": "kazan_center_+1_+3_b9eed37d_tie_in_stress_osm_way_1180625802_52",
        "object_type": "restriction",
        "restriction_type": "road",
        "name": "",
        "osm_kind": "road",
        "osm_id": 1180625802,
        "osm_type": "way",
        "osm_tags": {
          "highway": "footway"
        },
        "case_id": "kazan_center_+1_+3_b9eed37d_tie_in_stress"
      },
      "geometry": {
        "type": "LineString",
        "coordinates": [
          [
            49.1487901,
            55.8038665
          ],
          [
            49.1488698,
            55.8038928
          ],
          [
            49.1491627,
            55.8039895
          ],
          [
            49.1494098,
            55.804062
          ],
          [
            49.1494296,
            55.804068
          ],
          [
            49.1500385,
            55.8042969
          ]
        ]
      }
    },
    {
      "type": "Feature",
      "properties": {
        "id": "kazan_center_+1_+3_b9eed37d_tie_in_stress_osm_way_1180625803_53",
        "object_type": "restriction",
        "restriction_type": "road",
        "name": "",
        "osm_kind": "road",
        "osm_id": 1180625803,
        "osm_type": "way",
        "osm_tags": {
          "highway": "footway"
        },
        "case_id": "kazan_center_+1_+3_b9eed37d_tie_in_stress"
      },
      "geometry": {
        "type": "LineString",
        "coordinates": [
          [
            49.1488698,
            55.8038928
          ],
          [
            49.148356,
            55.8043788
          ]
        ]
      }
    },
    {
      "type": "Feature",
      "properties": {
        "id": "kazan_center_+1_+3_b9eed37d_tie_in_stress_osm_way_1180625804_54",
        "object_type": "restriction",
        "restriction_type": "road",
        "name": "",
        "osm_kind": "road",
        "osm_id": 1180625804,
        "osm_type": "way",
        "osm_tags": {
          "highway": "footway"
        },
        "case_id": "kazan_center_+1_+3_b9eed37d_tie_in_stress"
      },
      "geometry": {
        "type": "LineString",
        "coordinates": [
          [
            49.1488937,
            55.803755
          ],
          [
            49.1491078,
            55.803828
          ],
          [
            49.1491649,
            55.8038249
          ],
          [
            49.1492113,
            55.8037955
          ],
          [
            49.149378,
            55.8035923
          ],
          [
            49.1496097,
            55.8033023
          ],
          [
            49.1497799,
            55.8030488
          ],
          [
            49.1498607,
            55.8028545
          ],
          [
            49.1499309,
            55.8026217
          ],
          [
            49.1499453,
            55.802545
          ],
          [
            49.1499712,
            55.8024067
          ],
          [
            49.1500362,
            55.8020605
          ],
          [
            49.1500818,
            55.8018149
          ],
          [
            49.1501344,
            55.8014598
          ],
          [
            49.1501765,
            55.8012487
          ],
          [
            49.1502713,
            55.801085
          ],
          [
            49.1504854,
            55.800939
          ],
          [
            49.1507662,
            55.8008117
          ],
          [
            49.1509504,
            55.8007461
          ],
          [
            49.1511014,
            55.8006924
          ],
          [
            49.1514471,
            55.8005839
          ],
          [
            49.1516446,
            55.8004891
          ]
        ]
      }
    },
    {
      "type": "Feature",
      "properties": {
        "id": "kazan_center_+1_+3_b9eed37d_tie_in_stress_osm_way_1191754439_55",
        "object_type": "restriction",
        "restriction_type": "road",
        "name": "",
        "osm_kind": "road",
        "osm_id": 1191754439,
        "osm_type": "way",
        "osm_tags": {
          "highway": "footway"
        },
        "case_id": "kazan_center_+1_+3_b9eed37d_tie_in_stress"
      },
      "geometry": {
        "type": "LineString",
        "coordinates": [
          [
            49.1487901,
            55.8038665
          ],
          [
            49.1485051,
            55.8037724
          ],
          [
            49.1457032,
            55.8028538
          ],
          [
            49.1454555,
            55.8027736
          ],
          [
            49.1446575,
            55.8025185
          ],
          [
            49.1427276,
            55.8018819
          ],
          [
            49.1407507,
            55.8012335
          ],
          [
            49.1402393,
            55.8010652
          ],
          [
            49.1400743,
            55.801112
          ]
        ]
      }
    },
    {
      "type": "Feature",
      "properties": {
        "id": "kazan_center_+1_+3_b9eed37d_tie_in_stress_osm_way_1191754441_56",
        "object_type": "restriction",
        "restriction_type": "road",
        "name": "",
        "osm_kind": "road",
        "osm_id": 1191754441,
        "osm_type": "way",
        "osm_tags": {
          "highway": "service"
        },
        "case_id": "kazan_center_+1_+3_b9eed37d_tie_in_stress"
      },
      "geometry": {
        "type": "LineString",
        "coordinates": [
          [
            49.144865,
            55.8027365
          ],
          [
            49.1445477,
            55.8026373
          ]
        ]
      }
    },
    {
      "type": "Feature",
      "properties": {
        "id": "kazan_center_+1_+3_b9eed37d_tie_in_stress_osm_way_1191754443_57",
        "object_type": "restriction",
        "restriction_type": "road",
        "name": "",
        "osm_kind": "road",
        "osm_id": 1191754443,
        "osm_type": "way",
        "osm_tags": {
          "highway": "footway"
        },
        "case_id": "kazan_center_+1_+3_b9eed37d_tie_in_stress"
      },
      "geometry": {
        "type": "LineString",
        "coordinates": [
          [
            49.1452307,
            55.8031803
          ],
          [
            49.145334,
            55.8032071
          ]
        ]
      }
    },
    {
      "type": "Feature",
      "properties": {
        "id": "kazan_center_+1_+3_b9eed37d_tie_in_stress_osm_way_1191755218_58",
        "object_type": "restriction",
        "restriction_type": "road",
        "name": "",
        "osm_kind": "road",
        "osm_id": 1191755218,
        "osm_type": "way",
        "osm_tags": {
          "highway": "service"
        },
        "case_id": "kazan_center_+1_+3_b9eed37d_tie_in_stress"
      },
      "geometry": {
        "type": "LineString",
        "coordinates": [
          [
            49.1481493,
            55.8034129
          ],
          [
            49.1480702,
            55.8034824
          ],
          [
            49.1480146,
            55.8035319
          ]
        ]
      }
    },
    {
      "type": "Feature",
      "properties": {
        "id": "kazan_center_+1_+3_b9eed37d_tie_in_stress_osm_way_1199404881_59",
        "object_type": "restriction",
        "restriction_type": "road",
        "name": "",
        "osm_kind": "road",
        "osm_id": 1199404881,
        "osm_type": "way",
        "osm_tags": {
          "highway": "service"
        },
        "case_id": "kazan_center_+1_+3_b9eed37d_tie_in_stress"
      },
      "geometry": {
        "type": "LineString",
        "coordinates": [
          [
            49.1472663,
            55.803138
          ],
          [
            49.1472145,
            55.8031936
          ],
          [
            49.1471548,
            55.803254
          ]
        ]
      }
    },
    {
      "type": "Feature",
      "properties": {
        "id": "kazan_center_+1_+3_b9eed37d_tie_in_stress_osm_way_1199404882_60",
        "object_type": "restriction",
        "restriction_type": "road",
        "name": "",
        "osm_kind": "road",
        "osm_id": 1199404882,
        "osm_type": "way",
        "osm_tags": {
          "highway": "service"
        },
        "case_id": "kazan_center_+1_+3_b9eed37d_tie_in_stress"
      },
      "geometry": {
        "type": "LineString",
        "coordinates": [
          [
            49.1484495,
            55.8038322
          ],
          [
            49.1485051,
            55.8037724
          ],
          [
            49.1485603,
            55.8037071
          ]
        ]
      }
    },
    {
      "type": "Feature",
      "properties": {
        "id": "kazan_center_+1_+3_b9eed37d_tie_in_stress_osm_way_1199440373_61",
        "object_type": "restriction",
        "restriction_type": "road",
        "name": "",
        "osm_kind": "road",
        "osm_id": 1199440373,
        "osm_type": "way",
        "osm_tags": {
          "highway": "service"
        },
        "case_id": "kazan_center_+1_+3_b9eed37d_tie_in_stress"
      },
      "geometry": {
        "type": "LineString",
        "coordinates": [
          [
            49.1467139,
            55.8029606
          ],
          [
            49.1466763,
            55.803012
          ],
          [
            49.1466252,
            55.8030829
          ]
        ]
      }
    },
    {
      "type": "Feature",
      "properties": {
        "id": "kazan_center_+1_+3_b9eed37d_tie_in_stress_osm_way_1199440374_62",
        "object_type": "restriction",
        "restriction_type": "road",
        "name": "",
        "osm_kind": "road",
        "osm_id": 1199440374,
        "osm_type": "way",
        "osm_tags": {
          "highway": "service"
        },
        "case_id": "kazan_center_+1_+3_b9eed37d_tie_in_stress"
      },
      "geometry": {
        "type": "LineString",
        "coordinates": [
          [
            49.1450224,
            55.8024134
          ],
          [
            49.1449787,
            55.8024537
          ],
          [
            49.144897,
            55.8025366
          ]
        ]
      }
    },
    {
      "type": "Feature",
      "properties": {
        "id": "kazan_center_+1_+3_b9eed37d_tie_in_stress_osm_way_1202613102_63",
        "object_type": "restriction",
        "restriction_type": "oks",
        "name": "",
        "osm_kind": "building",
        "osm_id": 1202613102,
        "osm_type": "way",
        "osm_tags": {
          "building": "yes"
        },
        "case_id": "kazan_center_+1_+3_b9eed37d_tie_in_stress",
        "selected_as_heat_demand_proxy": true,
        "connection_point_id": "kazan_center_+1_+3_b9eed37d_tie_in_stress_cp_1"
      },
      "geometry": {
        "type": "Polygon",
        "coordinates": [
          [
            [
              49.1472959,
              55.8028775
            ],
            [
              49.1474135,
              55.8029058
            ],
            [
              49.1474859,
              55.8028108
            ],
            [
              49.1473684,
              55.8027825
            ],
            [
              49.1472959,
              55.8028775
            ]
          ]
        ]
      }
    },
    {
      "type": "Feature",
      "properties": {
        "id": "kazan_center_+1_+3_b9eed37d_tie_in_stress_osm_way_1298033627_64",
        "object_type": "restriction",
        "restriction_type": "road",
        "name": "",
        "osm_kind": "road",
        "osm_id": 1298033627,
        "osm_type": "way",
        "osm_tags": {
          "highway": "service"
        },
        "case_id": "kazan_center_+1_+3_b9eed37d_tie_in_stress"
      },
      "geometry": {
        "type": "LineString",
        "coordinates": [
          [
            49.1494909,
            55.804011
          ],
          [
            49.1494296,
            55.804068
          ],
          [
            49.1494141,
            55.8040837
          ],
          [
            49.1493949,
            55.8040922
          ]
        ]
      }
    },
    {
      "type": "Feature",
      "properties": {
        "id": "kazan_center_+1_+3_b9eed37d_tie_in_stress_osm_way_1298033628_65",
        "object_type": "restriction",
        "restriction_type": "road",
        "name": "",
        "osm_kind": "road",
        "osm_id": 1298033628,
        "osm_type": "way",
        "osm_tags": {
          "highway": "service"
        },
        "case_id": "kazan_center_+1_+3_b9eed37d_tie_in_stress"
      },
      "geometry": {
        "type": "LineString",
        "coordinates": [
          [
            49.1493949,
            55.8040922
          ],
          [
            49.1493974,
            55.8040796
          ],
          [
            49.1494098,
            55.804062
          ],
          [
            49.1494665,
            55.8040027
          ]
        ]
      }
    },
    {
      "type": "Feature",
      "properties": {
        "id": "kazan_center_+1_+3_b9eed37d_tie_in_stress_osm_way_1526326168_66",
        "object_type": "restriction",
        "restriction_type": "road",
        "name": "",
        "osm_kind": "road",
        "osm_id": 1526326168,
        "osm_type": "way",
        "osm_tags": {
          "highway": "service"
        },
        "case_id": "kazan_center_+1_+3_b9eed37d_tie_in_stress"
      },
      "geometry": {
        "type": "LineString",
        "coordinates": [
          [
            49.1463692,
            55.8058147
          ],
          [
            49.1469615,
            55.8056103
          ],
          [
            49.1473473,
            55.805445
          ],
          [
            49.1476508,
            55.8053149
          ],
          [
            49.1478393,
            55.8052197
          ],
          [
            49.1482077,
            55.8050131
          ]
        ]
      }
    },
    {
      "type": "Feature",
      "properties": {
        "id": "kazan_center_+1_+3_b9eed37d_tie_in_stress_source",
        "object_type": "source",
        "case_id": "kazan_center_+1_+3_b9eed37d_tie_in_stress"
      },
      "geometry": {
        "type": "Point",
        "coordinates": [
          49.14507166666667,
          55.80346616
        ]
      }
    },
    {
      "type": "Feature",
      "properties": {
        "id": "kazan_center_+1_+3_b9eed37d_tie_in_stress_existing_network_a",
        "object_type": "heat_network",
        "diameter": 700,
        "flow_tph": 260.0,
        "upstream_object_id": "kazan_center_+1_+3_b9eed37d_tie_in_stress_source",
        "case_id": "kazan_center_+1_+3_b9eed37d_tie_in_stress"
      },
      "geometry": {
        "type": "LineString",
        "coordinates": [
          [
            49.14507166666667,
            55.80346616
          ],
          [
            49.14587083333333,
            55.8032865
          ]
        ]
      }
    },
    {
      "type": "Feature",
      "properties": {
        "id": "kazan_center_+1_+3_b9eed37d_tie_in_stress_existing_network_b",
        "object_type": "heat_network",
        "diameter": 600,
        "flow_tph": 220.0,
        "upstream_object_id": "kazan_center_+1_+3_b9eed37d_tie_in_stress_source",
        "case_id": "kazan_center_+1_+3_b9eed37d_tie_in_stress"
      },
      "geometry": {
        "type": "LineString",
        "coordinates": [
          [
            49.14587083333333,
            55.8032865
          ],
          [
            49.146190499999996,
            55.80364582
          ]
        ]
      }
    },
    {
      "type": "Feature",
      "properties": {
        "id": "kazan_center_+1_+3_b9eed37d_tie_in_stress_existing_network_c",
        "object_type": "heat_network",
        "diameter": 500,
        "flow_tph": 180.0,
        "upstream_object_id": "kazan_center_+1_+3_b9eed37d_tie_in_stress_source",
        "case_id": "kazan_center_+1_+3_b9eed37d_tie_in_stress"
      },
      "geometry": {
        "type": "LineString",
        "coordinates": [
          [
            49.14587083333333,
            55.8032865
          ],
          [
            49.146510166666665,
            55.80373565
          ]
        ]
      }
    },
    {
      "type": "Feature",
      "properties": {
        "id": "kazan_center_+1_+3_b9eed37d_tie_in_stress_existing_chamber_low",
        "object_type": "heat_chamber",
        "diameter": 700,
        "upstream_object_id": "kazan_center_+1_+3_b9eed37d_tie_in_stress_source",
        "case_id": "kazan_center_+1_+3_b9eed37d_tie_in_stress"
      },
      "geometry": {
        "type": "Point",
        "coordinates": [
          49.14587083333333,
          55.8032865
        ]
      }
    },
    {
      "type": "Feature",
      "properties": {
        "id": "kazan_center_+1_+3_b9eed37d_tie_in_stress_existing_chamber_mid",
        "object_type": "heat_chamber",
        "diameter": 600,
        "upstream_object_id": "kazan_center_+1_+3_b9eed37d_tie_in_stress_source",
        "case_id": "kazan_center_+1_+3_b9eed37d_tie_in_stress"
      },
      "geometry": {
        "type": "Point",
        "coordinates": [
          49.146190499999996,
          55.80364582
        ]
      }
    },
    {
      "type": "Feature",
      "properties": {
        "id": "kazan_center_+1_+3_b9eed37d_tie_in_stress_existing_chamber_high",
        "object_type": "heat_chamber",
        "diameter": 500,
        "upstream_object_id": "kazan_center_+1_+3_b9eed37d_tie_in_stress_source",
        "case_id": "kazan_center_+1_+3_b9eed37d_tie_in_stress"
      },
      "geometry": {
        "type": "Point",
        "coordinates": [
          49.146510166666665,
          55.80373565
        ]
      }
    },
    {
      "type": "Feature",
      "properties": {
        "id": "kazan_center_+1_+3_b9eed37d_tie_in_stress_cp_1",
        "object_type": "oks_connection_point",
        "flow_tph": 5.0,
        "case_id": "kazan_center_+1_+3_b9eed37d_tie_in_stress",
        "consumer_role": "osm_building_heat_demand_proxy",
        "source_building_osm_id": 1202613102,
        "source_building_osm_type": "way",
        "source_building_name": "",
        "source_building_tags": {
          "building": "yes"
        },
        "footprint_area_m2": 92.06,
        "flow_basis": "synthetic_proxy_from_osm_footprint_area",
        "stress_bucket": "tie_in_stress"
      },
      "geometry": {
        "type": "Point",
        "coordinates": [
          49.147390900000005,
          55.80284415
        ]
      }
    },
    {
      "type": "Feature",
      "properties": {
        "id": "kazan_center_+1_+3_b9eed37d_tie_in_stress_cp_2",
        "object_type": "oks_connection_point",
        "flow_tph": 14.433,
        "case_id": "kazan_center_+1_+3_b9eed37d_tie_in_stress",
        "consumer_role": "osm_building_heat_demand_proxy",
        "source_building_osm_id": 91645186,
        "source_building_osm_type": "way",
        "source_building_name": "",
        "source_building_tags": {
          "building": "commercial"
        },
        "footprint_area_m2": 1298.96,
        "flow_basis": "synthetic_proxy_from_osm_footprint_area",
        "stress_bucket": "tie_in_stress"
      },
      "geometry": {
        "type": "Point",
        "coordinates": [
          49.14789929987745,
          55.80301153400912
        ]
      }
    },
    {
      "type": "Feature",
      "properties": {
        "id": "kazan_center_+1_+3_b9eed37d_tie_in_stress_cp_3",
        "object_type": "oks_connection_point",
        "flow_tph": 5.0,
        "case_id": "kazan_center_+1_+3_b9eed37d_tie_in_stress",
        "consumer_role": "osm_building_heat_demand_proxy",
        "source_building_osm_id": 91645179,
        "source_building_osm_type": "way",
        "source_building_name": "",
        "source_building_tags": {
          "building": "service"
        },
        "footprint_area_m2": 75.11,
        "flow_basis": "synthetic_proxy_from_osm_footprint_area",
        "stress_bucket": "tie_in_stress"
      },
      "geometry": {
        "type": "Point",
        "coordinates": [
          49.148352849999995,
          55.803419149999996
        ]
      }
    },
    {
      "type": "Feature",
      "properties": {
        "id": "kazan_center_+1_+3_b9eed37d_tie_in_stress_cp_4",
        "object_type": "oks_connection_point",
        "flow_tph": 5.0,
        "case_id": "kazan_center_+1_+3_b9eed37d_tie_in_stress",
        "consumer_role": "osm_building_heat_demand_proxy",
        "source_building_osm_id": 91645231,
        "source_building_osm_type": "way",
        "source_building_name": "",
        "source_building_tags": {
          "building": "yes"
        },
        "footprint_area_m2": 112.18,
        "flow_basis": "synthetic_proxy_from_osm_footprint_area",
        "stress_bucket": "tie_in_stress"
      },
      "geometry": {
        "type": "Point",
        "coordinates": [
          49.14905195,
          55.803543950000005
        ]
      }
    },
    {
      "type": "Feature",
      "properties": {
        "id": "kazan_center_+1_+3_b9eed37d_tie_in_stress_cp_5",
        "object_type": "oks_connection_point",
        "flow_tph": 11.145,
        "case_id": "kazan_center_+1_+3_b9eed37d_tie_in_stress",
        "consumer_role": "osm_building_heat_demand_proxy",
        "source_building_osm_id": 91645184,
        "source_building_osm_type": "way",
        "source_building_name": "",
        "source_building_tags": {
          "building": "yes"
        },
        "footprint_area_m2": 1003.07,
        "flow_basis": "synthetic_proxy_from_osm_footprint_area",
        "stress_bucket": "tie_in_stress"
      },
      "geometry": {
        "type": "Point",
        "coordinates": [
          49.14801180843287,
          55.803809079505335
        ]
      }
    },
    {
      "type": "Feature",
      "properties": {
        "id": "kazan_center_+1_+3_b9eed37d_tie_in_stress_cp_6",
        "object_type": "oks_connection_point",
        "flow_tph": 5.0,
        "case_id": "kazan_center_+1_+3_b9eed37d_tie_in_stress",
        "consumer_role": "osm_building_heat_demand_proxy",
        "source_building_osm_id": 91645216,
        "source_building_osm_type": "way",
        "source_building_name": "",
        "source_building_tags": {
          "building": "yes"
        },
        "footprint_area_m2": 69.99,
        "flow_basis": "synthetic_proxy_from_osm_footprint_area",
        "stress_bucket": "tie_in_stress"
      },
      "geometry": {
        "type": "Point",
        "coordinates": [
          49.1490837,
          55.803716300000005
        ]
      }
    },
    {
      "type": "Feature",
      "properties": {
        "id": "kazan_center_+1_+3_b9eed37d_tie_in_stress_cp_7",
        "object_type": "oks_connection_point",
        "flow_tph": 5.0,
        "case_id": "kazan_center_+1_+3_b9eed37d_tie_in_stress",
        "consumer_role": "osm_building_heat_demand_proxy",
        "source_building_osm_id": 91645209,
        "source_building_osm_type": "way",
        "source_building_name": "",
        "source_building_tags": {
          "building": "yes"
        },
        "footprint_area_m2": 116.17,
        "flow_basis": "synthetic_proxy_from_osm_footprint_area",
        "stress_bucket": "tie_in_stress"
      },
      "geometry": {
        "type": "Point",
        "coordinates": [
          49.14748715,
          55.803570300000004
        ]
      }
    },
    {
      "type": "Feature",
      "properties": {
        "id": "kazan_center_+1_+3_b9eed37d_tie_in_stress_cp_8",
        "object_type": "oks_connection_point",
        "flow_tph": 62.232,
        "case_id": "kazan_center_+1_+3_b9eed37d_tie_in_stress",
        "consumer_role": "osm_building_heat_demand_proxy",
        "source_building_osm_id": 973924084,
        "source_building_osm_type": "way",
        "source_building_name": "Крытый центр Урам",
        "source_building_tags": {
          "building": "yes",
          "leisure": "sports_centre",
          "name": "Крытый центр Урам"
        },
        "footprint_area_m2": 5600.9,
        "flow_basis": "synthetic_proxy_from_osm_footprint_area",
        "stress_bucket": "tie_in_stress"
      },
      "geometry": {
        "type": "Point",
        "coordinates": [
          49.1461204713065,
          55.80412980072862
        ]
      }
    }
  ]
}