{
  "type": "FeatureCollection",
  "name": "moscow_mitino_-2_-2_19d9e7c8_tie_in_stress",
  "crs": {
    "type": "name",
    "properties": {
      "name": "EPSG:4326"
    }
  },
  "metadata": {
    "dataset_version": "osm_building_anchored_routing_scenes_v3",
    "parent_scene_id": "moscow_mitino_-2_-2_19d9e7c8",
    "split": "train",
    "city": "Москва Митино",
    "seed": "moscow_mitino",
    "research_bucket": "tie_in_stress",
    "source_research_bucket": "refusal",
    "research_bucket_is_ground_truth": false,
    "bbox_south_west_north_east": [
      55.8293812,
      37.3313996,
      55.8320762,
      37.3361979
    ],
    "real_data_source": "OpenStreetMap via Overpass API",
    "source_file": "data/real_geojson_places/refusal/092_moscow_mitino_-2_-2_19d9e7c8.geojson",
    "real_layers": [
      "restrictions",
      "consumer_building_footprints"
    ],
    "synthetic_layers": [
      "source",
      "heat_network",
      "heat_chamber",
      "heat_demand"
    ],
    "consumer_selection": "deterministic points inside real OSM building footprints",
    "flow_model": "synthetic proxy derived from building footprint area; not metered demand",
    "note": "OSM buildings anchor consumers; heat demand and seed network are synthetic proxies."
  },
  "features": [
    {
      "type": "Feature",
      "properties": {
        "id": "moscow_mitino_-2_-2_19d9e7c8_tie_in_stress_osm_way_88614253_1",
        "object_type": "restriction",
        "restriction_type": "oks",
        "name": "",
        "osm_kind": "building",
        "osm_id": 88614253,
        "osm_type": "way",
        "osm_tags": {
          "building": "office"
        },
        "case_id": "moscow_mitino_-2_-2_19d9e7c8_tie_in_stress"
      },
      "geometry": {
        "type": "Polygon",
        "coordinates": [
          [
            [
              37.3313963,
              55.8319833
            ],
            [
              37.3315919,
              55.8320369
            ],
            [
              37.331654,
              55.8319654
            ],
            [
              37.3319903,
              55.8320575
            ],
            [
              37.3320771,
              55.8319575
            ],
            [
              37.3319305,
              55.8319174
            ],
            [
              37.3319516,
              55.8318932
            ],
            [
              37.3320143,
              55.8319103
            ],
            [
              37.3320414,
              55.8318792
            ],
            [
              37.3318176,
              55.8318179
            ],
            [
              37.3317631,
              55.8318806
            ],
            [
              37.3314632,
              55.8317985
            ],
            [
              37.3313762,
              55.8318988
            ],
            [
              37.3314785,
              55.8319268
            ],
            [
              37.3314622,
              55.8319457
            ],
            [
              37.3314353,
              55.8319383
            ],
            [
              37.3313963,
              55.8319833
            ]
          ]
        ]
      }
    },
    {
      "type": "Feature",
      "properties": {
        "id": "moscow_mitino_-2_-2_19d9e7c8_tie_in_stress_osm_way_88614257_2",
        "object_type": "restriction",
        "restriction_type": "oks",
        "name": "",
        "osm_kind": "building",
        "osm_id": 88614257,
        "osm_type": "way",
        "osm_tags": {
          "building": "yes"
        },
        "case_id": "moscow_mitino_-2_-2_19d9e7c8_tie_in_stress"
      },
      "geometry": {
        "type": "Polygon",
        "coordinates": [
          [
            [
              37.3338686,
              55.8323937
            ],
            [
              37.3341472,
              55.8320319
            ],
            [
              37.3346708,
              55.8321591
            ],
            [
              37.3346217,
              55.8322228
            ],
            [
              37.3346973,
              55.8322411
            ],
            [
              37.3346586,
              55.8322913
            ],
            [
              37.3345955,
              55.832276
            ],
            [
              37.3345629,
              55.8323183
            ],
            [
              37.3346327,
              55.8323353
            ],
            [
              37.3345762,
              55.8324086
            ],
            [
              37.3344954,
              55.832389
            ],
            [
              37.3343935,
              55.8325212
            ],
            [
              37.3338686,
              55.8323937
            ]
          ]
        ]
      }
    },
    {
      "type": "Feature",
      "properties": {
        "id": "moscow_mitino_-2_-2_19d9e7c8_tie_in_stress_osm_way_88614278_3",
        "object_type": "restriction",
        "restriction_type": "oks",
        "name": "",
        "osm_kind": "building",
        "osm_id": 88614278,
        "osm_type": "way",
        "osm_tags": {
          "building": "yes"
        },
        "case_id": "moscow_mitino_-2_-2_19d9e7c8_tie_in_stress",
        "selected_as_heat_demand_proxy": true,
        "connection_point_id": "moscow_mitino_-2_-2_19d9e7c8_tie_in_stress_cp_3"
      },
      "geometry": {
        "type": "Polygon",
        "coordinates": [
          [
            [
              37.3353661,
              55.8311443
            ],
            [
              37.3355362,
              55.8311874
            ],
            [
              37.3355535,
              55.8311659
            ],
            [
              37.3356223,
              55.8311834
            ],
            [
              37.33577,
              55.831
            ],
            [
              37.3358146,
              55.8310114
            ],
            [
              37.3363356,
              55.8303644
            ],
            [
              37.3362548,
              55.8303439
            ],
            [
              37.3362786,
              55.8303143
            ],
            [
              37.3361462,
              55.8302806
            ],
            [
              37.3361226,
              55.8303099
            ],
            [
              37.3360139,
              55.8302823
            ],
            [
              37.3354876,
              55.8309358
            ],
            [
              37.3355261,
              55.8309456
            ],
            [
              37.3353661,
              55.8311443
            ]
          ]
        ]
      }
    },
    {
      "type": "Feature",
      "properties": {
        "id": "moscow_mitino_-2_-2_19d9e7c8_tie_in_stress_osm_way_88614298_4",
        "object_type": "restriction",
        "restriction_type": "road",
        "name": "",
        "osm_kind": "road",
        "osm_id": 88614298,
        "osm_type": "way",
        "osm_tags": {
          "highway": "service"
        },
        "case_id": "moscow_mitino_-2_-2_19d9e7c8_tie_in_stress"
      },
      "geometry": {
        "type": "LineString",
        "coordinates": [
          [
            37.3311053,
            55.8315192
          ],
          [
            37.3312312,
            55.8315489
          ],
          [
            37.331525,
            55.8316183
          ]
        ]
      }
    },
    {
      "type": "Feature",
      "properties": {
        "id": "moscow_mitino_-2_-2_19d9e7c8_tie_in_stress_osm_way_88614304_5",
        "object_type": "restriction",
        "restriction_type": "road",
        "name": "",
        "osm_kind": "road",
        "osm_id": 88614304,
        "osm_type": "way",
        "osm_tags": {
          "highway": "service"
        },
        "case_id": "moscow_mitino_-2_-2_19d9e7c8_tie_in_stress"
      },
      "geometry": {
        "type": "LineString",
        "coordinates": [
          [
            37.3351284,
            55.8311822
          ],
          [
            37.3352356,
            55.831052
          ],
          [
            37.3359496,
            55.8301601
          ],
          [
            37.3360651,
            55.8300731
          ],
          [
            37.336137,
            55.8299826
          ],
          [
            37.3361936,
            55.8298443
          ],
          [
            37.3366515,
            55.8292441
          ],
          [
            37.3378295,
            55.8277633
          ],
          [
            37.3382173,
            55.8272758
          ],
          [
            37.3374762,
            55.8270853
          ]
        ]
      }
    },
    {
      "type": "Feature",
      "properties": {
        "id": "moscow_mitino_-2_-2_19d9e7c8_tie_in_stress_osm_way_88614308_6",
        "object_type": "restriction",
        "restriction_type": "road",
        "name": "",
        "osm_kind": "road",
        "osm_id": 88614308,
        "osm_type": "way",
        "osm_tags": {
          "highway": "service"
        },
        "case_id": "moscow_mitino_-2_-2_19d9e7c8_tie_in_stress"
      },
      "geometry": {
        "type": "LineString",
        "coordinates": [
          [
            37.3329586,
            55.8306175
          ],
          [
            37.3336231,
            55.8307886
          ],
          [
            37.3342949,
            55.830966
          ],
          [
            37.3351284,
            55.8311822
          ],
          [
            37.3355215,
            55.8312793
          ],
          [
            37.3356477,
            55.8313309
          ],
          [
            37.3357111,
            55.8313818
          ],
          [
            37.3357297,
            55.8314266
          ],
          [
            37.3357269,
            55.8314694
          ],
          [
            37.3356742,
            55.8315687
          ],
          [
            37.3345778,
            55.8328307
          ],
          [
            37.3344368,
            55.8329298
          ],
          [
            37.334227,
            55.8330057
          ],
          [
            37.3339088,
            55.8329817
          ],
          [
            37.3335528,
            55.8329854
          ],
          [
            37.3328928,
            55.832972
          ],
          [
            37.332261,
            55.8328287
          ],
          [
            37.3313229,
            55.832552
          ]
        ]
      }
    },
    {
      "type": "Feature",
      "properties": {
        "id": "moscow_mitino_-2_-2_19d9e7c8_tie_in_stress_osm_way_88614310_7",
        "object_type": "restriction",
        "restriction_type": "road",
        "name": "",
        "osm_kind": "road",
        "osm_id": 88614310,
        "osm_type": "way",
        "osm_tags": {
          "highway": "service"
        },
        "case_id": "moscow_mitino_-2_-2_19d9e7c8_tie_in_stress"
      },
      "geometry": {
        "type": "LineString",
        "coordinates": [
          [
            37.3342949,
            55.830966
          ],
          [
            37.3359913,
            55.8288611
          ],
          [
            37.3373902,
            55.8271325
          ],
          [
            37.3374762,
            55.8270853
          ],
          [
            37.3377296,
            55.8269899
          ],
          [
            37.3378951,
            55.8267735
          ],
          [
            37.3382078,
            55.8268536
          ],
          [
            37.3392876,
            55.8271138
          ],
          [
            37.3397093,
            55.8265773
          ]
        ]
      }
    },
    {
      "type": "Feature",
      "properties": {
        "id": "moscow_mitino_-2_-2_19d9e7c8_tie_in_stress_osm_way_88614311_8",
        "object_type": "restriction",
        "restriction_type": "oks",
        "name": "",
        "osm_kind": "building",
        "osm_id": 88614311,
        "osm_type": "way",
        "osm_tags": {
          "building": "industrial"
        },
        "case_id": "moscow_mitino_-2_-2_19d9e7c8_tie_in_stress"
      },
      "geometry": {
        "type": "Polygon",
        "coordinates": [
          [
            [
              37.3323761,
              55.831348
            ],
            [
              37.3318992,
              55.8312272
            ],
            [
              37.3323871,
              55.8306197
            ],
            [
              37.332366,
              55.8306143
            ],
            [
              37.3341534,
              55.8283888
            ],
            [
              37.3344434,
              55.8280276
            ],
            [
              37.3347331,
              55.828101
            ],
            [
              37.3346529,
              55.8282009
            ],
            [
              37.3348483,
              55.8282503
            ],
            [
              37.335268,
              55.8283567
            ],
            [
              37.3354427,
              55.8281392
            ],
            [
              37.3353591,
              55.8281181
            ],
            [
              37.3353489,
              55.8281308
            ],
            [
              37.3351308,
              55.8280755
            ],
            [
              37.3353846,
              55.8277595
            ],
            [
              37.3355999,
              55.827814
            ],
            [
              37.3355896,
              55.8278269
            ],
            [
              37.335676,
              55.8278487
            ],
            [
              37.3358745,
              55.8276016
            ],
            [
              37.3354543,
              55.8274951
            ],
            [
              37.3352796,
              55.8274509
            ],
            [
              37.3352493,
              55.8274886
            ],
            [
              37.3349375,
              55.8274096
            ],
            [
              37.3357992,
              55.8263366
            ],
            [
              37.3359637,
              55.8263783
            ],
            [
              37.3361117,
              55.8264157
            ],
            [
              37.3354482,
              55.827242
            ],
            [
              37.3356221,
              55.827286
            ],
            [
              37.3368222,
              55.8275901
            ],
            [
              37.3362102,
              55.8283522
            ],
            [
              37.3358867,
              55.828755
            ],
            [
              37.3346872,
              55.8284511
            ],
            [
              37.3346439,
              55.8284402
            ],
            [
              37.3345908,
              55.8285063
            ],
            [
              37.3345499,
              55.8285572
            ],
            [
              37.3344145,
              55.8285229
            ],
            [
              37.334002,
              55.8290365
            ],
            [
              37.3340965,
              55.8290605
            ],
            [
              37.3340163,
              55.8291603
            ],
            [
              37.3339103,
              55.8291335
            ],
            [
              37.3332525,
              55.8299524
            ],
            [
              37.3333352,
              55.8299734
            ],
            [
              37.3332627,
              55.8300637
            ],
            [
              37.333176,
              55.8300418
            ],
            [
              37.332757,
              55.8305635
            ],
            [
              37.3328379,
              55.830584
            ],
            [
              37.3327702,
              55.8306682
            ],
            [
              37.332692,
              55.8306484
            ],
            [
              37.332378,
              55.8310394
            ],
            [
              37.3325823,
              55.8310912
            ],
            [
              37.3323761,
              55.831348
            ]
          ]
        ]
      }
    },
    {
      "type": "Feature",
      "properties": {
        "id": "moscow_mitino_-2_-2_19d9e7c8_tie_in_stress_osm_way_88614319_9",
        "object_type": "restriction",
        "restriction_type": "road",
        "name": "",
        "osm_kind": "road",
        "osm_id": 88614319,
        "osm_type": "way",
        "osm_tags": {
          "highway": "footway"
        },
        "case_id": "moscow_mitino_-2_-2_19d9e7c8_tie_in_stress"
      },
      "geometry": {
        "type": "LineString",
        "coordinates": [
          [
            37.331155,
            55.8303586
          ],
          [
            37.3312875,
            55.8301922
          ],
          [
            37.3315248,
            55.829894
          ],
          [
            37.3320614,
            55.8292195
          ],
          [
            37.3324253,
            55.8287608
          ]
        ]
      }
    },
    {
      "type": "Feature",
      "properties": {
        "id": "moscow_mitino_-2_-2_19d9e7c8_tie_in_stress_osm_way_88614323_10",
        "object_type": "restriction",
        "restriction_type": "road",
        "name": "",
        "osm_kind": "road",
        "osm_id": 88614323,
        "osm_type": "way",
        "osm_tags": {
          "highway": "service"
        },
        "case_id": "moscow_mitino_-2_-2_19d9e7c8_tie_in_stress"
      },
      "geometry": {
        "type": "LineString",
        "coordinates": [
          [
            37.3346872,
            55.8284511
          ],
          [
            37.3346352,
            55.8285166
          ],
          [
            37.3329586,
            55.8306175
          ],
          [
            37.3327151,
            55.8309256
          ]
        ]
      }
    },
    {
      "type": "Feature",
      "properties": {
        "id": "moscow_mitino_-2_-2_19d9e7c8_tie_in_stress_osm_way_88614327_11",
        "object_type": "restriction",
        "restriction_type": "road",
        "name": "",
        "osm_kind": "road",
        "osm_id": 88614327,
        "osm_type": "way",
        "osm_tags": {
          "highway": "footway"
        },
        "case_id": "moscow_mitino_-2_-2_19d9e7c8_tie_in_stress"
      },
      "geometry": {
        "type": "LineString",
        "coordinates": [
          [
            37.3323207,
            55.8287341
          ],
          [
            37.3319566,
            55.8291931
          ],
          [
            37.3315445,
            55.829711
          ],
          [
            37.3314203,
            55.8298671
          ],
          [
            37.3311829,
            55.8301655
          ],
          [
            37.3310508,
            55.8303328
          ]
        ]
      }
    },
    {
      "type": "Feature",
      "properties": {
        "id": "moscow_mitino_-2_-2_19d9e7c8_tie_in_stress_osm_way_88614331_12",
        "object_type": "restriction",
        "restriction_type": "oks",
        "name": "",
        "osm_kind": "building",
        "osm_id": 88614331,
        "osm_type": "way",
        "osm_tags": {
          "building": "yes"
        },
        "case_id": "moscow_mitino_-2_-2_19d9e7c8_tie_in_stress"
      },
      "geometry": {
        "type": "Polygon",
        "coordinates": [
          [
            [
              37.3328343,
              55.83212
            ],
            [
              37.3324625,
              55.8319271
            ],
            [
              37.3329664,
              55.8316209
            ],
            [
              37.3333381,
              55.8318138
            ],
            [
              37.3328343,
              55.83212
            ]
          ]
        ]
      }
    },
    {
      "type": "Feature",
      "properties": {
        "id": "moscow_mitino_-2_-2_19d9e7c8_tie_in_stress_osm_way_88614332_13",
        "object_type": "restriction",
        "restriction_type": "oks",
        "name": "",
        "osm_kind": "building",
        "osm_id": 88614332,
        "osm_type": "way",
        "osm_tags": {
          "building": "yes"
        },
        "case_id": "moscow_mitino_-2_-2_19d9e7c8_tie_in_stress"
      },
      "geometry": {
        "type": "Polygon",
        "coordinates": [
          [
            [
              37.3347249,
              55.8319294
            ],
            [
              37.3348732,
              55.8319705
            ],
            [
              37.3351007,
              55.8317115
            ],
            [
              37.3353883,
              55.8317912
            ],
            [
              37.3355992,
              55.8315511
            ],
            [
              37.3353081,
              55.8314704
            ],
            [
              37.3353623,
              55.8314088
            ],
            [
              37.3352176,
              55.8313687
            ],
            [
              37.3347249,
              55.8319294
            ]
          ]
        ]
      }
    },
    {
      "type": "Feature",
      "properties": {
        "id": "moscow_mitino_-2_-2_19d9e7c8_tie_in_stress_osm_way_88614338_14",
        "object_type": "restriction",
        "restriction_type": "oks",
        "name": "",
        "osm_kind": "building",
        "osm_id": 88614338,
        "osm_type": "way",
        "osm_tags": {
          "building": "yes"
        },
        "case_id": "moscow_mitino_-2_-2_19d9e7c8_tie_in_stress",
        "selected_as_heat_demand_proxy": true,
        "connection_point_id": "moscow_mitino_-2_-2_19d9e7c8_tie_in_stress_cp_2"
      },
      "geometry": {
        "type": "Polygon",
        "coordinates": [
          [
            [
              37.334424,
              55.8308993
            ],
            [
              37.3350299,
              55.8310532
            ],
            [
              37.335616,
              55.8303255
            ],
            [
              37.3356922,
              55.8303449
            ],
            [
              37.3359838,
              55.8299846
            ],
            [
              37.3358583,
              55.8299527
            ],
            [
              37.335941,
              55.82985
            ],
            [
              37.336028,
              55.8298721
            ],
            [
              37.3360602,
              55.829832
            ],
            [
              37.3358671,
              55.829783
            ],
            [
              37.3359224,
              55.8297143
            ],
            [
              37.3360585,
              55.8297488
            ],
            [
              37.3361101,
              55.8296848
            ],
            [
              37.3360751,
              55.8296759
            ],
            [
              37.336411,
              55.8292588
            ],
            [
              37.3360059,
              55.8291559
            ],
            [
              37.3356221,
              55.8296326
            ],
            [
              37.3355465,
              55.8296134
            ],
            [
              37.3354923,
              55.8296807
            ],
            [
              37.3355787,
              55.8297026
            ],
            [
              37.3352592,
              55.8300995
            ],
            [
              37.3351005,
              55.8300592
            ],
            [
              37.334424,
              55.8308993
            ]
          ]
        ]
      }
    },
    {
      "type": "Feature",
      "properties": {
        "id": "moscow_mitino_-2_-2_19d9e7c8_tie_in_stress_osm_way_88614340_15",
        "object_type": "restriction",
        "restriction_type": "oks",
        "name": "",
        "osm_kind": "building",
        "osm_id": 88614340,
        "osm_type": "way",
        "osm_tags": {
          "building": "yes"
        },
        "case_id": "moscow_mitino_-2_-2_19d9e7c8_tie_in_stress",
        "selected_as_heat_demand_proxy": true,
        "connection_point_id": "moscow_mitino_-2_-2_19d9e7c8_tie_in_stress_cp_7"
      },
      "geometry": {
        "type": "Polygon",
        "coordinates": [
          [
            [
              37.3339452,
              55.8319247
            ],
            [
              37.3337307,
              55.8318102
            ],
            [
              37.3343086,
              55.831469
            ],
            [
              37.3342374,
              55.831431
            ],
            [
              37.3343087,
              55.8313889
            ],
            [
              37.3343799,
              55.8314269
            ],
            [
              37.3346122,
              55.8312898
            ],
            [
              37.3348266,
              55.8314044
            ],
            [
              37.3339452,
              55.8319247
            ]
          ]
        ]
      }
    },
    {
      "type": "Feature",
      "properties": {
        "id": "moscow_mitino_-2_-2_19d9e7c8_tie_in_stress_osm_way_88614343_16",
        "object_type": "restriction",
        "restriction_type": "oks",
        "name": "",
        "osm_kind": "building",
        "osm_id": 88614343,
        "osm_type": "way",
        "osm_tags": {
          "building": "yes"
        },
        "case_id": "moscow_mitino_-2_-2_19d9e7c8_tie_in_stress",
        "selected_as_heat_demand_proxy": true,
        "connection_point_id": "moscow_mitino_-2_-2_19d9e7c8_tie_in_stress_cp_1"
      },
      "geometry": {
        "type": "Polygon",
        "coordinates": [
          [
            [
              37.3331489,
              55.8305779
            ],
            [
              37.3335051,
              55.8301356
            ],
            [
              37.333446,
              55.8301206
            ],
            [
              37.3335989,
              55.8299308
            ],
            [
              37.3336737,
              55.8299498
            ],
            [
              37.3340423,
              55.829492
            ],
            [
              37.3339749,
              55.8294749
            ],
            [
              37.3341207,
              55.8292938
            ],
            [
              37.3341834,
              55.8293098
            ],
            [
              37.3347283,
              55.828633
            ],
            [
              37.3357885,
              55.8289024
            ],
            [
              37.3346041,
              55.8303732
            ],
            [
              37.3346363,
              55.8303813
            ],
            [
              37.3345911,
              55.8304374
            ],
            [
              37.3345356,
              55.8304234
            ],
            [
              37.3343378,
              55.830669
            ],
            [
              37.3343871,
              55.8306815
            ],
            [
              37.3343175,
              55.8307679
            ],
            [
              37.3342716,
              55.8307563
            ],
            [
              37.3342002,
              55.8308449
            ],
            [
              37.3331489,
              55.8305779
            ]
          ]
        ]
      }
    },
    {
      "type": "Feature",
      "properties": {
        "id": "moscow_mitino_-2_-2_19d9e7c8_tie_in_stress_osm_way_94596203_17",
        "object_type": "restriction",
        "restriction_type": "oks",
        "name": "",
        "osm_kind": "building",
        "osm_id": 94596203,
        "osm_type": "way",
        "osm_tags": {
          "building": "yes"
        },
        "case_id": "moscow_mitino_-2_-2_19d9e7c8_tie_in_stress",
        "selected_as_heat_demand_proxy": true,
        "connection_point_id": "moscow_mitino_-2_-2_19d9e7c8_tie_in_stress_cp_4"
      },
      "geometry": {
        "type": "Polygon",
        "coordinates": [
          [
            [
              37.3359745,
              55.8314869
            ],
            [
              37.336262,
              55.8315555
            ],
            [
              37.3366207,
              55.8310829
            ],
            [
              37.3365839,
              55.8310742
            ],
            [
              37.3363332,
              55.8310141
            ],
            [
              37.3359745,
              55.8314869
            ]
          ]
        ]
      }
    },
    {
      "type": "Feature",
      "properties": {
        "id": "moscow_mitino_-2_-2_19d9e7c8_tie_in_stress_osm_way_94596220_18",
        "object_type": "restriction",
        "restriction_type": "oks",
        "name": "",
        "osm_kind": "building",
        "osm_id": 94596220,
        "osm_type": "way",
        "osm_tags": {
          "building": "yes"
        },
        "case_id": "moscow_mitino_-2_-2_19d9e7c8_tie_in_stress",
        "selected_as_heat_demand_proxy": true,
        "connection_point_id": "moscow_mitino_-2_-2_19d9e7c8_tie_in_stress_cp_5"
      },
      "geometry": {
        "type": "Polygon",
        "coordinates": [
          [
            [
              37.3339717,
              55.8312486
            ],
            [
              37.3341354,
              55.8312985
            ],
            [
              37.3342941,
              55.8311341
            ],
            [
              37.3341305,
              55.8310842
            ],
            [
              37.3339717,
              55.8312486
            ]
          ]
        ]
      }
    },
    {
      "type": "Feature",
      "properties": {
        "id": "moscow_mitino_-2_-2_19d9e7c8_tie_in_stress_osm_way_94596324_19",
        "object_type": "restriction",
        "restriction_type": "oks",
        "name": "",
        "osm_kind": "building",
        "osm_id": 94596324,
        "osm_type": "way",
        "osm_tags": {
          "building": "yes"
        },
        "case_id": "moscow_mitino_-2_-2_19d9e7c8_tie_in_stress",
        "selected_as_heat_demand_proxy": true,
        "connection_point_id": "moscow_mitino_-2_-2_19d9e7c8_tie_in_stress_cp_6"
      },
      "geometry": {
        "type": "Polygon",
        "coordinates": [
          [
            [
              37.3357426,
              55.8318101
            ],
            [
              37.3361216,
              55.8318952
            ],
            [
              37.3363399,
              55.8315887
            ],
            [
              37.3359609,
              55.8315035
            ],
            [
              37.3357426,
              55.8318101
            ]
          ]
        ]
      }
    },
    {
      "type": "Feature",
      "properties": {
        "id": "moscow_mitino_-2_-2_19d9e7c8_tie_in_stress_osm_way_94596376_20",
        "object_type": "restriction",
        "restriction_type": "oks",
        "name": "",
        "osm_kind": "building",
        "osm_id": 94596376,
        "osm_type": "way",
        "osm_tags": {
          "building": "yes"
        },
        "case_id": "moscow_mitino_-2_-2_19d9e7c8_tie_in_stress"
      },
      "geometry": {
        "type": "Polygon",
        "coordinates": [
          [
            [
              37.333154,
              55.8313929
            ],
            [
              37.3329942,
              55.8314838
            ],
            [
              37.3334514,
              55.8317373
            ],
            [
              37.3336111,
              55.8316465
            ],
            [
              37.333154,
              55.8313929
            ]
          ]
        ]
      }
    },
    {
      "type": "Feature",
      "properties": {
        "id": "moscow_mitino_-2_-2_19d9e7c8_tie_in_stress_osm_way_150725180_21",
        "object_type": "restriction",
        "restriction_type": "road",
        "name": "",
        "osm_kind": "road",
        "osm_id": 150725180,
        "osm_type": "way",
        "osm_tags": {
          "highway": "service"
        },
        "case_id": "moscow_mitino_-2_-2_19d9e7c8_tie_in_stress"
      },
      "geometry": {
        "type": "LineString",
        "coordinates": [
          [
            37.3341534,
            55.8283888
          ],
          [
            37.3340442,
            55.8283611
          ],
          [
            37.333933,
            55.8283384
          ],
          [
            37.3337817,
            55.8284443
          ],
          [
            37.3337224,
            55.8285034
          ],
          [
            37.3317501,
            55.8310181
          ],
          [
            37.3317154,
            55.8310691
          ],
          [
            37.3317106,
            55.831124
          ],
          [
            37.3317184,
            55.8311742
          ],
          [
            37.3317668,
            55.8312437
          ],
          [
            37.3318547,
            55.8312955
          ],
          [
            37.3327344,
            55.8315316
          ]
        ]
      }
    },
    {
      "type": "Feature",
      "properties": {
        "id": "moscow_mitino_-2_-2_19d9e7c8_tie_in_stress_osm_way_179934562_22",
        "object_type": "restriction",
        "restriction_type": "road",
        "name": "",
        "osm_kind": "road",
        "osm_id": 179934562,
        "osm_type": "way",
        "osm_tags": {
          "highway": "service"
        },
        "case_id": "moscow_mitino_-2_-2_19d9e7c8_tie_in_stress"
      },
      "geometry": {
        "type": "LineString",
        "coordinates": [
          [
            37.331525,
            55.8316183
          ],
          [
            37.3322677,
            55.8318154
          ],
          [
            37.3327344,
            55.8315316
          ],
          [
            37.3330756,
            55.8313244
          ],
          [
            37.3333206,
            55.8311182
          ],
          [
            37.3336231,
            55.8307886
          ]
        ]
      }
    },
    {
      "type": "Feature",
      "properties": {
        "id": "moscow_mitino_-2_-2_19d9e7c8_tie_in_stress_osm_way_204256061_23",
        "object_type": "restriction",
        "restriction_type": "road",
        "name": "",
        "osm_kind": "road",
        "osm_id": 204256061,
        "osm_type": "way",
        "osm_tags": {
          "highway": "service"
        },
        "case_id": "moscow_mitino_-2_-2_19d9e7c8_tie_in_stress"
      },
      "geometry": {
        "type": "LineString",
        "coordinates": [
          [
            37.3322677,
            55.8318154
          ],
          [
            37.3323756,
            55.8319846
          ],
          [
            37.3328746,
            55.8322308
          ],
          [
            37.3334114,
            55.8325748
          ],
          [
            37.3337327,
            55.8324283
          ],
          [
            37.3343868,
            55.8325748
          ],
          [
            37.3344926,
            55.8325387
          ],
          [
            37.3345758,
            55.8324262
          ]
        ]
      }
    },
    {
      "type": "Feature",
      "properties": {
        "id": "moscow_mitino_-2_-2_19d9e7c8_tie_in_stress_osm_way_204256062_24",
        "object_type": "restriction",
        "restriction_type": "oks",
        "name": "",
        "osm_kind": "building",
        "osm_id": 204256062,
        "osm_type": "way",
        "osm_tags": {
          "building": "yes"
        },
        "case_id": "moscow_mitino_-2_-2_19d9e7c8_tie_in_stress",
        "selected_as_heat_demand_proxy": true,
        "connection_point_id": "moscow_mitino_-2_-2_19d9e7c8_tie_in_stress_cp_8"
      },
      "geometry": {
        "type": "Polygon",
        "coordinates": [
          [
            [
              37.3336107,
              55.8314435
            ],
            [
              37.3337834,
              55.8315033
            ],
            [
              37.3338317,
              55.8314594
            ],
            [
              37.3338729,
              55.8314737
            ],
            [
              37.3338942,
              55.8314542
            ],
            [
              37.333853,
              55.83144
            ],
            [
              37.3339334,
              55.8313668
            ],
            [
              37.3339742,
              55.831381
            ],
            [
              37.334034,
              55.8313266
            ],
            [
              37.3338203,
              55.8312526
            ],
            [
              37.3336107,
              55.8314435
            ]
          ]
        ]
      }
    },
    {
      "type": "Feature",
      "properties": {
        "id": "moscow_mitino_-2_-2_19d9e7c8_tie_in_stress_osm_way_204259655_25",
        "object_type": "restriction",
        "restriction_type": "road",
        "name": "",
        "osm_kind": "road",
        "osm_id": 204259655,
        "osm_type": "way",
        "osm_tags": {
          "highway": "service"
        },
        "case_id": "moscow_mitino_-2_-2_19d9e7c8_tie_in_stress"
      },
      "geometry": {
        "type": "LineString",
        "coordinates": [
          [
            37.3357111,
            55.8313818
          ],
          [
            37.3358199,
            55.8313939
          ],
          [
            37.3358977,
            55.8313769
          ],
          [
            37.3359841,
            55.8313235
          ],
          [
            37.336373,
            55.8307896
          ]
        ]
      }
    },
    {
      "type": "Feature",
      "properties": {
        "id": "moscow_mitino_-2_-2_19d9e7c8_tie_in_stress_osm_way_234278406_26",
        "object_type": "restriction",
        "restriction_type": "road",
        "name": "",
        "osm_kind": "road",
        "osm_id": 234278406,
        "osm_type": "way",
        "osm_tags": {
          "highway": "footway"
        },
        "case_id": "moscow_mitino_-2_-2_19d9e7c8_tie_in_stress"
      },
      "geometry": {
        "type": "LineString",
        "coordinates": [
          [
            37.3314203,
            55.8298671
          ],
          [
            37.3315248,
            55.829894
          ]
        ]
      }
    },
    {
      "type": "Feature",
      "properties": {
        "id": "moscow_mitino_-2_-2_19d9e7c8_tie_in_stress_osm_way_234278412_27",
        "object_type": "restriction",
        "restriction_type": "park",
        "name": "",
        "osm_kind": "green",
        "osm_id": 234278412,
        "osm_type": "way",
        "osm_tags": {
          "leisure": "park"
        },
        "case_id": "moscow_mitino_-2_-2_19d9e7c8_tie_in_stress"
      },
      "geometry": {
        "type": "Polygon",
        "coordinates": [
          [
            [
              37.3327764,
              55.8288348
            ],
            [
              37.3320128,
              55.8286408
            ],
            [
              37.3310166,
              55.8298799
            ],
            [
              37.3308983,
              55.830037
            ],
            [
              37.3307733,
              55.8301636
            ],
            [
              37.3306695,
              55.8302504
            ],
            [
              37.3305337,
              55.8303301
            ],
            [
              37.3303151,
              55.8304503
            ],
            [
              37.3312315,
              55.8309753
            ],
            [
              37.3312853,
              55.8309721
            ],
            [
              37.331588,
              55.8303995
            ],
            [
              37.3316849,
              55.8302254
            ],
            [
              37.331807,
              55.8300414
            ],
            [
              37.3327764,
              55.8288348
            ]
          ]
        ]
      }
    },
    {
      "type": "Feature",
      "properties": {
        "id": "moscow_mitino_-2_-2_19d9e7c8_tie_in_stress_osm_way_273377230_28",
        "object_type": "restriction",
        "restriction_type": "road",
        "name": "",
        "osm_kind": "road",
        "osm_id": 273377230,
        "osm_type": "way",
        "osm_tags": {
          "highway": "footway"
        },
        "case_id": "moscow_mitino_-2_-2_19d9e7c8_tie_in_stress"
      },
      "geometry": {
        "type": "LineString",
        "coordinates": [
          [
            37.3314619,
            55.8311336
          ],
          [
            37.3315237,
            55.8310635
          ],
          [
            37.3320899,
            55.830049
          ],
          [
            37.3337723,
            55.8279702
          ],
          [
            37.3339187,
            55.8278076
          ],
          [
            37.3340834,
            55.8276091
          ],
          [
            37.3345338,
            55.827047
          ],
          [
            37.3362021,
            55.8250304
          ],
          [
            37.3364739,
            55.8246967
          ],
          [
            37.3366443,
            55.8244875
          ],
          [
            37.3366709,
            55.8244549
          ]
        ]
      }
    },
    {
      "type": "Feature",
      "properties": {
        "id": "moscow_mitino_-2_-2_19d9e7c8_tie_in_stress_osm_way_273377232_29",
        "object_type": "restriction",
        "restriction_type": "railway",
        "name": "",
        "osm_kind": "railway",
        "osm_id": 273377232,
        "osm_type": "way",
        "osm_tags": {
          "railway": "disused"
        },
        "case_id": "moscow_mitino_-2_-2_19d9e7c8_tie_in_stress"
      },
      "geometry": {
        "type": "LineString",
        "coordinates": [
          [
            37.3375105,
            55.8290504
          ],
          [
            37.337359,
            55.8293151
          ],
          [
            37.337307,
            55.8294099
          ],
          [
            37.3372758,
            55.829464
          ],
          [
            37.3364146,
            55.8305394
          ],
          [
            37.3358184,
            55.8312873
          ]
        ]
      }
    },
    {
      "type": "Feature",
      "properties": {
        "id": "moscow_mitino_-2_-2_19d9e7c8_tie_in_stress_osm_way_273377244_30",
        "object_type": "restriction",
        "restriction_type": "oks",
        "name": "",
        "osm_kind": "building",
        "osm_id": 273377244,
        "osm_type": "way",
        "osm_tags": {
          "building": "yes"
        },
        "case_id": "moscow_mitino_-2_-2_19d9e7c8_tie_in_stress"
      },
      "geometry": {
        "type": "Polygon",
        "coordinates": [
          [
            [
              37.3356136,
              55.832021
            ],
            [
              37.3357172,
              55.8320443
            ],
            [
              37.3358571,
              55.8318479
            ],
            [
              37.3357535,
              55.8318247
            ],
            [
              37.3356136,
              55.832021
            ]
          ]
        ]
      }
    },
    {
      "type": "Feature",
      "properties": {
        "id": "moscow_mitino_-2_-2_19d9e7c8_tie_in_stress_osm_way_385431967_31",
        "object_type": "restriction",
        "restriction_type": "road",
        "name": "Речная улица",
        "osm_kind": "major_road",
        "osm_id": 385431967,
        "osm_type": "way",
        "osm_tags": {
          "highway": "secondary",
          "name": "Речная улица"
        },
        "case_id": "moscow_mitino_-2_-2_19d9e7c8_tie_in_stress"
      },
      "geometry": {
        "type": "LineString",
        "coordinates": [
          [
            37.3317868,
            55.8302287
          ],
          [
            37.3318746,
            55.8300962
          ],
          [
            37.332677,
            55.8290885
          ],
          [
            37.3328628,
            55.8288563
          ]
        ]
      }
    },
    {
      "type": "Feature",
      "properties": {
        "id": "moscow_mitino_-2_-2_19d9e7c8_tie_in_stress_osm_way_427616763_32",
        "object_type": "restriction",
        "restriction_type": "road",
        "name": "",
        "osm_kind": "road",
        "osm_id": 427616763,
        "osm_type": "way",
        "osm_tags": {
          "highway": "footway"
        },
        "case_id": "moscow_mitino_-2_-2_19d9e7c8_tie_in_stress"
      },
      "geometry": {
        "type": "LineString",
        "coordinates": [
          [
            37.3312312,
            55.8315489
          ],
          [
            37.3314619,
            55.8311336
          ]
        ]
      }
    },
    {
      "type": "Feature",
      "properties": {
        "id": "moscow_mitino_-2_-2_19d9e7c8_tie_in_stress_osm_way_452293962_33",
        "object_type": "restriction",
        "restriction_type": "road",
        "name": "",
        "osm_kind": "road",
        "osm_id": 452293962,
        "osm_type": "way",
        "osm_tags": {
          "highway": "footway"
        },
        "case_id": "moscow_mitino_-2_-2_19d9e7c8_tie_in_stress"
      },
      "geometry": {
        "type": "LineString",
        "coordinates": [
          [
            37.3314282,
            55.8294084
          ],
          [
            37.3315445,
            55.829711
          ]
        ]
      }
    },
    {
      "type": "Feature",
      "properties": {
        "id": "moscow_mitino_-2_-2_19d9e7c8_tie_in_stress_osm_way_452293963_34",
        "object_type": "restriction",
        "restriction_type": "road",
        "name": "",
        "osm_kind": "road",
        "osm_id": 452293963,
        "osm_type": "way",
        "osm_tags": {
          "highway": "footway"
        },
        "case_id": "moscow_mitino_-2_-2_19d9e7c8_tie_in_stress"
      },
      "geometry": {
        "type": "LineString",
        "coordinates": [
          [
            37.33129,
            55.829326
          ],
          [
            37.3313638,
            55.82937
          ],
          [
            37.3314282,
            55.8294084
          ]
        ]
      }
    },
    {
      "type": "Feature",
      "properties": {
        "id": "moscow_mitino_-2_-2_19d9e7c8_tie_in_stress_osm_way_1308805797_35",
        "object_type": "restriction",
        "restriction_type": "road",
        "name": "Речная улица",
        "osm_kind": "major_road",
        "osm_id": 1308805797,
        "osm_type": "way",
        "osm_tags": {
          "highway": "secondary",
          "name": "Речная улица"
        },
        "case_id": "moscow_mitino_-2_-2_19d9e7c8_tie_in_stress"
      },
      "geometry": {
        "type": "LineString",
        "coordinates": [
          [
            37.3310149,
            55.8317017
          ],
          [
            37.3310585,
            55.8316138
          ],
          [
            37.3311053,
            55.8315192
          ],
          [
            37.3313207,
            55.83111
          ],
          [
            37.3313535,
            55.8310486
          ],
          [
            37.33139,
            55.83098
          ],
          [
            37.3315068,
            55.8307609
          ]
        ]
      }
    },
    {
      "type": "Feature",
      "properties": {
        "id": "moscow_mitino_-2_-2_19d9e7c8_tie_in_stress_osm_way_1308805799_36",
        "object_type": "restriction",
        "restriction_type": "road",
        "name": "Речная улица",
        "osm_kind": "major_road",
        "osm_id": 1308805799,
        "osm_type": "way",
        "osm_tags": {
          "highway": "secondary",
          "name": "Речная улица"
        },
        "case_id": "moscow_mitino_-2_-2_19d9e7c8_tie_in_stress"
      },
      "geometry": {
        "type": "LineString",
        "coordinates": [
          [
            37.3315068,
            55.8307609
          ],
          [
            37.3316768,
            55.8304219
          ],
          [
            37.3317868,
            55.8302287
          ]
        ]
      }
    },
    {
      "type": "Feature",
      "properties": {
        "id": "moscow_mitino_-2_-2_19d9e7c8_tie_in_stress_osm_way_1314385116_37",
        "object_type": "restriction",
        "restriction_type": "road",
        "name": "",
        "osm_kind": "road",
        "osm_id": 1314385116,
        "osm_type": "way",
        "osm_tags": {
          "highway": "footway"
        },
        "case_id": "moscow_mitino_-2_-2_19d9e7c8_tie_in_stress"
      },
      "geometry": {
        "type": "LineString",
        "coordinates": [
          [
            37.3313962,
            55.8311226
          ],
          [
            37.3314619,
            55.8311336
          ]
        ]
      }
    },
    {
      "type": "Feature",
      "properties": {
        "id": "moscow_mitino_-2_-2_19d9e7c8_tie_in_stress_source",
        "object_type": "source",
        "case_id": "moscow_mitino_-2_-2_19d9e7c8_tie_in_stress"
      },
      "geometry": {
        "type": "Point",
        "coordinates": [
          37.331719486666664,
          55.8307287
        ]
      }
    },
    {
      "type": "Feature",
      "properties": {
        "id": "moscow_mitino_-2_-2_19d9e7c8_tie_in_stress_existing_network_a",
        "object_type": "heat_network",
        "diameter": 700,
        "flow_tph": 260.0,
        "upstream_object_id": "moscow_mitino_-2_-2_19d9e7c8_tie_in_stress_source",
        "case_id": "moscow_mitino_-2_-2_19d9e7c8_tie_in_stress"
      },
      "geometry": {
        "type": "LineString",
        "coordinates": [
          [
            37.331719486666664,
            55.8307287
          ],
          [
            37.33235926,
            55.83027953333333
          ]
        ]
      }
    },
    {
      "type": "Feature",
      "properties": {
        "id": "moscow_mitino_-2_-2_19d9e7c8_tie_in_stress_existing_network_b",
        "object_type": "heat_network",
        "diameter": 600,
        "flow_tph": 220.0,
        "upstream_object_id": "moscow_mitino_-2_-2_19d9e7c8_tie_in_stress_source",
        "case_id": "moscow_mitino_-2_-2_19d9e7c8_tie_in_stress"
      },
      "geometry": {
        "type": "LineString",
        "coordinates": [
          [
            37.33235926,
            55.83027953333333
          ],
          [
            37.33283909,
            55.8307287
          ]
        ]
      }
    },
    {
      "type": "Feature",
      "properties": {
        "id": "moscow_mitino_-2_-2_19d9e7c8_tie_in_stress_existing_network_c",
        "object_type": "heat_network",
        "diameter": 500,
        "flow_tph": 180.0,
        "upstream_object_id": "moscow_mitino_-2_-2_19d9e7c8_tie_in_stress_source",
        "case_id": "moscow_mitino_-2_-2_19d9e7c8_tie_in_stress"
      },
      "geometry": {
        "type": "LineString",
        "coordinates": [
          [
            37.33235926,
            55.83027953333333
          ],
          [
            37.33267914666666,
            55.83117786666667
          ]
        ]
      }
    },
    {
      "type": "Feature",
      "properties": {
        "id": "moscow_mitino_-2_-2_19d9e7c8_tie_in_stress_existing_chamber_low",
        "object_type": "heat_chamber",
        "diameter": 700,
        "upstream_object_id": "moscow_mitino_-2_-2_19d9e7c8_tie_in_stress_source",
        "case_id": "moscow_mitino_-2_-2_19d9e7c8_tie_in_stress"
      },
      "geometry": {
        "type": "Point",
        "coordinates": [
          37.33235926,
          55.83027953333333
        ]
      }
    },
    {
      "type": "Feature",
      "properties": {
        "id": "moscow_mitino_-2_-2_19d9e7c8_tie_in_stress_existing_chamber_mid",
        "object_type": "heat_chamber",
        "diameter": 600,
        "upstream_object_id": "moscow_mitino_-2_-2_19d9e7c8_tie_in_stress_source",
        "case_id": "moscow_mitino_-2_-2_19d9e7c8_tie_in_stress"
      },
      "geometry": {
        "type": "Point",
        "coordinates": [
          37.33283909,
          55.8307287
        ]
      }
    },
    {
      "type": "Feature",
      "properties": {
        "id": "moscow_mitino_-2_-2_19d9e7c8_tie_in_stress_existing_chamber_high",
        "object_type": "heat_chamber",
        "diameter": 500,
        "upstream_object_id": "moscow_mitino_-2_-2_19d9e7c8_tie_in_stress_source",
        "case_id": "moscow_mitino_-2_-2_19d9e7c8_tie_in_stress"
      },
      "geometry": {
        "type": "Point",
        "coordinates": [
          37.33267914666666,
          55.83117786666667
        ]
      }
    },
    {
      "type": "Feature",
      "properties": {
        "id": "moscow_mitino_-2_-2_19d9e7c8_tie_in_stress_cp_1",
        "object_type": "oks_connection_point",
        "flow_tph": 70.0,
        "case_id": "moscow_mitino_-2_-2_19d9e7c8_tie_in_stress",
        "consumer_role": "osm_building_heat_demand_proxy",
        "source_building_osm_id": 88614343,
        "source_building_osm_type": "way",
        "source_building_name": "",
        "source_building_tags": {
          "building": "yes"
        },
        "footprint_area_m2": 17511.71,
        "flow_basis": "synthetic_proxy_from_osm_footprint_area",
        "stress_bucket": "tie_in_stress"
      },
      "geometry": {
        "type": "Point",
        "coordinates": [
          37.33446346483113,
          55.82973997996364
        ]
      }
    },
    {
      "type": "Feature",
      "properties": {
        "id": "moscow_mitino_-2_-2_19d9e7c8_tie_in_stress_cp_2",
        "object_type": "oks_connection_point",
        "flow_tph": 70.0,
        "case_id": "moscow_mitino_-2_-2_19d9e7c8_tie_in_stress",
        "consumer_role": "osm_building_heat_demand_proxy",
        "source_building_osm_id": 88614338,
        "source_building_osm_type": "way",
        "source_building_name": "",
        "source_building_tags": {
          "building": "yes"
        },
        "footprint_area_m2": 7807.82,
        "flow_basis": "synthetic_proxy_from_osm_footprint_area",
        "stress_bucket": "tie_in_stress"
      },
      "geometry": {
        "type": "Point",
        "coordinates": [
          37.33541773284655,
          55.830186842934005
        ]
      }
    },
    {
      "type": "Feature",
      "properties": {
        "id": "moscow_mitino_-2_-2_19d9e7c8_tie_in_stress_cp_3",
        "object_type": "oks_connection_point",
        "flow_tph": 24.216,
        "case_id": "moscow_mitino_-2_-2_19d9e7c8_tie_in_stress",
        "consumer_role": "osm_building_heat_demand_proxy",
        "source_building_osm_id": 88614278,
        "source_building_osm_type": "way",
        "source_building_name": "",
        "source_building_tags": {
          "building": "yes"
        },
        "footprint_area_m2": 2179.43,
        "flow_basis": "synthetic_proxy_from_osm_footprint_area",
        "stress_bucket": "tie_in_stress"
      },
      "geometry": {
        "type": "Point",
        "coordinates": [
          37.335839248955224,
          55.830695819124664
        ]
      }
    },
    {
      "type": "Feature",
      "properties": {
        "id": "moscow_mitino_-2_-2_19d9e7c8_tie_in_stress_cp_4",
        "object_type": "oks_connection_point",
        "flow_tph": 12.414,
        "case_id": "moscow_mitino_-2_-2_19d9e7c8_tie_in_stress",
        "consumer_role": "osm_building_heat_demand_proxy",
        "source_building_osm_id": 94596203,
        "source_building_osm_type": "way",
        "source_building_name": "",
        "source_building_tags": {
          "building": "yes"
        },
        "footprint_area_m2": 1117.27,
        "flow_basis": "synthetic_proxy_from_osm_footprint_area",
        "stress_bucket": "tie_in_stress"
      },
      "geometry": {
        "type": "Point",
        "coordinates": [
          37.33629565006396,
          55.83128196094624
        ]
      }
    },
    {
      "type": "Feature",
      "properties": {
        "id": "moscow_mitino_-2_-2_19d9e7c8_tie_in_stress_cp_5",
        "object_type": "oks_connection_point",
        "flow_tph": 5.0,
        "case_id": "moscow_mitino_-2_-2_19d9e7c8_tie_in_stress",
        "consumer_role": "osm_building_heat_demand_proxy",
        "source_building_osm_id": 94596220,
        "source_building_osm_type": "way",
        "source_building_name": "",
        "source_building_tags": {
          "building": "yes"
        },
        "footprint_area_m2": 242.38,
        "flow_basis": "synthetic_proxy_from_osm_footprint_area",
        "stress_bucket": "tie_in_stress"
      },
      "geometry": {
        "type": "Point",
        "coordinates": [
          37.33409155785088,
          55.831129508916206
        ]
      }
    },
    {
      "type": "Feature",
      "properties": {
        "id": "moscow_mitino_-2_-2_19d9e7c8_tie_in_stress_cp_6",
        "object_type": "oks_connection_point",
        "flow_tph": 10.422,
        "case_id": "moscow_mitino_-2_-2_19d9e7c8_tie_in_stress",
        "consumer_role": "osm_building_heat_demand_proxy",
        "source_building_osm_id": 94596324,
        "source_building_osm_type": "way",
        "source_building_name": "",
        "source_building_tags": {
          "building": "yes"
        },
        "footprint_area_m2": 937.99,
        "flow_basis": "synthetic_proxy_from_osm_footprint_area",
        "stress_bucket": "tie_in_stress"
      },
      "geometry": {
        "type": "Point",
        "coordinates": [
          37.3360283974413,
          55.83168016027181
        ]
      }
    },
    {
      "type": "Feature",
      "properties": {
        "id": "moscow_mitino_-2_-2_19d9e7c8_tie_in_stress_cp_7",
        "object_type": "oks_connection_point",
        "flow_tph": 16.88,
        "case_id": "moscow_mitino_-2_-2_19d9e7c8_tie_in_stress",
        "consumer_role": "osm_building_heat_demand_proxy",
        "source_building_osm_id": 88614340,
        "source_building_osm_type": "way",
        "source_building_name": "",
        "source_building_tags": {
          "building": "yes"
        },
        "footprint_area_m2": 1519.23,
        "flow_basis": "synthetic_proxy_from_osm_footprint_area",
        "stress_bucket": "tie_in_stress"
      },
      "geometry": {
        "type": "Point",
        "coordinates": [
          37.334259301089666,
          55.83157243971151
        ]
      }
    },
    {
      "type": "Feature",
      "properties": {
        "id": "moscow_mitino_-2_-2_19d9e7c8_tie_in_stress_cp_8",
        "object_type": "oks_connection_point",
        "flow_tph": 5.0,
        "case_id": "moscow_mitino_-2_-2_19d9e7c8_tie_in_stress",
        "consumer_role": "osm_building_heat_demand_proxy",
        "source_building_osm_id": 204256062,
        "source_building_osm_type": "way",
        "source_building_name": "",
        "source_building_tags": {
          "building": "yes"
        },
        "footprint_area_m2": 345.88,
        "flow_basis": "synthetic_proxy_from_osm_footprint_area",
        "stress_bucket": "tie_in_stress"
      },
      "geometry": {
        "type": "Point",
        "coordinates": [
          37.33380427136688,
          55.83136251365644
        ]
      }
    }
  ]
}