{
  "type": "FeatureCollection",
  "name": "moscow_zil_+3_+1_f47550c6_mixed_scale",
  "crs": {
    "type": "name",
    "properties": {
      "name": "EPSG:4326"
    }
  },
  "metadata": {
    "dataset_version": "osm_building_anchored_routing_scenes_v3",
    "parent_scene_id": "moscow_zil_+3_+1_f47550c6",
    "split": "train",
    "city": "Москва ЗИЛ",
    "seed": "moscow_zil",
    "research_bucket": "mixed_scale",
    "source_research_bucket": "refusal",
    "research_bucket_is_ground_truth": false,
    "bbox_south_west_north_east": [
      55.7205595,
      37.6531569,
      55.7232544,
      37.6579419
    ],
    "real_data_source": "OpenStreetMap via Overpass API",
    "source_file": "data/real_geojson_places/refusal/066_moscow_zil_+3_+1_f47550c6.geojson",
    "real_layers": [
      "restrictions",
      "consumer_building_footprints"
    ],
    "synthetic_layers": [
      "source",
      "heat_network",
      "heat_chamber",
      "heat_demand"
    ],
    "consumer_selection": "deterministic points inside real OSM building footprints",
    "flow_model": "synthetic proxy derived from building footprint area; not metered demand",
    "note": "OSM buildings anchor consumers; heat demand and seed network are synthetic proxies."
  },
  "features": [
    {
      "type": "Feature",
      "properties": {
        "id": "moscow_zil_+3_+1_f47550c6_mixed_scale_osm_way_48346320_1",
        "object_type": "restriction",
        "restriction_type": "oks",
        "name": "",
        "osm_kind": "building",
        "osm_id": 48346320,
        "osm_type": "way",
        "osm_tags": {
          "building": "yes"
        },
        "case_id": "moscow_zil_+3_+1_f47550c6_mixed_scale",
        "selected_as_heat_demand_proxy": true,
        "connection_point_id": "moscow_zil_+3_+1_f47550c6_mixed_scale_cp_6"
      },
      "geometry": {
        "type": "Polygon",
        "coordinates": [
          [
            [
              37.6528758,
              55.722656
            ],
            [
              37.6529923,
              55.7227538
            ],
            [
              37.6530914,
              55.722837
            ],
            [
              37.6548818,
              55.7221608
            ],
            [
              37.6546663,
              55.7219798
            ],
            [
              37.6528758,
              55.722656
            ]
          ]
        ]
      }
    },
    {
      "type": "Feature",
      "properties": {
        "id": "moscow_zil_+3_+1_f47550c6_mixed_scale_osm_way_48346351_2",
        "object_type": "restriction",
        "restriction_type": "oks",
        "name": "",
        "osm_kind": "building",
        "osm_id": 48346351,
        "osm_type": "way",
        "osm_tags": {
          "building": "yes"
        },
        "case_id": "moscow_zil_+3_+1_f47550c6_mixed_scale",
        "selected_as_heat_demand_proxy": true,
        "connection_point_id": "moscow_zil_+3_+1_f47550c6_mixed_scale_cp_1"
      },
      "geometry": {
        "type": "Polygon",
        "coordinates": [
          [
            [
              37.6537638,
              55.7226462
            ],
            [
              37.6543092,
              55.7231529
            ],
            [
              37.654607,
              55.7230512
            ],
            [
              37.6544362,
              55.7228925
            ],
            [
              37.6554397,
              55.7225501
            ],
            [
              37.6552846,
              55.7224058
            ],
            [
              37.6542794,
              55.7227488
            ],
            [
              37.6541998,
              55.7226748
            ],
            [
              37.6551959,
              55.7223347
            ],
            [
              37.6550563,
              55.722205
            ],
            [
              37.6537638,
              55.7226462
            ]
          ]
        ]
      }
    },
    {
      "type": "Feature",
      "properties": {
        "id": "moscow_zil_+3_+1_f47550c6_mixed_scale_osm_way_55626952_3",
        "object_type": "restriction",
        "restriction_type": "oks",
        "name": "",
        "osm_kind": "building",
        "osm_id": 55626952,
        "osm_type": "way",
        "osm_tags": {
          "building": "yes"
        },
        "case_id": "moscow_zil_+3_+1_f47550c6_mixed_scale"
      },
      "geometry": {
        "type": "Polygon",
        "coordinates": [
          [
            [
              37.653051,
              55.7218732
            ],
            [
              37.6532381,
              55.7218085
            ],
            [
              37.653507,
              55.7220553
            ],
            [
              37.6533198,
              55.72212
            ],
            [
              37.653051,
              55.7218732
            ]
          ]
        ]
      }
    },
    {
      "type": "Feature",
      "properties": {
        "id": "moscow_zil_+3_+1_f47550c6_mixed_scale_osm_way_55627034_4",
        "object_type": "restriction",
        "restriction_type": "oks",
        "name": "",
        "osm_kind": "building",
        "osm_id": 55627034,
        "osm_type": "way",
        "osm_tags": {
          "building": "yes"
        },
        "case_id": "moscow_zil_+3_+1_f47550c6_mixed_scale",
        "selected_as_heat_demand_proxy": true,
        "connection_point_id": "moscow_zil_+3_+1_f47550c6_mixed_scale_cp_7"
      },
      "geometry": {
        "type": "Polygon",
        "coordinates": [
          [
            [
              37.6533073,
              55.7221732
            ],
            [
              37.6537665,
              55.722014
            ],
            [
              37.6536346,
              55.7218895
            ],
            [
              37.6542561,
              55.7216726
            ],
            [
              37.6545177,
              55.7219057
            ],
            [
              37.6539952,
              55.722094
            ],
            [
              37.6534508,
              55.7222902
            ],
            [
              37.6533073,
              55.7221732
            ]
          ]
        ]
      }
    },
    {
      "type": "Feature",
      "properties": {
        "id": "moscow_zil_+3_+1_f47550c6_mixed_scale_osm_way_55627038_5",
        "object_type": "restriction",
        "restriction_type": "road",
        "name": "",
        "osm_kind": "road",
        "osm_id": 55627038,
        "osm_type": "way",
        "osm_tags": {
          "highway": "service"
        },
        "case_id": "moscow_zil_+3_+1_f47550c6_mixed_scale"
      },
      "geometry": {
        "type": "LineString",
        "coordinates": [
          [
            37.6537996,
            55.7208898
          ],
          [
            37.6537095,
            55.7209372
          ],
          [
            37.6535939,
            55.7209909
          ],
          [
            37.6535048,
            55.7210321
          ],
          [
            37.6533037,
            55.7211451
          ]
        ]
      }
    },
    {
      "type": "Feature",
      "properties": {
        "id": "moscow_zil_+3_+1_f47550c6_mixed_scale_osm_way_55983925_6",
        "object_type": "restriction",
        "restriction_type": "oks",
        "name": "",
        "osm_kind": "building",
        "osm_id": 55983925,
        "osm_type": "way",
        "osm_tags": {
          "building": "yes"
        },
        "case_id": "moscow_zil_+3_+1_f47550c6_mixed_scale",
        "selected_as_heat_demand_proxy": true,
        "connection_point_id": "moscow_zil_+3_+1_f47550c6_mixed_scale_cp_4"
      },
      "geometry": {
        "type": "Polygon",
        "coordinates": [
          [
            [
              37.6553735,
              55.7230641
            ],
            [
              37.6557612,
              55.7229364
            ],
            [
              37.6554259,
              55.7226133
            ],
            [
              37.6555581,
              55.7225698
            ],
            [
              37.6550536,
              55.7220838
            ],
            [
              37.6549946,
              55.7221032
            ],
            [
              37.6554717,
              55.7225627
            ],
            [
              37.6553417,
              55.7226056
            ],
            [
              37.6556253,
              55.7228788
            ],
            [
              37.6552943,
              55.7229878
            ],
            [
              37.6553735,
              55.7230641
            ]
          ]
        ]
      }
    },
    {
      "type": "Feature",
      "properties": {
        "id": "moscow_zil_+3_+1_f47550c6_mixed_scale_osm_way_55983926_7",
        "object_type": "restriction",
        "restriction_type": "road",
        "name": "",
        "osm_kind": "road",
        "osm_id": 55983926,
        "osm_type": "way",
        "osm_tags": {
          "highway": "service"
        },
        "case_id": "moscow_zil_+3_+1_f47550c6_mixed_scale"
      },
      "geometry": {
        "type": "LineString",
        "coordinates": [
          [
            37.654708,
            55.7213854
          ],
          [
            37.6545648,
            55.7214477
          ],
          [
            37.6545354,
            55.7214603
          ],
          [
            37.6543038,
            55.7215605
          ]
        ]
      }
    },
    {
      "type": "Feature",
      "properties": {
        "id": "moscow_zil_+3_+1_f47550c6_mixed_scale_osm_way_55983927_8",
        "object_type": "restriction",
        "restriction_type": "road",
        "name": "",
        "osm_kind": "road",
        "osm_id": 55983927,
        "osm_type": "way",
        "osm_tags": {
          "highway": "service"
        },
        "case_id": "moscow_zil_+3_+1_f47550c6_mixed_scale"
      },
      "geometry": {
        "type": "LineString",
        "coordinates": [
          [
            37.6545354,
            55.7214603
          ],
          [
            37.6545641,
            55.72149
          ]
        ]
      }
    },
    {
      "type": "Feature",
      "properties": {
        "id": "moscow_zil_+3_+1_f47550c6_mixed_scale_osm_way_55983934_9",
        "object_type": "restriction",
        "restriction_type": "oks",
        "name": "",
        "osm_kind": "building",
        "osm_id": 55983934,
        "osm_type": "way",
        "osm_tags": {
          "building": "yes"
        },
        "case_id": "moscow_zil_+3_+1_f47550c6_mixed_scale",
        "selected_as_heat_demand_proxy": true,
        "connection_point_id": "moscow_zil_+3_+1_f47550c6_mixed_scale_cp_3"
      },
      "geometry": {
        "type": "Polygon",
        "coordinates": [
          [
            [
              37.6548667,
              55.7221143
            ],
            [
              37.6550379,
              55.7220537
            ],
            [
              37.6544893,
              55.7215871
            ],
            [
              37.6543044,
              55.7216562
            ],
            [
              37.6548667,
              55.7221143
            ]
          ]
        ]
      }
    },
    {
      "type": "Feature",
      "properties": {
        "id": "moscow_zil_+3_+1_f47550c6_mixed_scale_osm_way_55983936_10",
        "object_type": "restriction",
        "restriction_type": "oks",
        "name": "",
        "osm_kind": "building",
        "osm_id": 55983936,
        "osm_type": "way",
        "osm_tags": {
          "building": "apartments"
        },
        "case_id": "moscow_zil_+3_+1_f47550c6_mixed_scale",
        "selected_as_heat_demand_proxy": true,
        "connection_point_id": "moscow_zil_+3_+1_f47550c6_mixed_scale_cp_8"
      },
      "geometry": {
        "type": "Polygon",
        "coordinates": [
          [
            [
              37.6541946,
              55.7215251
            ],
            [
              37.6543281,
              55.7214464
            ],
            [
              37.6536839,
              55.7211001
            ],
            [
              37.6535505,
              55.7211788
            ],
            [
              37.6536584,
              55.7212368
            ],
            [
              37.6538795,
              55.7213557
            ],
            [
              37.6541055,
              55.7214772
            ],
            [
              37.6541946,
              55.7215251
            ]
          ]
        ]
      }
    },
    {
      "type": "Feature",
      "properties": {
        "id": "moscow_zil_+3_+1_f47550c6_mixed_scale_osm_way_55985025_11",
        "object_type": "restriction",
        "restriction_type": "road",
        "name": "",
        "osm_kind": "road",
        "osm_id": 55985025,
        "osm_type": "way",
        "osm_tags": {
          "highway": "service"
        },
        "case_id": "moscow_zil_+3_+1_f47550c6_mixed_scale"
      },
      "geometry": {
        "type": "LineString",
        "coordinates": [
          [
            37.6555219,
            55.722074
          ],
          [
            37.6554528,
            55.7220982
          ],
          [
            37.6553006,
            55.7221381
          ],
          [
            37.6551573,
            55.7221544
          ]
        ]
      }
    },
    {
      "type": "Feature",
      "properties": {
        "id": "moscow_zil_+3_+1_f47550c6_mixed_scale_osm_way_56215891_12",
        "object_type": "restriction",
        "restriction_type": "road",
        "name": "",
        "osm_kind": "road",
        "osm_id": 56215891,
        "osm_type": "way",
        "osm_tags": {
          "highway": "service"
        },
        "case_id": "moscow_zil_+3_+1_f47550c6_mixed_scale"
      },
      "geometry": {
        "type": "LineString",
        "coordinates": [
          [
            37.655136,
            55.7232066
          ],
          [
            37.6550607,
            55.7232307
          ],
          [
            37.6523381,
            55.7240875
          ]
        ]
      }
    },
    {
      "type": "Feature",
      "properties": {
        "id": "moscow_zil_+3_+1_f47550c6_mixed_scale_osm_way_56215894_13",
        "object_type": "restriction",
        "restriction_type": "road",
        "name": "",
        "osm_kind": "road",
        "osm_id": 56215894,
        "osm_type": "way",
        "osm_tags": {
          "highway": "service"
        },
        "case_id": "moscow_zil_+3_+1_f47550c6_mixed_scale"
      },
      "geometry": {
        "type": "LineString",
        "coordinates": [
          [
            37.6557486,
            55.722638
          ],
          [
            37.655331,
            55.7221725
          ],
          [
            37.6553006,
            55.7221381
          ],
          [
            37.6552691,
            55.7221064
          ],
          [
            37.6549685,
            55.7218333
          ],
          [
            37.6545641,
            55.72149
          ]
        ]
      }
    },
    {
      "type": "Feature",
      "properties": {
        "id": "moscow_zil_+3_+1_f47550c6_mixed_scale_osm_way_56215899_14",
        "object_type": "restriction",
        "restriction_type": "road",
        "name": "",
        "osm_kind": "road",
        "osm_id": 56215899,
        "osm_type": "way",
        "osm_tags": {
          "highway": "footway"
        },
        "case_id": "moscow_zil_+3_+1_f47550c6_mixed_scale"
      },
      "geometry": {
        "type": "LineString",
        "coordinates": [
          [
            37.6550607,
            55.7232307
          ],
          [
            37.6550876,
            55.7232559
          ],
          [
            37.6551172,
            55.7232841
          ]
        ]
      }
    },
    {
      "type": "Feature",
      "properties": {
        "id": "moscow_zil_+3_+1_f47550c6_mixed_scale_osm_way_56215909_15",
        "object_type": "restriction",
        "restriction_type": "oks",
        "name": "",
        "osm_kind": "building",
        "osm_id": 56215909,
        "osm_type": "way",
        "osm_tags": {
          "building": "yes"
        },
        "case_id": "moscow_zil_+3_+1_f47550c6_mixed_scale",
        "selected_as_heat_demand_proxy": true,
        "connection_point_id": "moscow_zil_+3_+1_f47550c6_mixed_scale_cp_5"
      },
      "geometry": {
        "type": "Polygon",
        "coordinates": [
          [
            [
              37.6556029,
              55.7236468
            ],
            [
              37.655874,
              55.7235556
            ],
            [
              37.6554152,
              55.7231228
            ],
            [
              37.6552823,
              55.7229974
            ],
            [
              37.655011,
              55.7230887
            ],
            [
              37.655136,
              55.7232066
            ],
            [
              37.6551617,
              55.7232307
            ],
            [
              37.6556029,
              55.7236468
            ]
          ]
        ]
      }
    },
    {
      "type": "Feature",
      "properties": {
        "id": "moscow_zil_+3_+1_f47550c6_mixed_scale_osm_way_56215927_16",
        "object_type": "restriction",
        "restriction_type": "road",
        "name": "",
        "osm_kind": "road",
        "osm_id": 56215927,
        "osm_type": "way",
        "osm_tags": {
          "highway": "service"
        },
        "case_id": "moscow_zil_+3_+1_f47550c6_mixed_scale"
      },
      "geometry": {
        "type": "LineString",
        "coordinates": [
          [
            37.6554152,
            55.7231228
          ],
          [
            37.6553896,
            55.7231301
          ],
          [
            37.655136,
            55.7232066
          ]
        ]
      }
    },
    {
      "type": "Feature",
      "properties": {
        "id": "moscow_zil_+3_+1_f47550c6_mixed_scale_osm_way_56215928_17",
        "object_type": "restriction",
        "restriction_type": "road",
        "name": "",
        "osm_kind": "road",
        "osm_id": 56215928,
        "osm_type": "way",
        "osm_tags": {
          "highway": "service"
        },
        "case_id": "moscow_zil_+3_+1_f47550c6_mixed_scale"
      },
      "geometry": {
        "type": "LineString",
        "coordinates": [
          [
            37.6526541,
            55.7236454
          ],
          [
            37.6541813,
            55.723145
          ]
        ]
      }
    },
    {
      "type": "Feature",
      "properties": {
        "id": "moscow_zil_+3_+1_f47550c6_mixed_scale_osm_way_56215939_18",
        "object_type": "restriction",
        "restriction_type": "road",
        "name": "",
        "osm_kind": "road",
        "osm_id": 56215939,
        "osm_type": "way",
        "osm_tags": {
          "highway": "service"
        },
        "case_id": "moscow_zil_+3_+1_f47550c6_mixed_scale"
      },
      "geometry": {
        "type": "LineString",
        "coordinates": [
          [
            37.6560443,
            55.7225722
          ],
          [
            37.6559279,
            55.7225955
          ],
          [
            37.6558382,
            55.7226168
          ],
          [
            37.6558112,
            55.7226223
          ],
          [
            37.6557486,
            55.722638
          ],
          [
            37.6557134,
            55.7226478
          ],
          [
            37.6556509,
            55.7226647
          ],
          [
            37.6553906,
            55.7227376
          ]
        ]
      }
    },
    {
      "type": "Feature",
      "properties": {
        "id": "moscow_zil_+3_+1_f47550c6_mixed_scale_osm_way_56435056_19",
        "object_type": "restriction",
        "restriction_type": "road",
        "name": "",
        "osm_kind": "road",
        "osm_id": 56435056,
        "osm_type": "way",
        "osm_tags": {
          "highway": "service"
        },
        "case_id": "moscow_zil_+3_+1_f47550c6_mixed_scale"
      },
      "geometry": {
        "type": "LineString",
        "coordinates": [
          [
            37.6533037,
            55.7211451
          ],
          [
            37.6533205,
            55.7211542
          ],
          [
            37.653373,
            55.7211827
          ]
        ]
      }
    },
    {
      "type": "Feature",
      "properties": {
        "id": "moscow_zil_+3_+1_f47550c6_mixed_scale_osm_way_58475009_20",
        "object_type": "restriction",
        "restriction_type": "oks",
        "name": "",
        "osm_kind": "building",
        "osm_id": 58475009,
        "osm_type": "way",
        "osm_tags": {
          "building": "yes"
        },
        "case_id": "moscow_zil_+3_+1_f47550c6_mixed_scale"
      },
      "geometry": {
        "type": "Polygon",
        "coordinates": [
          [
            [
              37.6540182,
              55.7229029
            ],
            [
              37.6532671,
              55.7231541
            ],
            [
              37.6524907,
              55.7234137
            ],
            [
              37.6526867,
              55.723601
            ],
            [
              37.6542215,
              55.7230917
            ],
            [
              37.6540182,
              55.7229029
            ]
          ]
        ]
      }
    },
    {
      "type": "Feature",
      "properties": {
        "id": "moscow_zil_+3_+1_f47550c6_mixed_scale_osm_way_58906633_21",
        "object_type": "restriction",
        "restriction_type": "road",
        "name": "",
        "osm_kind": "road",
        "osm_id": 58906633,
        "osm_type": "way",
        "osm_tags": {
          "highway": "service"
        },
        "case_id": "moscow_zil_+3_+1_f47550c6_mixed_scale"
      },
      "geometry": {
        "type": "LineString",
        "coordinates": [
          [
            37.6553906,
            55.7227376
          ],
          [
            37.6541813,
            55.723145
          ]
        ]
      }
    },
    {
      "type": "Feature",
      "properties": {
        "id": "moscow_zil_+3_+1_f47550c6_mixed_scale_osm_way_58908404_22",
        "object_type": "restriction",
        "restriction_type": "road",
        "name": "",
        "osm_kind": "road",
        "osm_id": 58908404,
        "osm_type": "way",
        "osm_tags": {
          "highway": "service"
        },
        "case_id": "moscow_zil_+3_+1_f47550c6_mixed_scale"
      },
      "geometry": {
        "type": "LineString",
        "coordinates": [
          [
            37.6551573,
            55.7221544
          ],
          [
            37.653602,
            55.7226906
          ],
          [
            37.6538311,
            55.7229035
          ],
          [
            37.6536138,
            55.7229782
          ],
          [
            37.6533946,
            55.7230573
          ],
          [
            37.6532355,
            55.7231104
          ],
          [
            37.6530638,
            55.7231677
          ],
          [
            37.6528619,
            55.723236
          ],
          [
            37.6527042,
            55.7232912
          ],
          [
            37.6525983,
            55.7233296
          ],
          [
            37.6524772,
            55.7233735
          ],
          [
            37.6524022,
            55.7234039
          ],
          [
            37.6522551,
            55.7234672
          ],
          [
            37.651509,
            55.7237221
          ]
        ]
      }
    },
    {
      "type": "Feature",
      "properties": {
        "id": "moscow_zil_+3_+1_f47550c6_mixed_scale_osm_way_60227604_23",
        "object_type": "restriction",
        "restriction_type": "oks",
        "name": "",
        "osm_kind": "building",
        "osm_id": 60227604,
        "osm_type": "way",
        "osm_tags": {
          "building": "yes"
        },
        "case_id": "moscow_zil_+3_+1_f47550c6_mixed_scale",
        "selected_as_heat_demand_proxy": true,
        "connection_point_id": "moscow_zil_+3_+1_f47550c6_mixed_scale_cp_2"
      },
      "geometry": {
        "type": "Polygon",
        "coordinates": [
          [
            [
              37.6555309,
              55.7228941
            ],
            [
              37.6554087,
              55.7227738
            ],
            [
              37.654296,
              55.7231629
            ],
            [
              37.6521905,
              55.7238616
            ],
            [
              37.6523199,
              55.723973
            ],
            [
              37.6555309,
              55.7228941
            ]
          ]
        ]
      }
    },
    {
      "type": "Feature",
      "properties": {
        "id": "moscow_zil_+3_+1_f47550c6_mixed_scale_osm_way_81370787_24",
        "object_type": "restriction",
        "restriction_type": "road",
        "name": "",
        "osm_kind": "road",
        "osm_id": 81370787,
        "osm_type": "way",
        "osm_tags": {
          "highway": "footway"
        },
        "case_id": "moscow_zil_+3_+1_f47550c6_mixed_scale"
      },
      "geometry": {
        "type": "LineString",
        "coordinates": [
          [
            37.6524243,
            55.7207706
          ],
          [
            37.65265,
            55.7208638
          ],
          [
            37.6528188,
            55.7209378
          ],
          [
            37.6531583,
            55.7210866
          ],
          [
            37.6531881,
            55.7211129
          ],
          [
            37.6532567,
            55.7211735
          ]
        ]
      }
    },
    {
      "type": "Feature",
      "properties": {
        "id": "moscow_zil_+3_+1_f47550c6_mixed_scale_osm_way_85599667_25",
        "object_type": "restriction",
        "restriction_type": "water",
        "name": "Москва",
        "osm_kind": "water",
        "osm_id": 85599667,
        "osm_type": "way",
        "osm_tags": {
          "name": "Москва",
          "waterway": "river"
        },
        "case_id": "moscow_zil_+3_+1_f47550c6_mixed_scale"
      },
      "geometry": {
        "type": "LineString",
        "coordinates": [
          [
            37.6567176,
            55.7263724
          ],
          [
            37.6574046,
            55.7251857
          ],
          [
            37.6577085,
            55.7235385
          ],
          [
            37.657748,
            55.7233247
          ],
          [
            37.6574046,
            55.7220437
          ],
          [
            37.6566322,
            55.7211494
          ],
          [
            37.654701,
            55.7200617
          ],
          [
            37.6519544,
            55.7189498
          ],
          [
            37.6496799,
            55.7178137
          ],
          [
            37.6486499,
            55.7167984
          ],
          [
            37.6483924,
            55.7152996
          ],
          [
            37.6489503,
            55.713559
          ],
          [
            37.6499803,
            55.71177
          ],
          [
            37.650109,
            55.7105612
          ],
          [
            37.6495082,
            55.7092314
          ],
          [
            37.6486678,
            55.7084309
          ],
          [
            37.6470579,
            55.7077163
          ],
          [
            37.6434315,
            55.7070841
          ],
          [
            37.6421581,
            55.7069511
          ],
          [
            37.6408127,
            55.7069876
          ],
          [
            37.6377494,
            55.7074905
          ],
          [
            37.6357721,
            55.7076796
          ],
          [
            37.6339299,
            55.7077565
          ],
          [
            37.632097,
            55.7076063
          ],
          [
            37.6305825,
            55.707152
          ],
          [
            37.6294951,
            55.7067176
          ],
          [
            37.6288771,
            55.7060671
          ],
          [
            37.6286762,
            55.7055312
          ]
        ]
      }
    },
    {
      "type": "Feature",
      "properties": {
        "id": "moscow_zil_+3_+1_f47550c6_mixed_scale_osm_way_86272825_26",
        "object_type": "restriction",
        "restriction_type": "road",
        "name": "",
        "osm_kind": "road",
        "osm_id": 86272825,
        "osm_type": "way",
        "osm_tags": {
          "highway": "service"
        },
        "case_id": "moscow_zil_+3_+1_f47550c6_mixed_scale"
      },
      "geometry": {
        "type": "LineString",
        "coordinates": [
          [
            37.6530264,
            55.7211213
          ],
          [
            37.6531583,
            55.7210866
          ],
          [
            37.6535048,
            55.7210321
          ]
        ]
      }
    },
    {
      "type": "Feature",
      "properties": {
        "id": "moscow_zil_+3_+1_f47550c6_mixed_scale_osm_way_131591147_27",
        "object_type": "restriction",
        "restriction_type": "road",
        "name": "Дербеневская набережная",
        "osm_kind": "major_road",
        "osm_id": 131591147,
        "osm_type": "way",
        "osm_tags": {
          "highway": "secondary",
          "name": "Дербеневская набережная"
        },
        "case_id": "moscow_zil_+3_+1_f47550c6_mixed_scale"
      },
      "geometry": {
        "type": "LineString",
        "coordinates": [
          [
            37.6562534,
            55.7241282
          ],
          [
            37.6562578,
            55.7240683
          ],
          [
            37.6562598,
            55.7240407
          ],
          [
            37.6562739,
            55.7238461
          ],
          [
            37.6562755,
            55.7236319
          ],
          [
            37.6562514,
            55.7234077
          ],
          [
            37.6562199,
            55.7232971
          ],
          [
            37.6561827,
            55.723165
          ],
          [
            37.6561348,
            55.7230019
          ],
          [
            37.6560534,
            55.7228233
          ]
        ]
      }
    },
    {
      "type": "Feature",
      "properties": {
        "id": "moscow_zil_+3_+1_f47550c6_mixed_scale_osm_way_164881262_28",
        "object_type": "restriction",
        "restriction_type": "road",
        "name": "Симоновская набережная",
        "osm_kind": "road",
        "osm_id": 164881262,
        "osm_type": "way",
        "osm_tags": {
          "highway": "unclassified",
          "name": "Симоновская набережная"
        },
        "case_id": "moscow_zil_+3_+1_f47550c6_mixed_scale"
      },
      "geometry": {
        "type": "LineString",
        "coordinates": [
          [
            37.6579276,
            55.7210829
          ],
          [
            37.6577636,
            55.7209171
          ],
          [
            37.6572045,
            55.7204904
          ],
          [
            37.6566039,
            55.7201431
          ],
          [
            37.6559716,
            55.7198288
          ],
          [
            37.655392,
            55.7195407
          ],
          [
            37.6550202,
            55.7193855
          ],
          [
            37.6526823,
            55.7184097
          ]
        ]
      }
    },
    {
      "type": "Feature",
      "properties": {
        "id": "moscow_zil_+3_+1_f47550c6_mixed_scale_osm_way_207177774_29",
        "object_type": "restriction",
        "restriction_type": "road",
        "name": "Дербеневская набережная",
        "osm_kind": "major_road",
        "osm_id": 207177774,
        "osm_type": "way",
        "osm_tags": {
          "highway": "secondary",
          "name": "Дербеневская набережная"
        },
        "case_id": "moscow_zil_+3_+1_f47550c6_mixed_scale"
      },
      "geometry": {
        "type": "LineString",
        "coordinates": [
          [
            37.6515979,
            55.7199136
          ],
          [
            37.6518171,
            55.7200018
          ],
          [
            37.6530824,
            55.7205113
          ],
          [
            37.6538764,
            55.7208433
          ],
          [
            37.6543512,
            55.7210704
          ],
          [
            37.6548006,
            55.7213524
          ],
          [
            37.6553359,
            55.7217648
          ],
          [
            37.6557559,
            55.7221845
          ],
          [
            37.6560443,
            55.7225722
          ],
          [
            37.6561462,
            55.7227465
          ],
          [
            37.6561858,
            55.7228039
          ],
          [
            37.6562492,
            55.7229399
          ],
          [
            37.6562723,
            55.7229895
          ]
        ]
      }
    },
    {
      "type": "Feature",
      "properties": {
        "id": "moscow_zil_+3_+1_f47550c6_mixed_scale_osm_way_207179161_30",
        "object_type": "restriction",
        "restriction_type": "road",
        "name": "Дербеневская набережная",
        "osm_kind": "major_road",
        "osm_id": 207179161,
        "osm_type": "way",
        "osm_tags": {
          "highway": "secondary",
          "name": "Дербеневская набережная"
        },
        "case_id": "moscow_zil_+3_+1_f47550c6_mixed_scale"
      },
      "geometry": {
        "type": "LineString",
        "coordinates": [
          [
            37.6560534,
            55.7228233
          ],
          [
            37.6559279,
            55.7225955
          ],
          [
            37.6556584,
            55.7222292
          ],
          [
            37.6555219,
            55.722074
          ],
          [
            37.6551972,
            55.7217675
          ],
          [
            37.6551158,
            55.7217039
          ],
          [
            37.654708,
            55.7213854
          ],
          [
            37.654255,
            55.7210984
          ],
          [
            37.6537996,
            55.7208898
          ]
        ]
      }
    },
    {
      "type": "Feature",
      "properties": {
        "id": "moscow_zil_+3_+1_f47550c6_mixed_scale_osm_way_207179162_31",
        "object_type": "restriction",
        "restriction_type": "road",
        "name": "Дербеневская набережная",
        "osm_kind": "major_road",
        "osm_id": 207179162,
        "osm_type": "way",
        "osm_tags": {
          "highway": "secondary",
          "name": "Дербеневская набережная"
        },
        "case_id": "moscow_zil_+3_+1_f47550c6_mixed_scale"
      },
      "geometry": {
        "type": "LineString",
        "coordinates": [
          [
            37.6562723,
            55.7229895
          ],
          [
            37.6563655,
            55.7233123
          ],
          [
            37.6564173,
            55.7236408
          ],
          [
            37.6564152,
            55.7237993
          ],
          [
            37.6563985,
            55.7240436
          ],
          [
            37.6563965,
            55.7240723
          ],
          [
            37.6563922,
            55.7241349
          ]
        ]
      }
    },
    {
      "type": "Feature",
      "properties": {
        "id": "moscow_zil_+3_+1_f47550c6_mixed_scale_osm_way_296170917_32",
        "object_type": "restriction",
        "restriction_type": "road",
        "name": "",
        "osm_kind": "road",
        "osm_id": 296170917,
        "osm_type": "way",
        "osm_tags": {
          "highway": "residential"
        },
        "case_id": "moscow_zil_+3_+1_f47550c6_mixed_scale"
      },
      "geometry": {
        "type": "LineString",
        "coordinates": [
          [
            37.6538764,
            55.7208433
          ],
          [
            37.6537996,
            55.7208898
          ]
        ]
      }
    },
    {
      "type": "Feature",
      "properties": {
        "id": "moscow_zil_+3_+1_f47550c6_mixed_scale_osm_way_297163327_33",
        "object_type": "restriction",
        "restriction_type": "road",
        "name": "",
        "osm_kind": "road",
        "osm_id": 297163327,
        "osm_type": "way",
        "osm_tags": {
          "highway": "service"
        },
        "case_id": "moscow_zil_+3_+1_f47550c6_mixed_scale"
      },
      "geometry": {
        "type": "LineString",
        "coordinates": [
          [
            37.653373,
            55.7211827
          ],
          [
            37.653571,
            55.7212875
          ],
          [
            37.6537908,
            55.7214039
          ],
          [
            37.654019,
            55.7215246
          ],
          [
            37.6541818,
            55.7216109
          ],
          [
            37.6543038,
            55.7215605
          ]
        ]
      }
    },
    {
      "type": "Feature",
      "properties": {
        "id": "moscow_zil_+3_+1_f47550c6_mixed_scale_osm_way_297163487_34",
        "object_type": "restriction",
        "restriction_type": "road",
        "name": "",
        "osm_kind": "road",
        "osm_id": 297163487,
        "osm_type": "way",
        "osm_tags": {
          "highway": "service"
        },
        "case_id": "moscow_zil_+3_+1_f47550c6_mixed_scale"
      },
      "geometry": {
        "type": "LineString",
        "coordinates": [
          [
            37.6535939,
            55.7209909
          ],
          [
            37.6535201,
            55.7209592
          ]
        ]
      }
    },
    {
      "type": "Feature",
      "properties": {
        "id": "moscow_zil_+3_+1_f47550c6_mixed_scale_osm_way_297163490_35",
        "object_type": "restriction",
        "restriction_type": "road",
        "name": "",
        "osm_kind": "road",
        "osm_id": 297163490,
        "osm_type": "way",
        "osm_tags": {
          "highway": "service"
        },
        "case_id": "moscow_zil_+3_+1_f47550c6_mixed_scale"
      },
      "geometry": {
        "type": "LineString",
        "coordinates": [
          [
            37.6535201,
            55.7209592
          ],
          [
            37.6532704,
            55.7208512
          ]
        ]
      }
    },
    {
      "type": "Feature",
      "properties": {
        "id": "moscow_zil_+3_+1_f47550c6_mixed_scale_osm_way_297740417_36",
        "object_type": "restriction",
        "restriction_type": "road",
        "name": "",
        "osm_kind": "road",
        "osm_id": 297740417,
        "osm_type": "way",
        "osm_tags": {
          "highway": "service"
        },
        "case_id": "moscow_zil_+3_+1_f47550c6_mixed_scale"
      },
      "geometry": {
        "type": "LineString",
        "coordinates": [
          [
            37.6558601,
            55.7234149
          ],
          [
            37.6556523,
            55.7231509
          ]
        ]
      }
    },
    {
      "type": "Feature",
      "properties": {
        "id": "moscow_zil_+3_+1_f47550c6_mixed_scale_osm_way_299014828_37",
        "object_type": "restriction",
        "restriction_type": "park",
        "name": "",
        "osm_kind": "green",
        "osm_id": 299014828,
        "osm_type": "way",
        "osm_tags": {
          "landuse": "grass"
        },
        "case_id": "moscow_zil_+3_+1_f47550c6_mixed_scale"
      },
      "geometry": {
        "type": "Polygon",
        "coordinates": [
          [
            [
              37.6528571,
              55.7225978
            ],
            [
              37.6528373,
              55.7226074
            ],
            [
              37.6527911,
              55.7225881
            ],
            [
              37.6527554,
              55.7225911
            ],
            [
              37.6526479,
              55.7226348
            ],
            [
              37.6526381,
              55.7226774
            ],
            [
              37.6526845,
              55.7227174
            ],
            [
              37.6527354,
              55.7227413
            ],
            [
              37.6528241,
              55.7227696
            ],
            [
              37.6531685,
              55.7230931
            ],
            [
              37.6531505,
              55.7230989
            ],
            [
              37.6528112,
              55.7227776
            ],
            [
              37.6527092,
              55.7227461
            ],
            [
              37.6526468,
              55.7227145
            ],
            [
              37.6526096,
              55.7226721
            ],
            [
              37.652623,
              55.7226208
            ],
            [
              37.6527598,
              55.7225686
            ],
            [
              37.6527839,
              55.7225678
            ],
            [
              37.6528099,
              55.7225702
            ],
            [
              37.6528571,
              55.7225978
            ]
          ]
        ]
      }
    },
    {
      "type": "Feature",
      "properties": {
        "id": "moscow_zil_+3_+1_f47550c6_mixed_scale_osm_way_299015080_38",
        "object_type": "restriction",
        "restriction_type": "road",
        "name": "",
        "osm_kind": "road",
        "osm_id": 299015080,
        "osm_type": "way",
        "osm_tags": {
          "highway": "service"
        },
        "case_id": "moscow_zil_+3_+1_f47550c6_mixed_scale"
      },
      "geometry": {
        "type": "LineString",
        "coordinates": [
          [
            37.6536138,
            55.7229782
          ],
          [
            37.6534264,
            55.7227925
          ]
        ]
      }
    },
    {
      "type": "Feature",
      "properties": {
        "id": "moscow_zil_+3_+1_f47550c6_mixed_scale_osm_way_299027147_39",
        "object_type": "restriction",
        "restriction_type": "road",
        "name": "",
        "osm_kind": "road",
        "osm_id": 299027147,
        "osm_type": "way",
        "osm_tags": {
          "highway": "residential"
        },
        "case_id": "moscow_zil_+3_+1_f47550c6_mixed_scale"
      },
      "geometry": {
        "type": "LineString",
        "coordinates": [
          [
            37.654708,
            55.7213854
          ],
          [
            37.6548006,
            55.7213524
          ]
        ]
      }
    },
    {
      "type": "Feature",
      "properties": {
        "id": "moscow_zil_+3_+1_f47550c6_mixed_scale_osm_way_299040589_40",
        "object_type": "restriction",
        "restriction_type": "road",
        "name": "",
        "osm_kind": "road",
        "osm_id": 299040589,
        "osm_type": "way",
        "osm_tags": {
          "highway": "service"
        },
        "case_id": "moscow_zil_+3_+1_f47550c6_mixed_scale"
      },
      "geometry": {
        "type": "LineString",
        "coordinates": [
          [
            37.6556523,
            55.7231509
          ],
          [
            37.6555969,
            55.7230787
          ]
        ]
      }
    },
    {
      "type": "Feature",
      "properties": {
        "id": "moscow_zil_+3_+1_f47550c6_mixed_scale_osm_way_300230452_41",
        "object_type": "restriction",
        "restriction_type": "road",
        "name": "",
        "osm_kind": "road",
        "osm_id": 300230452,
        "osm_type": "way",
        "osm_tags": {
          "highway": "service"
        },
        "case_id": "moscow_zil_+3_+1_f47550c6_mixed_scale"
      },
      "geometry": {
        "type": "LineString",
        "coordinates": [
          [
            37.6533946,
            55.7230573
          ],
          [
            37.6532057,
            55.7228857
          ]
        ]
      }
    },
    {
      "type": "Feature",
      "properties": {
        "id": "moscow_zil_+3_+1_f47550c6_mixed_scale_osm_way_310077604_42",
        "object_type": "restriction",
        "restriction_type": "road",
        "name": "",
        "osm_kind": "road",
        "osm_id": 310077604,
        "osm_type": "way",
        "osm_tags": {
          "highway": "service"
        },
        "case_id": "moscow_zil_+3_+1_f47550c6_mixed_scale"
      },
      "geometry": {
        "type": "LineString",
        "coordinates": [
          [
            37.6533037,
            55.7211451
          ],
          [
            37.6532567,
            55.7211735
          ],
          [
            37.6531583,
            55.7212316
          ]
        ]
      }
    },
    {
      "type": "Feature",
      "properties": {
        "id": "moscow_zil_+3_+1_f47550c6_mixed_scale_osm_way_310077746_43",
        "object_type": "restriction",
        "restriction_type": "road",
        "name": "",
        "osm_kind": "road",
        "osm_id": 310077746,
        "osm_type": "way",
        "osm_tags": {
          "highway": "service"
        },
        "case_id": "moscow_zil_+3_+1_f47550c6_mixed_scale"
      },
      "geometry": {
        "type": "LineString",
        "coordinates": [
          [
            37.6529701,
            55.7213412
          ],
          [
            37.6530505,
            55.7213967
          ],
          [
            37.6536655,
            55.7218215
          ],
          [
            37.6535064,
            55.7218826
          ],
          [
            37.6534299,
            55.7218092
          ],
          [
            37.653282,
            55.7217384
          ],
          [
            37.6530974,
            55.7218031
          ],
          [
            37.6529199,
            55.7218653
          ],
          [
            37.6529721,
            55.7219131
          ],
          [
            37.6531886,
            55.7221438
          ]
        ]
      }
    },
    {
      "type": "Feature",
      "properties": {
        "id": "moscow_zil_+3_+1_f47550c6_mixed_scale_osm_way_310208839_44",
        "object_type": "restriction",
        "restriction_type": "road",
        "name": "",
        "osm_kind": "road",
        "osm_id": 310208839,
        "osm_type": "way",
        "osm_tags": {
          "highway": "service"
        },
        "case_id": "moscow_zil_+3_+1_f47550c6_mixed_scale"
      },
      "geometry": {
        "type": "LineString",
        "coordinates": [
          [
            37.6531583,
            55.7212316
          ],
          [
            37.6531128,
            55.7212574
          ],
          [
            37.6530827,
            55.7212753
          ]
        ]
      }
    },
    {
      "type": "Feature",
      "properties": {
        "id": "moscow_zil_+3_+1_f47550c6_mixed_scale_osm_way_316354938_45",
        "object_type": "restriction",
        "restriction_type": "road",
        "name": "",
        "osm_kind": "road",
        "osm_id": 316354938,
        "osm_type": "way",
        "osm_tags": {
          "highway": "footway"
        },
        "case_id": "moscow_zil_+3_+1_f47550c6_mixed_scale"
      },
      "geometry": {
        "type": "LineString",
        "coordinates": [
          [
            37.6563245,
            55.7227873
          ],
          [
            37.6561858,
            55.7228039
          ],
          [
            37.6560534,
            55.7228233
          ],
          [
            37.6559753,
            55.7228381
          ]
        ]
      }
    },
    {
      "type": "Feature",
      "properties": {
        "id": "moscow_zil_+3_+1_f47550c6_mixed_scale_osm_way_316354939_46",
        "object_type": "restriction",
        "restriction_type": "road",
        "name": "",
        "osm_kind": "road",
        "osm_id": 316354939,
        "osm_type": "way",
        "osm_tags": {
          "highway": "path"
        },
        "case_id": "moscow_zil_+3_+1_f47550c6_mixed_scale"
      },
      "geometry": {
        "type": "LineString",
        "coordinates": [
          [
            37.6521719,
            55.7200562
          ],
          [
            37.6536252,
            55.7206433
          ],
          [
            37.6538854,
            55.7207521
          ],
          [
            37.6541925,
            55.7208775
          ],
          [
            37.6544513,
            55.7210225
          ],
          [
            37.6547303,
            55.7211766
          ],
          [
            37.6549878,
            55.7213443
          ],
          [
            37.6553687,
            55.7216343
          ],
          [
            37.6556637,
            55.7218987
          ],
          [
            37.6558863,
            55.7221207
          ],
          [
            37.6560339,
            55.7223081
          ],
          [
            37.6562236,
            55.7225988
          ],
          [
            37.6563245,
            55.7227873
          ]
        ]
      }
    },
    {
      "type": "Feature",
      "properties": {
        "id": "moscow_zil_+3_+1_f47550c6_mixed_scale_osm_way_316377712_47",
        "object_type": "restriction",
        "restriction_type": "road",
        "name": "",
        "osm_kind": "road",
        "osm_id": 316377712,
        "osm_type": "way",
        "osm_tags": {
          "highway": "service"
        },
        "case_id": "moscow_zil_+3_+1_f47550c6_mixed_scale"
      },
      "geometry": {
        "type": "LineString",
        "coordinates": [
          [
            37.653282,
            55.7217384
          ],
          [
            37.6528385,
            55.7214216
          ]
        ]
      }
    },
    {
      "type": "Feature",
      "properties": {
        "id": "moscow_zil_+3_+1_f47550c6_mixed_scale_osm_way_316377713_48",
        "object_type": "restriction",
        "restriction_type": "road",
        "name": "",
        "osm_kind": "road",
        "osm_id": 316377713,
        "osm_type": "way",
        "osm_tags": {
          "highway": "service"
        },
        "case_id": "moscow_zil_+3_+1_f47550c6_mixed_scale"
      },
      "geometry": {
        "type": "LineString",
        "coordinates": [
          [
            37.6531128,
            55.7212574
          ],
          [
            37.653215,
            55.7213307
          ],
          [
            37.6538233,
            55.721755
          ],
          [
            37.6536655,
            55.7218215
          ]
        ]
      }
    },
    {
      "type": "Feature",
      "properties": {
        "id": "moscow_zil_+3_+1_f47550c6_mixed_scale_osm_way_316377716_49",
        "object_type": "restriction",
        "restriction_type": "road",
        "name": "",
        "osm_kind": "road",
        "osm_id": 316377716,
        "osm_type": "way",
        "osm_tags": {
          "highway": "service"
        },
        "case_id": "moscow_zil_+3_+1_f47550c6_mixed_scale"
      },
      "geometry": {
        "type": "LineString",
        "coordinates": [
          [
            37.6535064,
            55.7218826
          ],
          [
            37.6536382,
            55.7220043
          ]
        ]
      }
    },
    {
      "type": "Feature",
      "properties": {
        "id": "moscow_zil_+3_+1_f47550c6_mixed_scale_osm_way_323459899_50",
        "object_type": "restriction",
        "restriction_type": "road",
        "name": "",
        "osm_kind": "road",
        "osm_id": 323459899,
        "osm_type": "way",
        "osm_tags": {
          "highway": "footway"
        },
        "case_id": "moscow_zil_+3_+1_f47550c6_mixed_scale"
      },
      "geometry": {
        "type": "LineString",
        "coordinates": [
          [
            37.6532355,
            55.7231104
          ],
          [
            37.6528118,
            55.7227092
          ]
        ]
      }
    },
    {
      "type": "Feature",
      "properties": {
        "id": "moscow_zil_+3_+1_f47550c6_mixed_scale_osm_way_395982326_51",
        "object_type": "restriction",
        "restriction_type": "oks",
        "name": "КПП",
        "osm_kind": "building",
        "osm_id": 395982326,
        "osm_type": "way",
        "osm_tags": {
          "building": "yes",
          "name": "КПП"
        },
        "case_id": "moscow_zil_+3_+1_f47550c6_mixed_scale"
      },
      "geometry": {
        "type": "Polygon",
        "coordinates": [
          [
            [
              37.6531975,
              55.7212895
            ],
            [
              37.6532383,
              55.7212721
            ],
            [
              37.653209,
              55.7212534
            ],
            [
              37.653169,
              55.7212712
            ],
            [
              37.6531975,
              55.7212895
            ]
          ]
        ]
      }
    },
    {
      "type": "Feature",
      "properties": {
        "id": "moscow_zil_+3_+1_f47550c6_mixed_scale_osm_way_414599862_52",
        "object_type": "restriction",
        "restriction_type": "road",
        "name": "",
        "osm_kind": "road",
        "osm_id": 414599862,
        "osm_type": "way",
        "osm_tags": {
          "highway": "footway"
        },
        "case_id": "moscow_zil_+3_+1_f47550c6_mixed_scale"
      },
      "geometry": {
        "type": "LineString",
        "coordinates": [
          [
            37.6545648,
            55.7214477
          ],
          [
            37.6542137,
            55.7212163
          ],
          [
            37.6537575,
            55.7209732
          ],
          [
            37.6537182,
            55.7209438
          ],
          [
            37.6537095,
            55.7209372
          ],
          [
            37.6536202,
            55.7208908
          ],
          [
            37.6514101,
            55.7199986
          ],
          [
            37.6513627,
            55.7199788
          ],
          [
            37.651131,
            55.7198853
          ]
        ]
      }
    },
    {
      "type": "Feature",
      "properties": {
        "id": "moscow_zil_+3_+1_f47550c6_mixed_scale_osm_way_417973825_53",
        "object_type": "restriction",
        "restriction_type": "road",
        "name": "",
        "osm_kind": "road",
        "osm_id": 417973825,
        "osm_type": "way",
        "osm_tags": {
          "highway": "footway"
        },
        "case_id": "moscow_zil_+3_+1_f47550c6_mixed_scale"
      },
      "geometry": {
        "type": "LineString",
        "coordinates": [
          [
            37.6528592,
            55.7226432
          ],
          [
            37.6535085,
            55.7223903
          ],
          [
            37.6534846,
            55.722342
          ]
        ]
      }
    },
    {
      "type": "Feature",
      "properties": {
        "id": "moscow_zil_+3_+1_f47550c6_mixed_scale_osm_way_424971142_54",
        "object_type": "restriction",
        "restriction_type": "road",
        "name": "Дербеневская набережная",
        "osm_kind": "major_road",
        "osm_id": 424971142,
        "osm_type": "way",
        "osm_tags": {
          "highway": "secondary",
          "name": "Дербеневская набережная"
        },
        "case_id": "moscow_zil_+3_+1_f47550c6_mixed_scale"
      },
      "geometry": {
        "type": "LineString",
        "coordinates": [
          [
            37.6537996,
            55.7208898
          ],
          [
            37.6514834,
            55.7199537
          ],
          [
            37.6511923,
            55.7198372
          ],
          [
            37.650575,
            55.7196106
          ]
        ]
      }
    },
    {
      "type": "Feature",
      "properties": {
        "id": "moscow_zil_+3_+1_f47550c6_mixed_scale_osm_way_425585286_55",
        "object_type": "restriction",
        "restriction_type": "road",
        "name": "",
        "osm_kind": "road",
        "osm_id": 425585286,
        "osm_type": "way",
        "osm_tags": {
          "highway": "footway"
        },
        "case_id": "moscow_zil_+3_+1_f47550c6_mixed_scale"
      },
      "geometry": {
        "type": "LineString",
        "coordinates": [
          [
            37.6559478,
            55.7236617
          ],
          [
            37.6559288,
            55.7236358
          ],
          [
            37.6559233,
            55.7234631
          ],
          [
            37.6559136,
            55.7233945
          ],
          [
            37.6559439,
            55.7230255
          ],
          [
            37.6558825,
            55.7229099
          ],
          [
            37.6558479,
            55.7228961
          ]
        ]
      }
    },
    {
      "type": "Feature",
      "properties": {
        "id": "moscow_zil_+3_+1_f47550c6_mixed_scale_osm_way_430375353_56",
        "object_type": "restriction",
        "restriction_type": "road",
        "name": "",
        "osm_kind": "road",
        "osm_id": 430375353,
        "osm_type": "way",
        "osm_tags": {
          "highway": "service"
        },
        "case_id": "moscow_zil_+3_+1_f47550c6_mixed_scale"
      },
      "geometry": {
        "type": "LineString",
        "coordinates": [
          [
            37.6558479,
            55.7228961
          ],
          [
            37.6556703,
            55.7226871
          ],
          [
            37.6556509,
            55.7226647
          ]
        ]
      }
    },
    {
      "type": "Feature",
      "properties": {
        "id": "moscow_zil_+3_+1_f47550c6_mixed_scale_osm_way_430543591_57",
        "object_type": "restriction",
        "restriction_type": "road",
        "name": "",
        "osm_kind": "road",
        "osm_id": 430543591,
        "osm_type": "way",
        "osm_tags": {
          "highway": "footway"
        },
        "case_id": "moscow_zil_+3_+1_f47550c6_mixed_scale"
      },
      "geometry": {
        "type": "LineString",
        "coordinates": [
          [
            37.6551341,
            55.7217781
          ],
          [
            37.655055,
            55.7218044
          ],
          [
            37.6549685,
            55.7218333
          ]
        ]
      }
    },
    {
      "type": "Feature",
      "properties": {
        "id": "moscow_zil_+3_+1_f47550c6_mixed_scale_osm_way_430544129_58",
        "object_type": "restriction",
        "restriction_type": "road",
        "name": "",
        "osm_kind": "road",
        "osm_id": 430544129,
        "osm_type": "way",
        "osm_tags": {
          "highway": "footway"
        },
        "case_id": "moscow_zil_+3_+1_f47550c6_mixed_scale"
      },
      "geometry": {
        "type": "LineString",
        "coordinates": [
          [
            37.6536584,
            55.7212368
          ],
          [
            37.653571,
            55.7212875
          ]
        ]
      }
    },
    {
      "type": "Feature",
      "properties": {
        "id": "moscow_zil_+3_+1_f47550c6_mixed_scale_osm_way_430544130_59",
        "object_type": "restriction",
        "restriction_type": "road",
        "name": "",
        "osm_kind": "road",
        "osm_id": 430544130,
        "osm_type": "way",
        "osm_tags": {
          "highway": "footway"
        },
        "case_id": "moscow_zil_+3_+1_f47550c6_mixed_scale"
      },
      "geometry": {
        "type": "LineString",
        "coordinates": [
          [
            37.6538795,
            55.7213557
          ],
          [
            37.6537908,
            55.7214039
          ]
        ]
      }
    },
    {
      "type": "Feature",
      "properties": {
        "id": "moscow_zil_+3_+1_f47550c6_mixed_scale_osm_way_430544131_60",
        "object_type": "restriction",
        "restriction_type": "road",
        "name": "",
        "osm_kind": "road",
        "osm_id": 430544131,
        "osm_type": "way",
        "osm_tags": {
          "highway": "footway"
        },
        "case_id": "moscow_zil_+3_+1_f47550c6_mixed_scale"
      },
      "geometry": {
        "type": "LineString",
        "coordinates": [
          [
            37.6541055,
            55.7214772
          ],
          [
            37.654019,
            55.7215246
          ]
        ]
      }
    },
    {
      "type": "Feature",
      "properties": {
        "id": "moscow_zil_+3_+1_f47550c6_mixed_scale_osm_way_430544132_61",
        "object_type": "restriction",
        "restriction_type": "park",
        "name": "",
        "osm_kind": "green",
        "osm_id": 430544132,
        "osm_type": "way",
        "osm_tags": {
          "landuse": "grass"
        },
        "case_id": "moscow_zil_+3_+1_f47550c6_mixed_scale"
      },
      "geometry": {
        "type": "Polygon",
        "coordinates": [
          [
            [
              37.6534712,
              55.7209984
            ],
            [
              37.6534144,
              55.7210213
            ],
            [
              37.653165,
              55.7210658
            ],
            [
              37.6528428,
              55.7209329
            ],
            [
              37.6529193,
              55.7208742
            ],
            [
              37.6530197,
              55.7209148
            ],
            [
              37.6531849,
              55.7207849
            ],
            [
              37.653028,
              55.7207216
            ],
            [
              37.6528628,
              55.7208514
            ],
            [
              37.652901,
              55.7208668
            ],
            [
              37.6528243,
              55.7209257
            ],
            [
              37.6527733,
              55.7209042
            ],
            [
              37.6527976,
              55.720885
            ],
            [
              37.6530575,
              55.7206743
            ],
            [
              37.6536033,
              55.7209011
            ],
            [
              37.6535759,
              55.7209185
            ],
            [
              37.6532898,
              55.7207858
            ],
            [
              37.6531557,
              55.7208715
            ],
            [
              37.6534712,
              55.7209984
            ]
          ]
        ]
      }
    },
    {
      "type": "Feature",
      "properties": {
        "id": "moscow_zil_+3_+1_f47550c6_mixed_scale_osm_way_466901485_62",
        "object_type": "restriction",
        "restriction_type": "road",
        "name": "",
        "osm_kind": "road",
        "osm_id": 466901485,
        "osm_type": "way",
        "osm_tags": {
          "highway": "service"
        },
        "case_id": "moscow_zil_+3_+1_f47550c6_mixed_scale"
      },
      "geometry": {
        "type": "LineString",
        "coordinates": [
          [
            37.6545614,
            55.7219472
          ],
          [
            37.6534846,
            55.722342
          ],
          [
            37.6533206,
            55.7222678
          ],
          [
            37.6531264,
            55.7223372
          ]
        ]
      }
    },
    {
      "type": "Feature",
      "properties": {
        "id": "moscow_zil_+3_+1_f47550c6_mixed_scale_osm_way_582060096_63",
        "object_type": "restriction",
        "restriction_type": "road",
        "name": "",
        "osm_kind": "road",
        "osm_id": 582060096,
        "osm_type": "way",
        "osm_tags": {
          "highway": "service"
        },
        "case_id": "moscow_zil_+3_+1_f47550c6_mixed_scale"
      },
      "geometry": {
        "type": "LineString",
        "coordinates": [
          [
            37.6534846,
            55.722342
          ],
          [
            37.6532191,
            55.7224394
          ]
        ]
      }
    },
    {
      "type": "Feature",
      "properties": {
        "id": "moscow_zil_+3_+1_f47550c6_mixed_scale_osm_way_607787181_64",
        "object_type": "restriction",
        "restriction_type": "oks",
        "name": "",
        "osm_kind": "building",
        "osm_id": 607787181,
        "osm_type": "way",
        "osm_tags": {
          "building": "yes"
        },
        "case_id": "moscow_zil_+3_+1_f47550c6_mixed_scale"
      },
      "geometry": {
        "type": "Polygon",
        "coordinates": [
          [
            [
              37.6558481,
              55.7229507
            ],
            [
              37.6558872,
              55.7229437
            ],
            [
              37.655876,
              55.7229238
            ],
            [
              37.6558369,
              55.7229308
            ],
            [
              37.6558481,
              55.7229507
            ]
          ]
        ]
      }
    },
    {
      "type": "Feature",
      "properties": {
        "id": "moscow_zil_+3_+1_f47550c6_mixed_scale_osm_way_607787182_65",
        "object_type": "restriction",
        "restriction_type": "road",
        "name": "",
        "osm_kind": "road",
        "osm_id": 607787182,
        "osm_type": "way",
        "osm_tags": {
          "highway": "service"
        },
        "case_id": "moscow_zil_+3_+1_f47550c6_mixed_scale"
      },
      "geometry": {
        "type": "LineString",
        "coordinates": [
          [
            37.6554152,
            55.7231228
          ],
          [
            37.6555969,
            55.7230787
          ],
          [
            37.6558032,
            55.7230471
          ],
          [
            37.6559439,
            55.7230255
          ],
          [
            37.6559878,
            55.7230197
          ]
        ]
      }
    },
    {
      "type": "Feature",
      "properties": {
        "id": "moscow_zil_+3_+1_f47550c6_mixed_scale_osm_way_607787183_66",
        "object_type": "restriction",
        "restriction_type": "road",
        "name": "",
        "osm_kind": "road",
        "osm_id": 607787183,
        "osm_type": "way",
        "osm_tags": {
          "highway": "service"
        },
        "case_id": "moscow_zil_+3_+1_f47550c6_mixed_scale"
      },
      "geometry": {
        "type": "LineString",
        "coordinates": [
          [
            37.6559878,
            55.7230197
          ],
          [
            37.6560285,
            55.7230142
          ],
          [
            37.6561348,
            55.7230019
          ]
        ]
      }
    },
    {
      "type": "Feature",
      "properties": {
        "id": "moscow_zil_+3_+1_f47550c6_mixed_scale_osm_way_607787184_67",
        "object_type": "restriction",
        "restriction_type": "park",
        "name": "",
        "osm_kind": "green",
        "osm_id": 607787184,
        "osm_type": "way",
        "osm_tags": {
          "landuse": "grass"
        },
        "case_id": "moscow_zil_+3_+1_f47550c6_mixed_scale"
      },
      "geometry": {
        "type": "Polygon",
        "coordinates": [
          [
            [
              37.6561244,
              55.7233949
            ],
            [
              37.6560694,
              55.7231827
            ],
            [
              37.6560212,
              55.7230897
            ],
            [
              37.6559708,
              55.7231006
            ],
            [
              37.6559333,
              55.723396
            ],
            [
              37.6559688,
              55.7234071
            ],
            [
              37.6561244,
              55.7233949
            ]
          ]
        ]
      }
    },
    {
      "type": "Feature",
      "properties": {
        "id": "moscow_zil_+3_+1_f47550c6_mixed_scale_osm_way_611650476_68",
        "object_type": "restriction",
        "restriction_type": "road",
        "name": "",
        "osm_kind": "road",
        "osm_id": 611650476,
        "osm_type": "way",
        "osm_tags": {
          "highway": "footway"
        },
        "case_id": "moscow_zil_+3_+1_f47550c6_mixed_scale"
      },
      "geometry": {
        "type": "LineString",
        "coordinates": [
          [
            37.6501515,
            55.7247933
          ],
          [
            37.6505654,
            55.7246576
          ],
          [
            37.6523249,
            55.724075
          ],
          [
            37.6523366,
            55.7240047
          ],
          [
            37.6550303,
            55.7231289
          ]
        ]
      }
    },
    {
      "type": "Feature",
      "properties": {
        "id": "moscow_zil_+3_+1_f47550c6_mixed_scale_osm_way_709811593_69",
        "object_type": "restriction",
        "restriction_type": "road",
        "name": "",
        "osm_kind": "road",
        "osm_id": 709811593,
        "osm_type": "way",
        "osm_tags": {
          "highway": "footway"
        },
        "case_id": "moscow_zil_+3_+1_f47550c6_mixed_scale"
      },
      "geometry": {
        "type": "LineString",
        "coordinates": [
          [
            37.6537182,
            55.7209438
          ],
          [
            37.6533205,
            55.7211542
          ]
        ]
      }
    },
    {
      "type": "Feature",
      "properties": {
        "id": "moscow_zil_+3_+1_f47550c6_mixed_scale_osm_way_709811594_70",
        "object_type": "restriction",
        "restriction_type": "road",
        "name": "",
        "osm_kind": "road",
        "osm_id": 709811594,
        "osm_type": "way",
        "osm_tags": {
          "highway": "footway"
        },
        "case_id": "moscow_zil_+3_+1_f47550c6_mixed_scale"
      },
      "geometry": {
        "type": "LineString",
        "coordinates": [
          [
            37.6528765,
            55.7212558
          ],
          [
            37.6528906,
            55.7212335
          ],
          [
            37.6529201,
            55.7212116
          ],
          [
            37.6529536,
            55.7212033
          ],
          [
            37.6530193,
            55.7211995
          ],
          [
            37.6531881,
            55.7211129
          ]
        ]
      }
    },
    {
      "type": "Feature",
      "properties": {
        "id": "moscow_zil_+3_+1_f47550c6_mixed_scale_osm_way_753401908_71",
        "object_type": "restriction",
        "restriction_type": "park",
        "name": "",
        "osm_kind": "green",
        "osm_id": 753401908,
        "osm_type": "way",
        "osm_tags": {
          "landuse": "grass"
        },
        "case_id": "moscow_zil_+3_+1_f47550c6_mixed_scale"
      },
      "geometry": {
        "type": "Polygon",
        "coordinates": [
          [
            [
              37.6541277,
              55.7209013
            ],
            [
              37.6541472,
              55.7208739
            ],
            [
              37.6542345,
              55.7209162
            ],
            [
              37.6541948,
              55.7209378
            ],
            [
              37.6541277,
              55.7209013
            ]
          ]
        ]
      }
    },
    {
      "type": "Feature",
      "properties": {
        "id": "moscow_zil_+3_+1_f47550c6_mixed_scale_osm_way_1498912501_72",
        "object_type": "restriction",
        "restriction_type": "road",
        "name": "",
        "osm_kind": "road",
        "osm_id": 1498912501,
        "osm_type": "way",
        "osm_tags": {
          "highway": "footway"
        },
        "case_id": "moscow_zil_+3_+1_f47550c6_mixed_scale"
      },
      "geometry": {
        "type": "LineString",
        "coordinates": [
          [
            37.655022,
            55.7216859
          ],
          [
            37.6551341,
            55.7217781
          ],
          [
            37.6552411,
            55.7218662
          ],
          [
            37.6554528,
            55.7220982
          ],
          [
            37.6558382,
            55.7226168
          ],
          [
            37.6559753,
            55.7228381
          ],
          [
            37.6560285,
            55.7230142
          ],
          [
            37.6561233,
            55.7232441
          ],
          [
            37.6561699,
            55.7234511
          ],
          [
            37.6562007,
            55.7236312
          ],
          [
            37.6561879,
            55.7239896
          ],
          [
            37.6561627,
            55.7240386
          ],
          [
            37.6561491,
            55.7240651
          ]
        ]
      }
    },
    {
      "type": "Feature",
      "properties": {
        "id": "moscow_zil_+3_+1_f47550c6_mixed_scale_osm_way_1499593738_73",
        "object_type": "restriction",
        "restriction_type": "road",
        "name": "",
        "osm_kind": "road",
        "osm_id": 1499593738,
        "osm_type": "way",
        "osm_tags": {
          "highway": "path"
        },
        "case_id": "moscow_zil_+3_+1_f47550c6_mixed_scale"
      },
      "geometry": {
        "type": "LineString",
        "coordinates": [
          [
            37.6564818,
            55.7232069
          ],
          [
            37.6563825,
            55.7228957
          ],
          [
            37.6563245,
            55.7227873
          ]
        ]
      }
    },
    {
      "type": "Feature",
      "properties": {
        "id": "moscow_zil_+3_+1_f47550c6_mixed_scale_osm_way_1499593739_74",
        "object_type": "restriction",
        "restriction_type": "road",
        "name": "",
        "osm_kind": "road",
        "osm_id": 1499593739,
        "osm_type": "way",
        "osm_tags": {
          "highway": "path"
        },
        "case_id": "moscow_zil_+3_+1_f47550c6_mixed_scale"
      },
      "geometry": {
        "type": "LineString",
        "coordinates": [
          [
            37.6563834,
            55.7248596
          ],
          [
            37.6565171,
            55.7243552
          ],
          [
            37.6565506,
            55.7240768
          ],
          [
            37.6565542,
            55.7240468
          ],
          [
            37.6565771,
            55.7238561
          ],
          [
            37.6565821,
            55.7236807
          ],
          [
            37.656569,
            55.7235364
          ],
          [
            37.6565427,
            55.7234196
          ],
          [
            37.6564818,
            55.7232069
          ]
        ]
      }
    },
    {
      "type": "Feature",
      "properties": {
        "id": "moscow_zil_+3_+1_f47550c6_mixed_scale_osm_way_1556156651_75",
        "object_type": "restriction",
        "restriction_type": "road",
        "name": "Симоновская набережная",
        "osm_kind": "road",
        "osm_id": 1556156651,
        "osm_type": "way",
        "osm_tags": {
          "highway": "unclassified",
          "name": "Симоновская набережная"
        },
        "case_id": "moscow_zil_+3_+1_f47550c6_mixed_scale"
      },
      "geometry": {
        "type": "LineString",
        "coordinates": [
          [
            37.6592261,
            55.7229689
          ],
          [
            37.6591633,
            55.7227154
          ],
          [
            37.6591311,
            55.7226637
          ],
          [
            37.6591087,
            55.7226287
          ],
          [
            37.6587743,
            55.7221059
          ],
          [
            37.6581368,
            55.7213809
          ],
          [
            37.6579276,
            55.7210829
          ]
        ]
      }
    },
    {
      "type": "Feature",
      "properties": {
        "id": "moscow_zil_+3_+1_f47550c6_mixed_scale_osm_way_1556156652_76",
        "object_type": "restriction",
        "restriction_type": "road",
        "name": "",
        "osm_kind": "road",
        "osm_id": 1556156652,
        "osm_type": "way",
        "osm_tags": {
          "highway": "unclassified"
        },
        "case_id": "moscow_zil_+3_+1_f47550c6_mixed_scale"
      },
      "geometry": {
        "type": "LineString",
        "coordinates": [
          [
            37.6579276,
            55.7210829
          ],
          [
            37.6581636,
            55.7212416
          ],
          [
            37.6583245,
            55.7214062
          ],
          [
            37.6585525,
            55.7216766
          ],
          [
            37.6586518,
            55.7217627
          ],
          [
            37.6587135,
            55.7217763
          ],
          [
            37.6588181,
            55.7217824
          ],
          [
            37.6589361,
            55.7217658
          ],
          [
            37.6591912,
            55.7217164
          ],
          [
            37.6592553,
            55.7217081
          ]
        ]
      }
    },
    {
      "type": "Feature",
      "properties": {
        "id": "moscow_zil_+3_+1_f47550c6_mixed_scale_source",
        "object_type": "source",
        "case_id": "moscow_zil_+3_+1_f47550c6_mixed_scale"
      },
      "geometry": {
        "type": "Point",
        "coordinates": [
          37.6534759,
          55.721817120000004
        ]
      }
    },
    {
      "type": "Feature",
      "properties": {
        "id": "moscow_zil_+3_+1_f47550c6_mixed_scale_existing_network",
        "object_type": "heat_network",
        "diameter": 500,
        "flow_tph": 180.0,
        "upstream_object_id": "moscow_zil_+3_+1_f47550c6_mixed_scale_source",
        "case_id": "moscow_zil_+3_+1_f47550c6_mixed_scale"
      },
      "geometry": {
        "type": "LineString",
        "coordinates": [
          [
            37.6534759,
            55.721817120000004
          ],
          [
            37.654911399999996,
            55.721817120000004
          ]
        ]
      }
    },
    {
      "type": "Feature",
      "properties": {
        "id": "moscow_zil_+3_+1_f47550c6_mixed_scale_existing_chamber",
        "object_type": "heat_chamber",
        "diameter": 500,
        "upstream_object_id": "moscow_zil_+3_+1_f47550c6_mixed_scale_source",
        "case_id": "moscow_zil_+3_+1_f47550c6_mixed_scale"
      },
      "geometry": {
        "type": "Point",
        "coordinates": [
          37.654911399999996,
          55.721817120000004
        ]
      }
    },
    {
      "type": "Feature",
      "properties": {
        "id": "moscow_zil_+3_+1_f47550c6_mixed_scale_cp_1",
        "object_type": "oks_connection_point",
        "flow_tph": 62.339,
        "case_id": "moscow_zil_+3_+1_f47550c6_mixed_scale",
        "consumer_role": "osm_building_heat_demand_proxy",
        "source_building_osm_id": 48346351,
        "source_building_osm_type": "way",
        "source_building_name": "",
        "source_building_tags": {
          "building": "yes"
        },
        "footprint_area_m2": 4052.01,
        "flow_basis": "synthetic_proxy_from_osm_footprint_area",
        "stress_bucket": "mixed_scale"
      },
      "geometry": {
        "type": "Point",
        "coordinates": [
          37.654182775,
          55.72283693333333
        ]
      }
    },
    {
      "type": "Feature",
      "properties": {
        "id": "moscow_zil_+3_+1_f47550c6_mixed_scale_cp_2",
        "object_type": "oks_connection_point",
        "flow_tph": 52.377,
        "case_id": "moscow_zil_+3_+1_f47550c6_mixed_scale",
        "consumer_role": "osm_building_heat_demand_proxy",
        "source_building_osm_id": 60227604,
        "source_building_osm_type": "way",
        "source_building_name": "",
        "source_building_tags": {
          "building": "yes"
        },
        "footprint_area_m2": 3404.5,
        "flow_basis": "synthetic_proxy_from_osm_footprint_area",
        "stress_bucket": "mixed_scale"
      },
      "geometry": {
        "type": "Point",
        "coordinates": [
          37.653872112000194,
          55.72338030488081
        ]
      }
    },
    {
      "type": "Feature",
      "properties": {
        "id": "moscow_zil_+3_+1_f47550c6_mixed_scale_cp_3",
        "object_type": "oks_connection_point",
        "flow_tph": 8.26,
        "case_id": "moscow_zil_+3_+1_f47550c6_mixed_scale",
        "consumer_role": "osm_building_heat_demand_proxy",
        "source_building_osm_id": 55983934,
        "source_building_osm_type": "way",
        "source_building_name": "",
        "source_building_tags": {
          "building": "yes"
        },
        "footprint_area_m2": 825.96,
        "flow_basis": "synthetic_proxy_from_osm_footprint_area",
        "stress_bucket": "mixed_scale"
      },
      "geometry": {
        "type": "Point",
        "coordinates": [
          37.65464401638538,
          55.72181025873531
        ]
      }
    },
    {
      "type": "Feature",
      "properties": {
        "id": "moscow_zil_+3_+1_f47550c6_mixed_scale_cp_4",
        "object_type": "oks_connection_point",
        "flow_tph": 7.087,
        "case_id": "moscow_zil_+3_+1_f47550c6_mixed_scale",
        "consumer_role": "osm_building_heat_demand_proxy",
        "source_building_osm_id": 55983925,
        "source_building_osm_type": "way",
        "source_building_name": "",
        "source_building_tags": {
          "building": "yes"
        },
        "footprint_area_m2": 708.67,
        "flow_basis": "synthetic_proxy_from_osm_footprint_area",
        "stress_bucket": "mixed_scale"
      },
      "geometry": {
        "type": "Point",
        "coordinates": [
          37.655439553794444,
          55.722686838914065
        ]
      }
    },
    {
      "type": "Feature",
      "properties": {
        "id": "moscow_zil_+3_+1_f47550c6_mixed_scale_cp_5",
        "object_type": "oks_connection_point",
        "flow_tph": 14.332,
        "case_id": "moscow_zil_+3_+1_f47550c6_mixed_scale",
        "consumer_role": "osm_building_heat_demand_proxy",
        "source_building_osm_id": 56215909,
        "source_building_osm_type": "way",
        "source_building_name": "",
        "source_building_tags": {
          "building": "yes"
        },
        "footprint_area_m2": 1433.19,
        "flow_basis": "synthetic_proxy_from_osm_footprint_area",
        "stress_bucket": "mixed_scale"
      },
      "geometry": {
        "type": "Point",
        "coordinates": [
          37.65544185760652,
          55.72332110606243
        ]
      }
    },
    {
      "type": "Feature",
      "properties": {
        "id": "moscow_zil_+3_+1_f47550c6_mixed_scale_cp_6",
        "object_type": "oks_connection_point",
        "flow_tph": 32.791,
        "case_id": "moscow_zil_+3_+1_f47550c6_mixed_scale",
        "consumer_role": "osm_building_heat_demand_proxy",
        "source_building_osm_id": 48346320,
        "source_building_osm_type": "way",
        "source_building_name": "",
        "source_building_tags": {
          "building": "yes"
        },
        "footprint_area_m2": 3279.1,
        "flow_basis": "synthetic_proxy_from_osm_footprint_area",
        "stress_bucket": "mixed_scale"
      },
      "geometry": {
        "type": "Point",
        "coordinates": [
          37.6538723598909,
          55.72239887048857
        ]
      }
    },
    {
      "type": "Feature",
      "properties": {
        "id": "moscow_zil_+3_+1_f47550c6_mixed_scale_cp_7",
        "object_type": "oks_connection_point",
        "flow_tph": 19.517,
        "case_id": "moscow_zil_+3_+1_f47550c6_mixed_scale",
        "consumer_role": "osm_building_heat_demand_proxy",
        "source_building_osm_id": 55627034,
        "source_building_osm_type": "way",
        "source_building_name": "",
        "source_building_tags": {
          "building": "yes"
        },
        "footprint_area_m2": 1951.72,
        "flow_basis": "synthetic_proxy_from_osm_footprint_area",
        "stress_bucket": "mixed_scale"
      },
      "geometry": {
        "type": "Point",
        "coordinates": [
          37.653944412403746,
          55.72196023707989
        ]
      }
    },
    {
      "type": "Feature",
      "properties": {
        "id": "moscow_zil_+3_+1_f47550c6_mixed_scale_cp_8",
        "object_type": "oks_connection_point",
        "flow_tph": 6.764,
        "case_id": "moscow_zil_+3_+1_f47550c6_mixed_scale",
        "consumer_role": "osm_building_heat_demand_proxy",
        "source_building_osm_id": 55983936,
        "source_building_osm_type": "way",
        "source_building_name": "",
        "source_building_tags": {
          "building": "apartments"
        },
        "footprint_area_m2": 676.37,
        "flow_basis": "synthetic_proxy_from_osm_footprint_area",
        "stress_bucket": "mixed_scale"
      },
      "geometry": {
        "type": "Point",
        "coordinates": [
          37.65395218155001,
          55.72133167744679
        ]
      }
    }
  ]
}