{
  "type": "FeatureCollection",
  "name": "moscow_kommunarka_-2_+2_7dd214fc_mixed_scale",
  "crs": {
    "type": "name",
    "properties": {
      "name": "EPSG:4326"
    }
  },
  "metadata": {
    "dataset_version": "osm_building_anchored_routing_scenes_v3",
    "parent_scene_id": "moscow_kommunarka_-2_+2_7dd214fc",
    "split": "validation",
    "city": "Москва Коммунарка",
    "seed": "moscow_kommunarka",
    "research_bucket": "mixed_scale",
    "source_research_bucket": "refusal",
    "research_bucket_is_ground_truth": false,
    "bbox_south_west_north_east": [
      55.5503812,
      37.4946256,
      55.5530762,
      37.4993898
    ],
    "real_data_source": "OpenStreetMap via Overpass API",
    "source_file": "data/real_geojson_places/refusal/076_moscow_kommunarka_-2_+2_7dd214fc.geojson",
    "real_layers": [
      "restrictions",
      "consumer_building_footprints"
    ],
    "synthetic_layers": [
      "source",
      "heat_network",
      "heat_chamber",
      "heat_demand"
    ],
    "consumer_selection": "deterministic points inside real OSM building footprints",
    "flow_model": "synthetic proxy derived from building footprint area; not metered demand",
    "note": "OSM buildings anchor consumers; heat demand and seed network are synthetic proxies."
  },
  "features": [
    {
      "type": "Feature",
      "properties": {
        "id": "moscow_kommunarka_-2_+2_7dd214fc_mixed_scale_osm_way_369399544_1",
        "object_type": "restriction",
        "restriction_type": "oks",
        "name": "",
        "osm_kind": "building",
        "osm_id": 369399544,
        "osm_type": "way",
        "osm_tags": {
          "building": "apartments"
        },
        "case_id": "moscow_kommunarka_-2_+2_7dd214fc_mixed_scale",
        "selected_as_heat_demand_proxy": true,
        "connection_point_id": "moscow_kommunarka_-2_+2_7dd214fc_mixed_scale_cp_1"
      },
      "geometry": {
        "type": "Polygon",
        "coordinates": [
          [
            [
              37.4994259,
              55.5504193
            ],
            [
              37.4986356,
              55.5510553
            ],
            [
              37.4988689,
              55.5511481
            ],
            [
              37.4997021,
              55.5504775
            ],
            [
              37.4997057,
              55.5504408
            ],
            [
              37.4996416,
              55.5501582
            ],
            [
              37.4995832,
              55.5500901
            ],
            [
              37.4993588,
              55.5500055
            ],
            [
              37.4992269,
              55.5501174
            ],
            [
              37.4993788,
              55.5501747
            ],
            [
              37.4993711,
              55.5501779
            ],
            [
              37.4994259,
              55.5504193
            ]
          ]
        ]
      }
    },
    {
      "type": "Feature",
      "properties": {
        "id": "moscow_kommunarka_-2_+2_7dd214fc_mixed_scale_osm_way_369399551_2",
        "object_type": "restriction",
        "restriction_type": "oks",
        "name": "",
        "osm_kind": "building",
        "osm_id": 369399551,
        "osm_type": "way",
        "osm_tags": {
          "building": "apartments"
        },
        "case_id": "moscow_kommunarka_-2_+2_7dd214fc_mixed_scale",
        "selected_as_heat_demand_proxy": true,
        "connection_point_id": "moscow_kommunarka_-2_+2_7dd214fc_mixed_scale_cp_8"
      },
      "geometry": {
        "type": "Polygon",
        "coordinates": [
          [
            [
              37.4971103,
              55.5502005
            ],
            [
              37.4967926,
              55.5504575
            ],
            [
              37.4967363,
              55.5504994
            ],
            [
              37.4967625,
              55.5506136
            ],
            [
              37.4967866,
              55.5507182
            ],
            [
              37.4968731,
              55.5507645
            ],
            [
              37.4974888,
              55.5510145
            ],
            [
              37.4976401,
              55.5508952
            ],
            [
              37.4970244,
              55.5506452
            ],
            [
              37.4970022,
              55.5506627
            ],
            [
              37.49697,
              55.5506527
            ],
            [
              37.4969397,
              55.550553
            ],
            [
              37.4969661,
              55.5505262
            ],
            [
              37.4969886,
              55.550535
            ],
            [
              37.4973063,
              55.550278
            ],
            [
              37.4971103,
              55.5502005
            ]
          ]
        ]
      }
    },
    {
      "type": "Feature",
      "properties": {
        "id": "moscow_kommunarka_-2_+2_7dd214fc_mixed_scale_osm_way_369399556_3",
        "object_type": "restriction",
        "restriction_type": "oks",
        "name": "",
        "osm_kind": "building",
        "osm_id": 369399556,
        "osm_type": "way",
        "osm_tags": {
          "building": "apartments"
        },
        "case_id": "moscow_kommunarka_-2_+2_7dd214fc_mixed_scale",
        "selected_as_heat_demand_proxy": true,
        "connection_point_id": "moscow_kommunarka_-2_+2_7dd214fc_mixed_scale_cp_2"
      },
      "geometry": {
        "type": "Polygon",
        "coordinates": [
          [
            [
              37.4984596,
              55.5498263
            ],
            [
              37.4979097,
              55.5502792
            ],
            [
              37.4978699,
              55.5504278
            ],
            [
              37.4979562,
              55.5507071
            ],
            [
              37.4978621,
              55.5507829
            ],
            [
              37.4978822,
              55.5507938
            ],
            [
              37.497846,
              55.5508222
            ],
            [
              37.4980253,
              55.5508929
            ],
            [
              37.4981401,
              55.5508279
            ],
            [
              37.4982329,
              55.5507189
            ],
            [
              37.4981225,
              55.5503615
            ],
            [
              37.498672,
              55.5499089
            ],
            [
              37.4987665,
              55.5499021
            ],
            [
              37.4987658,
              55.5498928
            ],
            [
              37.4988391,
              55.5498884
            ],
            [
              37.4988035,
              55.549774
            ],
            [
              37.49855,
              55.5497917
            ],
            [
              37.4984596,
              55.5498263
            ]
          ]
        ]
      }
    },
    {
      "type": "Feature",
      "properties": {
        "id": "moscow_kommunarka_-2_+2_7dd214fc_mixed_scale_osm_way_369399571_4",
        "object_type": "restriction",
        "restriction_type": "oks",
        "name": "",
        "osm_kind": "building",
        "osm_id": 369399571,
        "osm_type": "way",
        "osm_tags": {
          "building": "apartments"
        },
        "case_id": "moscow_kommunarka_-2_+2_7dd214fc_mixed_scale",
        "selected_as_heat_demand_proxy": true,
        "connection_point_id": "moscow_kommunarka_-2_+2_7dd214fc_mixed_scale_cp_4"
      },
      "geometry": {
        "type": "Polygon",
        "coordinates": [
          [
            [
              37.498618,
              55.5518525
            ],
            [
              37.4998575,
              55.5515805
            ],
            [
              37.4997708,
              55.551454
            ],
            [
              37.4985312,
              55.551726
            ],
            [
              37.498618,
              55.5518525
            ]
          ]
        ]
      }
    },
    {
      "type": "Feature",
      "properties": {
        "id": "moscow_kommunarka_-2_+2_7dd214fc_mixed_scale_osm_way_452026330_5",
        "object_type": "restriction",
        "restriction_type": "road",
        "name": "",
        "osm_kind": "road",
        "osm_id": 452026330,
        "osm_type": "way",
        "osm_tags": {
          "highway": "living_street"
        },
        "case_id": "moscow_kommunarka_-2_+2_7dd214fc_mixed_scale"
      },
      "geometry": {
        "type": "LineString",
        "coordinates": [
          [
            37.4975295,
            55.5502682
          ],
          [
            37.4972341,
            55.550148
          ],
          [
            37.497189,
            55.550137
          ],
          [
            37.4971475,
            55.5501359
          ],
          [
            37.4968335,
            55.550175
          ],
          [
            37.4965998,
            55.5506042
          ],
          [
            37.4965521,
            55.5506388
          ],
          [
            37.4964622,
            55.5506873
          ]
        ]
      }
    },
    {
      "type": "Feature",
      "properties": {
        "id": "moscow_kommunarka_-2_+2_7dd214fc_mixed_scale_osm_way_729253929_6",
        "object_type": "restriction",
        "restriction_type": "road",
        "name": "",
        "osm_kind": "road",
        "osm_id": 729253929,
        "osm_type": "way",
        "osm_tags": {
          "highway": "living_street"
        },
        "case_id": "moscow_kommunarka_-2_+2_7dd214fc_mixed_scale"
      },
      "geometry": {
        "type": "LineString",
        "coordinates": [
          [
            37.4964622,
            55.5506873
          ],
          [
            37.4965455,
            55.5507349
          ],
          [
            37.4975646,
            55.5511351
          ],
          [
            37.4984622,
            55.5514764
          ],
          [
            37.4984865,
            55.5514978
          ],
          [
            37.4984955,
            55.5515146
          ],
          [
            37.4984937,
            55.5515553
          ],
          [
            37.4984622,
            55.5519502
          ],
          [
            37.4984682,
            55.5519756
          ],
          [
            37.4984861,
            55.5519922
          ],
          [
            37.4985152,
            55.5520083
          ],
          [
            37.4985497,
            55.5520198
          ],
          [
            37.4985901,
            55.5520248
          ],
          [
            37.4986335,
            55.5520209
          ],
          [
            37.500062,
            55.5516935
          ],
          [
            37.5008529,
            55.5515204
          ]
        ]
      }
    },
    {
      "type": "Feature",
      "properties": {
        "id": "moscow_kommunarka_-2_+2_7dd214fc_mixed_scale_osm_way_729253931_7",
        "object_type": "restriction",
        "restriction_type": "road",
        "name": "",
        "osm_kind": "road",
        "osm_id": 729253931,
        "osm_type": "way",
        "osm_tags": {
          "highway": "living_street"
        },
        "case_id": "moscow_kommunarka_-2_+2_7dd214fc_mixed_scale"
      },
      "geometry": {
        "type": "LineString",
        "coordinates": [
          [
            37.4984937,
            55.5515553
          ],
          [
            37.4986186,
            55.5515488
          ],
          [
            37.4986826,
            55.5515448
          ],
          [
            37.4987549,
            55.5515358
          ],
          [
            37.4988401,
            55.5515176
          ],
          [
            37.4988993,
            55.5514971
          ],
          [
            37.4989713,
            55.5514607
          ],
          [
            37.4990921,
            55.5513735
          ],
          [
            37.4992968,
            55.551209
          ],
          [
            37.5001139,
            55.5505168
          ],
          [
            37.5001751,
            55.5504649
          ],
          [
            37.5001914,
            55.550449
          ],
          [
            37.5002025,
            55.5504307
          ],
          [
            37.5002066,
            55.5504117
          ],
          [
            37.5002046,
            55.5503974
          ],
          [
            37.5001,
            55.5500205
          ],
          [
            37.4999186,
            55.5493549
          ],
          [
            37.4999077,
            55.5493305
          ],
          [
            37.4998899,
            55.5493095
          ],
          [
            37.4998595,
            55.5492965
          ],
          [
            37.4998229,
            55.5492921
          ],
          [
            37.4986052,
            55.5492846
          ],
          [
            37.4986553,
            55.5494822
          ],
          [
            37.4985585,
            55.5495021
          ],
          [
            37.4984241,
            55.5495297
          ]
        ]
      }
    },
    {
      "type": "Feature",
      "properties": {
        "id": "moscow_kommunarka_-2_+2_7dd214fc_mixed_scale_osm_way_729253932_8",
        "object_type": "restriction",
        "restriction_type": "road",
        "name": "",
        "osm_kind": "road",
        "osm_id": 729253932,
        "osm_type": "way",
        "osm_tags": {
          "highway": "service"
        },
        "case_id": "moscow_kommunarka_-2_+2_7dd214fc_mixed_scale"
      },
      "geometry": {
        "type": "LineString",
        "coordinates": [
          [
            37.4976623,
            55.5508002
          ],
          [
            37.4978654,
            55.5508874
          ],
          [
            37.4989141,
            55.5513005
          ],
          [
            37.4990921,
            55.5513735
          ]
        ]
      }
    },
    {
      "type": "Feature",
      "properties": {
        "id": "moscow_kommunarka_-2_+2_7dd214fc_mixed_scale_osm_way_729253933_9",
        "object_type": "restriction",
        "restriction_type": "road",
        "name": "",
        "osm_kind": "road",
        "osm_id": 729253933,
        "osm_type": "way",
        "osm_tags": {
          "highway": "service"
        },
        "case_id": "moscow_kommunarka_-2_+2_7dd214fc_mixed_scale"
      },
      "geometry": {
        "type": "LineString",
        "coordinates": [
          [
            37.4978654,
            55.5508874
          ],
          [
            37.4975646,
            55.5511351
          ]
        ]
      }
    },
    {
      "type": "Feature",
      "properties": {
        "id": "moscow_kommunarka_-2_+2_7dd214fc_mixed_scale_osm_way_729253934_10",
        "object_type": "restriction",
        "restriction_type": "road",
        "name": "",
        "osm_kind": "road",
        "osm_id": 729253934,
        "osm_type": "way",
        "osm_tags": {
          "highway": "service"
        },
        "case_id": "moscow_kommunarka_-2_+2_7dd214fc_mixed_scale"
      },
      "geometry": {
        "type": "LineString",
        "coordinates": [
          [
            37.4997859,
            55.5500317
          ],
          [
            37.4999206,
            55.5504726
          ],
          [
            37.4989141,
            55.5513005
          ]
        ]
      }
    },
    {
      "type": "Feature",
      "properties": {
        "id": "moscow_kommunarka_-2_+2_7dd214fc_mixed_scale_osm_way_852231871_11",
        "object_type": "restriction",
        "restriction_type": "railway",
        "name": "",
        "osm_kind": "railway",
        "osm_id": 852231871,
        "osm_type": "way",
        "osm_tags": {
          "railway": "subway"
        },
        "case_id": "moscow_kommunarka_-2_+2_7dd214fc_mixed_scale"
      },
      "geometry": {
        "type": "LineString",
        "coordinates": [
          [
            37.4950553,
            55.5527697
          ],
          [
            37.4956231,
            55.5527968
          ]
        ]
      }
    },
    {
      "type": "Feature",
      "properties": {
        "id": "moscow_kommunarka_-2_+2_7dd214fc_mixed_scale_osm_way_852231872_12",
        "object_type": "restriction",
        "restriction_type": "railway",
        "name": "",
        "osm_kind": "railway",
        "osm_id": 852231872,
        "osm_type": "way",
        "osm_tags": {
          "railway": "subway"
        },
        "case_id": "moscow_kommunarka_-2_+2_7dd214fc_mixed_scale"
      },
      "geometry": {
        "type": "LineString",
        "coordinates": [
          [
            37.4956289,
            55.5527601
          ],
          [
            37.4950604,
            55.5527348
          ]
        ]
      }
    },
    {
      "type": "Feature",
      "properties": {
        "id": "moscow_kommunarka_-2_+2_7dd214fc_mixed_scale_osm_way_852231873_13",
        "object_type": "restriction",
        "restriction_type": "railway",
        "name": "",
        "osm_kind": "railway",
        "osm_id": 852231873,
        "osm_type": "way",
        "osm_tags": {
          "railway": "subway"
        },
        "case_id": "moscow_kommunarka_-2_+2_7dd214fc_mixed_scale"
      },
      "geometry": {
        "type": "LineString",
        "coordinates": [
          [
            37.494434,
            55.5526657
          ],
          [
            37.4950604,
            55.5527348
          ],
          [
            37.4953418,
            55.5527654
          ],
          [
            37.4956231,
            55.5527968
          ],
          [
            37.49636,
            55.5528301
          ],
          [
            37.4973087,
            55.5528608
          ],
          [
            37.4982674,
            55.5528688
          ],
          [
            37.4992146,
            55.5528567
          ],
          [
            37.5001587,
            55.5528226
          ],
          [
            37.5040917,
            55.5526227
          ]
        ]
      }
    },
    {
      "type": "Feature",
      "properties": {
        "id": "moscow_kommunarka_-2_+2_7dd214fc_mixed_scale_osm_way_852231874_14",
        "object_type": "restriction",
        "restriction_type": "railway",
        "name": "",
        "osm_kind": "railway",
        "osm_id": 852231874,
        "osm_type": "way",
        "osm_tags": {
          "railway": "subway"
        },
        "case_id": "moscow_kommunarka_-2_+2_7dd214fc_mixed_scale"
      },
      "geometry": {
        "type": "LineString",
        "coordinates": [
          [
            37.4944172,
            55.5527804
          ],
          [
            37.4950553,
            55.5527697
          ],
          [
            37.4953418,
            55.5527654
          ],
          [
            37.4956289,
            55.5527601
          ],
          [
            37.4963654,
            55.5527941
          ],
          [
            37.4973088,
            55.5528249
          ],
          [
            37.4982661,
            55.5528336
          ],
          [
            37.4992082,
            55.5528207
          ],
          [
            37.5001527,
            55.5527871
          ],
          [
            37.5040868,
            55.5525874
          ]
        ]
      }
    },
    {
      "type": "Feature",
      "properties": {
        "id": "moscow_kommunarka_-2_+2_7dd214fc_mixed_scale_osm_way_936392703_15",
        "object_type": "restriction",
        "restriction_type": "road",
        "name": "",
        "osm_kind": "road",
        "osm_id": 936392703,
        "osm_type": "way",
        "osm_tags": {
          "highway": "secondary_link"
        },
        "case_id": "moscow_kommunarka_-2_+2_7dd214fc_mixed_scale"
      },
      "geometry": {
        "type": "LineString",
        "coordinates": [
          [
            37.4870611,
            55.5520246
          ],
          [
            37.4876435,
            55.551994
          ],
          [
            37.4881768,
            55.5519728
          ],
          [
            37.4887071,
            55.5519639
          ],
          [
            37.4894387,
            55.5519682
          ],
          [
            37.4896012,
            55.5519727
          ],
          [
            37.489716,
            55.5519758
          ],
          [
            37.4900381,
            55.5519847
          ],
          [
            37.4907276,
            55.5520122
          ],
          [
            37.4926426,
            55.5520974
          ],
          [
            37.4929033,
            55.552109
          ],
          [
            37.4946783,
            55.5521876
          ],
          [
            37.4958983,
            55.5522533
          ],
          [
            37.4962819,
            55.5522719
          ]
        ]
      }
    },
    {
      "type": "Feature",
      "properties": {
        "id": "moscow_kommunarka_-2_+2_7dd214fc_mixed_scale_osm_way_936392705_16",
        "object_type": "restriction",
        "restriction_type": "road",
        "name": "проспект Куприна",
        "osm_kind": "road",
        "osm_id": 936392705,
        "osm_type": "way",
        "osm_tags": {
          "highway": "tertiary",
          "name": "проспект Куприна"
        },
        "case_id": "moscow_kommunarka_-2_+2_7dd214fc_mixed_scale"
      },
      "geometry": {
        "type": "LineString",
        "coordinates": [
          [
            37.496054,
            55.5532794
          ],
          [
            37.4959257,
            55.5523783
          ]
        ]
      }
    },
    {
      "type": "Feature",
      "properties": {
        "id": "moscow_kommunarka_-2_+2_7dd214fc_mixed_scale_osm_way_936392706_17",
        "object_type": "restriction",
        "restriction_type": "road",
        "name": "проспект Куприна",
        "osm_kind": "road",
        "osm_id": 936392706,
        "osm_type": "way",
        "osm_tags": {
          "highway": "tertiary",
          "name": "проспект Куприна"
        },
        "case_id": "moscow_kommunarka_-2_+2_7dd214fc_mixed_scale"
      },
      "geometry": {
        "type": "LineString",
        "coordinates": [
          [
            37.4962963,
            55.5523931
          ],
          [
            37.4964208,
            55.5532916
          ]
        ]
      }
    },
    {
      "type": "Feature",
      "properties": {
        "id": "moscow_kommunarka_-2_+2_7dd214fc_mixed_scale_osm_way_1308593684_18",
        "object_type": "restriction",
        "restriction_type": "road",
        "name": "",
        "osm_kind": "road",
        "osm_id": 1308593684,
        "osm_type": "way",
        "osm_tags": {
          "highway": "footway"
        },
        "case_id": "moscow_kommunarka_-2_+2_7dd214fc_mixed_scale"
      },
      "geometry": {
        "type": "LineString",
        "coordinates": [
          [
            37.4965492,
            55.5522183
          ],
          [
            37.4965467,
            55.5522299
          ],
          [
            37.4965351,
            55.5522847
          ],
          [
            37.4965243,
            55.5523424
          ],
          [
            37.496405,
            55.5523977
          ]
        ]
      }
    },
    {
      "type": "Feature",
      "properties": {
        "id": "moscow_kommunarka_-2_+2_7dd214fc_mixed_scale_osm_way_1308593686_19",
        "object_type": "restriction",
        "restriction_type": "road",
        "name": "",
        "osm_kind": "road",
        "osm_id": 1308593686,
        "osm_type": "way",
        "osm_tags": {
          "highway": "footway"
        },
        "case_id": "moscow_kommunarka_-2_+2_7dd214fc_mixed_scale"
      },
      "geometry": {
        "type": "LineString",
        "coordinates": [
          [
            37.496405,
            55.5523977
          ],
          [
            37.4965305,
            55.5532951
          ]
        ]
      }
    },
    {
      "type": "Feature",
      "properties": {
        "id": "moscow_kommunarka_-2_+2_7dd214fc_mixed_scale_osm_way_1308593687_20",
        "object_type": "restriction",
        "restriction_type": "road",
        "name": "проспект Куприна",
        "osm_kind": "road",
        "osm_id": 1308593687,
        "osm_type": "way",
        "osm_tags": {
          "highway": "tertiary",
          "name": "проспект Куприна"
        },
        "case_id": "moscow_kommunarka_-2_+2_7dd214fc_mixed_scale"
      },
      "geometry": {
        "type": "LineString",
        "coordinates": [
          [
            37.4959257,
            55.5523783
          ],
          [
            37.4958983,
            55.5522533
          ]
        ]
      }
    },
    {
      "type": "Feature",
      "properties": {
        "id": "moscow_kommunarka_-2_+2_7dd214fc_mixed_scale_osm_way_1308593688_21",
        "object_type": "restriction",
        "restriction_type": "road",
        "name": "проспект Куприна",
        "osm_kind": "road",
        "osm_id": 1308593688,
        "osm_type": "way",
        "osm_tags": {
          "highway": "tertiary",
          "name": "проспект Куприна"
        },
        "case_id": "moscow_kommunarka_-2_+2_7dd214fc_mixed_scale"
      },
      "geometry": {
        "type": "LineString",
        "coordinates": [
          [
            37.4962819,
            55.5522719
          ],
          [
            37.4962963,
            55.5523931
          ]
        ]
      }
    },
    {
      "type": "Feature",
      "properties": {
        "id": "moscow_kommunarka_-2_+2_7dd214fc_mixed_scale_osm_way_1308593691_22",
        "object_type": "restriction",
        "restriction_type": "road",
        "name": "",
        "osm_kind": "road",
        "osm_id": 1308593691,
        "osm_type": "way",
        "osm_tags": {
          "highway": "footway"
        },
        "case_id": "moscow_kommunarka_-2_+2_7dd214fc_mixed_scale"
      },
      "geometry": {
        "type": "LineString",
        "coordinates": [
          [
            37.4956336,
            55.5520024
          ],
          [
            37.4957257,
            55.5519882
          ],
          [
            37.4957854,
            55.5519788
          ],
          [
            37.4958437,
            55.5519685
          ],
          [
            37.4961802,
            55.5520778
          ],
          [
            37.4962367,
            55.5520721
          ],
          [
            37.4962936,
            55.5520662
          ],
          [
            37.4963721,
            55.5520581
          ],
          [
            37.4963861,
            55.5520935
          ],
          [
            37.4964003,
            55.5521306
          ],
          [
            37.4964217,
            55.5521589
          ],
          [
            37.4964429,
            55.5521766
          ],
          [
            37.4964722,
            55.5521949
          ],
          [
            37.4965107,
            55.5522101
          ],
          [
            37.4965492,
            55.5522183
          ],
          [
            37.4968202,
            55.552231
          ],
          [
            37.4969386,
            55.5522366
          ],
          [
            37.4969736,
            55.5522384
          ],
          [
            37.4974037,
            55.5522562
          ],
          [
            37.4982372,
            55.5523131
          ],
          [
            37.4984022,
            55.5523168
          ],
          [
            37.4989427,
            55.5523265
          ],
          [
            37.4995604,
            55.552353
          ],
          [
            37.4996482,
            55.552345
          ],
          [
            37.4997315,
            55.5523316
          ],
          [
            37.4998086,
            55.5523083
          ],
          [
            37.4998759,
            55.5522779
          ],
          [
            37.4999386,
            55.5522386
          ],
          [
            37.4999948,
            55.5521809
          ],
          [
            37.5000446,
            55.5521044
          ],
          [
            37.5000992,
            55.5520519
          ],
          [
            37.5001399,
            55.552028
          ],
          [
            37.5002039,
            55.5520093
          ],
          [
            37.500283,
            55.551995
          ],
          [
            37.5003764,
            55.5519839
          ],
          [
            37.5004742,
            55.5519843
          ],
          [
            37.5016431,
            55.5520704
          ],
          [
            37.50168,
            55.5520667
          ],
          [
            37.5017213,
            55.5520482
          ],
          [
            37.5017385,
            55.5520312
          ],
          [
            37.5017228,
            55.551991
          ],
          [
            37.5017179,
            55.5519348
          ],
          [
            37.5017322,
            55.5518695
          ],
          [
            37.5017609,
            55.5518268
          ],
          [
            37.501772,
            55.5518083
          ],
          [
            37.5019625,
            55.5517598
          ],
          [
            37.5022548,
            55.5517507
          ],
          [
            37.5024077,
            55.5518053
          ],
          [
            37.5025204,
            55.5518918
          ],
          [
            37.5026223,
            55.552001
          ],
          [
            37.502802,
            55.5521042
          ],
          [
            37.5030702,
            55.5521558
          ],
          [
            37.5032467,
            55.5521512
          ],
          [
            37.503773,
            55.5521376
          ],
          [
            37.5057898,
            55.5520493
          ],
          [
            37.5075848,
            55.5519904
          ]
        ]
      }
    },
    {
      "type": "Feature",
      "properties": {
        "id": "moscow_kommunarka_-2_+2_7dd214fc_mixed_scale_osm_way_1308594125_23",
        "object_type": "restriction",
        "restriction_type": "road",
        "name": "",
        "osm_kind": "road",
        "osm_id": 1308594125,
        "osm_type": "way",
        "osm_tags": {
          "highway": "footway"
        },
        "case_id": "moscow_kommunarka_-2_+2_7dd214fc_mixed_scale"
      },
      "geometry": {
        "type": "LineString",
        "coordinates": [
          [
            37.4963721,
            55.5520581
          ],
          [
            37.4962302,
            55.5517241
          ],
          [
            37.4961845,
            55.5516574
          ],
          [
            37.4959233,
            55.5513328
          ],
          [
            37.4957424,
            55.550942
          ],
          [
            37.4953589,
            55.5506325
          ],
          [
            37.4954757,
            55.5505959
          ]
        ]
      }
    },
    {
      "type": "Feature",
      "properties": {
        "id": "moscow_kommunarka_-2_+2_7dd214fc_mixed_scale_osm_way_1308861062_24",
        "object_type": "restriction",
        "restriction_type": "road",
        "name": "",
        "osm_kind": "road",
        "osm_id": 1308861062,
        "osm_type": "way",
        "osm_tags": {
          "highway": "footway"
        },
        "case_id": "moscow_kommunarka_-2_+2_7dd214fc_mixed_scale"
      },
      "geometry": {
        "type": "LineString",
        "coordinates": [
          [
            37.4969386,
            55.5522366
          ],
          [
            37.4969498,
            55.5521436
          ],
          [
            37.4969533,
            55.5521144
          ],
          [
            37.4969601,
            55.5520773
          ]
        ]
      }
    },
    {
      "type": "Feature",
      "properties": {
        "id": "moscow_kommunarka_-2_+2_7dd214fc_mixed_scale_osm_way_1308861063_25",
        "object_type": "restriction",
        "restriction_type": "road",
        "name": "",
        "osm_kind": "road",
        "osm_id": 1308861063,
        "osm_type": "way",
        "osm_tags": {
          "highway": "footway"
        },
        "case_id": "moscow_kommunarka_-2_+2_7dd214fc_mixed_scale"
      },
      "geometry": {
        "type": "LineString",
        "coordinates": [
          [
            37.4964193,
            55.5517602
          ],
          [
            37.4964786,
            55.5518921
          ],
          [
            37.496438,
            55.5518979
          ],
          [
            37.4963851,
            55.5517804
          ],
          [
            37.4963439,
            55.5517864
          ],
          [
            37.4964032,
            55.5519178
          ]
        ]
      }
    },
    {
      "type": "Feature",
      "properties": {
        "id": "moscow_kommunarka_-2_+2_7dd214fc_mixed_scale_osm_way_1308861066_26",
        "object_type": "restriction",
        "restriction_type": "road",
        "name": "",
        "osm_kind": "road",
        "osm_id": 1308861066,
        "osm_type": "way",
        "osm_tags": {
          "highway": "footway"
        },
        "case_id": "moscow_kommunarka_-2_+2_7dd214fc_mixed_scale"
      },
      "geometry": {
        "type": "LineString",
        "coordinates": [
          [
            37.4951675,
            55.5517251
          ],
          [
            37.4952785,
            55.5518464
          ],
          [
            37.495316,
            55.5518354
          ],
          [
            37.495215,
            55.551725
          ],
          [
            37.4952552,
            55.5517133
          ],
          [
            37.4953666,
            55.5518349
          ]
        ]
      }
    },
    {
      "type": "Feature",
      "properties": {
        "id": "moscow_kommunarka_-2_+2_7dd214fc_mixed_scale_osm_way_1308861067_27",
        "object_type": "restriction",
        "restriction_type": "road",
        "name": "",
        "osm_kind": "road",
        "osm_id": 1308861067,
        "osm_type": "way",
        "osm_tags": {
          "highway": "footway"
        },
        "case_id": "moscow_kommunarka_-2_+2_7dd214fc_mixed_scale"
      },
      "geometry": {
        "type": "LineString",
        "coordinates": [
          [
            37.4949483,
            55.5520213
          ],
          [
            37.4949502,
            55.5519861
          ],
          [
            37.495009,
            55.5519884
          ]
        ]
      }
    },
    {
      "type": "Feature",
      "properties": {
        "id": "moscow_kommunarka_-2_+2_7dd214fc_mixed_scale_osm_way_1308861068_28",
        "object_type": "restriction",
        "restriction_type": "oks",
        "name": "",
        "osm_kind": "building",
        "osm_id": 1308861068,
        "osm_type": "way",
        "osm_tags": {
          "building": "yes"
        },
        "case_id": "moscow_kommunarka_-2_+2_7dd214fc_mixed_scale"
      },
      "geometry": {
        "type": "Polygon",
        "coordinates": [
          [
            [
              37.4952699,
              55.5518633
            ],
            [
              37.4951235,
              55.5517039
            ],
            [
              37.4951806,
              55.5516872
            ],
            [
              37.4952376,
              55.5516704
            ],
            [
              37.495384,
              55.5518298
            ],
            [
              37.4953666,
              55.5518349
            ],
            [
              37.4952699,
              55.5518633
            ]
          ]
        ]
      }
    },
    {
      "type": "Feature",
      "properties": {
        "id": "moscow_kommunarka_-2_+2_7dd214fc_mixed_scale_osm_way_1308861069_29",
        "object_type": "restriction",
        "restriction_type": "oks",
        "name": "",
        "osm_kind": "building",
        "osm_id": 1308861069,
        "osm_type": "way",
        "osm_tags": {
          "building": "yes"
        },
        "case_id": "moscow_kommunarka_-2_+2_7dd214fc_mixed_scale",
        "selected_as_heat_demand_proxy": true,
        "connection_point_id": "moscow_kommunarka_-2_+2_7dd214fc_mixed_scale_cp_7"
      },
      "geometry": {
        "type": "Polygon",
        "coordinates": [
          [
            [
              37.4950113,
              55.5519679
            ],
            [
              37.4952903,
              55.5519779
            ],
            [
              37.495288,
              55.5519984
            ],
            [
              37.4952857,
              55.5520189
            ],
            [
              37.4950067,
              55.5520089
            ],
            [
              37.495009,
              55.5519884
            ],
            [
              37.4950113,
              55.5519679
            ]
          ]
        ]
      }
    },
    {
      "type": "Feature",
      "properties": {
        "id": "moscow_kommunarka_-2_+2_7dd214fc_mixed_scale_osm_way_1313472346_30",
        "object_type": "restriction",
        "restriction_type": "railway",
        "name": "Сокольническая линия",
        "osm_kind": "railway",
        "osm_id": 1313472346,
        "osm_type": "way",
        "osm_tags": {
          "name": "Сокольническая линия",
          "railway": "subway"
        },
        "case_id": "moscow_kommunarka_-2_+2_7dd214fc_mixed_scale"
      },
      "geometry": {
        "type": "LineString",
        "coordinates": [
          [
            37.4939152,
            55.5526417
          ],
          [
            37.494434,
            55.5526657
          ],
          [
            37.4963674,
            55.5527551
          ],
          [
            37.4973125,
            55.5527854
          ],
          [
            37.4982592,
            55.5527934
          ],
          [
            37.4992025,
            55.5527809
          ],
          [
            37.500146,
            55.5527467
          ],
          [
            37.5056385,
            55.552469
          ]
        ]
      }
    },
    {
      "type": "Feature",
      "properties": {
        "id": "moscow_kommunarka_-2_+2_7dd214fc_mixed_scale_osm_way_1313472347_31",
        "object_type": "restriction",
        "restriction_type": "railway",
        "name": "Сокольническая линия",
        "osm_kind": "railway",
        "osm_id": 1313472347,
        "osm_type": "way",
        "osm_tags": {
          "name": "Сокольническая линия",
          "railway": "subway"
        },
        "case_id": "moscow_kommunarka_-2_+2_7dd214fc_mixed_scale"
      },
      "geometry": {
        "type": "LineString",
        "coordinates": [
          [
            37.505657,
            55.5525838
          ],
          [
            37.5001684,
            55.5528621
          ],
          [
            37.4992151,
            55.5528966
          ],
          [
            37.4982711,
            55.5529094
          ],
          [
            37.4973069,
            55.5529005
          ],
          [
            37.4963567,
            55.55287
          ],
          [
            37.4944172,
            55.5527804
          ],
          [
            37.4939001,
            55.5527565
          ]
        ]
      }
    },
    {
      "type": "Feature",
      "properties": {
        "id": "moscow_kommunarka_-2_+2_7dd214fc_mixed_scale_osm_way_1313482229_32",
        "object_type": "restriction",
        "restriction_type": "road",
        "name": "",
        "osm_kind": "road",
        "osm_id": 1313482229,
        "osm_type": "way",
        "osm_tags": {
          "highway": "footway"
        },
        "case_id": "moscow_kommunarka_-2_+2_7dd214fc_mixed_scale"
      },
      "geometry": {
        "type": "LineString",
        "coordinates": [
          [
            37.495288,
            55.5519984
          ],
          [
            37.4955163,
            55.552007
          ],
          [
            37.4964639,
            55.5520579
          ],
          [
            37.4965447,
            55.5520617
          ]
        ]
      }
    },
    {
      "type": "Feature",
      "properties": {
        "id": "moscow_kommunarka_-2_+2_7dd214fc_mixed_scale_osm_way_1313482230_33",
        "object_type": "restriction",
        "restriction_type": "road",
        "name": "",
        "osm_kind": "road",
        "osm_id": 1313482230,
        "osm_type": "way",
        "osm_tags": {
          "highway": "steps"
        },
        "case_id": "moscow_kommunarka_-2_+2_7dd214fc_mixed_scale"
      },
      "geometry": {
        "type": "LineString",
        "coordinates": [
          [
            37.4950501,
            55.5519896
          ],
          [
            37.495288,
            55.5519984
          ]
        ]
      }
    },
    {
      "type": "Feature",
      "properties": {
        "id": "moscow_kommunarka_-2_+2_7dd214fc_mixed_scale_osm_way_1313482231_34",
        "object_type": "restriction",
        "restriction_type": "road",
        "name": "",
        "osm_kind": "road",
        "osm_id": 1313482231,
        "osm_type": "way",
        "osm_tags": {
          "highway": "steps"
        },
        "case_id": "moscow_kommunarka_-2_+2_7dd214fc_mixed_scale"
      },
      "geometry": {
        "type": "LineString",
        "coordinates": [
          [
            37.4967729,
            55.5520699
          ],
          [
            37.4965447,
            55.5520617
          ]
        ]
      }
    },
    {
      "type": "Feature",
      "properties": {
        "id": "moscow_kommunarka_-2_+2_7dd214fc_mixed_scale_osm_way_1313482233_35",
        "object_type": "restriction",
        "restriction_type": "road",
        "name": "",
        "osm_kind": "road",
        "osm_id": 1313482233,
        "osm_type": "way",
        "osm_tags": {
          "highway": "footway"
        },
        "case_id": "moscow_kommunarka_-2_+2_7dd214fc_mixed_scale"
      },
      "geometry": {
        "type": "LineString",
        "coordinates": [
          [
            37.4951314,
            55.5528478
          ],
          [
            37.4951485,
            55.5527219
          ],
          [
            37.4951533,
            55.5526862
          ],
          [
            37.4951569,
            55.5526602
          ]
        ]
      }
    },
    {
      "type": "Feature",
      "properties": {
        "id": "moscow_kommunarka_-2_+2_7dd214fc_mixed_scale_osm_way_1313482236_36",
        "object_type": "restriction",
        "restriction_type": "road",
        "name": "",
        "osm_kind": "road",
        "osm_id": 1313482236,
        "osm_type": "way",
        "osm_tags": {
          "highway": "footway"
        },
        "case_id": "moscow_kommunarka_-2_+2_7dd214fc_mixed_scale"
      },
      "geometry": {
        "type": "LineString",
        "coordinates": [
          [
            37.4955163,
            55.552007
          ],
          [
            37.4953382,
            55.5523338
          ]
        ]
      }
    },
    {
      "type": "Feature",
      "properties": {
        "id": "moscow_kommunarka_-2_+2_7dd214fc_mixed_scale_osm_way_1313516644_37",
        "object_type": "restriction",
        "restriction_type": "road",
        "name": "",
        "osm_kind": "road",
        "osm_id": 1313516644,
        "osm_type": "way",
        "osm_tags": {
          "highway": "footway"
        },
        "case_id": "moscow_kommunarka_-2_+2_7dd214fc_mixed_scale"
      },
      "geometry": {
        "type": "LineString",
        "coordinates": [
          [
            37.495009,
            55.5519884
          ],
          [
            37.4950501,
            55.5519896
          ]
        ]
      }
    },
    {
      "type": "Feature",
      "properties": {
        "id": "moscow_kommunarka_-2_+2_7dd214fc_mixed_scale_osm_way_1313516645_38",
        "object_type": "restriction",
        "restriction_type": "road",
        "name": "",
        "osm_kind": "road",
        "osm_id": 1313516645,
        "osm_type": "way",
        "osm_tags": {
          "highway": "footway"
        },
        "case_id": "moscow_kommunarka_-2_+2_7dd214fc_mixed_scale"
      },
      "geometry": {
        "type": "LineString",
        "coordinates": [
          [
            37.4968237,
            55.5520721
          ],
          [
            37.4967729,
            55.5520699
          ]
        ]
      }
    },
    {
      "type": "Feature",
      "properties": {
        "id": "moscow_kommunarka_-2_+2_7dd214fc_mixed_scale_osm_way_1313516646_39",
        "object_type": "restriction",
        "restriction_type": "road",
        "name": "",
        "osm_kind": "road",
        "osm_id": 1313516646,
        "osm_type": "way",
        "osm_tags": {
          "highway": "footway"
        },
        "case_id": "moscow_kommunarka_-2_+2_7dd214fc_mixed_scale"
      },
      "geometry": {
        "type": "LineString",
        "coordinates": [
          [
            37.4963674,
            55.5517377
          ],
          [
            37.4964193,
            55.5517602
          ]
        ]
      }
    },
    {
      "type": "Feature",
      "properties": {
        "id": "moscow_kommunarka_-2_+2_7dd214fc_mixed_scale_osm_way_1313516647_40",
        "object_type": "restriction",
        "restriction_type": "road",
        "name": "",
        "osm_kind": "road",
        "osm_id": 1313516647,
        "osm_type": "way",
        "osm_tags": {
          "highway": "footway"
        },
        "case_id": "moscow_kommunarka_-2_+2_7dd214fc_mixed_scale"
      },
      "geometry": {
        "type": "LineString",
        "coordinates": [
          [
            37.4951806,
            55.5516872
          ],
          [
            37.4951675,
            55.5517251
          ]
        ]
      }
    },
    {
      "type": "Feature",
      "properties": {
        "id": "moscow_kommunarka_-2_+2_7dd214fc_mixed_scale_osm_way_1313516648_41",
        "object_type": "restriction",
        "restriction_type": "road",
        "name": "",
        "osm_kind": "road",
        "osm_id": 1313516648,
        "osm_type": "way",
        "osm_tags": {
          "highway": "footway"
        },
        "case_id": "moscow_kommunarka_-2_+2_7dd214fc_mixed_scale"
      },
      "geometry": {
        "type": "LineString",
        "coordinates": [
          [
            37.4963503,
            55.5517074
          ],
          [
            37.4963674,
            55.5517377
          ]
        ]
      }
    },
    {
      "type": "Feature",
      "properties": {
        "id": "moscow_kommunarka_-2_+2_7dd214fc_mixed_scale_osm_way_1313516649_42",
        "object_type": "restriction",
        "restriction_type": "road",
        "name": "",
        "osm_kind": "road",
        "osm_id": 1313516649,
        "osm_type": "way",
        "osm_tags": {
          "highway": "footway"
        },
        "case_id": "moscow_kommunarka_-2_+2_7dd214fc_mixed_scale"
      },
      "geometry": {
        "type": "LineString",
        "coordinates": [
          [
            37.4964032,
            55.5519178
          ],
          [
            37.4964639,
            55.5520579
          ]
        ]
      }
    },
    {
      "type": "Feature",
      "properties": {
        "id": "moscow_kommunarka_-2_+2_7dd214fc_mixed_scale_osm_way_1313516650_43",
        "object_type": "restriction",
        "restriction_type": "road",
        "name": "",
        "osm_kind": "road",
        "osm_id": 1313516650,
        "osm_type": "way",
        "osm_tags": {
          "highway": "footway"
        },
        "case_id": "moscow_kommunarka_-2_+2_7dd214fc_mixed_scale"
      },
      "geometry": {
        "type": "LineString",
        "coordinates": [
          [
            37.4953666,
            55.5518349
          ],
          [
            37.4955163,
            55.552007
          ]
        ]
      }
    },
    {
      "type": "Feature",
      "properties": {
        "id": "moscow_kommunarka_-2_+2_7dd214fc_mixed_scale_osm_way_1313516651_44",
        "object_type": "restriction",
        "restriction_type": "road",
        "name": "",
        "osm_kind": "road",
        "osm_id": 1313516651,
        "osm_type": "way",
        "osm_tags": {
          "highway": "footway"
        },
        "case_id": "moscow_kommunarka_-2_+2_7dd214fc_mixed_scale"
      },
      "geometry": {
        "type": "LineString",
        "coordinates": [
          [
            37.4956197,
            55.551972
          ],
          [
            37.4955738,
            55.5519005
          ],
          [
            37.4952311,
            55.55162
          ],
          [
            37.4951435,
            55.5516464
          ],
          [
            37.4951806,
            55.5516872
          ]
        ]
      }
    },
    {
      "type": "Feature",
      "properties": {
        "id": "moscow_kommunarka_-2_+2_7dd214fc_mixed_scale_osm_way_1313516656_45",
        "object_type": "restriction",
        "restriction_type": "road",
        "name": "",
        "osm_kind": "road",
        "osm_id": 1313516656,
        "osm_type": "way",
        "osm_tags": {
          "highway": "steps"
        },
        "case_id": "moscow_kommunarka_-2_+2_7dd214fc_mixed_scale"
      },
      "geometry": {
        "type": "LineString",
        "coordinates": [
          [
            37.4952021,
            55.5523279
          ],
          [
            37.4953382,
            55.5523338
          ]
        ]
      }
    },
    {
      "type": "Feature",
      "properties": {
        "id": "moscow_kommunarka_-2_+2_7dd214fc_mixed_scale_osm_way_1313516662_46",
        "object_type": "restriction",
        "restriction_type": "road",
        "name": "",
        "osm_kind": "road",
        "osm_id": 1313516662,
        "osm_type": "way",
        "osm_tags": {
          "highway": "footway"
        },
        "case_id": "moscow_kommunarka_-2_+2_7dd214fc_mixed_scale"
      },
      "geometry": {
        "type": "LineString",
        "coordinates": [
          [
            37.4953382,
            55.5523338
          ],
          [
            37.4956504,
            55.5523474
          ],
          [
            37.4956472,
            55.5523712
          ],
          [
            37.4951989,
            55.5523517
          ]
        ]
      }
    },
    {
      "type": "Feature",
      "properties": {
        "id": "moscow_kommunarka_-2_+2_7dd214fc_mixed_scale_osm_way_1313516670_47",
        "object_type": "restriction",
        "restriction_type": "road",
        "name": "Солнцево — Бутово — Видное",
        "osm_kind": "major_road",
        "osm_id": 1313516670,
        "osm_type": "way",
        "osm_tags": {
          "highway": "secondary",
          "name": "Солнцево — Бутово — Видное"
        },
        "case_id": "moscow_kommunarka_-2_+2_7dd214fc_mixed_scale"
      },
      "geometry": {
        "type": "LineString",
        "coordinates": [
          [
            37.5005076,
            55.5529886
          ],
          [
            37.4998743,
            55.5530275
          ],
          [
            37.4992546,
            55.5530622
          ],
          [
            37.4988894,
            55.553082
          ],
          [
            37.4982642,
            55.5531043
          ],
          [
            37.4976083,
            55.5531129
          ],
          [
            37.4969873,
            55.5531078
          ],
          [
            37.4965762,
            55.5531016
          ],
          [
            37.4957236,
            55.5530672
          ],
          [
            37.493165,
            55.5529452
          ]
        ]
      }
    },
    {
      "type": "Feature",
      "properties": {
        "id": "moscow_kommunarka_-2_+2_7dd214fc_mixed_scale_osm_way_1313516673_48",
        "object_type": "restriction",
        "restriction_type": "road",
        "name": "Солнцево — Бутово — Видное",
        "osm_kind": "major_road",
        "osm_id": 1313516673,
        "osm_type": "way",
        "osm_tags": {
          "highway": "secondary",
          "name": "Солнцево — Бутово — Видное"
        },
        "case_id": "moscow_kommunarka_-2_+2_7dd214fc_mixed_scale"
      },
      "geometry": {
        "type": "LineString",
        "coordinates": [
          [
            37.4915341,
            55.5523254
          ],
          [
            37.4965874,
            55.5525482
          ],
          [
            37.4977553,
            55.5525956
          ],
          [
            37.4984435,
            55.5526166
          ],
          [
            37.4987278,
            55.5526196
          ],
          [
            37.4991822,
            55.5526187
          ],
          [
            37.4996772,
            55.5526109
          ],
          [
            37.5001023,
            55.552597
          ],
          [
            37.5007133,
            55.552574
          ],
          [
            37.5013812,
            55.5525394
          ]
        ]
      }
    },
    {
      "type": "Feature",
      "properties": {
        "id": "moscow_kommunarka_-2_+2_7dd214fc_mixed_scale_osm_way_1313516679_49",
        "object_type": "restriction",
        "restriction_type": "road",
        "name": "",
        "osm_kind": "road",
        "osm_id": 1313516679,
        "osm_type": "way",
        "osm_tags": {
          "highway": "footway"
        },
        "case_id": "moscow_kommunarka_-2_+2_7dd214fc_mixed_scale"
      },
      "geometry": {
        "type": "LineString",
        "coordinates": [
          [
            37.4939267,
            55.5526702
          ],
          [
            37.4940301,
            55.5526366
          ],
          [
            37.4949544,
            55.5526774
          ],
          [
            37.4950839,
            55.5526831
          ],
          [
            37.4951533,
            55.5526862
          ]
        ]
      }
    },
    {
      "type": "Feature",
      "properties": {
        "id": "moscow_kommunarka_-2_+2_7dd214fc_mixed_scale_osm_way_1313516680_50",
        "object_type": "restriction",
        "restriction_type": "road",
        "name": "",
        "osm_kind": "road",
        "osm_id": 1313516680,
        "osm_type": "way",
        "osm_tags": {
          "highway": "footway"
        },
        "case_id": "moscow_kommunarka_-2_+2_7dd214fc_mixed_scale"
      },
      "geometry": {
        "type": "LineString",
        "coordinates": [
          [
            37.4951485,
            55.5527219
          ],
          [
            37.4950791,
            55.5527187
          ],
          [
            37.4949495,
            55.5527128
          ],
          [
            37.4940676,
            55.5526722
          ],
          [
            37.493948,
            55.5527542
          ],
          [
            37.4939082,
            55.5527524
          ]
        ]
      }
    },
    {
      "type": "Feature",
      "properties": {
        "id": "moscow_kommunarka_-2_+2_7dd214fc_mixed_scale_osm_way_1313519210_51",
        "object_type": "restriction",
        "restriction_type": "road",
        "name": "",
        "osm_kind": "road",
        "osm_id": 1313519210,
        "osm_type": "way",
        "osm_tags": {
          "highway": "footway"
        },
        "case_id": "moscow_kommunarka_-2_+2_7dd214fc_mixed_scale"
      },
      "geometry": {
        "type": "LineString",
        "coordinates": [
          [
            37.4951569,
            55.5526602
          ],
          [
            37.4951974,
            55.5523625
          ]
        ]
      }
    },
    {
      "type": "Feature",
      "properties": {
        "id": "moscow_kommunarka_-2_+2_7dd214fc_mixed_scale_osm_way_1313519211_52",
        "object_type": "restriction",
        "restriction_type": "road",
        "name": "",
        "osm_kind": "road",
        "osm_id": 1313519211,
        "osm_type": "way",
        "osm_tags": {
          "highway": "footway"
        },
        "case_id": "moscow_kommunarka_-2_+2_7dd214fc_mixed_scale"
      },
      "geometry": {
        "type": "LineString",
        "coordinates": [
          [
            37.4950893,
            55.5531585
          ],
          [
            37.4951314,
            55.5528478
          ]
        ]
      }
    },
    {
      "type": "Feature",
      "properties": {
        "id": "moscow_kommunarka_-2_+2_7dd214fc_mixed_scale_osm_way_1313519212_53",
        "object_type": "restriction",
        "restriction_type": "road",
        "name": "",
        "osm_kind": "road",
        "osm_id": 1313519212,
        "osm_type": "way",
        "osm_tags": {
          "highway": "footway"
        },
        "case_id": "moscow_kommunarka_-2_+2_7dd214fc_mixed_scale"
      },
      "geometry": {
        "type": "LineString",
        "coordinates": [
          [
            37.4951974,
            55.5523625
          ],
          [
            37.4951989,
            55.5523517
          ],
          [
            37.4952021,
            55.5523279
          ]
        ]
      }
    },
    {
      "type": "Feature",
      "properties": {
        "id": "moscow_kommunarka_-2_+2_7dd214fc_mixed_scale_osm_way_1313519215_54",
        "object_type": "restriction",
        "restriction_type": "oks",
        "name": "",
        "osm_kind": "building",
        "osm_id": 1313519215,
        "osm_type": "way",
        "osm_tags": {
          "building": "yes"
        },
        "case_id": "moscow_kommunarka_-2_+2_7dd214fc_mixed_scale",
        "selected_as_heat_demand_proxy": true,
        "connection_point_id": "moscow_kommunarka_-2_+2_7dd214fc_mixed_scale_cp_6"
      },
      "geometry": {
        "type": "Polygon",
        "coordinates": [
          [
            [
              37.4950903,
              55.5523578
            ],
            [
              37.4951279,
              55.5523594
            ],
            [
              37.4951974,
              55.5523625
            ],
            [
              37.4952391,
              55.5523643
            ],
            [
              37.4957233,
              55.5523853
            ],
            [
              37.4957309,
              55.5523295
            ],
            [
              37.4950979,
              55.552302
            ],
            [
              37.4950903,
              55.5523578
            ]
          ]
        ]
      }
    },
    {
      "type": "Feature",
      "properties": {
        "id": "moscow_kommunarka_-2_+2_7dd214fc_mixed_scale_osm_way_1382836499_55",
        "object_type": "restriction",
        "restriction_type": "road",
        "name": "",
        "osm_kind": "road",
        "osm_id": 1382836499,
        "osm_type": "way",
        "osm_tags": {
          "highway": "footway"
        },
        "case_id": "moscow_kommunarka_-2_+2_7dd214fc_mixed_scale"
      },
      "geometry": {
        "type": "LineString",
        "coordinates": [
          [
            37.4951435,
            55.5516464
          ],
          [
            37.4950593,
            55.5516716
          ],
          [
            37.495258,
            55.5518875
          ],
          [
            37.4955738,
            55.5519005
          ]
        ]
      }
    },
    {
      "type": "Feature",
      "properties": {
        "id": "moscow_kommunarka_-2_+2_7dd214fc_mixed_scale_osm_way_1382836500_56",
        "object_type": "restriction",
        "restriction_type": "road",
        "name": "",
        "osm_kind": "road",
        "osm_id": 1382836500,
        "osm_type": "way",
        "osm_tags": {
          "highway": "footway"
        },
        "case_id": "moscow_kommunarka_-2_+2_7dd214fc_mixed_scale"
      },
      "geometry": {
        "type": "LineString",
        "coordinates": [
          [
            37.4956197,
            55.551972
          ],
          [
            37.4949542,
            55.5519438
          ],
          [
            37.4942987,
            55.5519184
          ],
          [
            37.4942931,
            55.5519958
          ]
        ]
      }
    },
    {
      "type": "Feature",
      "properties": {
        "id": "moscow_kommunarka_-2_+2_7dd214fc_mixed_scale_osm_way_1382836501_57",
        "object_type": "restriction",
        "restriction_type": "road",
        "name": "",
        "osm_kind": "road",
        "osm_id": 1382836501,
        "osm_type": "way",
        "osm_tags": {
          "highway": "footway"
        },
        "case_id": "moscow_kommunarka_-2_+2_7dd214fc_mixed_scale"
      },
      "geometry": {
        "type": "LineString",
        "coordinates": [
          [
            37.4949502,
            55.5519861
          ],
          [
            37.4949542,
            55.5519438
          ]
        ]
      }
    },
    {
      "type": "Feature",
      "properties": {
        "id": "moscow_kommunarka_-2_+2_7dd214fc_mixed_scale_osm_way_1382836502_58",
        "object_type": "restriction",
        "restriction_type": "road",
        "name": "",
        "osm_kind": "road",
        "osm_id": 1382836502,
        "osm_type": "way",
        "osm_tags": {
          "highway": "footway"
        },
        "case_id": "moscow_kommunarka_-2_+2_7dd214fc_mixed_scale"
      },
      "geometry": {
        "type": "LineString",
        "coordinates": [
          [
            37.4942012,
            55.5520462
          ],
          [
            37.4945831,
            55.5521019
          ],
          [
            37.4954079,
            55.5521361
          ],
          [
            37.495461,
            55.5521342
          ],
          [
            37.4955041,
            55.5521283
          ],
          [
            37.4955448,
            55.5521172
          ],
          [
            37.4955831,
            55.5520983
          ],
          [
            37.4956135,
            55.5520736
          ],
          [
            37.4956281,
            55.552046
          ]
        ]
      }
    },
    {
      "type": "Feature",
      "properties": {
        "id": "moscow_kommunarka_-2_+2_7dd214fc_mixed_scale_osm_way_1382836503_59",
        "object_type": "restriction",
        "restriction_type": "road",
        "name": "",
        "osm_kind": "road",
        "osm_id": 1382836503,
        "osm_type": "way",
        "osm_tags": {
          "highway": "footway"
        },
        "case_id": "moscow_kommunarka_-2_+2_7dd214fc_mixed_scale"
      },
      "geometry": {
        "type": "LineString",
        "coordinates": [
          [
            37.4909566,
            55.5519178
          ],
          [
            37.4916786,
            55.5519422
          ],
          [
            37.4923869,
            55.5519661
          ],
          [
            37.4936406,
            55.5520215
          ],
          [
            37.4942012,
            55.5520462
          ],
          [
            37.4942931,
            55.5519958
          ],
          [
            37.4949483,
            55.5520213
          ],
          [
            37.4956281,
            55.552046
          ],
          [
            37.4956348,
            55.5520226
          ],
          [
            37.4956336,
            55.5520024
          ],
          [
            37.4956197,
            55.551972
          ]
        ]
      }
    },
    {
      "type": "Feature",
      "properties": {
        "id": "moscow_kommunarka_-2_+2_7dd214fc_mixed_scale_osm_way_1409505018_60",
        "object_type": "restriction",
        "restriction_type": "road",
        "name": "проспект Куприна",
        "osm_kind": "road",
        "osm_id": 1409505018,
        "osm_type": "way",
        "osm_tags": {
          "highway": "residential",
          "name": "проспект Куприна"
        },
        "case_id": "moscow_kommunarka_-2_+2_7dd214fc_mixed_scale"
      },
      "geometry": {
        "type": "LineString",
        "coordinates": [
          [
            37.4958983,
            55.5522533
          ],
          [
            37.495879,
            55.5521961
          ],
          [
            37.4958506,
            55.5521121
          ],
          [
            37.4957854,
            55.5519788
          ],
          [
            37.495675,
            55.5518042
          ],
          [
            37.4955394,
            55.5516254
          ],
          [
            37.4953811,
            55.5514316
          ],
          [
            37.495218,
            55.5512546
          ]
        ]
      }
    },
    {
      "type": "Feature",
      "properties": {
        "id": "moscow_kommunarka_-2_+2_7dd214fc_mixed_scale_osm_way_1409505019_61",
        "object_type": "restriction",
        "restriction_type": "road",
        "name": "проспект Куприна",
        "osm_kind": "road",
        "osm_id": 1409505019,
        "osm_type": "way",
        "osm_tags": {
          "highway": "residential",
          "name": "проспект Куприна"
        },
        "case_id": "moscow_kommunarka_-2_+2_7dd214fc_mixed_scale"
      },
      "geometry": {
        "type": "LineString",
        "coordinates": [
          [
            37.4956173,
            55.5511884
          ],
          [
            37.4958136,
            55.5513779
          ],
          [
            37.4959116,
            55.5514879
          ],
          [
            37.4960254,
            55.5516372
          ],
          [
            37.4961166,
            55.5517922
          ],
          [
            37.4961837,
            55.5519392
          ],
          [
            37.4962367,
            55.5520721
          ],
          [
            37.4962621,
            55.5521469
          ],
          [
            37.4962783,
            55.5522174
          ],
          [
            37.4962819,
            55.5522719
          ]
        ]
      }
    },
    {
      "type": "Feature",
      "properties": {
        "id": "moscow_kommunarka_-2_+2_7dd214fc_mixed_scale_osm_way_1409516236_62",
        "object_type": "restriction",
        "restriction_type": "oks",
        "name": "",
        "osm_kind": "building",
        "osm_id": 1409516236,
        "osm_type": "way",
        "osm_tags": {
          "building": "yes"
        },
        "case_id": "moscow_kommunarka_-2_+2_7dd214fc_mixed_scale",
        "selected_as_heat_demand_proxy": true,
        "connection_point_id": "moscow_kommunarka_-2_+2_7dd214fc_mixed_scale_cp_3"
      },
      "geometry": {
        "type": "Polygon",
        "coordinates": [
          [
            [
              37.4963831,
              55.5519207
            ],
            [
              37.4963051,
              55.5517466
            ],
            [
              37.4963674,
              55.5517377
            ],
            [
              37.4964297,
              55.5517287
            ],
            [
              37.4965077,
              55.5519029
            ],
            [
              37.4964887,
              55.5519056
            ],
            [
              37.4964032,
              55.5519178
            ],
            [
              37.4963831,
              55.5519207
            ]
          ]
        ]
      }
    },
    {
      "type": "Feature",
      "properties": {
        "id": "moscow_kommunarka_-2_+2_7dd214fc_mixed_scale_osm_way_1409516237_63",
        "object_type": "restriction",
        "restriction_type": "oks",
        "name": "",
        "osm_kind": "building",
        "osm_id": 1409516237,
        "osm_type": "way",
        "osm_tags": {
          "building": "yes"
        },
        "case_id": "moscow_kommunarka_-2_+2_7dd214fc_mixed_scale",
        "selected_as_heat_demand_proxy": true,
        "connection_point_id": "moscow_kommunarka_-2_+2_7dd214fc_mixed_scale_cp_5"
      },
      "geometry": {
        "type": "Polygon",
        "coordinates": [
          [
            [
              37.496547,
              55.5520416
            ],
            [
              37.496826,
              55.5520516
            ],
            [
              37.4968237,
              55.5520721
            ],
            [
              37.4968214,
              55.5520926
            ],
            [
              37.4965424,
              55.5520826
            ],
            [
              37.4965447,
              55.5520617
            ],
            [
              37.496547,
              55.5520416
            ]
          ]
        ]
      }
    },
    {
      "type": "Feature",
      "properties": {
        "id": "moscow_kommunarka_-2_+2_7dd214fc_mixed_scale_osm_way_1409516242_64",
        "object_type": "restriction",
        "restriction_type": "road",
        "name": "",
        "osm_kind": "road",
        "osm_id": 1409516242,
        "osm_type": "way",
        "osm_tags": {
          "highway": "footway"
        },
        "case_id": "moscow_kommunarka_-2_+2_7dd214fc_mixed_scale"
      },
      "geometry": {
        "type": "LineString",
        "coordinates": [
          [
            37.4963721,
            55.5520581
          ],
          [
            37.4965483,
            55.5520263
          ],
          [
            37.496967,
            55.5520393
          ],
          [
            37.4969601,
            55.5520773
          ]
        ]
      }
    },
    {
      "type": "Feature",
      "properties": {
        "id": "moscow_kommunarka_-2_+2_7dd214fc_mixed_scale_osm_way_1409516243_65",
        "object_type": "restriction",
        "restriction_type": "road",
        "name": "",
        "osm_kind": "road",
        "osm_id": 1409516243,
        "osm_type": "way",
        "osm_tags": {
          "highway": "footway"
        },
        "case_id": "moscow_kommunarka_-2_+2_7dd214fc_mixed_scale"
      },
      "geometry": {
        "type": "LineString",
        "coordinates": [
          [
            37.4965483,
            55.5520263
          ],
          [
            37.4965514,
            55.5518976
          ],
          [
            37.4964598,
            55.551691
          ]
        ]
      }
    },
    {
      "type": "Feature",
      "properties": {
        "id": "moscow_kommunarka_-2_+2_7dd214fc_mixed_scale_osm_way_1409516244_66",
        "object_type": "restriction",
        "restriction_type": "road",
        "name": "",
        "osm_kind": "road",
        "osm_id": 1409516244,
        "osm_type": "way",
        "osm_tags": {
          "highway": "footway"
        },
        "case_id": "moscow_kommunarka_-2_+2_7dd214fc_mixed_scale"
      },
      "geometry": {
        "type": "LineString",
        "coordinates": [
          [
            37.4969533,
            55.5521144
          ],
          [
            37.4963861,
            55.5520935
          ]
        ]
      }
    },
    {
      "type": "Feature",
      "properties": {
        "id": "moscow_kommunarka_-2_+2_7dd214fc_mixed_scale_osm_way_1416810314_67",
        "object_type": "restriction",
        "restriction_type": "road",
        "name": "",
        "osm_kind": "road",
        "osm_id": 1416810314,
        "osm_type": "way",
        "osm_tags": {
          "highway": "secondary_link"
        },
        "case_id": "moscow_kommunarka_-2_+2_7dd214fc_mixed_scale"
      },
      "geometry": {
        "type": "LineString",
        "coordinates": [
          [
            37.4980555,
            55.5523547
          ],
          [
            37.4987595,
            55.5523688
          ],
          [
            37.4994218,
            55.5523922
          ],
          [
            37.5000608,
            55.5524183
          ],
          [
            37.5003512,
            55.5524253
          ],
          [
            37.5004289,
            55.5524257
          ]
        ]
      }
    },
    {
      "type": "Feature",
      "properties": {
        "id": "moscow_kommunarka_-2_+2_7dd214fc_mixed_scale_osm_way_1457570665_68",
        "object_type": "restriction",
        "restriction_type": "road",
        "name": "улица Потаповская Роща",
        "osm_kind": "road",
        "osm_id": 1457570665,
        "osm_type": "way",
        "osm_tags": {
          "highway": "residential",
          "name": "улица Потаповская Роща"
        },
        "case_id": "moscow_kommunarka_-2_+2_7dd214fc_mixed_scale"
      },
      "geometry": {
        "type": "LineString",
        "coordinates": [
          [
            37.4961739,
            55.5507877
          ],
          [
            37.4959857,
            55.5508567
          ],
          [
            37.495864,
            55.5508514
          ],
          [
            37.4956674,
            55.5507508
          ],
          [
            37.4954757,
            55.5505959
          ],
          [
            37.495035,
            55.5502399
          ],
          [
            37.4942987,
            55.5497135
          ]
        ]
      }
    },
    {
      "type": "Feature",
      "properties": {
        "id": "moscow_kommunarka_-2_+2_7dd214fc_mixed_scale_osm_way_1457570668_69",
        "object_type": "restriction",
        "restriction_type": "road",
        "name": "",
        "osm_kind": "road",
        "osm_id": 1457570668,
        "osm_type": "way",
        "osm_tags": {
          "highway": "service"
        },
        "case_id": "moscow_kommunarka_-2_+2_7dd214fc_mixed_scale"
      },
      "geometry": {
        "type": "LineString",
        "coordinates": [
          [
            37.4975295,
            55.5502682
          ],
          [
            37.4974616,
            55.5503293
          ],
          [
            37.4974321,
            55.5503573
          ],
          [
            37.49742,
            55.5503786
          ],
          [
            37.4973972,
            55.5504969
          ],
          [
            37.4973985,
            55.5505462
          ],
          [
            37.4974066,
            55.550572
          ],
          [
            37.4974414,
            55.5506395
          ],
          [
            37.4974683,
            55.5506798
          ],
          [
            37.4974911,
            55.5507025
          ],
          [
            37.497546,
            55.550745
          ],
          [
            37.497593,
            55.55077
          ],
          [
            37.4976623,
            55.5508002
          ]
        ]
      }
    },
    {
      "type": "Feature",
      "properties": {
        "id": "moscow_kommunarka_-2_+2_7dd214fc_mixed_scale_osm_way_1457570670_70",
        "object_type": "restriction",
        "restriction_type": "road",
        "name": "",
        "osm_kind": "road",
        "osm_id": 1457570670,
        "osm_type": "way",
        "osm_tags": {
          "highway": "service"
        },
        "case_id": "moscow_kommunarka_-2_+2_7dd214fc_mixed_scale"
      },
      "geometry": {
        "type": "LineString",
        "coordinates": [
          [
            37.4977047,
            55.5503424
          ],
          [
            37.4977933,
            55.5505791
          ],
          [
            37.4978035,
            55.5506232
          ],
          [
            37.497802,
            55.5506544
          ],
          [
            37.4977891,
            55.5506776
          ],
          [
            37.4977693,
            55.5507006
          ],
          [
            37.4976623,
            55.5508002
          ]
        ]
      }
    },
    {
      "type": "Feature",
      "properties": {
        "id": "moscow_kommunarka_-2_+2_7dd214fc_mixed_scale_osm_way_1457570671_71",
        "object_type": "restriction",
        "restriction_type": "road",
        "name": "улица Потаповская Роща",
        "osm_kind": "road",
        "osm_id": 1457570671,
        "osm_type": "way",
        "osm_tags": {
          "highway": "living_street",
          "name": "улица Потаповская Роща"
        },
        "case_id": "moscow_kommunarka_-2_+2_7dd214fc_mixed_scale"
      },
      "geometry": {
        "type": "LineString",
        "coordinates": [
          [
            37.4964622,
            55.5506873
          ],
          [
            37.4961739,
            55.5507877
          ]
        ]
      }
    },
    {
      "type": "Feature",
      "properties": {
        "id": "moscow_kommunarka_-2_+2_7dd214fc_mixed_scale_osm_way_1477801835_72",
        "object_type": "restriction",
        "restriction_type": "road",
        "name": "проспект Куприна",
        "osm_kind": "road",
        "osm_id": 1477801835,
        "osm_type": "way",
        "osm_tags": {
          "highway": "construction",
          "name": "проспект Куприна"
        },
        "case_id": "moscow_kommunarka_-2_+2_7dd214fc_mixed_scale"
      },
      "geometry": {
        "type": "LineString",
        "coordinates": [
          [
            37.4880773,
            55.545565
          ],
          [
            37.4892617,
            55.5458102
          ],
          [
            37.4895909,
            55.5458896
          ],
          [
            37.4898525,
            55.5459618
          ],
          [
            37.4900605,
            55.5460282
          ],
          [
            37.4902822,
            55.5461139
          ],
          [
            37.4904842,
            55.5462154
          ],
          [
            37.4906734,
            55.5463298
          ],
          [
            37.4908101,
            55.5464337
          ],
          [
            37.4909349,
            55.5465515
          ],
          [
            37.4910378,
            55.5466727
          ],
          [
            37.4911447,
            55.5468255
          ],
          [
            37.4912609,
            55.546989
          ],
          [
            37.4914189,
            55.5472225
          ],
          [
            37.4916003,
            55.547465
          ],
          [
            37.4917898,
            55.5477097
          ],
          [
            37.4920527,
            55.547993
          ],
          [
            37.4924824,
            55.5484237
          ],
          [
            37.4931362,
            55.5490392
          ],
          [
            37.4936966,
            55.549557
          ],
          [
            37.4941355,
            55.5499374
          ],
          [
            37.4946764,
            55.5504034
          ],
          [
            37.4952267,
            55.5508535
          ],
          [
            37.4954038,
            55.5510054
          ],
          [
            37.4956173,
            55.5511884
          ]
        ]
      }
    },
    {
      "type": "Feature",
      "properties": {
        "id": "moscow_kommunarka_-2_+2_7dd214fc_mixed_scale_osm_way_1477801836_73",
        "object_type": "restriction",
        "restriction_type": "road",
        "name": "проспект Куприна",
        "osm_kind": "road",
        "osm_id": 1477801836,
        "osm_type": "way",
        "osm_tags": {
          "highway": "construction",
          "name": "проспект Куприна"
        },
        "case_id": "moscow_kommunarka_-2_+2_7dd214fc_mixed_scale"
      },
      "geometry": {
        "type": "LineString",
        "coordinates": [
          [
            37.495218,
            55.5512546
          ],
          [
            37.4950788,
            55.5511075
          ],
          [
            37.4949583,
            55.5509802
          ],
          [
            37.4946933,
            55.5506797
          ],
          [
            37.4943758,
            55.5503495
          ],
          [
            37.4940255,
            55.5500272
          ],
          [
            37.4934231,
            55.5494936
          ],
          [
            37.4929234,
            55.5490233
          ],
          [
            37.4925031,
            55.5486482
          ],
          [
            37.4921155,
            55.548273
          ],
          [
            37.4917793,
            55.5479375
          ],
          [
            37.491546,
            55.5476617
          ],
          [
            37.4913405,
            55.5473922
          ],
          [
            37.4911724,
            55.5471491
          ],
          [
            37.490995,
            55.5469061
          ],
          [
            37.490824,
            55.5466699
          ],
          [
            37.4907041,
            55.5465422
          ],
          [
            37.4905679,
            55.5464341
          ],
          [
            37.4904134,
            55.5463329
          ],
          [
            37.490267,
            55.5462501
          ],
          [
            37.4900587,
            55.5461519
          ],
          [
            37.4898326,
            55.5460711
          ],
          [
            37.4895528,
            55.5459851
          ],
          [
            37.4891841,
            55.5458925
          ],
          [
            37.488024,
            55.5456475
          ]
        ]
      }
    },
    {
      "type": "Feature",
      "properties": {
        "id": "moscow_kommunarka_-2_+2_7dd214fc_mixed_scale_osm_way_1482363186_74",
        "object_type": "restriction",
        "restriction_type": "road",
        "name": "",
        "osm_kind": "road",
        "osm_id": 1482363186,
        "osm_type": "way",
        "osm_tags": {
          "highway": "secondary_link"
        },
        "case_id": "moscow_kommunarka_-2_+2_7dd214fc_mixed_scale"
      },
      "geometry": {
        "type": "LineString",
        "coordinates": [
          [
            37.4962819,
            55.5522719
          ],
          [
            37.4965351,
            55.5522847
          ],
          [
            37.4970876,
            55.5523102
          ]
        ]
      }
    },
    {
      "type": "Feature",
      "properties": {
        "id": "moscow_kommunarka_-2_+2_7dd214fc_mixed_scale_osm_way_1525750679_75",
        "object_type": "restriction",
        "restriction_type": "road",
        "name": "",
        "osm_kind": "road",
        "osm_id": 1525750679,
        "osm_type": "way",
        "osm_tags": {
          "highway": "footway"
        },
        "case_id": "moscow_kommunarka_-2_+2_7dd214fc_mixed_scale"
      },
      "geometry": {
        "type": "LineString",
        "coordinates": [
          [
            37.4964598,
            55.551691
          ],
          [
            37.4963503,
            55.5517074
          ],
          [
            37.4962302,
            55.5517241
          ]
        ]
      }
    },
    {
      "type": "Feature",
      "properties": {
        "id": "moscow_kommunarka_-2_+2_7dd214fc_mixed_scale_osm_way_1525750680_76",
        "object_type": "restriction",
        "restriction_type": "road",
        "name": "",
        "osm_kind": "road",
        "osm_id": 1525750680,
        "osm_type": "way",
        "osm_tags": {
          "highway": "footway"
        },
        "case_id": "moscow_kommunarka_-2_+2_7dd214fc_mixed_scale"
      },
      "geometry": {
        "type": "LineString",
        "coordinates": [
          [
            37.4969601,
            55.5520773
          ],
          [
            37.4968237,
            55.5520721
          ]
        ]
      }
    },
    {
      "type": "Feature",
      "properties": {
        "id": "moscow_kommunarka_-2_+2_7dd214fc_mixed_scale_osm_way_1525750685_77",
        "object_type": "restriction",
        "restriction_type": "road",
        "name": "",
        "osm_kind": "road",
        "osm_id": 1525750685,
        "osm_type": "way",
        "osm_tags": {
          "highway": "footway"
        },
        "case_id": "moscow_kommunarka_-2_+2_7dd214fc_mixed_scale"
      },
      "geometry": {
        "type": "LineString",
        "coordinates": [
          [
            37.4985152,
            55.5520083
          ],
          [
            37.4984022,
            55.5523168
          ]
        ]
      }
    },
    {
      "type": "Feature",
      "properties": {
        "id": "moscow_kommunarka_-2_+2_7dd214fc_mixed_scale_osm_way_1530025222_78",
        "object_type": "restriction",
        "restriction_type": "road",
        "name": "",
        "osm_kind": "road",
        "osm_id": 1530025222,
        "osm_type": "way",
        "osm_tags": {
          "highway": "secondary_link"
        },
        "case_id": "moscow_kommunarka_-2_+2_7dd214fc_mixed_scale"
      },
      "geometry": {
        "type": "LineString",
        "coordinates": [
          [
            37.4970876,
            55.5523102
          ],
          [
            37.4980555,
            55.5523547
          ]
        ]
      }
    },
    {
      "type": "Feature",
      "properties": {
        "id": "moscow_kommunarka_-2_+2_7dd214fc_mixed_scale_source",
        "object_type": "source",
        "case_id": "moscow_kommunarka_-2_+2_7dd214fc_mixed_scale"
      },
      "geometry": {
        "type": "Point",
        "coordinates": [
          37.494943213333336,
          55.5517287
        ]
      }
    },
    {
      "type": "Feature",
      "properties": {
        "id": "moscow_kommunarka_-2_+2_7dd214fc_mixed_scale_existing_network",
        "object_type": "heat_network",
        "diameter": 500,
        "flow_tph": 180.0,
        "upstream_object_id": "moscow_kommunarka_-2_+2_7dd214fc_mixed_scale_source",
        "case_id": "moscow_kommunarka_-2_+2_7dd214fc_mixed_scale"
      },
      "geometry": {
        "type": "LineString",
        "coordinates": [
          [
            37.494943213333336,
            55.5517287
          ],
          [
            37.49605486,
            55.5517287
          ]
        ]
      }
    },
    {
      "type": "Feature",
      "properties": {
        "id": "moscow_kommunarka_-2_+2_7dd214fc_mixed_scale_existing_chamber",
        "object_type": "heat_chamber",
        "diameter": 500,
        "upstream_object_id": "moscow_kommunarka_-2_+2_7dd214fc_mixed_scale_source",
        "case_id": "moscow_kommunarka_-2_+2_7dd214fc_mixed_scale"
      },
      "geometry": {
        "type": "Point",
        "coordinates": [
          37.49605486,
          55.5517287
        ]
      }
    },
    {
      "type": "Feature",
      "properties": {
        "id": "moscow_kommunarka_-2_+2_7dd214fc_mixed_scale_cp_1",
        "object_type": "oks_connection_point",
        "flow_tph": 37.219,
        "case_id": "moscow_kommunarka_-2_+2_7dd214fc_mixed_scale",
        "consumer_role": "osm_building_heat_demand_proxy",
        "source_building_osm_id": 369399544,
        "source_building_osm_type": "way",
        "source_building_name": "",
        "source_building_tags": {
          "building": "apartments"
        },
        "footprint_area_m2": 2419.26,
        "flow_basis": "synthetic_proxy_from_osm_footprint_area",
        "stress_bucket": "mixed_scale"
      },
      "geometry": {
        "type": "Point",
        "coordinates": [
          37.49927799301245,
          55.55059517660163
        ]
      }
    },
    {
      "type": "Feature",
      "properties": {
        "id": "moscow_kommunarka_-2_+2_7dd214fc_mixed_scale_cp_2",
        "object_type": "oks_connection_point",
        "flow_tph": 34.811,
        "case_id": "moscow_kommunarka_-2_+2_7dd214fc_mixed_scale",
        "consumer_role": "osm_building_heat_demand_proxy",
        "source_building_osm_id": 369399556,
        "source_building_osm_type": "way",
        "source_building_name": "",
        "source_building_tags": {
          "building": "apartments"
        },
        "footprint_area_m2": 2262.68,
        "flow_basis": "synthetic_proxy_from_osm_footprint_area",
        "stress_bucket": "mixed_scale"
      },
      "geometry": {
        "type": "Point",
        "coordinates": [
          37.498094275,
          55.55070641666667
        ]
      }
    },
    {
      "type": "Feature",
      "properties": {
        "id": "moscow_kommunarka_-2_+2_7dd214fc_mixed_scale_cp_3",
        "object_type": "oks_connection_point",
        "flow_tph": 5.0,
        "case_id": "moscow_kommunarka_-2_+2_7dd214fc_mixed_scale",
        "consumer_role": "osm_building_heat_demand_proxy",
        "source_building_osm_id": 1409516236,
        "source_building_osm_type": "way",
        "source_building_name": "",
        "source_building_tags": {
          "building": "yes"
        },
        "footprint_area_m2": 161.83,
        "flow_basis": "synthetic_proxy_from_osm_footprint_area",
        "stress_bucket": "mixed_scale"
      },
      "geometry": {
        "type": "Point",
        "coordinates": [
          37.4964064,
          55.5518247
        ]
      }
    },
    {
      "type": "Feature",
      "properties": {
        "id": "moscow_kommunarka_-2_+2_7dd214fc_mixed_scale_cp_4",
        "object_type": "oks_connection_point",
        "flow_tph": 12.646,
        "case_id": "moscow_kommunarka_-2_+2_7dd214fc_mixed_scale",
        "consumer_role": "osm_building_heat_demand_proxy",
        "source_building_osm_id": 369399571,
        "source_building_osm_type": "way",
        "source_building_name": "",
        "source_building_tags": {
          "building": "apartments"
        },
        "footprint_area_m2": 1264.55,
        "flow_basis": "synthetic_proxy_from_osm_footprint_area",
        "stress_bucket": "mixed_scale"
      },
      "geometry": {
        "type": "Point",
        "coordinates": [
          37.499195978374516,
          55.5516556516894
        ]
      }
    },
    {
      "type": "Feature",
      "properties": {
        "id": "moscow_kommunarka_-2_+2_7dd214fc_mixed_scale_cp_5",
        "object_type": "oks_connection_point",
        "flow_tph": 5.0,
        "case_id": "moscow_kommunarka_-2_+2_7dd214fc_mixed_scale",
        "consumer_role": "osm_building_heat_demand_proxy",
        "source_building_osm_id": 1409516237,
        "source_building_osm_type": "way",
        "source_building_name": "",
        "source_building_tags": {
          "building": "yes"
        },
        "footprint_area_m2": 80.51,
        "flow_basis": "synthetic_proxy_from_osm_footprint_area",
        "stress_bucket": "mixed_scale"
      },
      "geometry": {
        "type": "Point",
        "coordinates": [
          37.496684200000004,
          55.5520671
        ]
      }
    },
    {
      "type": "Feature",
      "properties": {
        "id": "moscow_kommunarka_-2_+2_7dd214fc_mixed_scale_cp_6",
        "object_type": "oks_connection_point",
        "flow_tph": 5.0,
        "case_id": "moscow_kommunarka_-2_+2_7dd214fc_mixed_scale",
        "consumer_role": "osm_building_heat_demand_proxy",
        "source_building_osm_id": 1313519215,
        "source_building_osm_type": "way",
        "source_building_name": "",
        "source_building_tags": {
          "building": "yes"
        },
        "footprint_area_m2": 249.13,
        "flow_basis": "synthetic_proxy_from_osm_footprint_area",
        "stress_bucket": "mixed_scale"
      },
      "geometry": {
        "type": "Point",
        "coordinates": [
          37.49525045,
          55.55233670833333
        ]
      }
    },
    {
      "type": "Feature",
      "properties": {
        "id": "moscow_kommunarka_-2_+2_7dd214fc_mixed_scale_cp_7",
        "object_type": "oks_connection_point",
        "flow_tph": 5.0,
        "case_id": "moscow_kommunarka_-2_+2_7dd214fc_mixed_scale",
        "consumer_role": "osm_building_heat_demand_proxy",
        "source_building_osm_id": 1308861069,
        "source_building_osm_type": "way",
        "source_building_name": "",
        "source_building_tags": {
          "building": "yes"
        },
        "footprint_area_m2": 80.51,
        "flow_basis": "synthetic_proxy_from_osm_footprint_area",
        "stress_bucket": "mixed_scale"
      },
      "geometry": {
        "type": "Point",
        "coordinates": [
          37.4951485,
          55.5519934
        ]
      }
    },
    {
      "type": "Feature",
      "properties": {
        "id": "moscow_kommunarka_-2_+2_7dd214fc_mixed_scale_cp_8",
        "object_type": "oks_connection_point",
        "flow_tph": 16.521,
        "case_id": "moscow_kommunarka_-2_+2_7dd214fc_mixed_scale",
        "consumer_role": "osm_building_heat_demand_proxy",
        "source_building_osm_id": 369399551,
        "source_building_osm_type": "way",
        "source_building_name": "",
        "source_building_tags": {
          "building": "apartments"
        },
        "footprint_area_m2": 1652.14,
        "flow_basis": "synthetic_proxy_from_osm_footprint_area",
        "stress_bucket": "mixed_scale"
      },
      "geometry": {
        "type": "Point",
        "coordinates": [
          37.49703756666667,
          55.55074316666667
        ]
      }
    }
  ]
}