{
  "type": "FeatureCollection",
  "name": "moscow_kommunarka_+1_+1_1e2bd2c5_large_oks",
  "crs": {
    "type": "name",
    "properties": {
      "name": "EPSG:4326"
    }
  },
  "metadata": {
    "dataset_version": "osm_building_anchored_routing_scenes_v3",
    "parent_scene_id": "moscow_kommunarka_+1_+1_1e2bd2c5",
    "split": "validation",
    "city": "Москва Коммунарка",
    "seed": "moscow_kommunarka",
    "research_bucket": "large_oks",
    "source_research_bucket": "separate_pipes",
    "research_bucket_is_ground_truth": false,
    "bbox_south_west_north_east": [
      55.5732882,
      37.4811204,
      55.5759831,
      37.4858873
    ],
    "real_data_source": "OpenStreetMap via Overpass API",
    "source_file": "data/real_geojson_places/separate_pipes/035_moscow_kommunarka_+1_+1_1e2bd2c5.geojson",
    "real_layers": [
      "restrictions",
      "consumer_building_footprints"
    ],
    "synthetic_layers": [
      "source",
      "heat_network",
      "heat_chamber",
      "heat_demand"
    ],
    "consumer_selection": "deterministic points inside real OSM building footprints",
    "flow_model": "synthetic proxy derived from building footprint area; not metered demand",
    "note": "OSM buildings anchor consumers; heat demand and seed network are synthetic proxies."
  },
  "features": [
    {
      "type": "Feature",
      "properties": {
        "id": "moscow_kommunarka_+1_+1_1e2bd2c5_large_oks_osm_way_28609003_1",
        "object_type": "restriction",
        "restriction_type": "road",
        "name": "проектируемый проезд № 812",
        "osm_kind": "road",
        "osm_id": 28609003,
        "osm_type": "way",
        "osm_tags": {
          "highway": "tertiary",
          "name": "проектируемый проезд № 812"
        },
        "case_id": "moscow_kommunarka_+1_+1_1e2bd2c5_large_oks"
      },
      "geometry": {
        "type": "LineString",
        "coordinates": [
          [
            37.4737209,
            55.5827178
          ],
          [
            37.4744384,
            55.5824374
          ],
          [
            37.4745754,
            55.5823816
          ],
          [
            37.4747267,
            55.5823116
          ],
          [
            37.4753073,
            55.5820427
          ],
          [
            37.4753443,
            55.5820266
          ],
          [
            37.4753793,
            55.5820113
          ],
          [
            37.4757258,
            55.5818603
          ],
          [
            37.4757411,
            55.5818539
          ],
          [
            37.4760665,
            55.581717
          ],
          [
            37.476783,
            55.5813889
          ],
          [
            37.4771883,
            55.5812097
          ],
          [
            37.4773283,
            55.5811485
          ],
          [
            37.4774966,
            55.5810764
          ],
          [
            37.4777114,
            55.580986
          ],
          [
            37.4778948,
            55.5809091
          ],
          [
            37.4788251,
            55.5805157
          ],
          [
            37.4791045,
            55.5804149
          ],
          [
            37.4791428,
            55.5804011
          ],
          [
            37.4793958,
            55.5803099
          ],
          [
            37.4794479,
            55.5802911
          ],
          [
            37.4795432,
            55.5802611
          ],
          [
            37.4799954,
            55.5800969
          ],
          [
            37.4802276,
            55.5800126
          ],
          [
            37.4803275,
            55.5799783
          ],
          [
            37.4808358,
            55.5798041
          ],
          [
            37.4810576,
            55.5797302
          ],
          [
            37.4817772,
            55.5794794
          ],
          [
            37.4831629,
            55.5789678
          ],
          [
            37.4832887,
            55.5789076
          ],
          [
            37.4834526,
            55.5787942
          ],
          [
            37.4835476,
            55.5786881
          ],
          [
            37.4836219,
            55.57857
          ],
          [
            37.4836846,
            55.5784182
          ],
          [
            37.483716,
            55.5782576
          ],
          [
            37.4837631,
            55.5779499
          ],
          [
            37.4837503,
            55.5777995
          ],
          [
            37.4836906,
            55.5776505
          ],
          [
            37.4829112,
            55.5768739
          ],
          [
            37.4828174,
            55.5767901
          ],
          [
            37.4823378,
            55.5763341
          ],
          [
            37.4819415,
            55.575957
          ],
          [
            37.4817862,
            55.5758093
          ],
          [
            37.4816341,
            55.5756757
          ]
        ]
      }
    },
    {
      "type": "Feature",
      "properties": {
        "id": "moscow_kommunarka_+1_+1_1e2bd2c5_large_oks_osm_way_48807351_2",
        "object_type": "restriction",
        "restriction_type": "road",
        "name": "Бачуринская улица",
        "osm_kind": "road",
        "osm_id": 48807351,
        "osm_type": "way",
        "osm_tags": {
          "highway": "tertiary",
          "name": "Бачуринская улица"
        },
        "case_id": "moscow_kommunarka_+1_+1_1e2bd2c5_large_oks"
      },
      "geometry": {
        "type": "LineString",
        "coordinates": [
          [
            37.4846239,
            55.5744895
          ],
          [
            37.4848216,
            55.5744061
          ],
          [
            37.4852443,
            55.5742393
          ],
          [
            37.4855458,
            55.5741203
          ],
          [
            37.486006,
            55.5739387
          ],
          [
            37.4862104,
            55.5738587
          ],
          [
            37.4863814,
            55.573794
          ],
          [
            37.4865493,
            55.5737305
          ],
          [
            37.4866628,
            55.5736876
          ]
        ]
      }
    },
    {
      "type": "Feature",
      "properties": {
        "id": "moscow_kommunarka_+1_+1_1e2bd2c5_large_oks_osm_way_111461779_3",
        "object_type": "restriction",
        "restriction_type": "oks",
        "name": "",
        "osm_kind": "building",
        "osm_id": 111461779,
        "osm_type": "way",
        "osm_tags": {
          "building": "apartments"
        },
        "case_id": "moscow_kommunarka_+1_+1_1e2bd2c5_large_oks"
      },
      "geometry": {
        "type": "Polygon",
        "coordinates": [
          [
            [
              37.4860242,
              55.5732341
            ],
            [
              37.4858155,
              55.5733217
            ],
            [
              37.4859232,
              55.573402
            ],
            [
              37.4860805,
              55.5735228
            ],
            [
              37.4861412,
              55.5735659
            ],
            [
              37.4862983,
              55.5736859
            ],
            [
              37.4866168,
              55.5735491
            ],
            [
              37.4869463,
              55.573409
            ],
            [
              37.4871754,
              55.5733117
            ],
            [
              37.4870533,
              55.5732202
            ],
            [
              37.4868256,
              55.5733168
            ],
            [
              37.4865086,
              55.5734515
            ],
            [
              37.4863842,
              55.5735057
            ],
            [
              37.4863363,
              55.5734681
            ],
            [
              37.4862885,
              55.573434
            ],
            [
              37.4861493,
              55.5733275
            ],
            [
              37.4860242,
              55.5732341
            ]
          ]
        ]
      }
    },
    {
      "type": "Feature",
      "properties": {
        "id": "moscow_kommunarka_+1_+1_1e2bd2c5_large_oks_osm_way_156921330_4",
        "object_type": "restriction",
        "restriction_type": "road",
        "name": "Бачуринская улица",
        "osm_kind": "road",
        "osm_id": 156921330,
        "osm_type": "way",
        "osm_tags": {
          "highway": "tertiary",
          "name": "Бачуринская улица"
        },
        "case_id": "moscow_kommunarka_+1_+1_1e2bd2c5_large_oks"
      },
      "geometry": {
        "type": "LineString",
        "coordinates": [
          [
            37.4773698,
            55.577335
          ],
          [
            37.4775971,
            55.5772485
          ],
          [
            37.478279,
            55.5769884
          ],
          [
            37.478936,
            55.5767402
          ],
          [
            37.4794869,
            55.5765213
          ],
          [
            37.4801002,
            55.5762776
          ],
          [
            37.4803651,
            55.5761906
          ],
          [
            37.4805635,
            55.5761165
          ],
          [
            37.4806695,
            55.5760753
          ],
          [
            37.4816341,
            55.5756757
          ]
        ]
      }
    },
    {
      "type": "Feature",
      "properties": {
        "id": "moscow_kommunarka_+1_+1_1e2bd2c5_large_oks_osm_way_238308986_5",
        "object_type": "restriction",
        "restriction_type": "oks",
        "name": "",
        "osm_kind": "building",
        "osm_id": 238308986,
        "osm_type": "way",
        "osm_tags": {
          "building": "apartments"
        },
        "case_id": "moscow_kommunarka_+1_+1_1e2bd2c5_large_oks"
      },
      "geometry": {
        "type": "Polygon",
        "coordinates": [
          [
            [
              37.4846218,
              55.5729199
            ],
            [
              37.4847818,
              55.5730506
            ],
            [
              37.4846415,
              55.5731055
            ],
            [
              37.4843694,
              55.573212
            ],
            [
              37.4841141,
              55.5733119
            ],
            [
              37.4839885,
              55.573361
            ],
            [
              37.4838285,
              55.5732303
            ],
            [
              37.4846218,
              55.5729199
            ]
          ]
        ]
      }
    },
    {
      "type": "Feature",
      "properties": {
        "id": "moscow_kommunarka_+1_+1_1e2bd2c5_large_oks_osm_way_238308993_6",
        "object_type": "restriction",
        "restriction_type": "oks",
        "name": "",
        "osm_kind": "building",
        "osm_id": 238308993,
        "osm_type": "way",
        "osm_tags": {
          "building": "apartments"
        },
        "case_id": "moscow_kommunarka_+1_+1_1e2bd2c5_large_oks",
        "selected_as_heat_demand_proxy": true,
        "connection_point_id": "moscow_kommunarka_+1_+1_1e2bd2c5_large_oks_cp_1"
      },
      "geometry": {
        "type": "Polygon",
        "coordinates": [
          [
            [
              37.4841623,
              55.5734865
            ],
            [
              37.4846329,
              55.5738467
            ],
            [
              37.4846723,
              55.5738497
            ],
            [
              37.4847141,
              55.5738529
            ],
            [
              37.485024,
              55.5737234
            ],
            [
              37.4851554,
              55.5738239
            ],
            [
              37.4850335,
              55.5738748
            ],
            [
              37.4846507,
              55.5740347
            ],
            [
              37.4843285,
              55.5737881
            ],
            [
              37.4841174,
              55.5736266
            ],
            [
              37.4840148,
              55.5735481
            ],
            [
              37.4841623,
              55.5734865
            ]
          ]
        ]
      }
    },
    {
      "type": "Feature",
      "properties": {
        "id": "moscow_kommunarka_+1_+1_1e2bd2c5_large_oks_osm_way_248698772_7",
        "object_type": "restriction",
        "restriction_type": "road",
        "name": "",
        "osm_kind": "road",
        "osm_id": 248698772,
        "osm_type": "way",
        "osm_tags": {
          "highway": "service"
        },
        "case_id": "moscow_kommunarka_+1_+1_1e2bd2c5_large_oks"
      },
      "geometry": {
        "type": "LineString",
        "coordinates": [
          [
            37.4845214,
            55.5745252
          ],
          [
            37.4845116,
            55.5743892
          ],
          [
            37.4834823,
            55.5737549
          ],
          [
            37.4830481,
            55.5734899
          ],
          [
            37.482399,
            55.5731236
          ],
          [
            37.4821855,
            55.5730575
          ],
          [
            37.4818819,
            55.57299
          ],
          [
            37.4814153,
            55.5730128
          ]
        ]
      }
    },
    {
      "type": "Feature",
      "properties": {
        "id": "moscow_kommunarka_+1_+1_1e2bd2c5_large_oks_osm_way_699051405_8",
        "object_type": "restriction",
        "restriction_type": "road",
        "name": "",
        "osm_kind": "road",
        "osm_id": 699051405,
        "osm_type": "way",
        "osm_tags": {
          "highway": "footway"
        },
        "case_id": "moscow_kommunarka_+1_+1_1e2bd2c5_large_oks"
      },
      "geometry": {
        "type": "LineString",
        "coordinates": [
          [
            37.4846891,
            55.5745381
          ],
          [
            37.4841706,
            55.5747348
          ],
          [
            37.4823137,
            55.5754856
          ],
          [
            37.4819394,
            55.5756369
          ],
          [
            37.4818506,
            55.5756727
          ],
          [
            37.4818442,
            55.5757326
          ],
          [
            37.4818741,
            55.5757802
          ],
          [
            37.4820295,
            55.5759245
          ]
        ]
      }
    },
    {
      "type": "Feature",
      "properties": {
        "id": "moscow_kommunarka_+1_+1_1e2bd2c5_large_oks_osm_way_699051406_9",
        "object_type": "restriction",
        "restriction_type": "road",
        "name": "",
        "osm_kind": "road",
        "osm_id": 699051406,
        "osm_type": "way",
        "osm_tags": {
          "highway": "footway"
        },
        "case_id": "moscow_kommunarka_+1_+1_1e2bd2c5_large_oks"
      },
      "geometry": {
        "type": "LineString",
        "coordinates": [
          [
            37.4818694,
            55.5755843
          ],
          [
            37.4819394,
            55.5756369
          ]
        ]
      }
    },
    {
      "type": "Feature",
      "properties": {
        "id": "moscow_kommunarka_+1_+1_1e2bd2c5_large_oks_osm_way_699051408_10",
        "object_type": "restriction",
        "restriction_type": "road",
        "name": "",
        "osm_kind": "road",
        "osm_id": 699051408,
        "osm_type": "way",
        "osm_tags": {
          "highway": "footway"
        },
        "case_id": "moscow_kommunarka_+1_+1_1e2bd2c5_large_oks"
      },
      "geometry": {
        "type": "LineString",
        "coordinates": [
          [
            37.4803743,
            55.576144
          ],
          [
            37.4812852,
            55.5735125
          ],
          [
            37.4814083,
            55.5730776
          ],
          [
            37.4814153,
            55.5730128
          ],
          [
            37.4814261,
            55.5729065
          ],
          [
            37.4817368,
            55.5729147
          ],
          [
            37.481398,
            55.5727139
          ],
          [
            37.4813983,
            55.5724659
          ],
          [
            37.4813188,
            55.5723444
          ]
        ]
      }
    },
    {
      "type": "Feature",
      "properties": {
        "id": "moscow_kommunarka_+1_+1_1e2bd2c5_large_oks_osm_way_699051409_11",
        "object_type": "restriction",
        "restriction_type": "road",
        "name": "",
        "osm_kind": "road",
        "osm_id": 699051409,
        "osm_type": "way",
        "osm_tags": {
          "highway": "footway"
        },
        "case_id": "moscow_kommunarka_+1_+1_1e2bd2c5_large_oks"
      },
      "geometry": {
        "type": "LineString",
        "coordinates": [
          [
            37.4803743,
            55.576144
          ],
          [
            37.4818307,
            55.5755639
          ],
          [
            37.4831227,
            55.5750493
          ]
        ]
      }
    },
    {
      "type": "Feature",
      "properties": {
        "id": "moscow_kommunarka_+1_+1_1e2bd2c5_large_oks_osm_way_699051410_12",
        "object_type": "restriction",
        "restriction_type": "road",
        "name": "",
        "osm_kind": "road",
        "osm_id": 699051410,
        "osm_type": "way",
        "osm_tags": {
          "highway": "footway"
        },
        "case_id": "moscow_kommunarka_+1_+1_1e2bd2c5_large_oks"
      },
      "geometry": {
        "type": "LineString",
        "coordinates": [
          [
            37.4817359,
            55.5758258
          ],
          [
            37.4817862,
            55.5758093
          ],
          [
            37.4818741,
            55.5757802
          ]
        ]
      }
    },
    {
      "type": "Feature",
      "properties": {
        "id": "moscow_kommunarka_+1_+1_1e2bd2c5_large_oks_osm_way_699051411_13",
        "object_type": "restriction",
        "restriction_type": "road",
        "name": "",
        "osm_kind": "road",
        "osm_id": 699051411,
        "osm_type": "way",
        "osm_tags": {
          "highway": "footway"
        },
        "case_id": "moscow_kommunarka_+1_+1_1e2bd2c5_large_oks"
      },
      "geometry": {
        "type": "LineString",
        "coordinates": [
          [
            37.4817359,
            55.5758258
          ],
          [
            37.4816909,
            55.575789
          ],
          [
            37.481657,
            55.5757745
          ],
          [
            37.4816506,
            55.5757733
          ],
          [
            37.481605,
            55.5757648
          ],
          [
            37.4815554,
            55.5757656
          ],
          [
            37.481494,
            55.5757813
          ],
          [
            37.4812297,
            55.5758833
          ],
          [
            37.4805848,
            55.5761338
          ],
          [
            37.4803534,
            55.5762235
          ],
          [
            37.4799345,
            55.5763862
          ],
          [
            37.4796306,
            55.5765042
          ],
          [
            37.4793336,
            55.5766195
          ],
          [
            37.4783122,
            55.577016
          ],
          [
            37.4780281,
            55.5771264
          ],
          [
            37.4774252,
            55.5773604
          ]
        ]
      }
    },
    {
      "type": "Feature",
      "properties": {
        "id": "moscow_kommunarka_+1_+1_1e2bd2c5_large_oks_osm_way_699051414_14",
        "object_type": "restriction",
        "restriction_type": "road",
        "name": "",
        "osm_kind": "road",
        "osm_id": 699051414,
        "osm_type": "way",
        "osm_tags": {
          "highway": "service"
        },
        "case_id": "moscow_kommunarka_+1_+1_1e2bd2c5_large_oks"
      },
      "geometry": {
        "type": "LineString",
        "coordinates": [
          [
            37.4848216,
            55.5744061
          ],
          [
            37.4847842,
            55.5743782
          ],
          [
            37.4845651,
            55.5742148
          ],
          [
            37.4837161,
            55.5735812
          ],
          [
            37.4836788,
            55.5735533
          ],
          [
            37.483596,
            55.5734916
          ],
          [
            37.4833448,
            55.5733041
          ],
          [
            37.4827431,
            55.5728551
          ],
          [
            37.4826058,
            55.5727526
          ],
          [
            37.4826025,
            55.5726916
          ],
          [
            37.4826801,
            55.5726324
          ],
          [
            37.4840267,
            55.5721344
          ],
          [
            37.4841245,
            55.5721344
          ],
          [
            37.4842156,
            55.5721573
          ],
          [
            37.4844418,
            55.57235
          ],
          [
            37.4844384,
            55.5724187
          ],
          [
            37.4843169,
            55.5724683
          ],
          [
            37.4840363,
            55.5725686
          ],
          [
            37.4836942,
            55.5726908
          ],
          [
            37.4834732,
            55.5727698
          ],
          [
            37.4838936,
            55.5730857
          ]
        ]
      }
    },
    {
      "type": "Feature",
      "properties": {
        "id": "moscow_kommunarka_+1_+1_1e2bd2c5_large_oks_osm_way_699051415_15",
        "object_type": "restriction",
        "restriction_type": "road",
        "name": "",
        "osm_kind": "road",
        "osm_id": 699051415,
        "osm_type": "way",
        "osm_tags": {
          "highway": "service"
        },
        "case_id": "moscow_kommunarka_+1_+1_1e2bd2c5_large_oks"
      },
      "geometry": {
        "type": "LineString",
        "coordinates": [
          [
            37.4845768,
            55.5728137
          ],
          [
            37.4843736,
            55.5728946
          ],
          [
            37.4838936,
            55.5730857
          ],
          [
            37.4836602,
            55.5731786
          ],
          [
            37.4833448,
            55.5733041
          ]
        ]
      }
    },
    {
      "type": "Feature",
      "properties": {
        "id": "moscow_kommunarka_+1_+1_1e2bd2c5_large_oks_osm_way_699051416_16",
        "object_type": "restriction",
        "restriction_type": "road",
        "name": "",
        "osm_kind": "road",
        "osm_id": 699051416,
        "osm_type": "way",
        "osm_tags": {
          "highway": "service"
        },
        "case_id": "moscow_kommunarka_+1_+1_1e2bd2c5_large_oks"
      },
      "geometry": {
        "type": "LineString",
        "coordinates": [
          [
            37.4837161,
            55.5735812
          ],
          [
            37.4840197,
            55.5734585
          ],
          [
            37.4842933,
            55.5733479
          ],
          [
            37.484732,
            55.573699
          ],
          [
            37.4849135,
            55.5736327
          ],
          [
            37.4850087,
            55.5735979
          ],
          [
            37.485272,
            55.5738249
          ],
          [
            37.4853091,
            55.5738917
          ],
          [
            37.4852551,
            55.573947
          ],
          [
            37.4851641,
            55.5739823
          ],
          [
            37.4845651,
            55.5742148
          ]
        ]
      }
    },
    {
      "type": "Feature",
      "properties": {
        "id": "moscow_kommunarka_+1_+1_1e2bd2c5_large_oks_osm_way_699051419_17",
        "object_type": "restriction",
        "restriction_type": "road",
        "name": "",
        "osm_kind": "road",
        "osm_id": 699051419,
        "osm_type": "way",
        "osm_tags": {
          "highway": "service"
        },
        "case_id": "moscow_kommunarka_+1_+1_1e2bd2c5_large_oks"
      },
      "geometry": {
        "type": "LineString",
        "coordinates": [
          [
            37.4842933,
            55.5733479
          ],
          [
            37.4844816,
            55.573274
          ],
          [
            37.4847894,
            55.5731533
          ]
        ]
      }
    },
    {
      "type": "Feature",
      "properties": {
        "id": "moscow_kommunarka_+1_+1_1e2bd2c5_large_oks_osm_way_699051423_18",
        "object_type": "restriction",
        "restriction_type": "road",
        "name": "",
        "osm_kind": "road",
        "osm_id": 699051423,
        "osm_type": "way",
        "osm_tags": {
          "highway": "footway"
        },
        "case_id": "moscow_kommunarka_+1_+1_1e2bd2c5_large_oks"
      },
      "geometry": {
        "type": "LineString",
        "coordinates": [
          [
            37.4825949,
            55.5729145
          ],
          [
            37.4828012,
            55.573072
          ],
          [
            37.4832362,
            55.5733772
          ],
          [
            37.4835342,
            55.5735863
          ],
          [
            37.4836114,
            55.5735898
          ],
          [
            37.4836399,
            55.5735744
          ],
          [
            37.4836788,
            55.5735533
          ]
        ]
      }
    },
    {
      "type": "Feature",
      "properties": {
        "id": "moscow_kommunarka_+1_+1_1e2bd2c5_large_oks_osm_way_699051424_19",
        "object_type": "restriction",
        "restriction_type": "road",
        "name": "",
        "osm_kind": "road",
        "osm_id": 699051424,
        "osm_type": "way",
        "osm_tags": {
          "highway": "steps"
        },
        "case_id": "moscow_kommunarka_+1_+1_1e2bd2c5_large_oks"
      },
      "geometry": {
        "type": "LineString",
        "coordinates": [
          [
            37.4836399,
            55.5735744
          ],
          [
            37.483701,
            55.573616
          ],
          [
            37.4834823,
            55.5737549
          ]
        ]
      }
    },
    {
      "type": "Feature",
      "properties": {
        "id": "moscow_kommunarka_+1_+1_1e2bd2c5_large_oks_osm_way_699051427_20",
        "object_type": "restriction",
        "restriction_type": "oks",
        "name": "",
        "osm_kind": "building",
        "osm_id": 699051427,
        "osm_type": "way",
        "osm_tags": {
          "building": "service"
        },
        "case_id": "moscow_kommunarka_+1_+1_1e2bd2c5_large_oks",
        "selected_as_heat_demand_proxy": true,
        "connection_point_id": "moscow_kommunarka_+1_+1_1e2bd2c5_large_oks_cp_2"
      },
      "geometry": {
        "type": "Polygon",
        "coordinates": [
          [
            [
              37.4853578,
              55.574056
            ],
            [
              37.4853047,
              55.5740092
            ],
            [
              37.4854818,
              55.573945
            ],
            [
              37.4855349,
              55.5739918
            ],
            [
              37.4853578,
              55.574056
            ]
          ]
        ]
      }
    },
    {
      "type": "Feature",
      "properties": {
        "id": "moscow_kommunarka_+1_+1_1e2bd2c5_large_oks_osm_way_699051432_21",
        "object_type": "restriction",
        "restriction_type": "road",
        "name": "",
        "osm_kind": "road",
        "osm_id": 699051432,
        "osm_type": "way",
        "osm_tags": {
          "highway": "footway"
        },
        "case_id": "moscow_kommunarka_+1_+1_1e2bd2c5_large_oks"
      },
      "geometry": {
        "type": "LineString",
        "coordinates": [
          [
            37.4853622,
            55.5741341
          ],
          [
            37.4851641,
            55.5739823
          ]
        ]
      }
    },
    {
      "type": "Feature",
      "properties": {
        "id": "moscow_kommunarka_+1_+1_1e2bd2c5_large_oks_osm_way_699051434_22",
        "object_type": "restriction",
        "restriction_type": "road",
        "name": "",
        "osm_kind": "road",
        "osm_id": 699051434,
        "osm_type": "way",
        "osm_tags": {
          "highway": "footway"
        },
        "case_id": "moscow_kommunarka_+1_+1_1e2bd2c5_large_oks"
      },
      "geometry": {
        "type": "LineString",
        "coordinates": [
          [
            37.4861115,
            55.5738495
          ],
          [
            37.4855662,
            55.5740479
          ],
          [
            37.4853622,
            55.5741341
          ],
          [
            37.4847842,
            55.5743782
          ],
          [
            37.4845756,
            55.5744576
          ]
        ]
      }
    },
    {
      "type": "Feature",
      "properties": {
        "id": "moscow_kommunarka_+1_+1_1e2bd2c5_large_oks_osm_way_699051435_23",
        "object_type": "restriction",
        "restriction_type": "road",
        "name": "",
        "osm_kind": "road",
        "osm_id": 699051435,
        "osm_type": "way",
        "osm_tags": {
          "highway": "footway"
        },
        "case_id": "moscow_kommunarka_+1_+1_1e2bd2c5_large_oks"
      },
      "geometry": {
        "type": "LineString",
        "coordinates": [
          [
            37.4846891,
            55.5745381
          ],
          [
            37.4846239,
            55.5744895
          ],
          [
            37.4845756,
            55.5744576
          ]
        ]
      }
    },
    {
      "type": "Feature",
      "properties": {
        "id": "moscow_kommunarka_+1_+1_1e2bd2c5_large_oks_osm_way_699051436_24",
        "object_type": "restriction",
        "restriction_type": "road",
        "name": "",
        "osm_kind": "road",
        "osm_id": 699051436,
        "osm_type": "way",
        "osm_tags": {
          "highway": "footway"
        },
        "case_id": "moscow_kommunarka_+1_+1_1e2bd2c5_large_oks"
      },
      "geometry": {
        "type": "LineString",
        "coordinates": [
          [
            37.4847209,
            55.5725076
          ],
          [
            37.4847719,
            55.5726378
          ],
          [
            37.4848793,
            55.5729119
          ],
          [
            37.4849478,
            55.5729835
          ],
          [
            37.4850422,
            55.5730668
          ],
          [
            37.4850922,
            55.5731361
          ],
          [
            37.4850946,
            55.5731816
          ],
          [
            37.4850614,
            55.5732191
          ],
          [
            37.4850283,
            55.5732646
          ],
          [
            37.4850259,
            55.5733141
          ],
          [
            37.4850756,
            55.5734492
          ],
          [
            37.4851101,
            55.5734829
          ],
          [
            37.4852045,
            55.5735749
          ],
          [
            37.4855325,
            55.5738948
          ],
          [
            37.4855822,
            55.5739163
          ],
          [
            37.4856461,
            55.5739243
          ],
          [
            37.485781,
            55.5739029
          ],
          [
            37.4859988,
            55.5738119
          ],
          [
            37.486039,
            55.5737798
          ],
          [
            37.4859709,
            55.5737092
          ],
          [
            37.4857521,
            55.5734828
          ],
          [
            37.4856769,
            55.5734104
          ],
          [
            37.4855561,
            55.5733944
          ],
          [
            37.4854804,
            55.5733689
          ],
          [
            37.4854023,
            55.5733194
          ],
          [
            37.4853265,
            55.5732217
          ],
          [
            37.4852863,
            55.5731254
          ],
          [
            37.4852863,
            55.5730665
          ],
          [
            37.4853147,
            55.5729554
          ],
          [
            37.4853739,
            55.5728805
          ],
          [
            37.485452,
            55.5728283
          ],
          [
            37.4854528,
            55.5727762
          ],
          [
            37.4854575,
            55.5724584
          ],
          [
            37.4854132,
            55.5723877
          ],
          [
            37.4853324,
            55.5723512
          ],
          [
            37.4852033,
            55.5723421
          ],
          [
            37.4849814,
            55.5723535
          ],
          [
            37.484828,
            55.5723809
          ],
          [
            37.4847803,
            55.5724139
          ],
          [
            37.4847554,
            55.5724311
          ],
          [
            37.4847209,
            55.5725076
          ]
        ]
      }
    },
    {
      "type": "Feature",
      "properties": {
        "id": "moscow_kommunarka_+1_+1_1e2bd2c5_large_oks_osm_way_699051437_25",
        "object_type": "restriction",
        "restriction_type": "road",
        "name": "",
        "osm_kind": "road",
        "osm_id": 699051437,
        "osm_type": "way",
        "osm_tags": {
          "highway": "footway"
        },
        "case_id": "moscow_kommunarka_+1_+1_1e2bd2c5_large_oks"
      },
      "geometry": {
        "type": "LineString",
        "coordinates": [
          [
            37.485452,
            55.5728283
          ],
          [
            37.4854546,
            55.572891
          ],
          [
            37.4854164,
            55.5730528
          ],
          [
            37.4854546,
            55.5732327
          ],
          [
            37.4855977,
            55.5733639
          ],
          [
            37.4856769,
            55.5734104
          ]
        ]
      }
    },
    {
      "type": "Feature",
      "properties": {
        "id": "moscow_kommunarka_+1_+1_1e2bd2c5_large_oks_osm_way_699051438_26",
        "object_type": "restriction",
        "restriction_type": "road",
        "name": "",
        "osm_kind": "road",
        "osm_id": 699051438,
        "osm_type": "way",
        "osm_tags": {
          "highway": "footway"
        },
        "case_id": "moscow_kommunarka_+1_+1_1e2bd2c5_large_oks"
      },
      "geometry": {
        "type": "LineString",
        "coordinates": [
          [
            37.4852045,
            55.5735749
          ],
          [
            37.4852065,
            55.5735042
          ],
          [
            37.4852415,
            55.573461
          ],
          [
            37.4853083,
            55.573425
          ],
          [
            37.4854037,
            55.5733981
          ],
          [
            37.4855561,
            55.5733944
          ]
        ]
      }
    },
    {
      "type": "Feature",
      "properties": {
        "id": "moscow_kommunarka_+1_+1_1e2bd2c5_large_oks_osm_way_699051473_27",
        "object_type": "restriction",
        "restriction_type": "road",
        "name": "",
        "osm_kind": "road",
        "osm_id": 699051473,
        "osm_type": "way",
        "osm_tags": {
          "highway": "steps"
        },
        "case_id": "moscow_kommunarka_+1_+1_1e2bd2c5_large_oks"
      },
      "geometry": {
        "type": "LineString",
        "coordinates": [
          [
            37.4857521,
            55.5734828
          ],
          [
            37.4856592,
            55.5735148
          ],
          [
            37.4856218,
            55.5735277
          ]
        ]
      }
    },
    {
      "type": "Feature",
      "properties": {
        "id": "moscow_kommunarka_+1_+1_1e2bd2c5_large_oks_osm_way_699051474_28",
        "object_type": "restriction",
        "restriction_type": "road",
        "name": "",
        "osm_kind": "road",
        "osm_id": 699051474,
        "osm_type": "way",
        "osm_tags": {
          "highway": "steps"
        },
        "case_id": "moscow_kommunarka_+1_+1_1e2bd2c5_large_oks"
      },
      "geometry": {
        "type": "LineString",
        "coordinates": [
          [
            37.4859709,
            55.5737092
          ],
          [
            37.485913,
            55.5737281
          ],
          [
            37.4858678,
            55.5737428
          ]
        ]
      }
    },
    {
      "type": "Feature",
      "properties": {
        "id": "moscow_kommunarka_+1_+1_1e2bd2c5_large_oks_osm_way_699051475_29",
        "object_type": "restriction",
        "restriction_type": "road",
        "name": "",
        "osm_kind": "road",
        "osm_id": 699051475,
        "osm_type": "way",
        "osm_tags": {
          "highway": "footway"
        },
        "case_id": "moscow_kommunarka_+1_+1_1e2bd2c5_large_oks"
      },
      "geometry": {
        "type": "LineString",
        "coordinates": [
          [
            37.485913,
            55.5737281
          ],
          [
            37.4856592,
            55.5735148
          ]
        ]
      }
    },
    {
      "type": "Feature",
      "properties": {
        "id": "moscow_kommunarka_+1_+1_1e2bd2c5_large_oks_osm_way_699277794_30",
        "object_type": "restriction",
        "restriction_type": "road",
        "name": "",
        "osm_kind": "road",
        "osm_id": 699277794,
        "osm_type": "way",
        "osm_tags": {
          "highway": "footway"
        },
        "case_id": "moscow_kommunarka_+1_+1_1e2bd2c5_large_oks"
      },
      "geometry": {
        "type": "LineString",
        "coordinates": [
          [
            37.4851101,
            55.5734829
          ],
          [
            37.485081,
            55.5734946
          ],
          [
            37.4847985,
            55.5735372
          ]
        ]
      }
    },
    {
      "type": "Feature",
      "properties": {
        "id": "moscow_kommunarka_+1_+1_1e2bd2c5_large_oks_osm_way_699277795_31",
        "object_type": "restriction",
        "restriction_type": "road",
        "name": "",
        "osm_kind": "road",
        "osm_id": 699277795,
        "osm_type": "way",
        "osm_tags": {
          "highway": "footway"
        },
        "case_id": "moscow_kommunarka_+1_+1_1e2bd2c5_large_oks"
      },
      "geometry": {
        "type": "LineString",
        "coordinates": [
          [
            37.4849135,
            55.5736327
          ],
          [
            37.4847985,
            55.5735372
          ],
          [
            37.4844816,
            55.573274
          ]
        ]
      }
    },
    {
      "type": "Feature",
      "properties": {
        "id": "moscow_kommunarka_+1_+1_1e2bd2c5_large_oks_osm_way_699277803_32",
        "object_type": "restriction",
        "restriction_type": "road",
        "name": "",
        "osm_kind": "road",
        "osm_id": 699277803,
        "osm_type": "way",
        "osm_tags": {
          "highway": "steps"
        },
        "case_id": "moscow_kommunarka_+1_+1_1e2bd2c5_large_oks"
      },
      "geometry": {
        "type": "LineString",
        "coordinates": [
          [
            37.4832362,
            55.5733772
          ],
          [
            37.4830481,
            55.5734899
          ]
        ]
      }
    },
    {
      "type": "Feature",
      "properties": {
        "id": "moscow_kommunarka_+1_+1_1e2bd2c5_large_oks_osm_way_699277804_33",
        "object_type": "restriction",
        "restriction_type": "oks",
        "name": "",
        "osm_kind": "building",
        "osm_id": 699277804,
        "osm_type": "way",
        "osm_tags": {
          "building": "service"
        },
        "case_id": "moscow_kommunarka_+1_+1_1e2bd2c5_large_oks"
      },
      "geometry": {
        "type": "Polygon",
        "coordinates": [
          [
            [
              37.4830538,
              55.5732235
            ],
            [
              37.4830972,
              55.573205
            ],
            [
              37.4831834,
              55.57327
            ],
            [
              37.4831399,
              55.5732884
            ],
            [
              37.4830538,
              55.5732235
            ]
          ]
        ]
      }
    },
    {
      "type": "Feature",
      "properties": {
        "id": "moscow_kommunarka_+1_+1_1e2bd2c5_large_oks_osm_way_699277805_34",
        "object_type": "restriction",
        "restriction_type": "road",
        "name": "",
        "osm_kind": "road",
        "osm_id": 699277805,
        "osm_type": "way",
        "osm_tags": {
          "highway": "footway"
        },
        "case_id": "moscow_kommunarka_+1_+1_1e2bd2c5_large_oks"
      },
      "geometry": {
        "type": "LineString",
        "coordinates": [
          [
            37.4836602,
            55.5731786
          ],
          [
            37.4838924,
            55.5733594
          ],
          [
            37.4840197,
            55.5734585
          ]
        ]
      }
    },
    {
      "type": "Feature",
      "properties": {
        "id": "moscow_kommunarka_+1_+1_1e2bd2c5_large_oks_osm_way_699277806_35",
        "object_type": "restriction",
        "restriction_type": "road",
        "name": "",
        "osm_kind": "road",
        "osm_id": 699277806,
        "osm_type": "way",
        "osm_tags": {
          "highway": "footway"
        },
        "case_id": "moscow_kommunarka_+1_+1_1e2bd2c5_large_oks"
      },
      "geometry": {
        "type": "LineString",
        "coordinates": [
          [
            37.4838924,
            55.5733594
          ],
          [
            37.483596,
            55.5734916
          ]
        ]
      }
    },
    {
      "type": "Feature",
      "properties": {
        "id": "moscow_kommunarka_+1_+1_1e2bd2c5_large_oks_osm_way_956158934_36",
        "object_type": "restriction",
        "restriction_type": "road",
        "name": "",
        "osm_kind": "road",
        "osm_id": 956158934,
        "osm_type": "way",
        "osm_tags": {
          "highway": "footway"
        },
        "case_id": "moscow_kommunarka_+1_+1_1e2bd2c5_large_oks"
      },
      "geometry": {
        "type": "LineString",
        "coordinates": [
          [
            37.4820295,
            55.5759245
          ],
          [
            37.4837787,
            55.5775985
          ],
          [
            37.4838484,
            55.5778081
          ],
          [
            37.4838629,
            55.5780733
          ],
          [
            37.4838051,
            55.5783834
          ],
          [
            37.4836376,
            55.578697
          ],
          [
            37.4835438,
            55.5788245
          ],
          [
            37.4833778,
            55.5789683
          ]
        ]
      }
    },
    {
      "type": "Feature",
      "properties": {
        "id": "moscow_kommunarka_+1_+1_1e2bd2c5_large_oks_osm_way_1039342737_37",
        "object_type": "restriction",
        "restriction_type": "road",
        "name": "",
        "osm_kind": "road",
        "osm_id": 1039342737,
        "osm_type": "way",
        "osm_tags": {
          "highway": "footway"
        },
        "case_id": "moscow_kommunarka_+1_+1_1e2bd2c5_large_oks"
      },
      "geometry": {
        "type": "LineString",
        "coordinates": [
          [
            37.4813376,
            55.5761535
          ],
          [
            37.4813444,
            55.576036
          ],
          [
            37.4813432,
            55.575999
          ],
          [
            37.4813307,
            55.5759727
          ],
          [
            37.4813064,
            55.5759464
          ],
          [
            37.4812297,
            55.5758833
          ]
        ]
      }
    },
    {
      "type": "Feature",
      "properties": {
        "id": "moscow_kommunarka_+1_+1_1e2bd2c5_large_oks_osm_way_1083777937_38",
        "object_type": "restriction",
        "restriction_type": "road",
        "name": "Бачуринская улица",
        "osm_kind": "road",
        "osm_id": 1083777937,
        "osm_type": "way",
        "osm_tags": {
          "highway": "tertiary",
          "name": "Бачуринская улица"
        },
        "case_id": "moscow_kommunarka_+1_+1_1e2bd2c5_large_oks"
      },
      "geometry": {
        "type": "LineString",
        "coordinates": [
          [
            37.4816341,
            55.5756757
          ],
          [
            37.4818694,
            55.5755843
          ],
          [
            37.4822482,
            55.5754331
          ],
          [
            37.4844309,
            55.5745618
          ],
          [
            37.4845214,
            55.5745252
          ],
          [
            37.4846239,
            55.5744895
          ]
        ]
      }
    },
    {
      "type": "Feature",
      "properties": {
        "id": "moscow_kommunarka_+1_+1_1e2bd2c5_large_oks_osm_way_1148141940_39",
        "object_type": "restriction",
        "restriction_type": "road",
        "name": "",
        "osm_kind": "road",
        "osm_id": 1148141940,
        "osm_type": "way",
        "osm_tags": {
          "highway": "footway"
        },
        "case_id": "moscow_kommunarka_+1_+1_1e2bd2c5_large_oks"
      },
      "geometry": {
        "type": "LineString",
        "coordinates": [
          [
            37.4818307,
            55.5755639
          ],
          [
            37.4818694,
            55.5755843
          ]
        ]
      }
    },
    {
      "type": "Feature",
      "properties": {
        "id": "moscow_kommunarka_+1_+1_1e2bd2c5_large_oks_osm_way_1265731782_40",
        "object_type": "restriction",
        "restriction_type": "oks",
        "name": "",
        "osm_kind": "building",
        "osm_id": 1265731782,
        "osm_type": "way",
        "osm_tags": {
          "building": "yes"
        },
        "case_id": "moscow_kommunarka_+1_+1_1e2bd2c5_large_oks",
        "selected_as_heat_demand_proxy": true,
        "connection_point_id": "moscow_kommunarka_+1_+1_1e2bd2c5_large_oks_cp_3"
      },
      "geometry": {
        "type": "Polygon",
        "coordinates": [
          [
            [
              37.4853099,
              55.5747397
            ],
            [
              37.4853833,
              55.5748013
            ],
            [
              37.4855177,
              55.5747501
            ],
            [
              37.4854443,
              55.5746885
            ],
            [
              37.4853099,
              55.5747397
            ]
          ]
        ]
      }
    },
    {
      "type": "Feature",
      "properties": {
        "id": "moscow_kommunarka_+1_+1_1e2bd2c5_large_oks_osm_way_1350916591_41",
        "object_type": "restriction",
        "restriction_type": "road",
        "name": "",
        "osm_kind": "road",
        "osm_id": 1350916591,
        "osm_type": "way",
        "osm_tags": {
          "highway": "path"
        },
        "case_id": "moscow_kommunarka_+1_+1_1e2bd2c5_large_oks"
      },
      "geometry": {
        "type": "LineString",
        "coordinates": [
          [
            37.4806306,
            55.5730154
          ],
          [
            37.4808079,
            55.5730664
          ],
          [
            37.480934,
            55.5731271
          ],
          [
            37.4810412,
            55.5731847
          ],
          [
            37.4811351,
            55.573256
          ],
          [
            37.4811941,
            55.5733621
          ],
          [
            37.4812852,
            55.5735125
          ]
        ]
      }
    },
    {
      "type": "Feature",
      "properties": {
        "id": "moscow_kommunarka_+1_+1_1e2bd2c5_large_oks_osm_way_1501791474_42",
        "object_type": "restriction",
        "restriction_type": "oks",
        "name": "",
        "osm_kind": "building",
        "osm_id": 1501791474,
        "osm_type": "way",
        "osm_tags": {
          "building": "construction"
        },
        "case_id": "moscow_kommunarka_+1_+1_1e2bd2c5_large_oks"
      },
      "geometry": {
        "type": "Polygon",
        "coordinates": [
          [
            [
              37.4828482,
              55.5760073
            ],
            [
              37.4833535,
              55.5764023
            ],
            [
              37.4836147,
              55.5762955
            ],
            [
              37.4833438,
              55.5760838
            ],
            [
              37.4832721,
              55.5761131
            ],
            [
              37.4830881,
              55.5759694
            ],
            [
              37.48308,
              55.5757258
            ],
            [
              37.4830365,
              55.5756902
            ],
            [
              37.4828543,
              55.5757614
            ],
            [
              37.4828482,
              55.5760073
            ]
          ]
        ]
      }
    },
    {
      "type": "Feature",
      "properties": {
        "id": "moscow_kommunarka_+1_+1_1e2bd2c5_large_oks_osm_way_1501791477_43",
        "object_type": "restriction",
        "restriction_type": "oks",
        "name": "",
        "osm_kind": "building",
        "osm_id": 1501791477,
        "osm_type": "way",
        "osm_tags": {
          "building": "construction"
        },
        "case_id": "moscow_kommunarka_+1_+1_1e2bd2c5_large_oks"
      },
      "geometry": {
        "type": "Polygon",
        "coordinates": [
          [
            [
              37.4849665,
              55.576319
            ],
            [
              37.4852634,
              55.5763255
            ],
            [
              37.4852703,
              55.5762243
            ],
            [
              37.4848756,
              55.5759022
            ],
            [
              37.4847514,
              55.5759509
            ],
            [
              37.4847979,
              55.5759889
            ],
            [
              37.484729,
              55.5760159
            ],
            [
              37.4848386,
              55.5761054
            ],
            [
              37.4847482,
              55.5761408
            ],
            [
              37.4849665,
              55.576319
            ]
          ]
        ]
      }
    },
    {
      "type": "Feature",
      "properties": {
        "id": "moscow_kommunarka_+1_+1_1e2bd2c5_large_oks_osm_way_1501791478_44",
        "object_type": "restriction",
        "restriction_type": "oks",
        "name": "",
        "osm_kind": "building",
        "osm_id": 1501791478,
        "osm_type": "way",
        "osm_tags": {
          "building": "construction"
        },
        "case_id": "moscow_kommunarka_+1_+1_1e2bd2c5_large_oks",
        "selected_as_heat_demand_proxy": true,
        "connection_point_id": "moscow_kommunarka_+1_+1_1e2bd2c5_large_oks_cp_4"
      },
      "geometry": {
        "type": "Polygon",
        "coordinates": [
          [
            [
              37.4847096,
              55.5757441
            ],
            [
              37.485023,
              55.5757416
            ],
            [
              37.4850182,
              55.5755113
            ],
            [
              37.4849324,
              55.5755119
            ],
            [
              37.4849312,
              55.575382
            ],
            [
              37.4848779,
              55.5753809
            ],
            [
              37.4848801,
              55.5753464
            ],
            [
              37.4845333,
              55.57507
            ],
            [
              37.4843435,
              55.5751428
            ],
            [
              37.4846629,
              55.5754091
            ],
            [
              37.4847049,
              55.5754089
            ],
            [
              37.4847096,
              55.5757441
            ]
          ]
        ]
      }
    },
    {
      "type": "Feature",
      "properties": {
        "id": "moscow_kommunarka_+1_+1_1e2bd2c5_large_oks_source",
        "object_type": "source",
        "case_id": "moscow_kommunarka_+1_+1_1e2bd2c5_large_oks"
      },
      "geometry": {
        "type": "Point",
        "coordinates": [
          37.48143819333333,
          55.574635650000005
        ]
      }
    },
    {
      "type": "Feature",
      "properties": {
        "id": "moscow_kommunarka_+1_+1_1e2bd2c5_large_oks_existing_network",
        "object_type": "heat_network",
        "diameter": 500,
        "flow_tph": 180.0,
        "upstream_object_id": "moscow_kommunarka_+1_+1_1e2bd2c5_large_oks_source",
        "case_id": "moscow_kommunarka_+1_+1_1e2bd2c5_large_oks"
      },
      "geometry": {
        "type": "LineString",
        "coordinates": [
          [
            37.48143819333333,
            55.574635650000005
          ],
          [
            37.48255047,
            55.574635650000005
          ]
        ]
      }
    },
    {
      "type": "Feature",
      "properties": {
        "id": "moscow_kommunarka_+1_+1_1e2bd2c5_large_oks_existing_chamber",
        "object_type": "heat_chamber",
        "diameter": 500,
        "upstream_object_id": "moscow_kommunarka_+1_+1_1e2bd2c5_large_oks_source",
        "case_id": "moscow_kommunarka_+1_+1_1e2bd2c5_large_oks"
      },
      "geometry": {
        "type": "Point",
        "coordinates": [
          37.48255047,
          55.574635650000005
        ]
      }
    },
    {
      "type": "Feature",
      "properties": {
        "id": "moscow_kommunarka_+1_+1_1e2bd2c5_large_oks_cp_1",
        "object_type": "oks_connection_point",
        "flow_tph": 21.315,
        "case_id": "moscow_kommunarka_+1_+1_1e2bd2c5_large_oks",
        "consumer_role": "osm_building_heat_demand_proxy",
        "source_building_osm_id": 238308993,
        "source_building_osm_type": "way",
        "source_building_name": "",
        "source_building_tags": {
          "building": "apartments"
        },
        "footprint_area_m2": 1172.32,
        "flow_basis": "synthetic_proxy_from_osm_footprint_area",
        "stress_bucket": "large_oks"
      },
      "geometry": {
        "type": "Point",
        "coordinates": [
          37.484680149999996,
          55.57394333333333
        ]
      }
    },
    {
      "type": "Feature",
      "properties": {
        "id": "moscow_kommunarka_+1_+1_1e2bd2c5_large_oks_cp_2",
        "object_type": "oks_connection_point",
        "flow_tph": 20.0,
        "case_id": "moscow_kommunarka_+1_+1_1e2bd2c5_large_oks",
        "consumer_role": "osm_building_heat_demand_proxy",
        "source_building_osm_id": 699051427,
        "source_building_osm_type": "way",
        "source_building_name": "",
        "source_building_tags": {
          "building": "service"
        },
        "footprint_area_m2": 81.95,
        "flow_basis": "synthetic_proxy_from_osm_footprint_area",
        "stress_bucket": "large_oks"
      },
      "geometry": {
        "type": "Point",
        "coordinates": [
          37.4854198,
          55.5740005
        ]
      }
    },
    {
      "type": "Feature",
      "properties": {
        "id": "moscow_kommunarka_+1_+1_1e2bd2c5_large_oks_cp_3",
        "object_type": "oks_connection_point",
        "flow_tph": 20.0,
        "case_id": "moscow_kommunarka_+1_+1_1e2bd2c5_large_oks",
        "consumer_role": "osm_building_heat_demand_proxy",
        "source_building_osm_id": 1265731782,
        "source_building_osm_type": "way",
        "source_building_name": "",
        "source_building_tags": {
          "building": "yes"
        },
        "footprint_area_m2": 84.33,
        "flow_basis": "synthetic_proxy_from_osm_footprint_area",
        "stress_bucket": "large_oks"
      },
      "geometry": {
        "type": "Point",
        "coordinates": [
          37.485421805282414,
          55.574756773552544
        ]
      }
    },
    {
      "type": "Feature",
      "properties": {
        "id": "moscow_kommunarka_+1_+1_1e2bd2c5_large_oks_cp_4",
        "object_type": "oks_connection_point",
        "flow_tph": 23.114,
        "case_id": "moscow_kommunarka_+1_+1_1e2bd2c5_large_oks",
        "consumer_role": "osm_building_heat_demand_proxy",
        "source_building_osm_id": 1501791478,
        "source_building_osm_type": "way",
        "source_building_name": "",
        "source_building_tags": {
          "building": "construction"
        },
        "footprint_area_m2": 1271.3,
        "flow_basis": "synthetic_proxy_from_osm_footprint_area",
        "stress_bucket": "large_oks"
      },
      "geometry": {
        "type": "Point",
        "coordinates": [
          37.48476936783927,
          55.57546458191157
        ]
      }
    }
  ]
}