{
  "type": "FeatureCollection",
  "name": "moscow_mitino_+2_+1_2af71ba1_large_oks",
  "crs": {
    "type": "name",
    "properties": {
      "name": "EPSG:4326"
    }
  },
  "metadata": {
    "dataset_version": "osm_building_anchored_routing_scenes_v3",
    "parent_scene_id": "moscow_mitino_+2_+1_2af71ba1",
    "split": "train",
    "city": "Москва Митино",
    "seed": "moscow_mitino",
    "research_bucket": "large_oks",
    "source_research_bucket": "separate_pipes",
    "research_bucket_is_ground_truth": false,
    "bbox_south_west_north_east": [
      55.8599238,
      37.3721996,
      55.8626188,
      37.3770017
    ],
    "real_data_source": "OpenStreetMap via Overpass API",
    "source_file": "data/real_geojson_places/separate_pipes/057_moscow_mitino_+2_+1_2af71ba1.geojson",
    "real_layers": [
      "restrictions",
      "consumer_building_footprints"
    ],
    "synthetic_layers": [
      "source",
      "heat_network",
      "heat_chamber",
      "heat_demand"
    ],
    "consumer_selection": "deterministic points inside real OSM building footprints",
    "flow_model": "synthetic proxy derived from building footprint area; not metered demand",
    "note": "OSM buildings anchor consumers; heat demand and seed network are synthetic proxies."
  },
  "features": [
    {
      "type": "Feature",
      "properties": {
        "id": "moscow_mitino_+2_+1_2af71ba1_large_oks_osm_way_702546711_1",
        "object_type": "restriction",
        "restriction_type": "road",
        "name": "",
        "osm_kind": "road",
        "osm_id": 702546711,
        "osm_type": "way",
        "osm_tags": {
          "highway": "service"
        },
        "case_id": "moscow_mitino_+2_+1_2af71ba1_large_oks"
      },
      "geometry": {
        "type": "LineString",
        "coordinates": [
          [
            37.3728183,
            55.8602251
          ],
          [
            37.3737489,
            55.8602267
          ]
        ]
      }
    },
    {
      "type": "Feature",
      "properties": {
        "id": "moscow_mitino_+2_+1_2af71ba1_large_oks_osm_way_702546713_2",
        "object_type": "restriction",
        "restriction_type": "road",
        "name": "",
        "osm_kind": "road",
        "osm_id": 702546713,
        "osm_type": "way",
        "osm_tags": {
          "highway": "service"
        },
        "case_id": "moscow_mitino_+2_+1_2af71ba1_large_oks"
      },
      "geometry": {
        "type": "LineString",
        "coordinates": [
          [
            37.373745,
            55.8609213
          ],
          [
            37.3729013,
            55.8609198
          ],
          [
            37.372869,
            55.8609177
          ],
          [
            37.3728479,
            55.8609117
          ],
          [
            37.3728346,
            55.8609049
          ],
          [
            37.3728248,
            55.8608972
          ],
          [
            37.3728177,
            55.8608875
          ],
          [
            37.3728148,
            55.8608769
          ],
          [
            37.3728155,
            55.8607506
          ],
          [
            37.3728169,
            55.8604975
          ],
          [
            37.3728178,
            55.8603154
          ],
          [
            37.3728183,
            55.8602251
          ],
          [
            37.3728184,
            55.8602042
          ],
          [
            37.372819,
            55.8600914
          ]
        ]
      }
    },
    {
      "type": "Feature",
      "properties": {
        "id": "moscow_mitino_+2_+1_2af71ba1_large_oks_osm_way_702546716_3",
        "object_type": "restriction",
        "restriction_type": "road",
        "name": "",
        "osm_kind": "road",
        "osm_id": 702546716,
        "osm_type": "way",
        "osm_tags": {
          "highway": "service"
        },
        "case_id": "moscow_mitino_+2_+1_2af71ba1_large_oks"
      },
      "geometry": {
        "type": "LineString",
        "coordinates": [
          [
            37.3737576,
            55.8586551
          ],
          [
            37.3737572,
            55.8587231
          ],
          [
            37.3737546,
            55.8591981
          ],
          [
            37.3737538,
            55.8593399
          ],
          [
            37.3737526,
            55.859554
          ],
          [
            37.3737516,
            55.8597315
          ],
          [
            37.3737499,
            55.8600442
          ],
          [
            37.3737496,
            55.860093
          ],
          [
            37.3737489,
            55.8602267
          ],
          [
            37.3737485,
            55.8602878
          ],
          [
            37.3737474,
            55.8604992
          ],
          [
            37.373746,
            55.8607523
          ],
          [
            37.3737453,
            55.8608635
          ],
          [
            37.373745,
            55.8609213
          ],
          [
            37.3737431,
            55.8612615
          ],
          [
            37.3721194,
            55.8612587
          ],
          [
            37.3719553,
            55.8612584
          ],
          [
            37.3718589,
            55.8612582
          ]
        ]
      }
    },
    {
      "type": "Feature",
      "properties": {
        "id": "moscow_mitino_+2_+1_2af71ba1_large_oks_osm_way_702546717_4",
        "object_type": "restriction",
        "restriction_type": "road",
        "name": "",
        "osm_kind": "road",
        "osm_id": 702546717,
        "osm_type": "way",
        "osm_tags": {
          "highway": "service"
        },
        "case_id": "moscow_mitino_+2_+1_2af71ba1_large_oks"
      },
      "geometry": {
        "type": "LineString",
        "coordinates": [
          [
            37.3737366,
            55.8624352
          ],
          [
            37.3728738,
            55.8624338
          ],
          [
            37.372809,
            55.8624337
          ],
          [
            37.3727892,
            55.862434
          ],
          [
            37.3727744,
            55.8624371
          ],
          [
            37.3727638,
            55.8624412
          ],
          [
            37.3727547,
            55.8624469
          ],
          [
            37.3727496,
            55.862452
          ],
          [
            37.3727495,
            55.8624706
          ],
          [
            37.3727471,
            55.8628919
          ],
          [
            37.3727469,
            55.8629315
          ],
          [
            37.3727487,
            55.8629409
          ],
          [
            37.3727555,
            55.8629491
          ],
          [
            37.372765,
            55.862955
          ],
          [
            37.3727811,
            55.86296
          ],
          [
            37.372806,
            55.862961
          ],
          [
            37.3730356,
            55.8629614
          ],
          [
            37.3737337,
            55.8629628
          ]
        ]
      }
    },
    {
      "type": "Feature",
      "properties": {
        "id": "moscow_mitino_+2_+1_2af71ba1_large_oks_osm_way_702546720_5",
        "object_type": "restriction",
        "restriction_type": "road",
        "name": "",
        "osm_kind": "road",
        "osm_id": 702546720,
        "osm_type": "way",
        "osm_tags": {
          "highway": "service"
        },
        "case_id": "moscow_mitino_+2_+1_2af71ba1_large_oks"
      },
      "geometry": {
        "type": "LineString",
        "coordinates": [
          [
            37.3737297,
            55.8636852
          ],
          [
            37.3737303,
            55.8635686
          ],
          [
            37.3737311,
            55.8634233
          ],
          [
            37.3737318,
            55.8633089
          ],
          [
            37.3737337,
            55.8629628
          ],
          [
            37.373734,
            55.862904
          ],
          [
            37.3737347,
            55.8627743
          ],
          [
            37.373736,
            55.8625515
          ],
          [
            37.3737364,
            55.8624777
          ],
          [
            37.3737366,
            55.8624352
          ],
          [
            37.3737383,
            55.8621281
          ],
          [
            37.3737386,
            55.8620855
          ],
          [
            37.3736577,
            55.8620854
          ],
          [
            37.372107,
            55.8620827
          ],
          [
            37.3719586,
            55.8620824
          ],
          [
            37.3718572,
            55.8620822
          ]
        ]
      }
    },
    {
      "type": "Feature",
      "properties": {
        "id": "moscow_mitino_+2_+1_2af71ba1_large_oks_osm_way_702546727_6",
        "object_type": "restriction",
        "restriction_type": "oks",
        "name": "",
        "osm_kind": "building",
        "osm_id": 702546727,
        "osm_type": "way",
        "osm_tags": {
          "building": "apartments"
        },
        "case_id": "moscow_mitino_+2_+1_2af71ba1_large_oks"
      },
      "geometry": {
        "type": "Polygon",
        "coordinates": [
          [
            [
              37.3723087,
              55.8602801
            ],
            [
              37.3723041,
              55.8611468
            ],
            [
              37.3735514,
              55.8611489
            ],
            [
              37.373552,
              55.8610346
            ],
            [
              37.3733452,
              55.8610342
            ],
            [
              37.3730232,
              55.8610337
            ],
            [
              37.3726989,
              55.8610331
            ],
            [
              37.3725085,
              55.8610328
            ],
            [
              37.3725088,
              55.8609649
            ],
            [
              37.3725096,
              55.8608222
            ],
            [
              37.3725109,
              55.8605813
            ],
            [
              37.3725119,
              55.8603918
            ],
            [
              37.3726171,
              55.8603919
            ],
            [
              37.3727223,
              55.8603921
            ],
            [
              37.3727229,
              55.8602808
            ],
            [
              37.3723087,
              55.8602801
            ]
          ]
        ]
      }
    },
    {
      "type": "Feature",
      "properties": {
        "id": "moscow_mitino_+2_+1_2af71ba1_large_oks_osm_way_702546731_7",
        "object_type": "restriction",
        "restriction_type": "oks",
        "name": "",
        "osm_kind": "building",
        "osm_id": 702546731,
        "osm_type": "way",
        "osm_tags": {
          "building": "yes"
        },
        "case_id": "moscow_mitino_+2_+1_2af71ba1_large_oks",
        "selected_as_heat_demand_proxy": true,
        "connection_point_id": "moscow_mitino_+2_+1_2af71ba1_large_oks_cp_4"
      },
      "geometry": {
        "type": "Polygon",
        "coordinates": [
          [
            [
              37.3763368,
              55.8621052
            ],
            [
              37.3764415,
              55.862105
            ],
            [
              37.3764412,
              55.8620599
            ],
            [
              37.3763365,
              55.8620601
            ],
            [
              37.3763368,
              55.8621052
            ]
          ]
        ]
      }
    },
    {
      "type": "Feature",
      "properties": {
        "id": "moscow_mitino_+2_+1_2af71ba1_large_oks_osm_way_796649344_8",
        "object_type": "restriction",
        "restriction_type": "road",
        "name": "",
        "osm_kind": "road",
        "osm_id": 796649344,
        "osm_type": "way",
        "osm_tags": {
          "highway": "footway"
        },
        "case_id": "moscow_mitino_+2_+1_2af71ba1_large_oks"
      },
      "geometry": {
        "type": "LineString",
        "coordinates": [
          [
            37.3724985,
            55.8624701
          ],
          [
            37.3727495,
            55.8624706
          ]
        ]
      }
    },
    {
      "type": "Feature",
      "properties": {
        "id": "moscow_mitino_+2_+1_2af71ba1_large_oks_osm_way_796649345_9",
        "object_type": "restriction",
        "restriction_type": "road",
        "name": "",
        "osm_kind": "road",
        "osm_id": 796649345,
        "osm_type": "way",
        "osm_tags": {
          "highway": "footway"
        },
        "case_id": "moscow_mitino_+2_+1_2af71ba1_large_oks"
      },
      "geometry": {
        "type": "LineString",
        "coordinates": [
          [
            37.3723001,
            55.8624698
          ],
          [
            37.3724985,
            55.8624701
          ]
        ]
      }
    },
    {
      "type": "Feature",
      "properties": {
        "id": "moscow_mitino_+2_+1_2af71ba1_large_oks_osm_way_796649346_10",
        "object_type": "restriction",
        "restriction_type": "road",
        "name": "",
        "osm_kind": "road",
        "osm_id": 796649346,
        "osm_type": "way",
        "osm_tags": {
          "highway": "footway"
        },
        "case_id": "moscow_mitino_+2_+1_2af71ba1_large_oks"
      },
      "geometry": {
        "type": "LineString",
        "coordinates": [
          [
            37.3721049,
            55.8624694
          ],
          [
            37.3723001,
            55.8624698
          ]
        ]
      }
    },
    {
      "type": "Feature",
      "properties": {
        "id": "moscow_mitino_+2_+1_2af71ba1_large_oks_osm_way_796649348_11",
        "object_type": "restriction",
        "restriction_type": "oks",
        "name": "",
        "osm_kind": "building",
        "osm_id": 796649348,
        "osm_type": "way",
        "osm_tags": {
          "building": "yes"
        },
        "case_id": "moscow_mitino_+2_+1_2af71ba1_large_oks"
      },
      "geometry": {
        "type": "Polygon",
        "coordinates": [
          [
            [
              37.3730684,
              55.8606013
            ],
            [
              37.3732783,
              55.8606016
            ],
            [
              37.3732787,
              55.8605331
            ],
            [
              37.3730688,
              55.8605328
            ],
            [
              37.3730684,
              55.8606013
            ]
          ]
        ]
      }
    },
    {
      "type": "Feature",
      "properties": {
        "id": "moscow_mitino_+2_+1_2af71ba1_large_oks_osm_way_796649358_12",
        "object_type": "restriction",
        "restriction_type": "oks",
        "name": "",
        "osm_kind": "building",
        "osm_id": 796649358,
        "osm_type": "way",
        "osm_tags": {
          "building": "construction"
        },
        "case_id": "moscow_mitino_+2_+1_2af71ba1_large_oks",
        "selected_as_heat_demand_proxy": true,
        "connection_point_id": "moscow_mitino_+2_+1_2af71ba1_large_oks_cp_1"
      },
      "geometry": {
        "type": "Polygon",
        "coordinates": [
          [
            [
              37.3744626,
              55.8611599
            ],
            [
              37.3757637,
              55.8611581
            ],
            [
              37.3757598,
              55.8602635
            ],
            [
              37.3753072,
              55.8602641
            ],
            [
              37.3753078,
              55.8604085
            ],
            [
              37.3754932,
              55.8604083
            ],
            [
              37.3754959,
              55.8610105
            ],
            [
              37.3744619,
              55.861012
            ],
            [
              37.3744626,
              55.8611599
            ]
          ]
        ]
      }
    },
    {
      "type": "Feature",
      "properties": {
        "id": "moscow_mitino_+2_+1_2af71ba1_large_oks_osm_way_796649359_13",
        "object_type": "restriction",
        "restriction_type": "oks",
        "name": "",
        "osm_kind": "building",
        "osm_id": 796649359,
        "osm_type": "way",
        "osm_tags": {
          "building": "apartments"
        },
        "case_id": "moscow_mitino_+2_+1_2af71ba1_large_oks"
      },
      "geometry": {
        "type": "Polygon",
        "coordinates": [
          [
            [
              37.3744086,
              55.8599771
            ],
            [
              37.3746906,
              55.8599776
            ],
            [
              37.3750405,
              55.8599782
            ],
            [
              37.3753397,
              55.8599787
            ],
            [
              37.3757065,
              55.8599794
            ],
            [
              37.3757075,
              55.8597975
            ],
            [
              37.3757085,
              55.8596215
            ],
            [
              37.3757096,
              55.8594264
            ],
            [
              37.3757104,
              55.8592732
            ],
            [
              37.3757107,
              55.8592113
            ],
            [
              37.3752603,
              55.8592105
            ],
            [
              37.3752596,
              55.8593326
            ],
            [
              37.3753513,
              55.8593328
            ],
            [
              37.375443,
              55.8593329
            ],
            [
              37.3754425,
              55.8594259
            ],
            [
              37.3754414,
              55.8596211
            ],
            [
              37.3754404,
              55.859797
            ],
            [
              37.3754402,
              55.8598313
            ],
            [
              37.3753405,
              55.8598312
            ],
            [
              37.3750413,
              55.8598306
            ],
            [
              37.3746914,
              55.85983
            ],
            [
              37.3744094,
              55.8598295
            ],
            [
              37.3744086,
              55.8599771
            ]
          ]
        ]
      }
    },
    {
      "type": "Feature",
      "properties": {
        "id": "moscow_mitino_+2_+1_2af71ba1_large_oks_osm_way_866027003_14",
        "object_type": "restriction",
        "restriction_type": "oks",
        "name": "",
        "osm_kind": "building",
        "osm_id": 866027003,
        "osm_type": "way",
        "osm_tags": {
          "building": "school"
        },
        "case_id": "moscow_mitino_+2_+1_2af71ba1_large_oks",
        "selected_as_heat_demand_proxy": true,
        "connection_point_id": "moscow_mitino_+2_+1_2af71ba1_large_oks_cp_2"
      },
      "geometry": {
        "type": "Polygon",
        "coordinates": [
          [
            [
              37.3748562,
              55.8618534
            ],
            [
              37.3757038,
              55.8618579
            ],
            [
              37.375707,
              55.861664
            ],
            [
              37.3748595,
              55.8616595
            ],
            [
              37.3748562,
              55.8618534
            ]
          ]
        ]
      }
    },
    {
      "type": "Feature",
      "properties": {
        "id": "moscow_mitino_+2_+1_2af71ba1_large_oks_osm_way_892224457_15",
        "object_type": "restriction",
        "restriction_type": "road",
        "name": "",
        "osm_kind": "road",
        "osm_id": 892224457,
        "osm_type": "way",
        "osm_tags": {
          "highway": "service"
        },
        "case_id": "moscow_mitino_+2_+1_2af71ba1_large_oks"
      },
      "geometry": {
        "type": "LineString",
        "coordinates": [
          [
            37.3735306,
            55.8624773
          ],
          [
            37.3737364,
            55.8624777
          ]
        ]
      }
    },
    {
      "type": "Feature",
      "properties": {
        "id": "moscow_mitino_+2_+1_2af71ba1_large_oks_osm_way_892224460_16",
        "object_type": "restriction",
        "restriction_type": "oks",
        "name": "",
        "osm_kind": "building",
        "osm_id": 892224460,
        "osm_type": "way",
        "osm_tags": {
          "building": "service"
        },
        "case_id": "moscow_mitino_+2_+1_2af71ba1_large_oks"
      },
      "geometry": {
        "type": "Polygon",
        "coordinates": [
          [
            [
              37.3732516,
              55.8626845
            ],
            [
              37.373252,
              55.8626099
            ],
            [
              37.3730598,
              55.8626095
            ],
            [
              37.3730593,
              55.8626841
            ],
            [
              37.3732516,
              55.8626845
            ]
          ]
        ]
      }
    },
    {
      "type": "Feature",
      "properties": {
        "id": "moscow_mitino_+2_+1_2af71ba1_large_oks_osm_way_892224461_17",
        "object_type": "restriction",
        "restriction_type": "road",
        "name": "",
        "osm_kind": "road",
        "osm_id": 892224461,
        "osm_type": "way",
        "osm_tags": {
          "highway": "service"
        },
        "case_id": "moscow_mitino_+2_+1_2af71ba1_large_oks"
      },
      "geometry": {
        "type": "LineString",
        "coordinates": [
          [
            37.3729322,
            55.8625478
          ],
          [
            37.3729326,
            55.8624763
          ],
          [
            37.3734258,
            55.8624771
          ]
        ]
      }
    },
    {
      "type": "Feature",
      "properties": {
        "id": "moscow_mitino_+2_+1_2af71ba1_large_oks_osm_way_892237811_18",
        "object_type": "restriction",
        "restriction_type": "road",
        "name": "",
        "osm_kind": "road",
        "osm_id": 892237811,
        "osm_type": "way",
        "osm_tags": {
          "highway": "service"
        },
        "case_id": "moscow_mitino_+2_+1_2af71ba1_large_oks"
      },
      "geometry": {
        "type": "LineString",
        "coordinates": [
          [
            37.3729308,
            55.8628134
          ],
          [
            37.3729309,
            55.8627826
          ],
          [
            37.3729321,
            55.8625638
          ],
          [
            37.3729322,
            55.8625478
          ]
        ]
      }
    },
    {
      "type": "Feature",
      "properties": {
        "id": "moscow_mitino_+2_+1_2af71ba1_large_oks_osm_way_892237812_19",
        "object_type": "restriction",
        "restriction_type": "road",
        "name": "",
        "osm_kind": "road",
        "osm_id": 892237812,
        "osm_type": "way",
        "osm_tags": {
          "highway": "service"
        },
        "case_id": "moscow_mitino_+2_+1_2af71ba1_large_oks"
      },
      "geometry": {
        "type": "LineString",
        "coordinates": [
          [
            37.3735588,
            55.8629037
          ],
          [
            37.3735589,
            55.8628867
          ],
          [
            37.3735595,
            55.8627837
          ],
          [
            37.3735607,
            55.8625649
          ],
          [
            37.3735612,
            55.8624643
          ]
        ]
      }
    },
    {
      "type": "Feature",
      "properties": {
        "id": "moscow_mitino_+2_+1_2af71ba1_large_oks_osm_way_892237814_20",
        "object_type": "restriction",
        "restriction_type": "road",
        "name": "",
        "osm_kind": "road",
        "osm_id": 892237814,
        "osm_type": "way",
        "osm_tags": {
          "highway": "service"
        },
        "case_id": "moscow_mitino_+2_+1_2af71ba1_large_oks"
      },
      "geometry": {
        "type": "LineString",
        "coordinates": [
          [
            37.3735607,
            55.8625649
          ],
          [
            37.373258,
            55.8625644
          ],
          [
            37.3729321,
            55.8625638
          ]
        ]
      }
    },
    {
      "type": "Feature",
      "properties": {
        "id": "moscow_mitino_+2_+1_2af71ba1_large_oks_osm_way_892237815_21",
        "object_type": "restriction",
        "restriction_type": "road",
        "name": "",
        "osm_kind": "road",
        "osm_id": 892237815,
        "osm_type": "way",
        "osm_tags": {
          "highway": "service"
        },
        "case_id": "moscow_mitino_+2_+1_2af71ba1_large_oks"
      },
      "geometry": {
        "type": "LineString",
        "coordinates": [
          [
            37.3732568,
            55.8627832
          ],
          [
            37.373258,
            55.8625644
          ]
        ]
      }
    },
    {
      "type": "Feature",
      "properties": {
        "id": "moscow_mitino_+2_+1_2af71ba1_large_oks_osm_way_892237817_22",
        "object_type": "restriction",
        "restriction_type": "road",
        "name": "",
        "osm_kind": "road",
        "osm_id": 892237817,
        "osm_type": "way",
        "osm_tags": {
          "highway": "service"
        },
        "case_id": "moscow_mitino_+2_+1_2af71ba1_large_oks"
      },
      "geometry": {
        "type": "LineString",
        "coordinates": [
          [
            37.3734258,
            55.8624771
          ],
          [
            37.3735306,
            55.8624773
          ]
        ]
      }
    },
    {
      "type": "Feature",
      "properties": {
        "id": "moscow_mitino_+2_+1_2af71ba1_large_oks_osm_way_1008836389_23",
        "object_type": "restriction",
        "restriction_type": "road",
        "name": "",
        "osm_kind": "road",
        "osm_id": 1008836389,
        "osm_type": "way",
        "osm_tags": {
          "highway": "service"
        },
        "case_id": "moscow_mitino_+2_+1_2af71ba1_large_oks"
      },
      "geometry": {
        "type": "LineString",
        "coordinates": [
          [
            37.3737453,
            55.8608635
          ],
          [
            37.373543,
            55.8608631
          ]
        ]
      }
    },
    {
      "type": "Feature",
      "properties": {
        "id": "moscow_mitino_+2_+1_2af71ba1_large_oks_osm_way_1008836391_24",
        "object_type": "restriction",
        "restriction_type": "road",
        "name": "",
        "osm_kind": "road",
        "osm_id": 1008836391,
        "osm_type": "way",
        "osm_tags": {
          "highway": "service"
        },
        "case_id": "moscow_mitino_+2_+1_2af71ba1_large_oks"
      },
      "geometry": {
        "type": "LineString",
        "coordinates": [
          [
            37.3735462,
            55.8602875
          ],
          [
            37.3737485,
            55.8602878
          ]
        ]
      }
    },
    {
      "type": "Feature",
      "properties": {
        "id": "moscow_mitino_+2_+1_2af71ba1_large_oks_osm_way_1008836393_25",
        "object_type": "restriction",
        "restriction_type": "oks",
        "name": "",
        "osm_kind": "building",
        "osm_id": 1008836393,
        "osm_type": "way",
        "osm_tags": {
          "building": "service"
        },
        "case_id": "moscow_mitino_+2_+1_2af71ba1_large_oks"
      },
      "geometry": {
        "type": "Polygon",
        "coordinates": [
          [
            [
              37.3729037,
              55.8601574
            ],
            [
              37.3730328,
              55.8601576
            ],
            [
              37.373033,
              55.8601272
            ],
            [
              37.3729039,
              55.860127
            ],
            [
              37.3729037,
              55.8601574
            ]
          ]
        ]
      }
    },
    {
      "type": "Feature",
      "properties": {
        "id": "moscow_mitino_+2_+1_2af71ba1_large_oks_osm_way_1008836395_26",
        "object_type": "restriction",
        "restriction_type": "road",
        "name": "",
        "osm_kind": "road",
        "osm_id": 1008836395,
        "osm_type": "way",
        "osm_tags": {
          "highway": "footway"
        },
        "case_id": "moscow_mitino_+2_+1_2af71ba1_large_oks"
      },
      "geometry": {
        "type": "LineString",
        "coordinates": [
          [
            37.372299,
            55.8615981
          ],
          [
            37.3722686,
            55.86156
          ],
          [
            37.3722435,
            55.8615344
          ],
          [
            37.3722213,
            55.8615129
          ],
          [
            37.3721837,
            55.8614845
          ],
          [
            37.3721585,
            55.8614692
          ],
          [
            37.3721389,
            55.8614588
          ],
          [
            37.3721163,
            55.8614502
          ],
          [
            37.3720967,
            55.8614452
          ],
          [
            37.3720839,
            55.8613895
          ],
          [
            37.37208,
            55.861375
          ],
          [
            37.3720676,
            55.8613624
          ],
          [
            37.3720542,
            55.8613553
          ],
          [
            37.3720292,
            55.8613487
          ],
          [
            37.3719624,
            55.8613446
          ]
        ]
      }
    },
    {
      "type": "Feature",
      "properties": {
        "id": "moscow_mitino_+2_+1_2af71ba1_large_oks_osm_way_1008836396_27",
        "object_type": "restriction",
        "restriction_type": "road",
        "name": "",
        "osm_kind": "road",
        "osm_id": 1008836396,
        "osm_type": "way",
        "osm_tags": {
          "highway": "footway"
        },
        "case_id": "moscow_mitino_+2_+1_2af71ba1_large_oks"
      },
      "geometry": {
        "type": "LineString",
        "coordinates": [
          [
            37.3723289,
            55.8617528
          ],
          [
            37.372341,
            55.8618002
          ],
          [
            37.3723528,
            55.8618283
          ],
          [
            37.3723746,
            55.8618546
          ],
          [
            37.3724047,
            55.8618738
          ],
          [
            37.3724333,
            55.8618799
          ],
          [
            37.3724613,
            55.8618811
          ],
          [
            37.3724958,
            55.8618767
          ],
          [
            37.3725294,
            55.8618641
          ],
          [
            37.3725685,
            55.861838
          ],
          [
            37.3726066,
            55.8618077
          ],
          [
            37.3726489,
            55.8617834
          ],
          [
            37.3726854,
            55.8617694
          ],
          [
            37.3727204,
            55.8617643
          ],
          [
            37.3727472,
            55.8617644
          ],
          [
            37.3727805,
            55.8617696
          ],
          [
            37.3728115,
            55.8617787
          ]
        ]
      }
    },
    {
      "type": "Feature",
      "properties": {
        "id": "moscow_mitino_+2_+1_2af71ba1_large_oks_osm_way_1008836397_28",
        "object_type": "restriction",
        "restriction_type": "road",
        "name": "",
        "osm_kind": "road",
        "osm_id": 1008836397,
        "osm_type": "way",
        "osm_tags": {
          "highway": "footway"
        },
        "case_id": "moscow_mitino_+2_+1_2af71ba1_large_oks"
      },
      "geometry": {
        "type": "LineString",
        "coordinates": [
          [
            37.372299,
            55.8615981
          ],
          [
            37.3723315,
            55.8616314
          ],
          [
            37.3723579,
            55.8616672
          ],
          [
            37.3723683,
            55.8617003
          ],
          [
            37.3723642,
            55.8617213
          ],
          [
            37.3723533,
            55.861736
          ],
          [
            37.3723289,
            55.8617528
          ],
          [
            37.3723006,
            55.8617673
          ],
          [
            37.3722798,
            55.8617805
          ],
          [
            37.3722562,
            55.8617992
          ],
          [
            37.372243,
            55.861814
          ],
          [
            37.3722282,
            55.8618434
          ],
          [
            37.3722246,
            55.8618771
          ],
          [
            37.3722295,
            55.8619211
          ],
          [
            37.3722432,
            55.8619608
          ],
          [
            37.3722623,
            55.8620036
          ]
        ]
      }
    },
    {
      "type": "Feature",
      "properties": {
        "id": "moscow_mitino_+2_+1_2af71ba1_large_oks_osm_way_1008836398_29",
        "object_type": "restriction",
        "restriction_type": "road",
        "name": "",
        "osm_kind": "road",
        "osm_id": 1008836398,
        "osm_type": "way",
        "osm_tags": {
          "highway": "footway"
        },
        "case_id": "moscow_mitino_+2_+1_2af71ba1_large_oks"
      },
      "geometry": {
        "type": "LineString",
        "coordinates": [
          [
            37.3719593,
            55.8619666
          ],
          [
            37.3720293,
            55.8619669
          ],
          [
            37.3720617,
            55.8619685
          ],
          [
            37.3720993,
            55.8619731
          ],
          [
            37.3721255,
            55.8619783
          ],
          [
            37.3721526,
            55.8619848
          ],
          [
            37.3722068,
            55.8619963
          ],
          [
            37.3722623,
            55.8620036
          ],
          [
            37.3723175,
            55.8620068
          ],
          [
            37.3723687,
            55.8620062
          ],
          [
            37.3724307,
            55.8619994
          ],
          [
            37.372473,
            55.8619908
          ],
          [
            37.3725158,
            55.8619784
          ],
          [
            37.3725649,
            55.8619582
          ],
          [
            37.3726024,
            55.8619399
          ],
          [
            37.3726319,
            55.861922
          ],
          [
            37.3726644,
            55.8618969
          ],
          [
            37.3726912,
            55.8618691
          ],
          [
            37.3727343,
            55.8618252
          ],
          [
            37.3727681,
            55.861801
          ],
          [
            37.3728115,
            55.8617787
          ],
          [
            37.3728408,
            55.8617674
          ],
          [
            37.3728807,
            55.8617556
          ],
          [
            37.372946,
            55.8617435
          ],
          [
            37.373014,
            55.861739
          ],
          [
            37.3730961,
            55.8617439
          ],
          [
            37.3731599,
            55.8617559
          ],
          [
            37.3732047,
            55.8617695
          ],
          [
            37.3732407,
            55.8617845
          ],
          [
            37.3733009,
            55.8618218
          ],
          [
            37.3733471,
            55.8618599
          ],
          [
            37.3733907,
            55.8619003
          ],
          [
            37.373413,
            55.8619192
          ],
          [
            37.3734381,
            55.8619366
          ],
          [
            37.3734803,
            55.8619597
          ],
          [
            37.3735167,
            55.861975
          ],
          [
            37.3735623,
            55.8619882
          ],
          [
            37.3736107,
            55.8619925
          ],
          [
            37.3736434,
            55.8619907
          ],
          [
            37.3736765,
            55.861984
          ],
          [
            37.3737053,
            55.8619728
          ],
          [
            37.3737393,
            55.8619489
          ]
        ]
      }
    },
    {
      "type": "Feature",
      "properties": {
        "id": "moscow_mitino_+2_+1_2af71ba1_large_oks_osm_way_1008836413_30",
        "object_type": "restriction",
        "restriction_type": "oks",
        "name": "",
        "osm_kind": "building",
        "osm_id": 1008836413,
        "osm_type": "way",
        "osm_tags": {
          "building": "apartments"
        },
        "case_id": "moscow_mitino_+2_+1_2af71ba1_large_oks",
        "selected_as_heat_demand_proxy": true,
        "connection_point_id": "moscow_mitino_+2_+1_2af71ba1_large_oks_cp_3"
      },
      "geometry": {
        "type": "Polygon",
        "coordinates": [
          [
            [
              37.3768374,
              55.8621349
            ],
            [
              37.3772536,
              55.8621341
            ],
            [
              37.3772528,
              55.8620021
            ],
            [
              37.3770793,
              55.8620024
            ],
            [
              37.3770749,
              55.8612483
            ],
            [
              37.3774654,
              55.8612476
            ],
            [
              37.3774648,
              55.8611375
            ],
            [
              37.3768316,
              55.8611387
            ],
            [
              37.3768374,
              55.8621349
            ]
          ]
        ]
      }
    },
    {
      "type": "Feature",
      "properties": {
        "id": "moscow_mitino_+2_+1_2af71ba1_large_oks_osm_way_1051253550_31",
        "object_type": "restriction",
        "restriction_type": "road",
        "name": "Муравская улица",
        "osm_kind": "road",
        "osm_id": 1051253550,
        "osm_type": "way",
        "osm_tags": {
          "highway": "residential",
          "name": "Муравская улица"
        },
        "case_id": "moscow_mitino_+2_+1_2af71ba1_large_oks"
      },
      "geometry": {
        "type": "LineString",
        "coordinates": [
          [
            37.3731708,
            55.8586549
          ],
          [
            37.3737576,
            55.8586551
          ],
          [
            37.3739982,
            55.8586552
          ],
          [
            37.3742978,
            55.8586599
          ],
          [
            37.37519,
            55.8586603
          ],
          [
            37.3754451,
            55.8586821
          ],
          [
            37.3756208,
            55.8587325
          ],
          [
            37.3757926,
            55.858798
          ],
          [
            37.375954,
            55.8588659
          ],
          [
            37.376086,
            55.8589613
          ],
          [
            37.3761574,
            55.8590798
          ],
          [
            37.3761894,
            55.8592534
          ],
          [
            37.3761745,
            55.8599231
          ],
          [
            37.3761619,
            55.8601006
          ]
        ]
      }
    },
    {
      "type": "Feature",
      "properties": {
        "id": "moscow_mitino_+2_+1_2af71ba1_large_oks_osm_way_1103196253_32",
        "object_type": "restriction",
        "restriction_type": "road",
        "name": "",
        "osm_kind": "road",
        "osm_id": 1103196253,
        "osm_type": "way",
        "osm_tags": {
          "highway": "service"
        },
        "case_id": "moscow_mitino_+2_+1_2af71ba1_large_oks"
      },
      "geometry": {
        "type": "LineString",
        "coordinates": [
          [
            37.3718614,
            55.8600897
          ],
          [
            37.371957,
            55.8600899
          ],
          [
            37.3721074,
            55.8600901
          ],
          [
            37.372819,
            55.8600914
          ],
          [
            37.3737496,
            55.860093
          ],
          [
            37.3739237,
            55.8600933
          ],
          [
            37.3741932,
            55.8600938
          ],
          [
            37.3757861,
            55.8600966
          ],
          [
            37.3761619,
            55.8601006
          ]
        ]
      }
    },
    {
      "type": "Feature",
      "properties": {
        "id": "moscow_mitino_+2_+1_2af71ba1_large_oks_osm_way_1159471391_33",
        "object_type": "restriction",
        "restriction_type": "road",
        "name": "",
        "osm_kind": "road",
        "osm_id": 1159471391,
        "osm_type": "way",
        "osm_tags": {
          "highway": "footway"
        },
        "case_id": "moscow_mitino_+2_+1_2af71ba1_large_oks"
      },
      "geometry": {
        "type": "LineString",
        "coordinates": [
          [
            37.3732541,
            55.8627735
          ],
          [
            37.3732553,
            55.8625507
          ]
        ]
      }
    },
    {
      "type": "Feature",
      "properties": {
        "id": "moscow_mitino_+2_+1_2af71ba1_large_oks_osm_way_1159471392_34",
        "object_type": "restriction",
        "restriction_type": "road",
        "name": "",
        "osm_kind": "road",
        "osm_id": 1159471392,
        "osm_type": "way",
        "osm_tags": {
          "highway": "footway"
        },
        "case_id": "moscow_mitino_+2_+1_2af71ba1_large_oks"
      },
      "geometry": {
        "type": "LineString",
        "coordinates": [
          [
            37.3732902,
            55.8627735
          ],
          [
            37.3735208,
            55.8625676
          ]
        ]
      }
    },
    {
      "type": "Feature",
      "properties": {
        "id": "moscow_mitino_+2_+1_2af71ba1_large_oks_osm_way_1159471393_35",
        "object_type": "restriction",
        "restriction_type": "road",
        "name": "",
        "osm_kind": "road",
        "osm_id": 1159471393,
        "osm_type": "way",
        "osm_tags": {
          "highway": "footway"
        },
        "case_id": "moscow_mitino_+2_+1_2af71ba1_large_oks"
      },
      "geometry": {
        "type": "LineString",
        "coordinates": [
          [
            37.3735204,
            55.8626384
          ],
          [
            37.3735208,
            55.8625676
          ],
          [
            37.3735209,
            55.8625512
          ]
        ]
      }
    },
    {
      "type": "Feature",
      "properties": {
        "id": "moscow_mitino_+2_+1_2af71ba1_large_oks_osm_way_1159471396_36",
        "object_type": "restriction",
        "restriction_type": "road",
        "name": "",
        "osm_kind": "road",
        "osm_id": 1159471396,
        "osm_type": "way",
        "osm_tags": {
          "highway": "footway"
        },
        "case_id": "moscow_mitino_+2_+1_2af71ba1_large_oks"
      },
      "geometry": {
        "type": "LineString",
        "coordinates": [
          [
            37.373736,
            55.8625515
          ],
          [
            37.3735209,
            55.8625512
          ],
          [
            37.3732553,
            55.8625507
          ],
          [
            37.3730378,
            55.8625503
          ],
          [
            37.3729026,
            55.86255
          ],
          [
            37.3728907,
            55.8625493
          ],
          [
            37.3728822,
            55.8625465
          ],
          [
            37.3728762,
            55.8625422
          ],
          [
            37.3728734,
            55.8625353
          ],
          [
            37.3728738,
            55.8624338
          ]
        ]
      }
    },
    {
      "type": "Feature",
      "properties": {
        "id": "moscow_mitino_+2_+1_2af71ba1_large_oks_osm_way_1159471397_37",
        "object_type": "restriction",
        "restriction_type": "road",
        "name": "",
        "osm_kind": "road",
        "osm_id": 1159471397,
        "osm_type": "way",
        "osm_tags": {
          "highway": "footway"
        },
        "case_id": "moscow_mitino_+2_+1_2af71ba1_large_oks"
      },
      "geometry": {
        "type": "LineString",
        "coordinates": [
          [
            37.3730356,
            55.8629614
          ],
          [
            37.3730359,
            55.8628924
          ],
          [
            37.3730366,
            55.8627731
          ],
          [
            37.3730378,
            55.8625503
          ]
        ]
      }
    },
    {
      "type": "Feature",
      "properties": {
        "id": "moscow_mitino_+2_+1_2af71ba1_large_oks_osm_way_1159527438_38",
        "object_type": "restriction",
        "restriction_type": "road",
        "name": "",
        "osm_kind": "road",
        "osm_id": 1159527438,
        "osm_type": "way",
        "osm_tags": {
          "highway": "footway"
        },
        "case_id": "moscow_mitino_+2_+1_2af71ba1_large_oks"
      },
      "geometry": {
        "type": "LineString",
        "coordinates": [
          [
            37.373309,
            55.8607515
          ],
          [
            37.373746,
            55.8607523
          ]
        ]
      }
    },
    {
      "type": "Feature",
      "properties": {
        "id": "moscow_mitino_+2_+1_2af71ba1_large_oks_osm_way_1159527439_39",
        "object_type": "restriction",
        "restriction_type": "road",
        "name": "",
        "osm_kind": "road",
        "osm_id": 1159527439,
        "osm_type": "way",
        "osm_tags": {
          "highway": "footway"
        },
        "case_id": "moscow_mitino_+2_+1_2af71ba1_large_oks"
      },
      "geometry": {
        "type": "LineString",
        "coordinates": [
          [
            37.3730322,
            55.860751
          ],
          [
            37.3728155,
            55.8607506
          ]
        ]
      }
    },
    {
      "type": "Feature",
      "properties": {
        "id": "moscow_mitino_+2_+1_2af71ba1_large_oks_osm_way_1159527440_40",
        "object_type": "restriction",
        "restriction_type": "road",
        "name": "",
        "osm_kind": "road",
        "osm_id": 1159527440,
        "osm_type": "way",
        "osm_tags": {
          "highway": "footway"
        },
        "case_id": "moscow_mitino_+2_+1_2af71ba1_large_oks"
      },
      "geometry": {
        "type": "LineString",
        "coordinates": [
          [
            37.3730343,
            55.8603353
          ],
          [
            37.373225,
            55.8603357
          ],
          [
            37.3732421,
            55.8603383
          ],
          [
            37.3732523,
            55.8603415
          ],
          [
            37.373263,
            55.8603466
          ],
          [
            37.3732719,
            55.8603536
          ],
          [
            37.3733728,
            55.8604985
          ],
          [
            37.373382,
            55.8605132
          ],
          [
            37.3733882,
            55.860528
          ],
          [
            37.3733917,
            55.8605439
          ],
          [
            37.3733917,
            55.8605622
          ],
          [
            37.373309,
            55.8607515
          ],
          [
            37.3732916,
            55.8607912
          ],
          [
            37.3732872,
            55.8607949
          ],
          [
            37.3732812,
            55.8607977
          ],
          [
            37.3732746,
            55.8607995
          ],
          [
            37.3732662,
            55.8608003
          ],
          [
            37.3730495,
            55.8608
          ],
          [
            37.3730431,
            55.8607995
          ],
          [
            37.3730372,
            55.8607975
          ],
          [
            37.3730338,
            55.8607951
          ],
          [
            37.3730321,
            55.8607908
          ],
          [
            37.3730322,
            55.860751
          ],
          [
            37.3730336,
            55.8604979
          ],
          [
            37.3730343,
            55.8603353
          ],
          [
            37.3730331,
            55.860325
          ],
          [
            37.3730239,
            55.8603185
          ],
          [
            37.3730069,
            55.8603157
          ],
          [
            37.3728178,
            55.8603154
          ]
        ]
      }
    },
    {
      "type": "Feature",
      "properties": {
        "id": "moscow_mitino_+2_+1_2af71ba1_large_oks_osm_way_1159527441_41",
        "object_type": "restriction",
        "restriction_type": "road",
        "name": "",
        "osm_kind": "road",
        "osm_id": 1159527441,
        "osm_type": "way",
        "osm_tags": {
          "highway": "footway"
        },
        "case_id": "moscow_mitino_+2_+1_2af71ba1_large_oks"
      },
      "geometry": {
        "type": "LineString",
        "coordinates": [
          [
            37.3728169,
            55.8604975
          ],
          [
            37.3730336,
            55.8604979
          ],
          [
            37.3733728,
            55.8604985
          ],
          [
            37.3737474,
            55.8604992
          ]
        ]
      }
    },
    {
      "type": "Feature",
      "properties": {
        "id": "moscow_mitino_+2_+1_2af71ba1_large_oks_osm_way_1159527444_42",
        "object_type": "restriction",
        "restriction_type": "road",
        "name": "",
        "osm_kind": "road",
        "osm_id": 1159527444,
        "osm_type": "way",
        "osm_tags": {
          "highway": "footway"
        },
        "case_id": "moscow_mitino_+2_+1_2af71ba1_large_oks"
      },
      "geometry": {
        "type": "LineString",
        "coordinates": [
          [
            37.3737386,
            55.8620855
          ],
          [
            37.3737393,
            55.8619489
          ],
          [
            37.3737431,
            55.8612615
          ]
        ]
      }
    },
    {
      "type": "Feature",
      "properties": {
        "id": "moscow_mitino_+2_+1_2af71ba1_large_oks_osm_way_1159539798_43",
        "object_type": "restriction",
        "restriction_type": "road",
        "name": "",
        "osm_kind": "road",
        "osm_id": 1159539798,
        "osm_type": "way",
        "osm_tags": {
          "highway": "footway"
        },
        "case_id": "moscow_mitino_+2_+1_2af71ba1_large_oks"
      },
      "geometry": {
        "type": "LineString",
        "coordinates": [
          [
            37.3721086,
            55.860203
          ],
          [
            37.3728184,
            55.8602042
          ]
        ]
      }
    },
    {
      "type": "Feature",
      "properties": {
        "id": "moscow_mitino_+2_+1_2af71ba1_large_oks_osm_way_1180057250_44",
        "object_type": "restriction",
        "restriction_type": "oks",
        "name": "",
        "osm_kind": "building",
        "osm_id": 1180057250,
        "osm_type": "way",
        "osm_tags": {
          "building": "apartments"
        },
        "case_id": "moscow_mitino_+2_+1_2af71ba1_large_oks"
      },
      "geometry": {
        "type": "Polygon",
        "coordinates": [
          [
            [
              37.3742635,
              55.8625561
            ],
            [
              37.3743039,
              55.862556
            ],
            [
              37.3745129,
              55.8625558
            ],
            [
              37.374513,
              55.8625703
            ],
            [
              37.374546,
              55.8625703
            ],
            [
              37.3745483,
              55.8631232
            ],
            [
              37.3751856,
              55.8631224
            ],
            [
              37.3751842,
              55.8627766
            ],
            [
              37.3753435,
              55.8627764
            ],
            [
              37.3754296,
              55.8627763
            ],
            [
              37.37543,
              55.862869
            ],
            [
              37.3754104,
              55.862869
            ],
            [
              37.3754105,
              55.8628906
            ],
            [
              37.3754289,
              55.8628905
            ],
            [
              37.3754297,
              55.8630818
            ],
            [
              37.3754097,
              55.8630819
            ],
            [
              37.3754098,
              55.8631034
            ],
            [
              37.3754285,
              55.8631034
            ],
            [
              37.3754289,
              55.8632078
            ],
            [
              37.3751794,
              55.8632082
            ],
            [
              37.3751794,
              55.8632029
            ],
            [
              37.3745744,
              55.8632037
            ],
            [
              37.3745744,
              55.8632018
            ],
            [
              37.3745501,
              55.8632018
            ],
            [
              37.3745502,
              55.8632346
            ],
            [
              37.3743249,
              55.8632349
            ],
            [
              37.3743248,
              55.8632069
            ],
            [
              37.3742621,
              55.863207
            ],
            [
              37.3742617,
              55.8631019
            ],
            [
              37.3742813,
              55.8631019
            ],
            [
              37.3742812,
              55.8630807
            ],
            [
              37.3742628,
              55.8630807
            ],
            [
              37.374262,
              55.8628899
            ],
            [
              37.374282,
              55.8628899
            ],
            [
              37.3742819,
              55.8628678
            ],
            [
              37.3742635,
              55.8628678
            ],
            [
              37.3742627,
              55.8626699
            ],
            [
              37.3742827,
              55.8626698
            ],
            [
              37.3742826,
              55.8626487
            ],
            [
              37.3742639,
              55.8626487
            ],
            [
              37.3742635,
              55.8625561
            ]
          ]
        ]
      }
    },
    {
      "type": "Feature",
      "properties": {
        "id": "moscow_mitino_+2_+1_2af71ba1_large_oks_osm_way_1246023666_45",
        "object_type": "restriction",
        "restriction_type": "road",
        "name": "",
        "osm_kind": "road",
        "osm_id": 1246023666,
        "osm_type": "way",
        "osm_tags": {
          "highway": "footway"
        },
        "case_id": "moscow_mitino_+2_+1_2af71ba1_large_oks"
      },
      "geometry": {
        "type": "LineString",
        "coordinates": [
          [
            37.3739533,
            55.8587234
          ],
          [
            37.3739504,
            55.8590239
          ],
          [
            37.3739471,
            55.8591559
          ],
          [
            37.3739251,
            55.8600403
          ],
          [
            37.3739237,
            55.8600933
          ]
        ]
      }
    },
    {
      "type": "Feature",
      "properties": {
        "id": "moscow_mitino_+2_+1_2af71ba1_large_oks_osm_way_1246023667_46",
        "object_type": "restriction",
        "restriction_type": "road",
        "name": "",
        "osm_kind": "road",
        "osm_id": 1246023667,
        "osm_type": "way",
        "osm_tags": {
          "highway": "footway"
        },
        "case_id": "moscow_mitino_+2_+1_2af71ba1_large_oks"
      },
      "geometry": {
        "type": "LineString",
        "coordinates": [
          [
            37.3739504,
            55.8590239
          ],
          [
            37.3747458,
            55.8590239
          ],
          [
            37.3747526,
            55.8587769
          ],
          [
            37.3753052,
            55.8587769
          ],
          [
            37.3752984,
            55.8591598
          ],
          [
            37.3758134,
            55.8591656
          ],
          [
            37.3757861,
            55.8600966
          ]
        ]
      }
    },
    {
      "type": "Feature",
      "properties": {
        "id": "moscow_mitino_+2_+1_2af71ba1_large_oks_osm_way_1246023669_47",
        "object_type": "restriction",
        "restriction_type": "road",
        "name": "",
        "osm_kind": "road",
        "osm_id": 1246023669,
        "osm_type": "way",
        "osm_tags": {
          "highway": "service"
        },
        "case_id": "moscow_mitino_+2_+1_2af71ba1_large_oks"
      },
      "geometry": {
        "type": "LineString",
        "coordinates": [
          [
            37.3741932,
            55.8600938
          ],
          [
            37.3742001,
            55.8598757
          ]
        ]
      }
    },
    {
      "type": "Feature",
      "properties": {
        "id": "moscow_mitino_+2_+1_2af71ba1_large_oks_osm_way_1246023672_48",
        "object_type": "restriction",
        "restriction_type": "road",
        "name": "",
        "osm_kind": "road",
        "osm_id": 1246023672,
        "osm_type": "way",
        "osm_tags": {
          "highway": "service"
        },
        "case_id": "moscow_mitino_+2_+1_2af71ba1_large_oks"
      },
      "geometry": {
        "type": "LineString",
        "coordinates": [
          [
            37.3761745,
            55.8599231
          ],
          [
            37.3762401,
            55.8599266
          ],
          [
            37.3763606,
            55.8599256
          ],
          [
            37.3764321,
            55.8599251
          ],
          [
            37.3774002,
            55.8599338
          ],
          [
            37.3773983,
            55.8599892
          ],
          [
            37.3773945,
            55.8603597
          ],
          [
            37.3774415,
            55.8603968
          ],
          [
            37.3775305,
            55.8604083
          ],
          [
            37.3777076,
            55.8604084
          ],
          [
            37.3777499,
            55.860418
          ],
          [
            37.3777681,
            55.8604391
          ],
          [
            37.3777685,
            55.8604938
          ],
          [
            37.3777482,
            55.8605189
          ],
          [
            37.3777025,
            55.8605262
          ],
          [
            37.3772835,
            55.8605266
          ],
          [
            37.3771607,
            55.8605496
          ],
          [
            37.377072,
            55.8606032
          ],
          [
            37.3770481,
            55.8610086
          ],
          [
            37.3770499,
            55.861054
          ],
          [
            37.3767238,
            55.8610511
          ],
          [
            37.3761832,
            55.8610418
          ],
          [
            37.3761231,
            55.8610386
          ]
        ]
      }
    },
    {
      "type": "Feature",
      "properties": {
        "id": "moscow_mitino_+2_+1_2af71ba1_large_oks_osm_way_1292879916_49",
        "object_type": "restriction",
        "restriction_type": "road",
        "name": "проектируемый проезд № 990",
        "osm_kind": "road",
        "osm_id": 1292879916,
        "osm_type": "way",
        "osm_tags": {
          "highway": "residential",
          "name": "проектируемый проезд № 990"
        },
        "case_id": "moscow_mitino_+2_+1_2af71ba1_large_oks"
      },
      "geometry": {
        "type": "LineString",
        "coordinates": [
          [
            37.3757511,
            55.8634248
          ],
          [
            37.3757186,
            55.8633088
          ],
          [
            37.375735,
            55.863181
          ],
          [
            37.375778,
            55.8630636
          ],
          [
            37.3760998,
            55.8623622
          ],
          [
            37.3761171,
            55.8621915
          ],
          [
            37.3761186,
            55.8618429
          ],
          [
            37.3761126,
            55.8612935
          ],
          [
            37.3761231,
            55.8610386
          ],
          [
            37.3761619,
            55.8601006
          ]
        ]
      }
    },
    {
      "type": "Feature",
      "properties": {
        "id": "moscow_mitino_+2_+1_2af71ba1_large_oks_osm_way_1367277992_50",
        "object_type": "restriction",
        "restriction_type": "road",
        "name": "",
        "osm_kind": "road",
        "osm_id": 1367277992,
        "osm_type": "way",
        "osm_tags": {
          "highway": "service"
        },
        "case_id": "moscow_mitino_+2_+1_2af71ba1_large_oks"
      },
      "geometry": {
        "type": "LineString",
        "coordinates": [
          [
            37.375547,
            55.8633101
          ],
          [
            37.3755614,
            55.8626576
          ],
          [
            37.3756767,
            55.8626576
          ],
          [
            37.3757545,
            55.8626396
          ],
          [
            37.3758028,
            55.8626004
          ],
          [
            37.375847,
            55.8620888
          ],
          [
            37.3757524,
            55.8620885
          ],
          [
            37.3747509,
            55.8620856
          ],
          [
            37.3741456,
            55.8620839
          ],
          [
            37.3737386,
            55.8620855
          ]
        ]
      }
    },
    {
      "type": "Feature",
      "properties": {
        "id": "moscow_mitino_+2_+1_2af71ba1_large_oks_osm_way_1367277993_51",
        "object_type": "restriction",
        "restriction_type": "road",
        "name": "",
        "osm_kind": "road",
        "osm_id": 1367277993,
        "osm_type": "way",
        "osm_tags": {
          "highway": "service"
        },
        "case_id": "moscow_mitino_+2_+1_2af71ba1_large_oks"
      },
      "geometry": {
        "type": "LineString",
        "coordinates": [
          [
            37.3741456,
            55.8620839
          ],
          [
            37.3741288,
            55.8633141
          ],
          [
            37.375547,
            55.8633101
          ],
          [
            37.3757186,
            55.8633088
          ]
        ]
      }
    },
    {
      "type": "Feature",
      "properties": {
        "id": "moscow_mitino_+2_+1_2af71ba1_large_oks_osm_way_1423108843_52",
        "object_type": "restriction",
        "restriction_type": "road",
        "name": "",
        "osm_kind": "road",
        "osm_id": 1423108843,
        "osm_type": "way",
        "osm_tags": {
          "highway": "footway"
        },
        "case_id": "moscow_mitino_+2_+1_2af71ba1_large_oks"
      },
      "geometry": {
        "type": "LineString",
        "coordinates": [
          [
            37.3762418,
            55.8599688
          ],
          [
            37.3771968,
            55.859966
          ],
          [
            37.3773983,
            55.8599892
          ],
          [
            37.3774945,
            55.8599923
          ]
        ]
      }
    },
    {
      "type": "Feature",
      "properties": {
        "id": "moscow_mitino_+2_+1_2af71ba1_large_oks_osm_way_1423347879_53",
        "object_type": "restriction",
        "restriction_type": "road",
        "name": "",
        "osm_kind": "road",
        "osm_id": 1423347879,
        "osm_type": "way",
        "osm_tags": {
          "highway": "service"
        },
        "case_id": "moscow_mitino_+2_+1_2af71ba1_large_oks"
      },
      "geometry": {
        "type": "LineString",
        "coordinates": [
          [
            37.3764321,
            55.8599251
          ],
          [
            37.3764354,
            55.8591021
          ],
          [
            37.3763413,
            55.8589633
          ],
          [
            37.3762714,
            55.8588781
          ],
          [
            37.3762012,
            55.8587925
          ],
          [
            37.3763064,
            55.8587528
          ],
          [
            37.3764147,
            55.8587266
          ],
          [
            37.3764918,
            55.8587767
          ],
          [
            37.3764858,
            55.8588192
          ],
          [
            37.3763889,
            55.858849
          ],
          [
            37.3762714,
            55.8588781
          ]
        ]
      }
    },
    {
      "type": "Feature",
      "properties": {
        "id": "moscow_mitino_+2_+1_2af71ba1_large_oks_osm_way_1424056041_54",
        "object_type": "restriction",
        "restriction_type": "road",
        "name": "",
        "osm_kind": "road",
        "osm_id": 1424056041,
        "osm_type": "way",
        "osm_tags": {
          "highway": "service"
        },
        "case_id": "moscow_mitino_+2_+1_2af71ba1_large_oks"
      },
      "geometry": {
        "type": "LineString",
        "coordinates": [
          [
            37.3761171,
            55.8621915
          ],
          [
            37.3762003,
            55.8621893
          ],
          [
            37.3767268,
            55.8621949
          ],
          [
            37.3767238,
            55.8610511
          ]
        ]
      }
    },
    {
      "type": "Feature",
      "properties": {
        "id": "moscow_mitino_+2_+1_2af71ba1_large_oks_osm_way_1424056043_55",
        "object_type": "restriction",
        "restriction_type": "road",
        "name": "",
        "osm_kind": "road",
        "osm_id": 1424056043,
        "osm_type": "way",
        "osm_tags": {
          "highway": "footway"
        },
        "case_id": "moscow_mitino_+2_+1_2af71ba1_large_oks"
      },
      "geometry": {
        "type": "LineString",
        "coordinates": [
          [
            37.375547,
            55.8633101
          ],
          [
            37.3755527,
            55.8633548
          ],
          [
            37.3755728,
            55.8634384
          ],
          [
            37.375605,
            55.8634933
          ],
          [
            37.3757215,
            55.8636477
          ],
          [
            37.3757753,
            55.8637191
          ],
          [
            37.3758718,
            55.8638598
          ],
          [
            37.3759174,
            55.8639516
          ],
          [
            37.3759469,
            55.8640374
          ],
          [
            37.3759469,
            55.8642211
          ],
          [
            37.3759577,
            55.864784
          ],
          [
            37.3761463,
            55.864784
          ],
          [
            37.3762313,
            55.8647855
          ],
          [
            37.3762313,
            55.864355
          ],
          [
            37.3762286,
            55.8641247
          ],
          [
            37.3762098,
            55.8639712
          ],
          [
            37.3761025,
            55.863762
          ],
          [
            37.3759469,
            55.8635693
          ],
          [
            37.3758826,
            55.8634715
          ],
          [
            37.3758396,
            55.8633646
          ],
          [
            37.3758343,
            55.863315
          ],
          [
            37.3758316,
            55.8632367
          ],
          [
            37.3758504,
            55.8631644
          ],
          [
            37.3760167,
            55.8627761
          ],
          [
            37.376124,
            55.8625594
          ],
          [
            37.3761776,
            55.8623968
          ],
          [
            37.3761857,
            55.8622974
          ],
          [
            37.3762003,
            55.8621893
          ],
          [
            37.3762045,
            55.8621218
          ],
          [
            37.3761891,
            55.8610922
          ],
          [
            37.3761832,
            55.8610418
          ],
          [
            37.3762418,
            55.8599688
          ],
          [
            37.3762401,
            55.8599266
          ],
          [
            37.3762387,
            55.8598235
          ],
          [
            37.3762452,
            55.8591557
          ],
          [
            37.3762399,
            55.8590501
          ],
          [
            37.3761883,
            55.8589772
          ],
          [
            37.3761269,
            55.8589034
          ],
          [
            37.3760331,
            55.8588289
          ],
          [
            37.3758964,
            55.8587496
          ],
          [
            37.3755453,
            55.8586453
          ],
          [
            37.374384,
            55.8586175
          ],
          [
            37.3743,
            55.8586171
          ],
          [
            37.3739981,
            55.8586215
          ]
        ]
      }
    },
    {
      "type": "Feature",
      "properties": {
        "id": "moscow_mitino_+2_+1_2af71ba1_large_oks_osm_way_1424056048_56",
        "object_type": "restriction",
        "restriction_type": "road",
        "name": "",
        "osm_kind": "road",
        "osm_id": 1424056048,
        "osm_type": "way",
        "osm_tags": {
          "highway": "footway"
        },
        "case_id": "moscow_mitino_+2_+1_2af71ba1_large_oks"
      },
      "geometry": {
        "type": "LineString",
        "coordinates": [
          [
            37.3777165,
            55.8609879
          ],
          [
            37.3776596,
            55.8611063
          ],
          [
            37.376788,
            55.8610943
          ],
          [
            37.3767929,
            55.8621597
          ],
          [
            37.3773105,
            55.8621531
          ],
          [
            37.3773225,
            55.8619665
          ],
          [
            37.377222,
            55.8619688
          ],
          [
            37.3772011,
            55.8616437
          ],
          [
            37.3772157,
            55.8613231
          ],
          [
            37.3776274,
            55.8613181
          ],
          [
            37.3776596,
            55.8611063
          ]
        ]
      }
    },
    {
      "type": "Feature",
      "properties": {
        "id": "moscow_mitino_+2_+1_2af71ba1_large_oks_osm_way_1455969493_57",
        "object_type": "restriction",
        "restriction_type": "road",
        "name": "",
        "osm_kind": "road",
        "osm_id": 1455969493,
        "osm_type": "way",
        "osm_tags": {
          "highway": "footway"
        },
        "case_id": "moscow_mitino_+2_+1_2af71ba1_large_oks"
      },
      "geometry": {
        "type": "LineString",
        "coordinates": [
          [
            37.3758243,
            55.8619284
          ],
          [
            37.3758237,
            55.8619677
          ],
          [
            37.375823,
            55.8620096
          ],
          [
            37.3757534,
            55.8620258
          ],
          [
            37.3757524,
            55.8620885
          ]
        ]
      }
    },
    {
      "type": "Feature",
      "properties": {
        "id": "moscow_mitino_+2_+1_2af71ba1_large_oks_osm_way_1455969494_58",
        "object_type": "restriction",
        "restriction_type": "road",
        "name": "",
        "osm_kind": "road",
        "osm_id": 1455969494,
        "osm_type": "way",
        "osm_tags": {
          "highway": "footway"
        },
        "case_id": "moscow_mitino_+2_+1_2af71ba1_large_oks"
      },
      "geometry": {
        "type": "LineString",
        "coordinates": [
          [
            37.3751038,
            55.8618897
          ],
          [
            37.3752206,
            55.8619252
          ],
          [
            37.3758243,
            55.8619284
          ],
          [
            37.3758297,
            55.86161
          ],
          [
            37.3757128,
            55.8615787
          ],
          [
            37.3753018,
            55.8615765
          ],
          [
            37.3749669,
            55.86148
          ],
          [
            37.3748282,
            55.8616315
          ],
          [
            37.3748239,
            55.8618902
          ]
        ]
      }
    },
    {
      "type": "Feature",
      "properties": {
        "id": "moscow_mitino_+2_+1_2af71ba1_large_oks_osm_way_1455969495_59",
        "object_type": "restriction",
        "restriction_type": "road",
        "name": "",
        "osm_kind": "road",
        "osm_id": 1455969495,
        "osm_type": "way",
        "osm_tags": {
          "highway": "service"
        },
        "case_id": "moscow_mitino_+2_+1_2af71ba1_large_oks"
      },
      "geometry": {
        "type": "LineString",
        "coordinates": [
          [
            37.3751038,
            55.8618897
          ],
          [
            37.3748239,
            55.8618902
          ],
          [
            37.3747499,
            55.8618903
          ],
          [
            37.3747504,
            55.8619695
          ],
          [
            37.3747509,
            55.8620856
          ]
        ]
      }
    },
    {
      "type": "Feature",
      "properties": {
        "id": "moscow_mitino_+2_+1_2af71ba1_large_oks_source",
        "object_type": "source",
        "case_id": "moscow_mitino_+2_+1_2af71ba1_large_oks"
      },
      "geometry": {
        "type": "Point",
        "coordinates": [
          37.37251974,
          55.8612713
        ]
      }
    },
    {
      "type": "Feature",
      "properties": {
        "id": "moscow_mitino_+2_+1_2af71ba1_large_oks_existing_network",
        "object_type": "heat_network",
        "diameter": 500,
        "flow_tph": 180.0,
        "upstream_object_id": "moscow_mitino_+2_+1_2af71ba1_large_oks_source",
        "case_id": "moscow_mitino_+2_+1_2af71ba1_large_oks"
      },
      "geometry": {
        "type": "LineString",
        "coordinates": [
          [
            37.37251974,
            55.8612713
          ],
          [
            37.37364023,
            55.8612713
          ]
        ]
      }
    },
    {
      "type": "Feature",
      "properties": {
        "id": "moscow_mitino_+2_+1_2af71ba1_large_oks_existing_chamber",
        "object_type": "heat_chamber",
        "diameter": 500,
        "upstream_object_id": "moscow_mitino_+2_+1_2af71ba1_large_oks_source",
        "case_id": "moscow_mitino_+2_+1_2af71ba1_large_oks"
      },
      "geometry": {
        "type": "Point",
        "coordinates": [
          37.37364023,
          55.8612713
        ]
      }
    },
    {
      "type": "Feature",
      "properties": {
        "id": "moscow_mitino_+2_+1_2af71ba1_large_oks_cp_1",
        "object_type": "oks_connection_point",
        "flow_tph": 52.951,
        "case_id": "moscow_mitino_+2_+1_2af71ba1_large_oks",
        "consumer_role": "osm_building_heat_demand_proxy",
        "source_building_osm_id": 796649358,
        "source_building_osm_type": "way",
        "source_building_name": "",
        "source_building_tags": {
          "building": "construction"
        },
        "footprint_area_m2": 2912.31,
        "flow_basis": "synthetic_proxy_from_osm_footprint_area",
        "stress_bucket": "large_oks"
      },
      "geometry": {
        "type": "Point",
        "coordinates": [
          37.37554673333334,
          55.8603382
        ]
      }
    },
    {
      "type": "Feature",
      "properties": {
        "id": "moscow_mitino_+2_+1_2af71ba1_large_oks_cp_2",
        "object_type": "oks_connection_point",
        "flow_tph": 20.782,
        "case_id": "moscow_mitino_+2_+1_2af71ba1_large_oks",
        "consumer_role": "osm_building_heat_demand_proxy",
        "source_building_osm_id": 866027003,
        "source_building_osm_type": "way",
        "source_building_name": "",
        "source_building_tags": {
          "building": "school"
        },
        "footprint_area_m2": 1143.0,
        "flow_basis": "synthetic_proxy_from_osm_footprint_area",
        "stress_bucket": "large_oks"
      },
      "geometry": {
        "type": "Point",
        "coordinates": [
          37.37528172502349,
          55.86175885194785
        ]
      }
    },
    {
      "type": "Feature",
      "properties": {
        "id": "moscow_mitino_+2_+1_2af71ba1_large_oks_cp_3",
        "object_type": "oks_connection_point",
        "flow_tph": 38.899,
        "case_id": "moscow_mitino_+2_+1_2af71ba1_large_oks",
        "consumer_role": "osm_building_heat_demand_proxy",
        "source_building_osm_id": 1008836413,
        "source_building_osm_type": "way",
        "source_building_name": "",
        "source_building_tags": {
          "building": "apartments"
        },
        "footprint_area_m2": 2139.47,
        "flow_basis": "synthetic_proxy_from_osm_footprint_area",
        "stress_bucket": "large_oks"
      },
      "geometry": {
        "type": "Point",
        "coordinates": [
          37.37701471720385,
          55.861605707656814
        ]
      }
    },
    {
      "type": "Feature",
      "properties": {
        "id": "moscow_mitino_+2_+1_2af71ba1_large_oks_cp_4",
        "object_type": "oks_connection_point",
        "flow_tph": 20.0,
        "case_id": "moscow_mitino_+2_+1_2af71ba1_large_oks",
        "consumer_role": "osm_building_heat_demand_proxy",
        "source_building_osm_id": 702546731,
        "source_building_osm_type": "way",
        "source_building_name": "",
        "source_building_tags": {
          "building": "yes"
        },
        "footprint_area_m2": 32.84,
        "flow_basis": "synthetic_proxy_from_osm_footprint_area",
        "stress_bucket": "large_oks"
      },
      "geometry": {
        "type": "Point",
        "coordinates": [
          37.376389,
          55.86208255
        ]
      }
    }
  ]
}