{
  "type": "FeatureCollection",
  "name": "moscow_nekrasovka_-3_+0_88d4acb5_large_oks",
  "crs": {
    "type": "name",
    "properties": {
      "name": "EPSG:4326"
    }
  },
  "metadata": {
    "dataset_version": "osm_building_anchored_routing_scenes_v3",
    "parent_scene_id": "moscow_nekrasovka_-3_+0_88d4acb5",
    "split": "train",
    "city": "Москва Некрасовка",
    "seed": "moscow_nekrasovka",
    "research_bucket": "large_oks",
    "source_research_bucket": "separate_pipes",
    "research_bucket_is_ground_truth": false,
    "bbox_south_west_north_east": [
      55.6807456,
      37.92761,
      55.6834405,
      37.93239
    ],
    "real_data_source": "OpenStreetMap via Overpass API",
    "source_file": "data/real_geojson_places/separate_pipes/061_moscow_nekrasovka_-3_+0_88d4acb5.geojson",
    "real_layers": [
      "restrictions",
      "consumer_building_footprints"
    ],
    "synthetic_layers": [
      "source",
      "heat_network",
      "heat_chamber",
      "heat_demand"
    ],
    "consumer_selection": "deterministic points inside real OSM building footprints",
    "flow_model": "synthetic proxy derived from building footprint area; not metered demand",
    "note": "OSM buildings anchor consumers; heat demand and seed network are synthetic proxies."
  },
  "features": [
    {
      "type": "Feature",
      "properties": {
        "id": "moscow_nekrasovka_-3_+0_88d4acb5_large_oks_osm_way_45833500_1",
        "object_type": "restriction",
        "restriction_type": "oks",
        "name": "",
        "osm_kind": "building",
        "osm_id": 45833500,
        "osm_type": "way",
        "osm_tags": {
          "building": "apartments"
        },
        "case_id": "moscow_nekrasovka_-3_+0_88d4acb5_large_oks",
        "selected_as_heat_demand_proxy": true,
        "connection_point_id": "moscow_nekrasovka_-3_+0_88d4acb5_large_oks_cp_3"
      },
      "geometry": {
        "type": "Polygon",
        "coordinates": [
          [
            [
              37.9283994,
              55.6833453
            ],
            [
              37.9284069,
              55.6832718
            ],
            [
              37.9284268,
              55.6830779
            ],
            [
              37.9284469,
              55.6828806
            ],
            [
              37.9284661,
              55.6826929
            ],
            [
              37.9284824,
              55.6825332
            ],
            [
              37.9282238,
              55.6825248
            ],
            [
              37.9279904,
              55.6825172
            ],
            [
              37.9280031,
              55.6823932
            ],
            [
              37.9287276,
              55.6824168
            ],
            [
              37.9286318,
              55.6833529
            ],
            [
              37.9283994,
              55.6833453
            ]
          ]
        ]
      }
    },
    {
      "type": "Feature",
      "properties": {
        "id": "moscow_nekrasovka_-3_+0_88d4acb5_large_oks_osm_way_45833501_2",
        "object_type": "restriction",
        "restriction_type": "oks",
        "name": "Некрасовские бани",
        "osm_kind": "building",
        "osm_id": 45833501,
        "osm_type": "way",
        "osm_tags": {
          "building": "yes",
          "leisure": "sauna",
          "name": "Некрасовские бани"
        },
        "case_id": "moscow_nekrasovka_-3_+0_88d4acb5_large_oks",
        "selected_as_heat_demand_proxy": true,
        "connection_point_id": "moscow_nekrasovka_-3_+0_88d4acb5_large_oks_cp_1"
      },
      "geometry": {
        "type": "Polygon",
        "coordinates": [
          [
            [
              37.9284337,
              55.6816957
            ],
            [
              37.9285107,
              55.6816987
            ],
            [
              37.9285034,
              55.6817849
            ],
            [
              37.9284248,
              55.6817833
            ],
            [
              37.9284149,
              55.6819044
            ],
            [
              37.9288924,
              55.6819165
            ],
            [
              37.9289246,
              55.6815869
            ],
            [
              37.9284444,
              55.6815717
            ],
            [
              37.9284337,
              55.6816957
            ]
          ]
        ]
      }
    },
    {
      "type": "Feature",
      "properties": {
        "id": "moscow_nekrasovka_-3_+0_88d4acb5_large_oks_osm_way_104385591_3",
        "object_type": "restriction",
        "restriction_type": "oks",
        "name": "",
        "osm_kind": "building",
        "osm_id": 104385591,
        "osm_type": "way",
        "osm_tags": {
          "building": "service"
        },
        "case_id": "moscow_nekrasovka_-3_+0_88d4acb5_large_oks",
        "selected_as_heat_demand_proxy": true,
        "connection_point_id": "moscow_nekrasovka_-3_+0_88d4acb5_large_oks_cp_2"
      },
      "geometry": {
        "type": "Polygon",
        "coordinates": [
          [
            [
              37.9287223,
              55.6822398
            ],
            [
              37.9287335,
              55.6821538
            ],
            [
              37.9289236,
              55.6821616
            ],
            [
              37.9289124,
              55.6822476
            ],
            [
              37.9287223,
              55.6822398
            ]
          ]
        ]
      }
    },
    {
      "type": "Feature",
      "properties": {
        "id": "moscow_nekrasovka_-3_+0_88d4acb5_large_oks_osm_way_104386147_4",
        "object_type": "restriction",
        "restriction_type": "oks",
        "name": "",
        "osm_kind": "building",
        "osm_id": 104386147,
        "osm_type": "way",
        "osm_tags": {
          "building": "yes"
        },
        "case_id": "moscow_nekrasovka_-3_+0_88d4acb5_large_oks"
      },
      "geometry": {
        "type": "Polygon",
        "coordinates": [
          [
            [
              37.9280509,
              55.6832817
            ],
            [
              37.9280578,
              55.6832381
            ],
            [
              37.9281394,
              55.6832422
            ],
            [
              37.9281324,
              55.6832859
            ],
            [
              37.9280509,
              55.6832817
            ]
          ]
        ]
      }
    },
    {
      "type": "Feature",
      "properties": {
        "id": "moscow_nekrasovka_-3_+0_88d4acb5_large_oks_osm_way_104386148_5",
        "object_type": "restriction",
        "restriction_type": "oks",
        "name": "",
        "osm_kind": "building",
        "osm_id": 104386148,
        "osm_type": "way",
        "osm_tags": {
          "building": "yes"
        },
        "case_id": "moscow_nekrasovka_-3_+0_88d4acb5_large_oks",
        "selected_as_heat_demand_proxy": true,
        "connection_point_id": "moscow_nekrasovka_-3_+0_88d4acb5_large_oks_cp_4"
      },
      "geometry": {
        "type": "Polygon",
        "coordinates": [
          [
            [
              37.9286318,
              55.6833529
            ],
            [
              37.9286215,
              55.6834317
            ],
            [
              37.9283935,
              55.6834257
            ],
            [
              37.9283994,
              55.6833453
            ],
            [
              37.9286318,
              55.6833529
            ]
          ]
        ]
      }
    },
    {
      "type": "Feature",
      "properties": {
        "id": "moscow_nekrasovka_-3_+0_88d4acb5_large_oks_osm_way_109384694_6",
        "object_type": "restriction",
        "restriction_type": "oks",
        "name": "",
        "osm_kind": "building",
        "osm_id": 109384694,
        "osm_type": "way",
        "osm_tags": {
          "building": "apartments"
        },
        "case_id": "moscow_nekrasovka_-3_+0_88d4acb5_large_oks"
      },
      "geometry": {
        "type": "Polygon",
        "coordinates": [
          [
            [
              37.9274432,
              55.681682
            ],
            [
              37.9274234,
              55.6816811
            ],
            [
              37.9274156,
              55.6817408
            ],
            [
              37.9274355,
              55.6817416
            ],
            [
              37.927426,
              55.6818145
            ],
            [
              37.9276474,
              55.6818237
            ],
            [
              37.9277187,
              55.6812757
            ],
            [
              37.9276722,
              55.6812738
            ],
            [
              37.9276777,
              55.681231
            ],
            [
              37.927599,
              55.6812278
            ],
            [
              37.9275963,
              55.6812485
            ],
            [
              37.9275375,
              55.6812461
            ],
            [
              37.9275391,
              55.6812338
            ],
            [
              37.9274878,
              55.6812317
            ],
            [
              37.9274902,
              55.6812137
            ],
            [
              37.9264916,
              55.6811724
            ],
            [
              37.9264909,
              55.6811779
            ],
            [
              37.9264345,
              55.6811756
            ],
            [
              37.9264327,
              55.6811888
            ],
            [
              37.9263835,
              55.6811867
            ],
            [
              37.9263822,
              55.6811968
            ],
            [
              37.926328,
              55.6811945
            ],
            [
              37.9263317,
              55.6811658
            ],
            [
              37.9262468,
              55.6811623
            ],
            [
              37.9262415,
              55.6812029
            ],
            [
              37.9261792,
              55.6812003
            ],
            [
              37.9261582,
              55.6813624
            ],
            [
              37.9263533,
              55.6813705
            ],
            [
              37.9263566,
              55.6813455
            ],
            [
              37.9263749,
              55.6813463
            ],
            [
              37.9263805,
              55.681303
            ],
            [
              37.9263622,
              55.6813022
            ],
            [
              37.9263657,
              55.6812755
            ],
            [
              37.9264911,
              55.6812807
            ],
            [
              37.9264868,
              55.6812912
            ],
            [
              37.9265309,
              55.6812951
            ],
            [
              37.9265296,
              55.681305
            ],
            [
              37.9266541,
              55.6813101
            ],
            [
              37.9266554,
              55.6813002
            ],
            [
              37.9267005,
              55.6813021
            ],
            [
              37.9267022,
              55.6812894
            ],
            [
              37.9268465,
              55.6812954
            ],
            [
              37.9268448,
              55.6813081
            ],
            [
              37.9269053,
              55.6813106
            ],
            [
              37.926904,
              55.6813204
            ],
            [
              37.9270156,
              55.681325
            ],
            [
              37.9270169,
              55.6813152
            ],
            [
              37.927061,
              55.681317
            ],
            [
              37.9270627,
              55.6813043
            ],
            [
              37.9271999,
              55.68131
            ],
            [
              37.9271983,
              55.6813227
            ],
            [
              37.9272515,
              55.6813249
            ],
            [
              37.9272502,
              55.6813347
            ],
            [
              37.9273622,
              55.6813394
            ],
            [
              37.9273635,
              55.6813295
            ],
            [
              37.9274028,
              55.6813311
            ],
            [
              37.9274044,
              55.6813184
            ],
            [
              37.92749,
              55.681322
            ],
            [
              37.9274682,
              55.6814898
            ],
            [
              37.9274484,
              55.681489
            ],
            [
              37.9274412,
              55.6815439
            ],
            [
              37.9274611,
              55.6815447
            ],
            [
              37.9274432,
              55.681682
            ]
          ]
        ]
      }
    },
    {
      "type": "Feature",
      "properties": {
        "id": "moscow_nekrasovka_-3_+0_88d4acb5_large_oks_osm_way_132563353_7",
        "object_type": "restriction",
        "restriction_type": "road",
        "name": "",
        "osm_kind": "road",
        "osm_id": 132563353,
        "osm_type": "way",
        "osm_tags": {
          "highway": "tertiary"
        },
        "case_id": "moscow_nekrasovka_-3_+0_88d4acb5_large_oks"
      },
      "geometry": {
        "type": "LineString",
        "coordinates": [
          [
            37.9291182,
            55.6823867
          ],
          [
            37.9291202,
            55.6823671
          ],
          [
            37.9291477,
            55.6821009
          ],
          [
            37.9292284,
            55.6814338
          ],
          [
            37.9292538,
            55.6812319
          ],
          [
            37.9292779,
            55.6810525
          ]
        ]
      }
    },
    {
      "type": "Feature",
      "properties": {
        "id": "moscow_nekrasovka_-3_+0_88d4acb5_large_oks_osm_way_135979772_8",
        "object_type": "restriction",
        "restriction_type": "road",
        "name": "Некрасовская улица",
        "osm_kind": "road",
        "osm_id": 135979772,
        "osm_type": "way",
        "osm_tags": {
          "highway": "tertiary",
          "name": "Некрасовская улица"
        },
        "case_id": "moscow_nekrasovka_-3_+0_88d4acb5_large_oks"
      },
      "geometry": {
        "type": "LineString",
        "coordinates": [
          [
            37.9256692,
            55.680918
          ],
          [
            37.9260139,
            55.6809318
          ],
          [
            37.926117,
            55.6809344
          ],
          [
            37.9278709,
            55.6810073
          ],
          [
            37.9285349,
            55.6810335
          ]
        ]
      }
    },
    {
      "type": "Feature",
      "properties": {
        "id": "moscow_nekrasovka_-3_+0_88d4acb5_large_oks_osm_way_206837076_9",
        "object_type": "restriction",
        "restriction_type": "road",
        "name": "",
        "osm_kind": "road",
        "osm_id": 206837076,
        "osm_type": "way",
        "osm_tags": {
          "highway": "tertiary"
        },
        "case_id": "moscow_nekrasovka_-3_+0_88d4acb5_large_oks"
      },
      "geometry": {
        "type": "LineString",
        "coordinates": [
          [
            37.9292779,
            55.6810525
          ],
          [
            37.9292891,
            55.6809711
          ],
          [
            37.9292956,
            55.6809238
          ],
          [
            37.9294192,
            55.6797999
          ],
          [
            37.92954,
            55.6790191
          ],
          [
            37.9295665,
            55.6788538
          ]
        ]
      }
    },
    {
      "type": "Feature",
      "properties": {
        "id": "moscow_nekrasovka_-3_+0_88d4acb5_large_oks_osm_way_305124050_10",
        "object_type": "restriction",
        "restriction_type": "road",
        "name": "",
        "osm_kind": "road",
        "osm_id": 305124050,
        "osm_type": "way",
        "osm_tags": {
          "highway": "footway"
        },
        "case_id": "moscow_nekrasovka_-3_+0_88d4acb5_large_oks"
      },
      "geometry": {
        "type": "LineString",
        "coordinates": [
          [
            37.9290257,
            55.6811515
          ],
          [
            37.9289779,
            55.6811493
          ],
          [
            37.9278644,
            55.6810991
          ],
          [
            37.9259911,
            55.681037
          ],
          [
            37.9257036,
            55.6810214
          ],
          [
            37.9254569,
            55.6810119
          ],
          [
            37.9253126,
            55.6810064
          ],
          [
            37.9234374,
            55.6809342
          ],
          [
            37.9223746,
            55.6808933
          ],
          [
            37.9222596,
            55.6809074
          ]
        ]
      }
    },
    {
      "type": "Feature",
      "properties": {
        "id": "moscow_nekrasovka_-3_+0_88d4acb5_large_oks_osm_way_305124971_11",
        "object_type": "restriction",
        "restriction_type": "road",
        "name": "",
        "osm_kind": "road",
        "osm_id": 305124971,
        "osm_type": "way",
        "osm_tags": {
          "highway": "footway"
        },
        "case_id": "moscow_nekrasovka_-3_+0_88d4acb5_large_oks"
      },
      "geometry": {
        "type": "LineString",
        "coordinates": [
          [
            37.9290257,
            55.6811515
          ],
          [
            37.9290895,
            55.6812238
          ],
          [
            37.9290693,
            55.6814278
          ],
          [
            37.9289717,
            55.6820964
          ],
          [
            37.9289486,
            55.6823614
          ],
          [
            37.9289459,
            55.6823928
          ],
          [
            37.9288066,
            55.6834344
          ],
          [
            37.9287493,
            55.6835067
          ]
        ]
      }
    },
    {
      "type": "Feature",
      "properties": {
        "id": "moscow_nekrasovka_-3_+0_88d4acb5_large_oks_osm_way_305124984_12",
        "object_type": "restriction",
        "restriction_type": "road",
        "name": "",
        "osm_kind": "road",
        "osm_id": 305124984,
        "osm_type": "way",
        "osm_tags": {
          "highway": "service"
        },
        "case_id": "moscow_nekrasovka_-3_+0_88d4acb5_large_oks"
      },
      "geometry": {
        "type": "LineString",
        "coordinates": [
          [
            37.9260139,
            55.6809318
          ],
          [
            37.9259911,
            55.681037
          ],
          [
            37.9259333,
            55.6813661
          ],
          [
            37.9259841,
            55.6814458
          ],
          [
            37.9261188,
            55.6814834
          ],
          [
            37.9260955,
            55.6816662
          ],
          [
            37.9264199,
            55.6816802
          ],
          [
            37.926546,
            55.68143
          ],
          [
            37.9273335,
            55.681451
          ],
          [
            37.9272904,
            55.6818297
          ],
          [
            37.9273582,
            55.6819096
          ],
          [
            37.9274937,
            55.6819304
          ],
          [
            37.9276909,
            55.6819131
          ],
          [
            37.9277868,
            55.6817961
          ]
        ]
      }
    },
    {
      "type": "Feature",
      "properties": {
        "id": "moscow_nekrasovka_-3_+0_88d4acb5_large_oks_osm_way_305125006_13",
        "object_type": "restriction",
        "restriction_type": "road",
        "name": "",
        "osm_kind": "road",
        "osm_id": 305125006,
        "osm_type": "way",
        "osm_tags": {
          "highway": "service"
        },
        "case_id": "moscow_nekrasovka_-3_+0_88d4acb5_large_oks"
      },
      "geometry": {
        "type": "LineString",
        "coordinates": [
          [
            37.9291477,
            55.6821009
          ],
          [
            37.9289717,
            55.6820964
          ],
          [
            37.9282921,
            55.6820722
          ],
          [
            37.928209,
            55.6819983
          ],
          [
            37.9282471,
            55.6817617
          ],
          [
            37.9282987,
            55.681385
          ],
          [
            37.9290693,
            55.6814278
          ],
          [
            37.9292284,
            55.6814338
          ]
        ]
      }
    },
    {
      "type": "Feature",
      "properties": {
        "id": "moscow_nekrasovka_-3_+0_88d4acb5_large_oks_osm_way_305125245_14",
        "object_type": "restriction",
        "restriction_type": "road",
        "name": "",
        "osm_kind": "road",
        "osm_id": 305125245,
        "osm_type": "way",
        "osm_tags": {
          "highway": "footway"
        },
        "case_id": "moscow_nekrasovka_-3_+0_88d4acb5_large_oks"
      },
      "geometry": {
        "type": "LineString",
        "coordinates": [
          [
            37.9287919,
            55.6866358
          ],
          [
            37.9288603,
            55.6860141
          ],
          [
            37.9288775,
            55.6858576
          ],
          [
            37.9291021,
            55.6838142
          ],
          [
            37.9291211,
            55.6836417
          ],
          [
            37.9291417,
            55.683446
          ],
          [
            37.929374,
            55.6812365
          ],
          [
            37.9293828,
            55.6811824
          ],
          [
            37.9294097,
            55.6810183
          ],
          [
            37.9294152,
            55.6809775
          ],
          [
            37.9296766,
            55.6790198
          ]
        ]
      }
    },
    {
      "type": "Feature",
      "properties": {
        "id": "moscow_nekrasovka_-3_+0_88d4acb5_large_oks_osm_way_363756138_15",
        "object_type": "restriction",
        "restriction_type": "road",
        "name": "",
        "osm_kind": "road",
        "osm_id": 363756138,
        "osm_type": "way",
        "osm_tags": {
          "highway": "path"
        },
        "case_id": "moscow_nekrasovka_-3_+0_88d4acb5_large_oks"
      },
      "geometry": {
        "type": "LineString",
        "coordinates": [
          [
            37.9333374,
            55.6793344
          ],
          [
            37.9328585,
            55.6795118
          ],
          [
            37.9317926,
            55.6799067
          ],
          [
            37.9309294,
            55.6804629
          ],
          [
            37.9307412,
            55.6805842
          ],
          [
            37.9299258,
            55.6811649
          ],
          [
            37.9293828,
            55.6811824
          ]
        ]
      }
    },
    {
      "type": "Feature",
      "properties": {
        "id": "moscow_nekrasovka_-3_+0_88d4acb5_large_oks_osm_way_371417507_16",
        "object_type": "restriction",
        "restriction_type": "road",
        "name": "",
        "osm_kind": "road",
        "osm_id": 371417507,
        "osm_type": "way",
        "osm_tags": {
          "highway": "footway"
        },
        "case_id": "moscow_nekrasovka_-3_+0_88d4acb5_large_oks"
      },
      "geometry": {
        "type": "LineString",
        "coordinates": [
          [
            37.9279352,
            55.6834772
          ],
          [
            37.9279467,
            55.6833154
          ],
          [
            37.9279716,
            55.6828716
          ]
        ]
      }
    },
    {
      "type": "Feature",
      "properties": {
        "id": "moscow_nekrasovka_-3_+0_88d4acb5_large_oks_osm_way_371417509_17",
        "object_type": "restriction",
        "restriction_type": "road",
        "name": "",
        "osm_kind": "road",
        "osm_id": 371417509,
        "osm_type": "way",
        "osm_tags": {
          "highway": "footway"
        },
        "case_id": "moscow_nekrasovka_-3_+0_88d4acb5_large_oks"
      },
      "geometry": {
        "type": "LineString",
        "coordinates": [
          [
            37.928297,
            55.683486
          ],
          [
            37.9283076,
            55.6833289
          ],
          [
            37.9283499,
            55.6828809
          ],
          [
            37.9283746,
            55.6825772
          ],
          [
            37.9279273,
            55.6825606
          ],
          [
            37.9279488,
            55.6823535
          ],
          [
            37.9289459,
            55.6823928
          ]
        ]
      }
    },
    {
      "type": "Feature",
      "properties": {
        "id": "moscow_nekrasovka_-3_+0_88d4acb5_large_oks_osm_way_371417510_18",
        "object_type": "restriction",
        "restriction_type": "road",
        "name": "",
        "osm_kind": "road",
        "osm_id": 371417510,
        "osm_type": "way",
        "osm_tags": {
          "highway": "footway"
        },
        "case_id": "moscow_nekrasovka_-3_+0_88d4acb5_large_oks"
      },
      "geometry": {
        "type": "LineString",
        "coordinates": [
          [
            37.9279716,
            55.6828716
          ],
          [
            37.9276799,
            55.6828343
          ]
        ]
      }
    },
    {
      "type": "Feature",
      "properties": {
        "id": "moscow_nekrasovka_-3_+0_88d4acb5_large_oks_osm_way_371417511_19",
        "object_type": "restriction",
        "restriction_type": "road",
        "name": "",
        "osm_kind": "road",
        "osm_id": 371417511,
        "osm_type": "way",
        "osm_tags": {
          "highway": "footway"
        },
        "case_id": "moscow_nekrasovka_-3_+0_88d4acb5_large_oks"
      },
      "geometry": {
        "type": "LineString",
        "coordinates": [
          [
            37.9279716,
            55.6828716
          ],
          [
            37.9283059,
            55.6828798
          ],
          [
            37.9283499,
            55.6828809
          ]
        ]
      }
    },
    {
      "type": "Feature",
      "properties": {
        "id": "moscow_nekrasovka_-3_+0_88d4acb5_large_oks_osm_way_371417512_20",
        "object_type": "restriction",
        "restriction_type": "road",
        "name": "",
        "osm_kind": "road",
        "osm_id": 371417512,
        "osm_type": "way",
        "osm_tags": {
          "highway": "service"
        },
        "case_id": "moscow_nekrasovka_-3_+0_88d4acb5_large_oks"
      },
      "geometry": {
        "type": "LineString",
        "coordinates": [
          [
            37.9276991,
            55.6835868
          ],
          [
            37.9277104,
            55.6834742
          ],
          [
            37.9277523,
            55.6830547
          ],
          [
            37.9276567,
            55.6830513
          ],
          [
            37.9258211,
            55.6829852
          ]
        ]
      }
    },
    {
      "type": "Feature",
      "properties": {
        "id": "moscow_nekrasovka_-3_+0_88d4acb5_large_oks_osm_way_371417513_21",
        "object_type": "restriction",
        "restriction_type": "road",
        "name": "",
        "osm_kind": "road",
        "osm_id": 371417513,
        "osm_type": "way",
        "osm_tags": {
          "highway": "footway"
        },
        "case_id": "moscow_nekrasovka_-3_+0_88d4acb5_large_oks"
      },
      "geometry": {
        "type": "LineString",
        "coordinates": [
          [
            37.9279273,
            55.6825606
          ],
          [
            37.9278654,
            55.6825934
          ],
          [
            37.9276994,
            55.6826718
          ],
          [
            37.9276799,
            55.6828343
          ]
        ]
      }
    },
    {
      "type": "Feature",
      "properties": {
        "id": "moscow_nekrasovka_-3_+0_88d4acb5_large_oks_osm_way_371417514_22",
        "object_type": "restriction",
        "restriction_type": "road",
        "name": "",
        "osm_kind": "road",
        "osm_id": 371417514,
        "osm_type": "way",
        "osm_tags": {
          "highway": "footway"
        },
        "case_id": "moscow_nekrasovka_-3_+0_88d4acb5_large_oks"
      },
      "geometry": {
        "type": "LineString",
        "coordinates": [
          [
            37.9278924,
            55.6833182
          ],
          [
            37.9279467,
            55.6833154
          ],
          [
            37.9282611,
            55.6833272
          ],
          [
            37.9283076,
            55.6833289
          ]
        ]
      }
    },
    {
      "type": "Feature",
      "properties": {
        "id": "moscow_nekrasovka_-3_+0_88d4acb5_large_oks_osm_way_371417521_23",
        "object_type": "restriction",
        "restriction_type": "road",
        "name": "",
        "osm_kind": "road",
        "osm_id": 371417521,
        "osm_type": "way",
        "osm_tags": {
          "highway": "service"
        },
        "case_id": "moscow_nekrasovka_-3_+0_88d4acb5_large_oks"
      },
      "geometry": {
        "type": "LineString",
        "coordinates": [
          [
            37.9283331,
            55.6826082
          ],
          [
            37.9283059,
            55.6828798
          ],
          [
            37.9282611,
            55.6833272
          ],
          [
            37.9282453,
            55.6834847
          ],
          [
            37.9282331,
            55.683607
          ]
        ]
      }
    },
    {
      "type": "Feature",
      "properties": {
        "id": "moscow_nekrasovka_-3_+0_88d4acb5_large_oks_osm_way_371417845_24",
        "object_type": "restriction",
        "restriction_type": "road",
        "name": "",
        "osm_kind": "road",
        "osm_id": 371417845,
        "osm_type": "way",
        "osm_tags": {
          "highway": "service"
        },
        "case_id": "moscow_nekrasovka_-3_+0_88d4acb5_large_oks"
      },
      "geometry": {
        "type": "LineString",
        "coordinates": [
          [
            37.9283331,
            55.6826082
          ],
          [
            37.9278654,
            55.6825934
          ],
          [
            37.9278844,
            55.6823262
          ],
          [
            37.9289486,
            55.6823614
          ],
          [
            37.9291202,
            55.6823671
          ]
        ]
      }
    },
    {
      "type": "Feature",
      "properties": {
        "id": "moscow_nekrasovka_-3_+0_88d4acb5_large_oks_osm_way_371418217_25",
        "object_type": "restriction",
        "restriction_type": "road",
        "name": "",
        "osm_kind": "road",
        "osm_id": 371418217,
        "osm_type": "way",
        "osm_tags": {
          "highway": "footway"
        },
        "case_id": "moscow_nekrasovka_-3_+0_88d4acb5_large_oks"
      },
      "geometry": {
        "type": "LineString",
        "coordinates": [
          [
            37.9276799,
            55.6828343
          ],
          [
            37.9276567,
            55.6830513
          ]
        ]
      }
    },
    {
      "type": "Feature",
      "properties": {
        "id": "moscow_nekrasovka_-3_+0_88d4acb5_large_oks_osm_way_379515374_26",
        "object_type": "restriction",
        "restriction_type": "road",
        "name": "",
        "osm_kind": "road",
        "osm_id": 379515374,
        "osm_type": "way",
        "osm_tags": {
          "highway": "service"
        },
        "case_id": "moscow_nekrasovka_-3_+0_88d4acb5_large_oks"
      },
      "geometry": {
        "type": "LineString",
        "coordinates": [
          [
            37.9278709,
            55.6810073
          ],
          [
            37.9278644,
            55.6810991
          ],
          [
            37.9278557,
            55.6812321
          ],
          [
            37.9277868,
            55.6817961
          ]
        ]
      }
    },
    {
      "type": "Feature",
      "properties": {
        "id": "moscow_nekrasovka_-3_+0_88d4acb5_large_oks_osm_way_379515376_27",
        "object_type": "restriction",
        "restriction_type": "road",
        "name": "",
        "osm_kind": "road",
        "osm_id": 379515376,
        "osm_type": "way",
        "osm_tags": {
          "highway": "footway"
        },
        "case_id": "moscow_nekrasovka_-3_+0_88d4acb5_large_oks"
      },
      "geometry": {
        "type": "LineString",
        "coordinates": [
          [
            37.9290895,
            55.6812238
          ],
          [
            37.9292538,
            55.6812319
          ],
          [
            37.929374,
            55.6812365
          ]
        ]
      }
    },
    {
      "type": "Feature",
      "properties": {
        "id": "moscow_nekrasovka_-3_+0_88d4acb5_large_oks_osm_way_696100728_28",
        "object_type": "restriction",
        "restriction_type": "road",
        "name": "",
        "osm_kind": "road",
        "osm_id": 696100728,
        "osm_type": "way",
        "osm_tags": {
          "highway": "path"
        },
        "case_id": "moscow_nekrasovka_-3_+0_88d4acb5_large_oks"
      },
      "geometry": {
        "type": "LineString",
        "coordinates": [
          [
            37.9289868,
            55.6810241
          ],
          [
            37.9288556,
            55.6809558
          ],
          [
            37.9283641,
            55.6806281
          ],
          [
            37.9277916,
            55.6803184
          ],
          [
            37.927514,
            55.680211
          ]
        ]
      }
    },
    {
      "type": "Feature",
      "properties": {
        "id": "moscow_nekrasovka_-3_+0_88d4acb5_large_oks_osm_way_696100737_29",
        "object_type": "restriction",
        "restriction_type": "road",
        "name": "",
        "osm_kind": "road",
        "osm_id": 696100737,
        "osm_type": "way",
        "osm_tags": {
          "highway": "path"
        },
        "case_id": "moscow_nekrasovka_-3_+0_88d4acb5_large_oks"
      },
      "geometry": {
        "type": "LineString",
        "coordinates": [
          [
            37.9328585,
            55.6795118
          ],
          [
            37.9325235,
            55.6799394
          ],
          [
            37.9316448,
            55.6817559
          ],
          [
            37.9314761,
            55.6825665
          ],
          [
            37.9308889,
            55.6837047
          ],
          [
            37.9307683,
            55.6838387
          ],
          [
            37.9306603,
            55.6841744
          ],
          [
            37.9304998,
            55.6846731
          ],
          [
            37.9304443,
            55.6848269
          ],
          [
            37.9302624,
            55.6850021
          ],
          [
            37.929985,
            55.6851909
          ],
          [
            37.9296256,
            55.6857901
          ],
          [
            37.9294924,
            55.6860153
          ],
          [
            37.9294592,
            55.6862542
          ],
          [
            37.9293782,
            55.6863268
          ],
          [
            37.9289231,
            55.686735
          ]
        ]
      }
    },
    {
      "type": "Feature",
      "properties": {
        "id": "moscow_nekrasovka_-3_+0_88d4acb5_large_oks_osm_way_696100738_30",
        "object_type": "restriction",
        "restriction_type": "road",
        "name": "",
        "osm_kind": "road",
        "osm_id": 696100738,
        "osm_type": "way",
        "osm_tags": {
          "highway": "path"
        },
        "case_id": "moscow_nekrasovka_-3_+0_88d4acb5_large_oks"
      },
      "geometry": {
        "type": "LineString",
        "coordinates": [
          [
            37.929551,
            55.6836547
          ],
          [
            37.9314761,
            55.6825665
          ],
          [
            37.9328916,
            55.6818922
          ],
          [
            37.9342897,
            55.6814106
          ]
        ]
      }
    },
    {
      "type": "Feature",
      "properties": {
        "id": "moscow_nekrasovka_-3_+0_88d4acb5_large_oks_osm_way_974149644_31",
        "object_type": "restriction",
        "restriction_type": "road",
        "name": "",
        "osm_kind": "road",
        "osm_id": 974149644,
        "osm_type": "way",
        "osm_tags": {
          "highway": "footway"
        },
        "case_id": "moscow_nekrasovka_-3_+0_88d4acb5_large_oks"
      },
      "geometry": {
        "type": "LineString",
        "coordinates": [
          [
            37.9288066,
            55.6834344
          ],
          [
            37.9290046,
            55.6834413
          ],
          [
            37.9291417,
            55.683446
          ]
        ]
      }
    },
    {
      "type": "Feature",
      "properties": {
        "id": "moscow_nekrasovka_-3_+0_88d4acb5_large_oks_osm_way_974149645_32",
        "object_type": "restriction",
        "restriction_type": "road",
        "name": "",
        "osm_kind": "road",
        "osm_id": 974149645,
        "osm_type": "way",
        "osm_tags": {
          "highway": "footway"
        },
        "case_id": "moscow_nekrasovka_-3_+0_88d4acb5_large_oks"
      },
      "geometry": {
        "type": "LineString",
        "coordinates": [
          [
            37.9289779,
            55.6811493
          ],
          [
            37.928984,
            55.6810512
          ],
          [
            37.9289868,
            55.6810241
          ]
        ]
      }
    },
    {
      "type": "Feature",
      "properties": {
        "id": "moscow_nekrasovka_-3_+0_88d4acb5_large_oks_osm_way_974149646_33",
        "object_type": "restriction",
        "restriction_type": "road",
        "name": "",
        "osm_kind": "road",
        "osm_id": 974149646,
        "osm_type": "way",
        "osm_tags": {
          "highway": "footway"
        },
        "case_id": "moscow_nekrasovka_-3_+0_88d4acb5_large_oks"
      },
      "geometry": {
        "type": "LineString",
        "coordinates": [
          [
            37.9289868,
            55.6810241
          ],
          [
            37.9290623,
            55.6810174
          ],
          [
            37.929108,
            55.6810084
          ],
          [
            37.929148,
            55.6809902
          ],
          [
            37.9291861,
            55.6809655
          ],
          [
            37.9292891,
            55.6809711
          ],
          [
            37.9294152,
            55.6809775
          ]
        ]
      }
    },
    {
      "type": "Feature",
      "properties": {
        "id": "moscow_nekrasovka_-3_+0_88d4acb5_large_oks_osm_way_1050451090_34",
        "object_type": "restriction",
        "restriction_type": "road",
        "name": "",
        "osm_kind": "road",
        "osm_id": 1050451090,
        "osm_type": "way",
        "osm_tags": {
          "highway": "footway"
        },
        "case_id": "moscow_nekrasovka_-3_+0_88d4acb5_large_oks"
      },
      "geometry": {
        "type": "LineString",
        "coordinates": [
          [
            37.9223891,
            55.6807267
          ],
          [
            37.9251817,
            55.6808556
          ],
          [
            37.9254692,
            55.6808683
          ],
          [
            37.9261224,
            55.6808971
          ],
          [
            37.9289868,
            55.6810241
          ]
        ]
      }
    },
    {
      "type": "Feature",
      "properties": {
        "id": "moscow_nekrasovka_-3_+0_88d4acb5_large_oks_osm_way_1161942120_35",
        "object_type": "restriction",
        "restriction_type": "road",
        "name": "Некрасовская улица",
        "osm_kind": "road",
        "osm_id": 1161942120,
        "osm_type": "way",
        "osm_tags": {
          "highway": "tertiary",
          "name": "Некрасовская улица"
        },
        "case_id": "moscow_nekrasovka_-3_+0_88d4acb5_large_oks"
      },
      "geometry": {
        "type": "LineString",
        "coordinates": [
          [
            37.9285349,
            55.6810335
          ],
          [
            37.928984,
            55.6810512
          ],
          [
            37.9292779,
            55.6810525
          ]
        ]
      }
    },
    {
      "type": "Feature",
      "properties": {
        "id": "moscow_nekrasovka_-3_+0_88d4acb5_large_oks_osm_way_1218350521_36",
        "object_type": "restriction",
        "restriction_type": "road",
        "name": "",
        "osm_kind": "road",
        "osm_id": 1218350521,
        "osm_type": "way",
        "osm_tags": {
          "highway": "tertiary"
        },
        "case_id": "moscow_nekrasovka_-3_+0_88d4acb5_large_oks"
      },
      "geometry": {
        "type": "LineString",
        "coordinates": [
          [
            37.9289834,
            55.6836393
          ],
          [
            37.9290046,
            55.6834413
          ],
          [
            37.9290573,
            55.6829517
          ],
          [
            37.9291182,
            55.6823867
          ]
        ]
      }
    },
    {
      "type": "Feature",
      "properties": {
        "id": "moscow_nekrasovka_-3_+0_88d4acb5_large_oks_osm_way_1222968999_37",
        "object_type": "restriction",
        "restriction_type": "oks",
        "name": "",
        "osm_kind": "building",
        "osm_id": 1222968999,
        "osm_type": "way",
        "osm_tags": {
          "building": "yes"
        },
        "case_id": "moscow_nekrasovka_-3_+0_88d4acb5_large_oks"
      },
      "geometry": {
        "type": "Polygon",
        "coordinates": [
          [
            [
              37.9257563,
              55.6831383
            ],
            [
              37.925745,
              55.6832437
            ],
            [
              37.9258429,
              55.683247
            ],
            [
              37.9258359,
              55.6833129
            ],
            [
              37.925645,
              55.6833065
            ],
            [
              37.9254907,
              55.6833012
            ],
            [
              37.9255159,
              55.6830641
            ],
            [
              37.9257649,
              55.6830725
            ],
            [
              37.925771,
              55.6830153
            ],
            [
              37.9274745,
              55.6830729
            ],
            [
              37.9274687,
              55.6831271
            ],
            [
              37.9277043,
              55.6831351
            ],
            [
              37.9276791,
              55.6833714
            ],
            [
              37.9274314,
              55.683363
            ],
            [
              37.9272982,
              55.6833585
            ],
            [
              37.927316,
              55.6831911
            ],
            [
              37.9257563,
              55.6831383
            ]
          ]
        ]
      }
    },
    {
      "type": "Feature",
      "properties": {
        "id": "moscow_nekrasovka_-3_+0_88d4acb5_large_oks_osm_way_1264989963_38",
        "object_type": "restriction",
        "restriction_type": "road",
        "name": "",
        "osm_kind": "road",
        "osm_id": 1264989963,
        "osm_type": "way",
        "osm_tags": {
          "highway": "footway"
        },
        "case_id": "moscow_nekrasovka_-3_+0_88d4acb5_large_oks"
      },
      "geometry": {
        "type": "LineString",
        "coordinates": [
          [
            37.9291861,
            55.6809655
          ],
          [
            37.9294539,
            55.67902
          ]
        ]
      }
    },
    {
      "type": "Feature",
      "properties": {
        "id": "moscow_nekrasovka_-3_+0_88d4acb5_large_oks_source",
        "object_type": "source",
        "case_id": "moscow_nekrasovka_-3_+0_88d4acb5_large_oks"
      },
      "geometry": {
        "type": "Point",
        "coordinates": [
          37.927928666666666,
          55.682093050000006
        ]
      }
    },
    {
      "type": "Feature",
      "properties": {
        "id": "moscow_nekrasovka_-3_+0_88d4acb5_large_oks_existing_network",
        "object_type": "heat_network",
        "diameter": 500,
        "flow_tph": 180.0,
        "upstream_object_id": "moscow_nekrasovka_-3_+0_88d4acb5_large_oks_source",
        "case_id": "moscow_nekrasovka_-3_+0_88d4acb5_large_oks"
      },
      "geometry": {
        "type": "LineString",
        "coordinates": [
          [
            37.927928666666666,
            55.682093050000006
          ],
          [
            37.929044,
            55.682093050000006
          ]
        ]
      }
    },
    {
      "type": "Feature",
      "properties": {
        "id": "moscow_nekrasovka_-3_+0_88d4acb5_large_oks_existing_chamber",
        "object_type": "heat_chamber",
        "diameter": 500,
        "upstream_object_id": "moscow_nekrasovka_-3_+0_88d4acb5_large_oks_source",
        "case_id": "moscow_nekrasovka_-3_+0_88d4acb5_large_oks"
      },
      "geometry": {
        "type": "Point",
        "coordinates": [
          37.929044,
          55.682093050000006
        ]
      }
    },
    {
      "type": "Feature",
      "properties": {
        "id": "moscow_nekrasovka_-3_+0_88d4acb5_large_oks_cp_1",
        "object_type": "oks_connection_point",
        "flow_tph": 20.0,
        "case_id": "moscow_nekrasovka_-3_+0_88d4acb5_large_oks",
        "consumer_role": "osm_building_heat_demand_proxy",
        "source_building_osm_id": 45833501,
        "source_building_osm_type": "way",
        "source_building_name": "Некрасовские бани",
        "source_building_tags": {
          "building": "yes",
          "leisure": "sauna",
          "name": "Некрасовские бани"
        },
        "footprint_area_m2": 1063.83,
        "flow_basis": "synthetic_proxy_from_osm_footprint_area",
        "stress_bucket": "large_oks"
      },
      "geometry": {
        "type": "Point",
        "coordinates": [
          37.9286621758144,
          55.68172230680874
        ]
      }
    },
    {
      "type": "Feature",
      "properties": {
        "id": "moscow_nekrasovka_-3_+0_88d4acb5_large_oks_cp_2",
        "object_type": "oks_connection_point",
        "flow_tph": 20.0,
        "case_id": "moscow_nekrasovka_-3_+0_88d4acb5_large_oks",
        "consumer_role": "osm_building_heat_demand_proxy",
        "source_building_osm_id": 104385591,
        "source_building_osm_type": "way",
        "source_building_name": "",
        "source_building_tags": {
          "building": "service"
        },
        "footprint_area_m2": 114.83,
        "flow_basis": "synthetic_proxy_from_osm_footprint_area",
        "stress_bucket": "large_oks"
      },
      "geometry": {
        "type": "Point",
        "coordinates": [
          37.92882295,
          55.682200699999996
        ]
      }
    },
    {
      "type": "Feature",
      "properties": {
        "id": "moscow_nekrasovka_-3_+0_88d4acb5_large_oks_cp_3",
        "object_type": "oks_connection_point",
        "flow_tph": 35.507,
        "case_id": "moscow_nekrasovka_-3_+0_88d4acb5_large_oks",
        "consumer_role": "osm_building_heat_demand_proxy",
        "source_building_osm_id": 45833500,
        "source_building_osm_type": "way",
        "source_building_name": "",
        "source_building_tags": {
          "building": "apartments"
        },
        "footprint_area_m2": 1952.88,
        "flow_basis": "synthetic_proxy_from_osm_footprint_area",
        "stress_bucket": "large_oks"
      },
      "geometry": {
        "type": "Point",
        "coordinates": [
          37.928485922847315,
          55.68277876750643
        ]
      }
    },
    {
      "type": "Feature",
      "properties": {
        "id": "moscow_nekrasovka_-3_+0_88d4acb5_large_oks_cp_4",
        "object_type": "oks_connection_point",
        "flow_tph": 20.0,
        "case_id": "moscow_nekrasovka_-3_+0_88d4acb5_large_oks",
        "consumer_role": "osm_building_heat_demand_proxy",
        "source_building_osm_id": 104386148,
        "source_building_osm_type": "way",
        "source_building_name": "",
        "source_building_tags": {
          "building": "yes"
        },
        "footprint_area_m2": 128.41,
        "flow_basis": "synthetic_proxy_from_osm_footprint_area",
        "stress_bucket": "large_oks"
      },
      "geometry": {
        "type": "Point",
        "coordinates": [
          37.92849279166666,
          55.6833885
        ]
      }
    }
  ]
}