{
  "type": "FeatureCollection",
  "name": "spb_parnas_+2_+2_2b4fc559_large_oks",
  "crs": {
    "type": "name",
    "properties": {
      "name": "EPSG:4326"
    }
  },
  "metadata": {
    "dataset_version": "osm_building_anchored_routing_scenes_v3",
    "parent_scene_id": "spb_parnas_+2_+2_2b4fc559",
    "split": "test",
    "city": "Санкт-Петербург Парнас",
    "seed": "spb_parnas",
    "research_bucket": "large_oks",
    "source_research_bucket": "fifty_fifty",
    "research_bucket_is_ground_truth": false,
    "bbox_south_west_north_east": [
      60.0829238,
      30.3729046,
      60.0856188,
      30.3783083
    ],
    "real_data_source": "OpenStreetMap via Overpass API",
    "source_file": "data/real_geojson_places/fifty_fifty/067_spb_parnas_+2_+2_2b4fc559.geojson",
    "real_layers": [
      "restrictions",
      "consumer_building_footprints"
    ],
    "synthetic_layers": [
      "source",
      "heat_network",
      "heat_chamber",
      "heat_demand"
    ],
    "consumer_selection": "deterministic points inside real OSM building footprints",
    "flow_model": "synthetic proxy derived from building footprint area; not metered demand",
    "note": "OSM buildings anchor consumers; heat demand and seed network are synthetic proxies."
  },
  "features": [
    {
      "type": "Feature",
      "properties": {
        "id": "spb_parnas_+2_+2_2b4fc559_large_oks_osm_way_160219184_1",
        "object_type": "restriction",
        "restriction_type": "water",
        "name": "",
        "osm_kind": "water",
        "osm_id": 160219184,
        "osm_type": "way",
        "osm_tags": {
          "waterway": "ditch"
        },
        "case_id": "spb_parnas_+2_+2_2b4fc559_large_oks"
      },
      "geometry": {
        "type": "LineString",
        "coordinates": [
          [
            30.3775584,
            60.0844401
          ],
          [
            30.3780606,
            60.0835841
          ],
          [
            30.3783729,
            60.0826962
          ],
          [
            30.3790475,
            60.0804686
          ],
          [
            30.379875,
            60.0775807
          ],
          [
            30.3807099,
            60.0749134
          ],
          [
            30.3811558,
            60.0736234
          ],
          [
            30.3821545,
            60.0710625
          ],
          [
            30.3822941,
            60.0707013
          ],
          [
            30.3824906,
            60.0702576
          ],
          [
            30.3825717,
            60.0700259
          ],
          [
            30.3825889,
            60.0699918
          ],
          [
            30.3827854,
            60.0696358
          ],
          [
            30.3834599,
            60.0681617
          ]
        ]
      }
    },
    {
      "type": "Feature",
      "properties": {
        "id": "spb_parnas_+2_+2_2b4fc559_large_oks_osm_way_737149505_2",
        "object_type": "restriction",
        "restriction_type": "road",
        "name": "КАД",
        "osm_kind": "major_road",
        "osm_id": 737149505,
        "osm_type": "way",
        "osm_tags": {
          "highway": "motorway",
          "name": "КАД"
        },
        "case_id": "spb_parnas_+2_+2_2b4fc559_large_oks"
      },
      "geometry": {
        "type": "LineString",
        "coordinates": [
          [
            30.3804949,
            60.0782793
          ],
          [
            30.3802522,
            60.0790656
          ],
          [
            30.3796876,
            60.0809836
          ],
          [
            30.3793776,
            60.0820368
          ],
          [
            30.3788376,
            60.0836231
          ],
          [
            30.3780989,
            60.0849234
          ],
          [
            30.3774823,
            60.0857739
          ],
          [
            30.3765668,
            60.0867323
          ]
        ]
      }
    },
    {
      "type": "Feature",
      "properties": {
        "id": "spb_parnas_+2_+2_2b4fc559_large_oks_osm_way_986970773_3",
        "object_type": "restriction",
        "restriction_type": "road",
        "name": "",
        "osm_kind": "road",
        "osm_id": 986970773,
        "osm_type": "way",
        "osm_tags": {
          "highway": "unclassified"
        },
        "case_id": "spb_parnas_+2_+2_2b4fc559_large_oks"
      },
      "geometry": {
        "type": "LineString",
        "coordinates": [
          [
            30.3764502,
            60.0848505
          ],
          [
            30.3767878,
            60.0848373
          ],
          [
            30.3771129,
            60.0848058
          ],
          [
            30.3773657,
            60.0847172
          ],
          [
            30.3777397,
            60.0844469
          ]
        ]
      }
    },
    {
      "type": "Feature",
      "properties": {
        "id": "spb_parnas_+2_+2_2b4fc559_large_oks_osm_way_986970774_4",
        "object_type": "restriction",
        "restriction_type": "water",
        "name": "",
        "osm_kind": "water",
        "osm_id": 986970774,
        "osm_type": "way",
        "osm_tags": {
          "waterway": "ditch"
        },
        "case_id": "spb_parnas_+2_+2_2b4fc559_large_oks"
      },
      "geometry": {
        "type": "LineString",
        "coordinates": [
          [
            30.3726431,
            60.0889847
          ],
          [
            30.3734541,
            60.0884937
          ],
          [
            30.3743993,
            60.0878153
          ],
          [
            30.375318,
            60.0870577
          ],
          [
            30.3756061,
            60.0867946
          ],
          [
            30.3757994,
            60.0866182
          ],
          [
            30.3764416,
            60.0858872
          ],
          [
            30.37682,
            60.0853986
          ]
        ]
      }
    },
    {
      "type": "Feature",
      "properties": {
        "id": "spb_parnas_+2_+2_2b4fc559_large_oks_osm_way_986970775_5",
        "object_type": "restriction",
        "restriction_type": "road",
        "name": "",
        "osm_kind": "road",
        "osm_id": 986970775,
        "osm_type": "way",
        "osm_tags": {
          "highway": "unclassified"
        },
        "case_id": "spb_parnas_+2_+2_2b4fc559_large_oks"
      },
      "geometry": {
        "type": "LineString",
        "coordinates": [
          [
            30.3770024,
            60.0855013
          ],
          [
            30.3769889,
            60.0851272
          ],
          [
            30.3768955,
            60.0850049
          ],
          [
            30.3767362,
            60.0849247
          ],
          [
            30.3764502,
            60.0848505
          ]
        ]
      }
    },
    {
      "type": "Feature",
      "properties": {
        "id": "spb_parnas_+2_+2_2b4fc559_large_oks_osm_way_986970777_6",
        "object_type": "restriction",
        "restriction_type": "road",
        "name": "",
        "osm_kind": "road",
        "osm_id": 986970777,
        "osm_type": "way",
        "osm_tags": {
          "highway": "service"
        },
        "case_id": "spb_parnas_+2_+2_2b4fc559_large_oks"
      },
      "geometry": {
        "type": "LineString",
        "coordinates": [
          [
            30.3751667,
            60.0848494
          ],
          [
            30.375154,
            60.0850712
          ],
          [
            30.375148,
            60.0852294
          ],
          [
            30.3751445,
            60.0852935
          ],
          [
            30.3751383,
            60.085409
          ],
          [
            30.3750999,
            60.0854527
          ],
          [
            30.3750058,
            60.0854766
          ],
          [
            30.3745515,
            60.0854766
          ],
          [
            30.3742438,
            60.0854702
          ],
          [
            30.3741126,
            60.0854469
          ],
          [
            30.3740311,
            60.085409
          ],
          [
            30.3740413,
            60.085067
          ],
          [
            30.3740486,
            60.0848297
          ]
        ]
      }
    },
    {
      "type": "Feature",
      "properties": {
        "id": "spb_parnas_+2_+2_2b4fc559_large_oks_osm_way_1053056116_7",
        "object_type": "restriction",
        "restriction_type": "road",
        "name": "КАД",
        "osm_kind": "major_road",
        "osm_id": 1053056116,
        "osm_type": "way",
        "osm_tags": {
          "highway": "motorway",
          "name": "КАД"
        },
        "case_id": "spb_parnas_+2_+2_2b4fc559_large_oks"
      },
      "geometry": {
        "type": "LineString",
        "coordinates": [
          [
            30.3737367,
            60.0886278
          ],
          [
            30.3751372,
            60.0875875
          ],
          [
            30.3762097,
            60.0866527
          ],
          [
            30.3771265,
            60.0856881
          ],
          [
            30.3777546,
            60.0848688
          ],
          [
            30.3783495,
            60.0837107
          ]
        ]
      }
    },
    {
      "type": "Feature",
      "properties": {
        "id": "spb_parnas_+2_+2_2b4fc559_large_oks_osm_way_1085590471_8",
        "object_type": "restriction",
        "restriction_type": "road",
        "name": "",
        "osm_kind": "major_road",
        "osm_id": 1085590471,
        "osm_type": "way",
        "osm_tags": {
          "highway": "primary"
        },
        "case_id": "spb_parnas_+2_+2_2b4fc559_large_oks"
      },
      "geometry": {
        "type": "LineString",
        "coordinates": [
          [
            30.3777397,
            60.0844469
          ],
          [
            30.3780199,
            60.084066
          ]
        ]
      }
    },
    {
      "type": "Feature",
      "properties": {
        "id": "spb_parnas_+2_+2_2b4fc559_large_oks_osm_way_1085590472_9",
        "object_type": "restriction",
        "restriction_type": "road",
        "name": "",
        "osm_kind": "major_road",
        "osm_id": 1085590472,
        "osm_type": "way",
        "osm_tags": {
          "highway": "primary"
        },
        "case_id": "spb_parnas_+2_+2_2b4fc559_large_oks"
      },
      "geometry": {
        "type": "LineString",
        "coordinates": [
          [
            30.3780199,
            60.084066
          ],
          [
            30.3783495,
            60.0837107
          ]
        ]
      }
    },
    {
      "type": "Feature",
      "properties": {
        "id": "spb_parnas_+2_+2_2b4fc559_large_oks_osm_way_1085590473_10",
        "object_type": "restriction",
        "restriction_type": "road",
        "name": "",
        "osm_kind": "major_road",
        "osm_id": 1085590473,
        "osm_type": "way",
        "osm_tags": {
          "highway": "primary"
        },
        "case_id": "spb_parnas_+2_+2_2b4fc559_large_oks"
      },
      "geometry": {
        "type": "LineString",
        "coordinates": [
          [
            30.3770024,
            60.0855013
          ],
          [
            30.3777397,
            60.0844469
          ]
        ]
      }
    },
    {
      "type": "Feature",
      "properties": {
        "id": "spb_parnas_+2_+2_2b4fc559_large_oks_osm_way_1085590474_11",
        "object_type": "restriction",
        "restriction_type": "road",
        "name": "",
        "osm_kind": "major_road",
        "osm_id": 1085590474,
        "osm_type": "way",
        "osm_tags": {
          "highway": "primary"
        },
        "case_id": "spb_parnas_+2_+2_2b4fc559_large_oks"
      },
      "geometry": {
        "type": "LineString",
        "coordinates": [
          [
            30.3760589,
            60.0865475
          ],
          [
            30.3768014,
            60.0857685
          ],
          [
            30.3770024,
            60.0855013
          ]
        ]
      }
    },
    {
      "type": "Feature",
      "properties": {
        "id": "spb_parnas_+2_+2_2b4fc559_large_oks_osm_way_1148035156_12",
        "object_type": "restriction",
        "restriction_type": "road",
        "name": "",
        "osm_kind": "road",
        "osm_id": 1148035156,
        "osm_type": "way",
        "osm_tags": {
          "highway": "unclassified"
        },
        "case_id": "spb_parnas_+2_+2_2b4fc559_large_oks"
      },
      "geometry": {
        "type": "LineString",
        "coordinates": [
          [
            30.3727362,
            60.0848016
          ],
          [
            30.3729117,
            60.0848117
          ],
          [
            30.3731154,
            60.0848203
          ],
          [
            30.3738607,
            60.0848269
          ],
          [
            30.3740486,
            60.0848297
          ],
          [
            30.3751667,
            60.0848494
          ],
          [
            30.3757833,
            60.0848534
          ],
          [
            30.3764502,
            60.0848505
          ]
        ]
      }
    },
    {
      "type": "Feature",
      "properties": {
        "id": "spb_parnas_+2_+2_2b4fc559_large_oks_osm_way_1267112262_13",
        "object_type": "restriction",
        "restriction_type": "oks",
        "name": "",
        "osm_kind": "building",
        "osm_id": 1267112262,
        "osm_type": "way",
        "osm_tags": {
          "building": "yes"
        },
        "case_id": "spb_parnas_+2_+2_2b4fc559_large_oks",
        "selected_as_heat_demand_proxy": true,
        "connection_point_id": "spb_parnas_+2_+2_2b4fc559_large_oks_cp_2"
      },
      "geometry": {
        "type": "Polygon",
        "coordinates": [
          [
            [
              30.3741207,
              60.0853466
            ],
            [
              30.3741217,
              60.0851616
            ],
            [
              30.3742446,
              60.0851617
            ],
            [
              30.3742449,
              60.0851218
            ],
            [
              30.3744539,
              60.0851221
            ],
            [
              30.3744533,
              60.0852323
            ],
            [
              30.3744526,
              60.085347
            ],
            [
              30.3741207,
              60.0853466
            ]
          ]
        ]
      }
    },
    {
      "type": "Feature",
      "properties": {
        "id": "spb_parnas_+2_+2_2b4fc559_large_oks_osm_way_1267112263_14",
        "object_type": "restriction",
        "restriction_type": "oks",
        "name": "",
        "osm_kind": "building",
        "osm_id": 1267112263,
        "osm_type": "way",
        "osm_tags": {
          "building": "roof"
        },
        "case_id": "spb_parnas_+2_+2_2b4fc559_large_oks",
        "selected_as_heat_demand_proxy": true,
        "connection_point_id": "spb_parnas_+2_+2_2b4fc559_large_oks_cp_1"
      },
      "geometry": {
        "type": "Polygon",
        "coordinates": [
          [
            [
              30.374674,
              60.0853837
            ],
            [
              30.3746777,
              60.0851042
            ],
            [
              30.3748249,
              60.0851047
            ],
            [
              30.3748214,
              60.0853842
            ],
            [
              30.374674,
              60.0853837
            ]
          ]
        ]
      }
    },
    {
      "type": "Feature",
      "properties": {
        "id": "spb_parnas_+2_+2_2b4fc559_large_oks_osm_way_1267112264_15",
        "object_type": "restriction",
        "restriction_type": "road",
        "name": "",
        "osm_kind": "road",
        "osm_id": 1267112264,
        "osm_type": "way",
        "osm_tags": {
          "highway": "service"
        },
        "case_id": "spb_parnas_+2_+2_2b4fc559_large_oks"
      },
      "geometry": {
        "type": "LineString",
        "coordinates": [
          [
            30.375154,
            60.0850712
          ],
          [
            30.3745471,
            60.0850691
          ],
          [
            30.3740413,
            60.085067
          ]
        ]
      }
    },
    {
      "type": "Feature",
      "properties": {
        "id": "spb_parnas_+2_+2_2b4fc559_large_oks_osm_way_1267112265_16",
        "object_type": "restriction",
        "restriction_type": "road",
        "name": "",
        "osm_kind": "road",
        "osm_id": 1267112265,
        "osm_type": "way",
        "osm_tags": {
          "highway": "service"
        },
        "case_id": "spb_parnas_+2_+2_2b4fc559_large_oks"
      },
      "geometry": {
        "type": "LineString",
        "coordinates": [
          [
            30.375148,
            60.0852294
          ],
          [
            30.3745488,
            60.0852223
          ]
        ]
      }
    },
    {
      "type": "Feature",
      "properties": {
        "id": "spb_parnas_+2_+2_2b4fc559_large_oks_osm_way_1267112266_17",
        "object_type": "restriction",
        "restriction_type": "oks",
        "name": "",
        "osm_kind": "building",
        "osm_id": 1267112266,
        "osm_type": "way",
        "osm_tags": {
          "building": "roof"
        },
        "case_id": "spb_parnas_+2_+2_2b4fc559_large_oks",
        "selected_as_heat_demand_proxy": true,
        "connection_point_id": "spb_parnas_+2_+2_2b4fc559_large_oks_cp_3"
      },
      "geometry": {
        "type": "Polygon",
        "coordinates": [
          [
            [
              30.3734539,
              60.0853868
            ],
            [
              30.3734529,
              60.0852236
            ],
            [
              30.3732765,
              60.0852238
            ],
            [
              30.3732775,
              60.0853871
            ],
            [
              30.3734539,
              60.0853868
            ]
          ]
        ]
      }
    },
    {
      "type": "Feature",
      "properties": {
        "id": "spb_parnas_+2_+2_2b4fc559_large_oks_osm_way_1267112267_18",
        "object_type": "restriction",
        "restriction_type": "road",
        "name": "",
        "osm_kind": "road",
        "osm_id": 1267112267,
        "osm_type": "way",
        "osm_tags": {
          "highway": "service"
        },
        "case_id": "spb_parnas_+2_+2_2b4fc559_large_oks"
      },
      "geometry": {
        "type": "LineString",
        "coordinates": [
          [
            30.3738317,
            60.085417
          ],
          [
            30.3738372,
            60.0852998
          ],
          [
            30.3738397,
            60.0851857
          ],
          [
            30.3738607,
            60.0848269
          ]
        ]
      }
    },
    {
      "type": "Feature",
      "properties": {
        "id": "spb_parnas_+2_+2_2b4fc559_large_oks_osm_way_1267112268_19",
        "object_type": "restriction",
        "restriction_type": "oks",
        "name": "",
        "osm_kind": "building",
        "osm_id": 1267112268,
        "osm_type": "way",
        "osm_tags": {
          "building": "yes"
        },
        "case_id": "spb_parnas_+2_+2_2b4fc559_large_oks",
        "selected_as_heat_demand_proxy": true,
        "connection_point_id": "spb_parnas_+2_+2_2b4fc559_large_oks_cp_4"
      },
      "geometry": {
        "type": "Polygon",
        "coordinates": [
          [
            [
              30.3732815,
              60.0854816
            ],
            [
              30.3734708,
              60.0854824
            ],
            [
              30.3734698,
              60.085535
            ],
            [
              30.3732805,
              60.0855341
            ],
            [
              30.3732815,
              60.0854816
            ]
          ]
        ]
      }
    },
    {
      "type": "Feature",
      "properties": {
        "id": "spb_parnas_+2_+2_2b4fc559_large_oks_osm_way_1267112269_20",
        "object_type": "restriction",
        "restriction_type": "road",
        "name": "",
        "osm_kind": "road",
        "osm_id": 1267112269,
        "osm_type": "way",
        "osm_tags": {
          "highway": "service"
        },
        "case_id": "spb_parnas_+2_+2_2b4fc559_large_oks"
      },
      "geometry": {
        "type": "LineString",
        "coordinates": [
          [
            30.3729014,
            60.0851832
          ],
          [
            30.3738397,
            60.0851857
          ]
        ]
      }
    },
    {
      "type": "Feature",
      "properties": {
        "id": "spb_parnas_+2_+2_2b4fc559_large_oks_osm_way_1267112271_21",
        "object_type": "restriction",
        "restriction_type": "road",
        "name": "",
        "osm_kind": "road",
        "osm_id": 1267112271,
        "osm_type": "way",
        "osm_tags": {
          "highway": "service"
        },
        "case_id": "spb_parnas_+2_+2_2b4fc559_large_oks"
      },
      "geometry": {
        "type": "LineString",
        "coordinates": [
          [
            30.3745515,
            60.0854766
          ],
          [
            30.3745488,
            60.0852223
          ],
          [
            30.3745471,
            60.0850691
          ]
        ]
      }
    },
    {
      "type": "Feature",
      "properties": {
        "id": "spb_parnas_+2_+2_2b4fc559_large_oks_osm_way_1269021469_22",
        "object_type": "restriction",
        "restriction_type": "road",
        "name": "",
        "osm_kind": "road",
        "osm_id": 1269021469,
        "osm_type": "way",
        "osm_tags": {
          "highway": "service"
        },
        "case_id": "spb_parnas_+2_+2_2b4fc559_large_oks"
      },
      "geometry": {
        "type": "LineString",
        "coordinates": [
          [
            30.3729117,
            60.0848117
          ],
          [
            30.3729014,
            60.0851832
          ],
          [
            30.3728982,
            60.0853017
          ],
          [
            30.3728952,
            60.0854106
          ],
          [
            30.3735305,
            60.0854149
          ],
          [
            30.3738317,
            60.085417
          ]
        ]
      }
    },
    {
      "type": "Feature",
      "properties": {
        "id": "spb_parnas_+2_+2_2b4fc559_large_oks_osm_way_1269021470_23",
        "object_type": "restriction",
        "restriction_type": "road",
        "name": "",
        "osm_kind": "road",
        "osm_id": 1269021470,
        "osm_type": "way",
        "osm_tags": {
          "highway": "service"
        },
        "case_id": "spb_parnas_+2_+2_2b4fc559_large_oks"
      },
      "geometry": {
        "type": "LineString",
        "coordinates": [
          [
            30.3728982,
            60.0853017
          ],
          [
            30.3738372,
            60.0852998
          ]
        ]
      }
    },
    {
      "type": "Feature",
      "properties": {
        "id": "spb_parnas_+2_+2_2b4fc559_large_oks_osm_way_1269021471_24",
        "object_type": "restriction",
        "restriction_type": "road",
        "name": "",
        "osm_kind": "road",
        "osm_id": 1269021471,
        "osm_type": "way",
        "osm_tags": {
          "highway": "service"
        },
        "case_id": "spb_parnas_+2_+2_2b4fc559_large_oks"
      },
      "geometry": {
        "type": "LineString",
        "coordinates": [
          [
            30.3731154,
            60.0848203
          ],
          [
            30.373111,
            60.0849795
          ]
        ]
      }
    },
    {
      "type": "Feature",
      "properties": {
        "id": "spb_parnas_+2_+2_2b4fc559_large_oks_osm_way_1540995019_25",
        "object_type": "restriction",
        "restriction_type": "road",
        "name": "",
        "osm_kind": "road",
        "osm_id": 1540995019,
        "osm_type": "way",
        "osm_tags": {
          "highway": "service"
        },
        "case_id": "spb_parnas_+2_+2_2b4fc559_large_oks"
      },
      "geometry": {
        "type": "LineString",
        "coordinates": [
          [
            30.3739327,
            60.0855731
          ],
          [
            30.3739344,
            60.0854749
          ],
          [
            30.3738317,
            60.085417
          ]
        ]
      }
    },
    {
      "type": "Feature",
      "properties": {
        "id": "spb_parnas_+2_+2_2b4fc559_large_oks_osm_way_1540995020_26",
        "object_type": "restriction",
        "restriction_type": "road",
        "name": "",
        "osm_kind": "road",
        "osm_id": 1540995020,
        "osm_type": "way",
        "osm_tags": {
          "highway": "service"
        },
        "case_id": "spb_parnas_+2_+2_2b4fc559_large_oks"
      },
      "geometry": {
        "type": "LineString",
        "coordinates": [
          [
            30.373527,
            60.0855689
          ],
          [
            30.3735305,
            60.0854149
          ]
        ]
      }
    },
    {
      "type": "Feature",
      "properties": {
        "id": "spb_parnas_+2_+2_2b4fc559_large_oks_osm_way_1540995025_27",
        "object_type": "restriction",
        "restriction_type": "water",
        "name": "",
        "osm_kind": "water",
        "osm_id": 1540995025,
        "osm_type": "way",
        "osm_tags": {
          "waterway": "ditch"
        },
        "case_id": "spb_parnas_+2_+2_2b4fc559_large_oks"
      },
      "geometry": {
        "type": "LineString",
        "coordinates": [
          [
            30.3750076,
            60.084943
          ],
          [
            30.374196,
            60.0849333
          ]
        ]
      }
    },
    {
      "type": "Feature",
      "properties": {
        "id": "spb_parnas_+2_+2_2b4fc559_large_oks_osm_way_1540995026_28",
        "object_type": "restriction",
        "restriction_type": "water",
        "name": "",
        "osm_kind": "water",
        "osm_id": 1540995026,
        "osm_type": "way",
        "osm_tags": {
          "waterway": "ditch"
        },
        "case_id": "spb_parnas_+2_+2_2b4fc559_large_oks"
      },
      "geometry": {
        "type": "LineString",
        "coordinates": [
          [
            30.3736445,
            60.0848972
          ],
          [
            30.3736465,
            60.0847646
          ]
        ]
      }
    },
    {
      "type": "Feature",
      "properties": {
        "id": "spb_parnas_+2_+2_2b4fc559_large_oks_osm_way_1540995027_29",
        "object_type": "restriction",
        "restriction_type": "water",
        "name": "",
        "osm_kind": "water",
        "osm_id": 1540995027,
        "osm_type": "way",
        "osm_tags": {
          "waterway": "ditch"
        },
        "case_id": "spb_parnas_+2_+2_2b4fc559_large_oks"
      },
      "geometry": {
        "type": "LineString",
        "coordinates": [
          [
            30.3736465,
            60.0847646
          ],
          [
            30.3736465,
            60.0847402
          ]
        ]
      }
    },
    {
      "type": "Feature",
      "properties": {
        "id": "spb_parnas_+2_+2_2b4fc559_large_oks_osm_way_1540995028_30",
        "object_type": "restriction",
        "restriction_type": "water",
        "name": "",
        "osm_kind": "water",
        "osm_id": 1540995028,
        "osm_type": "way",
        "osm_tags": {
          "waterway": "ditch"
        },
        "case_id": "spb_parnas_+2_+2_2b4fc559_large_oks"
      },
      "geometry": {
        "type": "LineString",
        "coordinates": [
          [
            30.3737188,
            60.0849343
          ],
          [
            30.3736641,
            60.0849235
          ],
          [
            30.3736445,
            60.0848972
          ]
        ]
      }
    },
    {
      "type": "Feature",
      "properties": {
        "id": "spb_parnas_+2_+2_2b4fc559_large_oks_osm_way_1540995029_31",
        "object_type": "restriction",
        "restriction_type": "water",
        "name": "",
        "osm_kind": "water",
        "osm_id": 1540995029,
        "osm_type": "way",
        "osm_tags": {
          "waterway": "ditch"
        },
        "case_id": "spb_parnas_+2_+2_2b4fc559_large_oks"
      },
      "geometry": {
        "type": "LineString",
        "coordinates": [
          [
            30.374196,
            60.0849333
          ],
          [
            30.3737188,
            60.0849343
          ]
        ]
      }
    },
    {
      "type": "Feature",
      "properties": {
        "id": "spb_parnas_+2_+2_2b4fc559_large_oks_osm_way_1540995030_32",
        "object_type": "restriction",
        "restriction_type": "water",
        "name": "",
        "osm_kind": "water",
        "osm_id": 1540995030,
        "osm_type": "way",
        "osm_tags": {
          "waterway": "ditch"
        },
        "case_id": "spb_parnas_+2_+2_2b4fc559_large_oks"
      },
      "geometry": {
        "type": "LineString",
        "coordinates": [
          [
            30.3756334,
            60.0849665
          ],
          [
            30.3756002,
            60.0849382
          ],
          [
            30.3755102,
            60.0849294
          ],
          [
            30.3753303,
            60.0849421
          ]
        ]
      }
    },
    {
      "type": "Feature",
      "properties": {
        "id": "spb_parnas_+2_+2_2b4fc559_large_oks_osm_way_1540995031_33",
        "object_type": "restriction",
        "restriction_type": "water",
        "name": "",
        "osm_kind": "water",
        "osm_id": 1540995031,
        "osm_type": "way",
        "osm_tags": {
          "waterway": "ditch"
        },
        "case_id": "spb_parnas_+2_+2_2b4fc559_large_oks"
      },
      "geometry": {
        "type": "LineString",
        "coordinates": [
          [
            30.3753303,
            60.0849421
          ],
          [
            30.3750076,
            60.084943
          ]
        ]
      }
    },
    {
      "type": "Feature",
      "properties": {
        "id": "spb_parnas_+2_+2_2b4fc559_large_oks_osm_way_1550299098_34",
        "object_type": "restriction",
        "restriction_type": "road",
        "name": "",
        "osm_kind": "road",
        "osm_id": 1550299098,
        "osm_type": "way",
        "osm_tags": {
          "highway": "service"
        },
        "case_id": "spb_parnas_+2_+2_2b4fc559_large_oks"
      },
      "geometry": {
        "type": "LineString",
        "coordinates": [
          [
            30.3740761,
            60.0871538
          ],
          [
            30.3744579,
            60.0867576
          ],
          [
            30.374747,
            60.0864477
          ],
          [
            30.3749356,
            60.0862408
          ],
          [
            30.3754701,
            60.0856783
          ],
          [
            30.375566,
            60.0855563
          ],
          [
            30.3756513,
            60.0853939
          ],
          [
            30.3757271,
            60.0851833
          ],
          [
            30.3757682,
            60.0849647
          ],
          [
            30.3757833,
            60.0848534
          ]
        ]
      }
    },
    {
      "type": "Feature",
      "properties": {
        "id": "spb_parnas_+2_+2_2b4fc559_large_oks_source",
        "object_type": "source",
        "case_id": "spb_parnas_+2_+2_2b4fc559_large_oks"
      },
      "geometry": {
        "type": "Point",
        "coordinates": [
          30.373264846666665,
          60.0842713
        ]
      }
    },
    {
      "type": "Feature",
      "properties": {
        "id": "spb_parnas_+2_+2_2b4fc559_large_oks_existing_network",
        "object_type": "heat_network",
        "diameter": 500,
        "flow_tph": 180.0,
        "upstream_object_id": "spb_parnas_+2_+2_2b4fc559_large_oks_source",
        "case_id": "spb_parnas_+2_+2_2b4fc559_large_oks"
      },
      "geometry": {
        "type": "LineString",
        "coordinates": [
          [
            30.373264846666665,
            60.0842713
          ],
          [
            30.37452571,
            60.0842713
          ]
        ]
      }
    },
    {
      "type": "Feature",
      "properties": {
        "id": "spb_parnas_+2_+2_2b4fc559_large_oks_existing_chamber",
        "object_type": "heat_chamber",
        "diameter": 500,
        "upstream_object_id": "spb_parnas_+2_+2_2b4fc559_large_oks_source",
        "case_id": "spb_parnas_+2_+2_2b4fc559_large_oks"
      },
      "geometry": {
        "type": "Point",
        "coordinates": [
          30.37452571,
          60.0842713
        ]
      }
    },
    {
      "type": "Feature",
      "properties": {
        "id": "spb_parnas_+2_+2_2b4fc559_large_oks_cp_1",
        "object_type": "oks_connection_point",
        "flow_tph": 20.0,
        "case_id": "spb_parnas_+2_+2_2b4fc559_large_oks",
        "consumer_role": "osm_building_heat_demand_proxy",
        "source_building_osm_id": 1267112263,
        "source_building_osm_type": "way",
        "source_building_name": "",
        "source_building_tags": {
          "building": "roof"
        },
        "footprint_area_m2": 254.46,
        "flow_basis": "synthetic_proxy_from_osm_footprint_area",
        "stress_bucket": "large_oks"
      },
      "geometry": {
        "type": "Point",
        "coordinates": [
          30.374723866011767,
          60.08519352595831
        ]
      }
    },
    {
      "type": "Feature",
      "properties": {
        "id": "spb_parnas_+2_+2_2b4fc559_large_oks_cp_2",
        "object_type": "oks_connection_point",
        "flow_tph": 20.0,
        "case_id": "spb_parnas_+2_+2_2b4fc559_large_oks",
        "consumer_role": "osm_building_heat_demand_proxy",
        "source_building_osm_id": 1267112262,
        "source_building_osm_type": "way",
        "source_building_name": "",
        "source_building_tags": {
          "building": "yes"
        },
        "footprint_area_m2": 431.14,
        "flow_basis": "synthetic_proxy_from_osm_footprint_area",
        "stress_bucket": "large_oks"
      },
      "geometry": {
        "type": "Point",
        "coordinates": [
          30.374252098603904,
          60.085156770808645
        ]
      }
    },
    {
      "type": "Feature",
      "properties": {
        "id": "spb_parnas_+2_+2_2b4fc559_large_oks_cp_3",
        "object_type": "oks_connection_point",
        "flow_tph": 20.0,
        "case_id": "spb_parnas_+2_+2_2b4fc559_large_oks",
        "consumer_role": "osm_building_heat_demand_proxy",
        "source_building_osm_id": 1267112266,
        "source_building_osm_type": "way",
        "source_building_name": "",
        "source_building_tags": {
          "building": "roof"
        },
        "footprint_area_m2": 177.98,
        "flow_basis": "synthetic_proxy_from_osm_footprint_area",
        "stress_bucket": "large_oks"
      },
      "geometry": {
        "type": "Point",
        "coordinates": [
          30.37338547168431,
          60.085345444423396
        ]
      }
    },
    {
      "type": "Feature",
      "properties": {
        "id": "spb_parnas_+2_+2_2b4fc559_large_oks_cp_4",
        "object_type": "oks_connection_point",
        "flow_tph": 20.0,
        "case_id": "spb_parnas_+2_+2_2b4fc559_large_oks",
        "consumer_role": "osm_building_heat_demand_proxy",
        "source_building_osm_id": 1267112268,
        "source_building_osm_type": "way",
        "source_building_name": "",
        "source_building_tags": {
          "building": "yes"
        },
        "footprint_area_m2": 61.49,
        "flow_basis": "synthetic_proxy_from_osm_footprint_area",
        "stress_bucket": "large_oks"
      },
      "geometry": {
        "type": "Point",
        "coordinates": [
          30.37337565,
          60.0855083
        ]
      }
    }
  ]
}