{
  "type": "FeatureCollection",
  "name": "moscow_nekrasovka_-1_-2_66ac3dc4_large_oks",
  "crs": {
    "type": "name",
    "properties": {
      "name": "EPSG:4326"
    }
  },
  "metadata": {
    "dataset_version": "osm_building_anchored_routing_scenes_v3",
    "parent_scene_id": "moscow_nekrasovka_-1_-2_66ac3dc4",
    "split": "train",
    "city": "Москва Некрасовка",
    "seed": "moscow_nekrasovka",
    "research_bucket": "large_oks",
    "source_research_bucket": "separate_pipes",
    "research_bucket_is_ground_truth": false,
    "bbox_south_west_north_east": [
      55.6960169,
      37.900506,
      55.6987118,
      37.905288
    ],
    "real_data_source": "OpenStreetMap via Overpass API",
    "source_file": "data/real_geojson_places/separate_pipes/070_moscow_nekrasovka_-1_-2_66ac3dc4.geojson",
    "real_layers": [
      "restrictions",
      "consumer_building_footprints"
    ],
    "synthetic_layers": [
      "source",
      "heat_network",
      "heat_chamber",
      "heat_demand"
    ],
    "consumer_selection": "deterministic points inside real OSM building footprints",
    "flow_model": "synthetic proxy derived from building footprint area; not metered demand",
    "note": "OSM buildings anchor consumers; heat demand and seed network are synthetic proxies."
  },
  "features": [
    {
      "type": "Feature",
      "properties": {
        "id": "moscow_nekrasovka_-1_-2_66ac3dc4_large_oks_osm_way_28327913_1",
        "object_type": "restriction",
        "restriction_type": "road",
        "name": "улица Воинов-Интернационалистов",
        "osm_kind": "major_road",
        "osm_id": 28327913,
        "osm_type": "way",
        "osm_tags": {
          "highway": "secondary",
          "name": "улица Воинов-Интернационалистов"
        },
        "case_id": "moscow_nekrasovka_-1_-2_66ac3dc4_large_oks"
      },
      "geometry": {
        "type": "LineString",
        "coordinates": [
          [
            37.899478,
            55.6979539
          ],
          [
            37.8996283,
            55.6978632
          ],
          [
            37.8997272,
            55.6977808
          ],
          [
            37.8998664,
            55.697641
          ],
          [
            37.900324,
            55.6971457
          ],
          [
            37.9005405,
            55.6969114
          ],
          [
            37.900632,
            55.6968016
          ],
          [
            37.9006802,
            55.6967469
          ],
          [
            37.9007863,
            55.6966266
          ],
          [
            37.9009187,
            55.6964782
          ],
          [
            37.9012512,
            55.696095
          ],
          [
            37.9012709,
            55.6960724
          ],
          [
            37.9014817,
            55.6958314
          ],
          [
            37.9017536,
            55.6955254
          ],
          [
            37.9018829,
            55.6953754
          ],
          [
            37.9020415,
            55.6952012
          ],
          [
            37.9022923,
            55.6949164
          ],
          [
            37.9024839,
            55.6947219
          ],
          [
            37.902605,
            55.6946094
          ],
          [
            37.9026967,
            55.694528
          ],
          [
            37.9028023,
            55.6944544
          ],
          [
            37.9029023,
            55.6943903
          ],
          [
            37.9030928,
            55.6942784
          ],
          [
            37.9032103,
            55.6942132
          ],
          [
            37.9035433,
            55.6940282
          ],
          [
            37.9038054,
            55.6939037
          ],
          [
            37.9039094,
            55.6938474
          ],
          [
            37.9041296,
            55.6937247
          ],
          [
            37.9048567,
            55.6933342
          ],
          [
            37.90555,
            55.6929586
          ],
          [
            37.9057427,
            55.6928485
          ],
          [
            37.90601,
            55.6926959
          ],
          [
            37.9062867,
            55.6925375
          ]
        ]
      }
    },
    {
      "type": "Feature",
      "properties": {
        "id": "moscow_nekrasovka_-1_-2_66ac3dc4_large_oks_osm_way_35267186_2",
        "object_type": "restriction",
        "restriction_type": "oks",
        "name": "",
        "osm_kind": "building",
        "osm_id": 35267186,
        "osm_type": "way",
        "osm_tags": {
          "building": "apartments"
        },
        "case_id": "moscow_nekrasovka_-1_-2_66ac3dc4_large_oks",
        "selected_as_heat_demand_proxy": true,
        "connection_point_id": "moscow_nekrasovka_-1_-2_66ac3dc4_large_oks_cp_1"
      },
      "geometry": {
        "type": "Polygon",
        "coordinates": [
          [
            [
              37.9036848,
              55.6960457
            ],
            [
              37.903565,
              55.6961809
            ],
            [
              37.9034453,
              55.6963162
            ],
            [
              37.9032996,
              55.6964807
            ],
            [
              37.9031931,
              55.696601
            ],
            [
              37.9034058,
              55.6966608
            ],
            [
              37.9038975,
              55.6961055
            ],
            [
              37.9036848,
              55.6960457
            ]
          ]
        ]
      }
    },
    {
      "type": "Feature",
      "properties": {
        "id": "moscow_nekrasovka_-1_-2_66ac3dc4_large_oks_osm_way_35267218_3",
        "object_type": "restriction",
        "restriction_type": "oks",
        "name": "",
        "osm_kind": "building",
        "osm_id": 35267218,
        "osm_type": "way",
        "osm_tags": {
          "building": "apartments"
        },
        "case_id": "moscow_nekrasovka_-1_-2_66ac3dc4_large_oks"
      },
      "geometry": {
        "type": "Polygon",
        "coordinates": [
          [
            [
              37.9013586,
              55.6981322
            ],
            [
              37.9015408,
              55.6981837
            ],
            [
              37.9021939,
              55.6974498
            ],
            [
              37.9020117,
              55.6973983
            ],
            [
              37.9019268,
              55.6974937
            ],
            [
              37.9017741,
              55.6976653
            ],
            [
              37.9016322,
              55.6978248
            ],
            [
              37.9014515,
              55.6980278
            ],
            [
              37.9013586,
              55.6981322
            ]
          ]
        ]
      }
    },
    {
      "type": "Feature",
      "properties": {
        "id": "moscow_nekrasovka_-1_-2_66ac3dc4_large_oks_osm_way_39467191_4",
        "object_type": "restriction",
        "restriction_type": "oks",
        "name": "",
        "osm_kind": "building",
        "osm_id": 39467191,
        "osm_type": "way",
        "osm_tags": {
          "building": "yes"
        },
        "case_id": "moscow_nekrasovka_-1_-2_66ac3dc4_large_oks"
      },
      "geometry": {
        "type": "Polygon",
        "coordinates": [
          [
            [
              37.9057683,
              55.6960444
            ],
            [
              37.9055268,
              55.6960406
            ],
            [
              37.9055067,
              55.6964429
            ],
            [
              37.9052285,
              55.6964385
            ],
            [
              37.9052317,
              55.6963748
            ],
            [
              37.9051041,
              55.6963728
            ],
            [
              37.9051069,
              55.6963166
            ],
            [
              37.9049544,
              55.6963142
            ],
            [
              37.9048019,
              55.6963118
            ],
            [
              37.9047992,
              55.6963659
            ],
            [
              37.9045808,
              55.6963624
            ],
            [
              37.9045647,
              55.696685
            ],
            [
              37.9052189,
              55.6966954
            ],
            [
              37.9052283,
              55.6965059
            ],
            [
              37.9055044,
              55.6965103
            ],
            [
              37.9054906,
              55.6967871
            ],
            [
              37.9057311,
              55.6967909
            ],
            [
              37.9057683,
              55.6960444
            ]
          ]
        ]
      }
    },
    {
      "type": "Feature",
      "properties": {
        "id": "moscow_nekrasovka_-1_-2_66ac3dc4_large_oks_osm_way_41151062_5",
        "object_type": "restriction",
        "restriction_type": "oks",
        "name": "",
        "osm_kind": "building",
        "osm_id": 41151062,
        "osm_type": "way",
        "osm_tags": {
          "building": "apartments"
        },
        "case_id": "moscow_nekrasovka_-1_-2_66ac3dc4_large_oks"
      },
      "geometry": {
        "type": "Polygon",
        "coordinates": [
          [
            [
              37.9004502,
              55.6962462
            ],
            [
              37.9004618,
              55.6961293
            ],
            [
              37.900481,
              55.695936
            ],
            [
              37.9004944,
              55.6958009
            ],
            [
              37.9007035,
              55.6958075
            ],
            [
              37.9006594,
              55.6962528
            ],
            [
              37.9004502,
              55.6962462
            ]
          ]
        ]
      }
    },
    {
      "type": "Feature",
      "properties": {
        "id": "moscow_nekrasovka_-1_-2_66ac3dc4_large_oks_osm_way_46595737_6",
        "object_type": "restriction",
        "restriction_type": "oks",
        "name": "",
        "osm_kind": "building",
        "osm_id": 46595737,
        "osm_type": "way",
        "osm_tags": {
          "building": "apartments"
        },
        "case_id": "moscow_nekrasovka_-1_-2_66ac3dc4_large_oks"
      },
      "geometry": {
        "type": "Polygon",
        "coordinates": [
          [
            [
              37.9000677,
              55.698234
            ],
            [
              37.901288,
              55.6985779
            ],
            [
              37.9011863,
              55.6986925
            ],
            [
              37.899966,
              55.6983486
            ],
            [
              37.9000677,
              55.698234
            ]
          ]
        ]
      }
    },
    {
      "type": "Feature",
      "properties": {
        "id": "moscow_nekrasovka_-1_-2_66ac3dc4_large_oks_osm_way_48536371_7",
        "object_type": "restriction",
        "restriction_type": "road",
        "name": "",
        "osm_kind": "road",
        "osm_id": 48536371,
        "osm_type": "way",
        "osm_tags": {
          "highway": "service"
        },
        "case_id": "moscow_nekrasovka_-1_-2_66ac3dc4_large_oks"
      },
      "geometry": {
        "type": "LineString",
        "coordinates": [
          [
            37.9023055,
            55.6987327
          ],
          [
            37.9023534,
            55.698701
          ],
          [
            37.9024701,
            55.698624
          ],
          [
            37.9025481,
            55.6985357
          ],
          [
            37.9026861,
            55.6983795
          ],
          [
            37.9033101,
            55.6976732
          ],
          [
            37.9038465,
            55.6976309
          ]
        ]
      }
    },
    {
      "type": "Feature",
      "properties": {
        "id": "moscow_nekrasovka_-1_-2_66ac3dc4_large_oks_osm_way_48536372_8",
        "object_type": "restriction",
        "restriction_type": "road",
        "name": "",
        "osm_kind": "road",
        "osm_id": 48536372,
        "osm_type": "way",
        "osm_tags": {
          "highway": "service"
        },
        "case_id": "moscow_nekrasovka_-1_-2_66ac3dc4_large_oks"
      },
      "geometry": {
        "type": "LineString",
        "coordinates": [
          [
            37.9038365,
            55.6975229
          ],
          [
            37.9038465,
            55.6976309
          ],
          [
            37.9054568,
            55.6980753
          ]
        ]
      }
    },
    {
      "type": "Feature",
      "properties": {
        "id": "moscow_nekrasovka_-1_-2_66ac3dc4_large_oks_osm_way_48536373_9",
        "object_type": "restriction",
        "restriction_type": "road",
        "name": "",
        "osm_kind": "road",
        "osm_id": 48536373,
        "osm_type": "way",
        "osm_tags": {
          "highway": "service"
        },
        "case_id": "moscow_nekrasovka_-1_-2_66ac3dc4_large_oks"
      },
      "geometry": {
        "type": "LineString",
        "coordinates": [
          [
            37.9038365,
            55.6975229
          ],
          [
            37.9040331,
            55.6973985
          ],
          [
            37.9045423,
            55.6973892
          ],
          [
            37.9058331,
            55.6977354
          ],
          [
            37.905999,
            55.6977799
          ],
          [
            37.9058473,
            55.6979193
          ],
          [
            37.9056471,
            55.6981031
          ],
          [
            37.9061539,
            55.6982606
          ],
          [
            37.9062911,
            55.6983468
          ]
        ]
      }
    },
    {
      "type": "Feature",
      "properties": {
        "id": "moscow_nekrasovka_-1_-2_66ac3dc4_large_oks_osm_way_49125965_10",
        "object_type": "restriction",
        "restriction_type": "road",
        "name": "",
        "osm_kind": "road",
        "osm_id": 49125965,
        "osm_type": "way",
        "osm_tags": {
          "highway": "service"
        },
        "case_id": "moscow_nekrasovka_-1_-2_66ac3dc4_large_oks"
      },
      "geometry": {
        "type": "LineString",
        "coordinates": [
          [
            37.9038365,
            55.6975229
          ],
          [
            37.9021099,
            55.6970156
          ],
          [
            37.9017192,
            55.6969008
          ],
          [
            37.9016798,
            55.6968892
          ],
          [
            37.9011468,
            55.6967326
          ],
          [
            37.9009864,
            55.6966854
          ],
          [
            37.9008558,
            55.696647
          ],
          [
            37.9007863,
            55.6966266
          ]
        ]
      }
    },
    {
      "type": "Feature",
      "properties": {
        "id": "moscow_nekrasovka_-1_-2_66ac3dc4_large_oks_osm_way_49125966_11",
        "object_type": "restriction",
        "restriction_type": "road",
        "name": "",
        "osm_kind": "road",
        "osm_id": 49125966,
        "osm_type": "way",
        "osm_tags": {
          "highway": "service"
        },
        "case_id": "moscow_nekrasovka_-1_-2_66ac3dc4_large_oks"
      },
      "geometry": {
        "type": "LineString",
        "coordinates": [
          [
            37.9033101,
            55.6976732
          ],
          [
            37.9032135,
            55.6976472
          ],
          [
            37.9028658,
            55.6975536
          ],
          [
            37.9025204,
            55.6974652
          ],
          [
            37.9023496,
            55.6974215
          ]
        ]
      }
    },
    {
      "type": "Feature",
      "properties": {
        "id": "moscow_nekrasovka_-1_-2_66ac3dc4_large_oks_osm_way_53788211_12",
        "object_type": "restriction",
        "restriction_type": "road",
        "name": "",
        "osm_kind": "road",
        "osm_id": 53788211,
        "osm_type": "way",
        "osm_tags": {
          "highway": "service"
        },
        "case_id": "moscow_nekrasovka_-1_-2_66ac3dc4_large_oks"
      },
      "geometry": {
        "type": "LineString",
        "coordinates": [
          [
            37.9026861,
            55.6983795
          ],
          [
            37.9046594,
            55.6989597
          ],
          [
            37.9062911,
            55.6983468
          ],
          [
            37.9069125,
            55.6981133
          ],
          [
            37.9071807,
            55.6983249
          ],
          [
            37.904806,
            55.6992227
          ],
          [
            37.904638,
            55.6992862
          ],
          [
            37.9024701,
            55.698624
          ]
        ]
      }
    },
    {
      "type": "Feature",
      "properties": {
        "id": "moscow_nekrasovka_-1_-2_66ac3dc4_large_oks_osm_way_53789458_13",
        "object_type": "restriction",
        "restriction_type": "oks",
        "name": "",
        "osm_kind": "building",
        "osm_id": 53789458,
        "osm_type": "way",
        "osm_tags": {
          "building": "kindergarten"
        },
        "case_id": "moscow_nekrasovka_-1_-2_66ac3dc4_large_oks",
        "selected_as_heat_demand_proxy": true,
        "connection_point_id": "moscow_nekrasovka_-1_-2_66ac3dc4_large_oks_cp_4"
      },
      "geometry": {
        "type": "Polygon",
        "coordinates": [
          [
            [
              37.9037576,
              55.6982955
            ],
            [
              37.9036057,
              55.6980823
            ],
            [
              37.9038443,
              55.6980283
            ],
            [
              37.9038895,
              55.6980918
            ],
            [
              37.903944,
              55.6980795
            ],
            [
              37.9040054,
              55.6980656
            ],
            [
              37.9039518,
              55.6979904
            ],
            [
              37.9041935,
              55.6979356
            ],
            [
              37.904346,
              55.6981496
            ],
            [
              37.9041499,
              55.698194
            ],
            [
              37.904096,
              55.6981184
            ],
            [
              37.9038936,
              55.6981642
            ],
            [
              37.9039554,
              55.6982508
            ],
            [
              37.9037576,
              55.6982955
            ]
          ]
        ]
      }
    },
    {
      "type": "Feature",
      "properties": {
        "id": "moscow_nekrasovka_-1_-2_66ac3dc4_large_oks_osm_way_53789459_14",
        "object_type": "restriction",
        "restriction_type": "oks",
        "name": "",
        "osm_kind": "building",
        "osm_id": 53789459,
        "osm_type": "way",
        "osm_tags": {
          "building": "kindergarten"
        },
        "case_id": "moscow_nekrasovka_-1_-2_66ac3dc4_large_oks"
      },
      "geometry": {
        "type": "Polygon",
        "coordinates": [
          [
            [
              37.9044466,
              55.6982907
            ],
            [
              37.9045115,
              55.6983817
            ],
            [
              37.9046794,
              55.6983437
            ],
            [
              37.9046321,
              55.6982775
            ],
            [
              37.9048309,
              55.6982325
            ],
            [
              37.9049731,
              55.6984319
            ],
            [
              37.9047776,
              55.6984761
            ],
            [
              37.9047216,
              55.6983975
            ],
            [
              37.9045747,
              55.6984307
            ],
            [
              37.9046387,
              55.6985206
            ],
            [
              37.9044181,
              55.6985705
            ],
            [
              37.9042504,
              55.6983351
            ],
            [
              37.9044466,
              55.6982907
            ]
          ]
        ]
      }
    },
    {
      "type": "Feature",
      "properties": {
        "id": "moscow_nekrasovka_-1_-2_66ac3dc4_large_oks_osm_way_55612094_15",
        "object_type": "restriction",
        "restriction_type": "oks",
        "name": "",
        "osm_kind": "building",
        "osm_id": 55612094,
        "osm_type": "way",
        "osm_tags": {
          "building": "kindergarten"
        },
        "case_id": "moscow_nekrasovka_-1_-2_66ac3dc4_large_oks"
      },
      "geometry": {
        "type": "Polygon",
        "coordinates": [
          [
            [
              37.9044466,
              55.6982907
            ],
            [
              37.9042504,
              55.6983351
            ],
            [
              37.9041499,
              55.698194
            ],
            [
              37.904346,
              55.6981496
            ],
            [
              37.9044466,
              55.6982907
            ]
          ]
        ]
      }
    },
    {
      "type": "Feature",
      "properties": {
        "id": "moscow_nekrasovka_-1_-2_66ac3dc4_large_oks_osm_way_109731303_16",
        "object_type": "restriction",
        "restriction_type": "road",
        "name": "улица Попова",
        "osm_kind": "road",
        "osm_id": 109731303,
        "osm_type": "way",
        "osm_tags": {
          "highway": "residential",
          "name": "улица Попова"
        },
        "case_id": "moscow_nekrasovka_-1_-2_66ac3dc4_large_oks"
      },
      "geometry": {
        "type": "LineString",
        "coordinates": [
          [
            37.899478,
            55.6979539
          ],
          [
            37.8996998,
            55.6980159
          ],
          [
            37.900977,
            55.698373
          ],
          [
            37.9013925,
            55.6984892
          ],
          [
            37.9015524,
            55.6985319
          ],
          [
            37.901855,
            55.6986127
          ]
        ]
      }
    },
    {
      "type": "Feature",
      "properties": {
        "id": "moscow_nekrasovka_-1_-2_66ac3dc4_large_oks_osm_way_137186665_17",
        "object_type": "restriction",
        "restriction_type": "oks",
        "name": "",
        "osm_kind": "building",
        "osm_id": 137186665,
        "osm_type": "way",
        "osm_tags": {
          "building": "yes"
        },
        "case_id": "moscow_nekrasovka_-1_-2_66ac3dc4_large_oks"
      },
      "geometry": {
        "type": "Polygon",
        "coordinates": [
          [
            [
              37.9041546,
              55.6973226
            ],
            [
              37.9042555,
              55.6973555
            ],
            [
              37.9043387,
              55.6972743
            ],
            [
              37.9042378,
              55.6972415
            ],
            [
              37.9041546,
              55.6973226
            ]
          ]
        ]
      }
    },
    {
      "type": "Feature",
      "properties": {
        "id": "moscow_nekrasovka_-1_-2_66ac3dc4_large_oks_osm_way_137186667_18",
        "object_type": "restriction",
        "restriction_type": "oks",
        "name": "",
        "osm_kind": "building",
        "osm_id": 137186667,
        "osm_type": "way",
        "osm_tags": {
          "building": "yes"
        },
        "case_id": "moscow_nekrasovka_-1_-2_66ac3dc4_large_oks"
      },
      "geometry": {
        "type": "Polygon",
        "coordinates": [
          [
            [
              37.9028718,
              55.6974591
            ],
            [
              37.9032081,
              55.6975594
            ],
            [
              37.9032944,
              55.6974675
            ],
            [
              37.9029581,
              55.6973672
            ],
            [
              37.9028718,
              55.6974591
            ]
          ]
        ]
      }
    },
    {
      "type": "Feature",
      "properties": {
        "id": "moscow_nekrasovka_-1_-2_66ac3dc4_large_oks_osm_way_137186670_19",
        "object_type": "restriction",
        "restriction_type": "oks",
        "name": "",
        "osm_kind": "building",
        "osm_id": 137186670,
        "osm_type": "way",
        "osm_tags": {
          "building": "yes"
        },
        "case_id": "moscow_nekrasovka_-1_-2_66ac3dc4_large_oks"
      },
      "geometry": {
        "type": "Polygon",
        "coordinates": [
          [
            [
              37.9011739,
              55.6968581
            ],
            [
              37.9011256,
              55.6969126
            ],
            [
              37.9013168,
              55.6969665
            ],
            [
              37.9013651,
              55.696912
            ],
            [
              37.9011739,
              55.6968581
            ]
          ]
        ]
      }
    },
    {
      "type": "Feature",
      "properties": {
        "id": "moscow_nekrasovka_-1_-2_66ac3dc4_large_oks_osm_way_137186672_20",
        "object_type": "restriction",
        "restriction_type": "oks",
        "name": "",
        "osm_kind": "building",
        "osm_id": 137186672,
        "osm_type": "way",
        "osm_tags": {
          "building": "yes"
        },
        "case_id": "moscow_nekrasovka_-1_-2_66ac3dc4_large_oks"
      },
      "geometry": {
        "type": "Polygon",
        "coordinates": [
          [
            [
              37.9014914,
              55.6969957
            ],
            [
              37.9014317,
              55.697068
            ],
            [
              37.9020334,
              55.6972259
            ],
            [
              37.9020931,
              55.6971537
            ],
            [
              37.9014914,
              55.6969957
            ]
          ]
        ]
      }
    },
    {
      "type": "Feature",
      "properties": {
        "id": "moscow_nekrasovka_-1_-2_66ac3dc4_large_oks_osm_way_180737546_21",
        "object_type": "restriction",
        "restriction_type": "oks",
        "name": "",
        "osm_kind": "building",
        "osm_id": 180737546,
        "osm_type": "way",
        "osm_tags": {
          "building": "apartments"
        },
        "case_id": "moscow_nekrasovka_-1_-2_66ac3dc4_large_oks"
      },
      "geometry": {
        "type": "Polygon",
        "coordinates": [
          [
            [
              37.901348,
              55.6966649
            ],
            [
              37.9016764,
              55.6967586
            ],
            [
              37.9017874,
              55.6966351
            ],
            [
              37.9019466,
              55.6964577
            ],
            [
              37.902159,
              55.6962213
            ],
            [
              37.9023681,
              55.6959885
            ],
            [
              37.9025154,
              55.6958244
            ],
            [
              37.902187,
              55.6957307
            ],
            [
              37.901348,
              55.6966649
            ]
          ]
        ]
      }
    },
    {
      "type": "Feature",
      "properties": {
        "id": "moscow_nekrasovka_-1_-2_66ac3dc4_large_oks_osm_way_180737548_22",
        "object_type": "restriction",
        "restriction_type": "oks",
        "name": "",
        "osm_kind": "building",
        "osm_id": 180737548,
        "osm_type": "way",
        "osm_tags": {
          "building": "yes"
        },
        "case_id": "moscow_nekrasovka_-1_-2_66ac3dc4_large_oks"
      },
      "geometry": {
        "type": "Polygon",
        "coordinates": [
          [
            [
              37.9024058,
              55.696488
            ],
            [
              37.902534,
              55.6963487
            ],
            [
              37.9028768,
              55.6964489
            ],
            [
              37.9027486,
              55.6965882
            ],
            [
              37.9024058,
              55.696488
            ]
          ]
        ]
      }
    },
    {
      "type": "Feature",
      "properties": {
        "id": "moscow_nekrasovka_-1_-2_66ac3dc4_large_oks_osm_way_180737549_23",
        "object_type": "restriction",
        "restriction_type": "oks",
        "name": "",
        "osm_kind": "building",
        "osm_id": 180737549,
        "osm_type": "way",
        "osm_tags": {
          "building": "apartments"
        },
        "case_id": "moscow_nekrasovka_-1_-2_66ac3dc4_large_oks",
        "selected_as_heat_demand_proxy": true,
        "connection_point_id": "moscow_nekrasovka_-1_-2_66ac3dc4_large_oks_cp_3"
      },
      "geometry": {
        "type": "Polygon",
        "coordinates": [
          [
            [
              37.9040482,
              55.6975908
            ],
            [
              37.9041521,
              55.6974722
            ],
            [
              37.9057012,
              55.6979035
            ],
            [
              37.9055973,
              55.698022
            ],
            [
              37.9053208,
              55.697945
            ],
            [
              37.9049488,
              55.6978415
            ],
            [
              37.9045745,
              55.6977373
            ],
            [
              37.9042518,
              55.6976475
            ],
            [
              37.9040482,
              55.6975908
            ]
          ]
        ]
      }
    },
    {
      "type": "Feature",
      "properties": {
        "id": "moscow_nekrasovka_-1_-2_66ac3dc4_large_oks_osm_way_180737550_24",
        "object_type": "restriction",
        "restriction_type": "oks",
        "name": "",
        "osm_kind": "building",
        "osm_id": 180737550,
        "osm_type": "way",
        "osm_tags": {
          "building": "apartments"
        },
        "case_id": "moscow_nekrasovka_-1_-2_66ac3dc4_large_oks"
      },
      "geometry": {
        "type": "Polygon",
        "coordinates": [
          [
            [
              37.9026601,
              55.6986264
            ],
            [
              37.9027559,
              55.6985185
            ],
            [
              37.9046993,
              55.6990663
            ],
            [
              37.9046035,
              55.6991742
            ],
            [
              37.904408,
              55.6991191
            ],
            [
              37.9041119,
              55.6990356
            ],
            [
              37.9037965,
              55.6989467
            ],
            [
              37.9034542,
              55.6988502
            ],
            [
              37.9031345,
              55.6987601
            ],
            [
              37.902802,
              55.6986664
            ],
            [
              37.9026601,
              55.6986264
            ]
          ]
        ]
      }
    },
    {
      "type": "Feature",
      "properties": {
        "id": "moscow_nekrasovka_-1_-2_66ac3dc4_large_oks_osm_way_180737552_25",
        "object_type": "restriction",
        "restriction_type": "oks",
        "name": "",
        "osm_kind": "building",
        "osm_id": 180737552,
        "osm_type": "way",
        "osm_tags": {
          "building": "apartments"
        },
        "case_id": "moscow_nekrasovka_-1_-2_66ac3dc4_large_oks",
        "selected_as_heat_demand_proxy": true,
        "connection_point_id": "moscow_nekrasovka_-1_-2_66ac3dc4_large_oks_cp_2"
      },
      "geometry": {
        "type": "Polygon",
        "coordinates": [
          [
            [
              37.9023521,
              55.6969699
            ],
            [
              37.902426,
              55.6968857
            ],
            [
              37.9039448,
              55.6973095
            ],
            [
              37.9038709,
              55.6973937
            ],
            [
              37.9036408,
              55.6973295
            ],
            [
              37.9032817,
              55.6972293
            ],
            [
              37.9029119,
              55.6971261
            ],
            [
              37.902555,
              55.6970265
            ],
            [
              37.9023521,
              55.6969699
            ]
          ]
        ]
      }
    },
    {
      "type": "Feature",
      "properties": {
        "id": "moscow_nekrasovka_-1_-2_66ac3dc4_large_oks_osm_way_180737554_26",
        "object_type": "restriction",
        "restriction_type": "oks",
        "name": "",
        "osm_kind": "building",
        "osm_id": 180737554,
        "osm_type": "way",
        "osm_tags": {
          "building": "apartments"
        },
        "case_id": "moscow_nekrasovka_-1_-2_66ac3dc4_large_oks"
      },
      "geometry": {
        "type": "Polygon",
        "coordinates": [
          [
            [
              37.9022032,
              55.6983863
            ],
            [
              37.9024134,
              55.6984451
            ],
            [
              37.902499,
              55.6983479
            ],
            [
              37.9026525,
              55.6981735
            ],
            [
              37.9028092,
              55.6979955
            ],
            [
              37.9029371,
              55.6978502
            ],
            [
              37.903065,
              55.697705
            ],
            [
              37.9028547,
              55.6976462
            ],
            [
              37.9022032,
              55.6983863
            ]
          ]
        ]
      }
    },
    {
      "type": "Feature",
      "properties": {
        "id": "moscow_nekrasovka_-1_-2_66ac3dc4_large_oks_osm_way_240410888_27",
        "object_type": "restriction",
        "restriction_type": "road",
        "name": "",
        "osm_kind": "road",
        "osm_id": 240410888,
        "osm_type": "way",
        "osm_tags": {
          "highway": "service"
        },
        "case_id": "moscow_nekrasovka_-1_-2_66ac3dc4_large_oks"
      },
      "geometry": {
        "type": "LineString",
        "coordinates": [
          [
            37.9028658,
            55.6975536
          ],
          [
            37.9020922,
            55.6984112
          ]
        ]
      }
    },
    {
      "type": "Feature",
      "properties": {
        "id": "moscow_nekrasovka_-1_-2_66ac3dc4_large_oks_osm_way_240410891_28",
        "object_type": "restriction",
        "restriction_type": "road",
        "name": "",
        "osm_kind": "road",
        "osm_id": 240410891,
        "osm_type": "way",
        "osm_tags": {
          "highway": "service"
        },
        "case_id": "moscow_nekrasovka_-1_-2_66ac3dc4_large_oks"
      },
      "geometry": {
        "type": "LineString",
        "coordinates": [
          [
            37.9015592,
            55.6972018
          ],
          [
            37.9008951,
            55.6979568
          ]
        ]
      }
    },
    {
      "type": "Feature",
      "properties": {
        "id": "moscow_nekrasovka_-1_-2_66ac3dc4_large_oks_osm_way_240410893_29",
        "object_type": "restriction",
        "restriction_type": "road",
        "name": "",
        "osm_kind": "road",
        "osm_id": 240410893,
        "osm_type": "way",
        "osm_tags": {
          "highway": "service"
        },
        "case_id": "moscow_nekrasovka_-1_-2_66ac3dc4_large_oks"
      },
      "geometry": {
        "type": "LineString",
        "coordinates": [
          [
            37.9023496,
            55.6974215
          ],
          [
            37.9019311,
            55.6973039
          ],
          [
            37.9017982,
            55.6972666
          ]
        ]
      }
    },
    {
      "type": "Feature",
      "properties": {
        "id": "moscow_nekrasovka_-1_-2_66ac3dc4_large_oks_osm_way_240410894_30",
        "object_type": "restriction",
        "restriction_type": "road",
        "name": "",
        "osm_kind": "road",
        "osm_id": 240410894,
        "osm_type": "way",
        "osm_tags": {
          "highway": "service"
        },
        "case_id": "moscow_nekrasovka_-1_-2_66ac3dc4_large_oks"
      },
      "geometry": {
        "type": "LineString",
        "coordinates": [
          [
            37.9026742,
            55.6957952
          ],
          [
            37.9016798,
            55.6968892
          ]
        ]
      }
    },
    {
      "type": "Feature",
      "properties": {
        "id": "moscow_nekrasovka_-1_-2_66ac3dc4_large_oks_osm_way_240410895_31",
        "object_type": "restriction",
        "restriction_type": "road",
        "name": "",
        "osm_kind": "road",
        "osm_id": 240410895,
        "osm_type": "way",
        "osm_tags": {
          "highway": "service"
        },
        "case_id": "moscow_nekrasovka_-1_-2_66ac3dc4_large_oks"
      },
      "geometry": {
        "type": "LineString",
        "coordinates": [
          [
            37.9023496,
            55.6974215
          ],
          [
            37.9015875,
            55.6982786
          ]
        ]
      }
    },
    {
      "type": "Feature",
      "properties": {
        "id": "moscow_nekrasovka_-1_-2_66ac3dc4_large_oks_osm_way_240410900_32",
        "object_type": "restriction",
        "restriction_type": "road",
        "name": "",
        "osm_kind": "road",
        "osm_id": 240410900,
        "osm_type": "way",
        "osm_tags": {
          "highway": "service"
        },
        "case_id": "moscow_nekrasovka_-1_-2_66ac3dc4_large_oks"
      },
      "geometry": {
        "type": "LineString",
        "coordinates": [
          [
            37.9017982,
            55.6972666
          ],
          [
            37.9015592,
            55.6972018
          ],
          [
            37.9013239,
            55.6971384
          ],
          [
            37.9009011,
            55.6970222
          ],
          [
            37.9006039,
            55.6969309
          ],
          [
            37.9005405,
            55.6969114
          ]
        ]
      }
    },
    {
      "type": "Feature",
      "properties": {
        "id": "moscow_nekrasovka_-1_-2_66ac3dc4_large_oks_osm_way_240410901_33",
        "object_type": "restriction",
        "restriction_type": "road",
        "name": "",
        "osm_kind": "road",
        "osm_id": 240410901,
        "osm_type": "way",
        "osm_tags": {
          "highway": "service"
        },
        "case_id": "moscow_nekrasovka_-1_-2_66ac3dc4_large_oks"
      },
      "geometry": {
        "type": "LineString",
        "coordinates": [
          [
            37.9050747,
            55.6946946
          ],
          [
            37.9046244,
            55.6948845
          ],
          [
            37.9045289,
            55.6949725
          ],
          [
            37.9044027,
            55.6951117
          ],
          [
            37.9041582,
            55.6953815
          ],
          [
            37.9040072,
            55.6955427
          ],
          [
            37.9036784,
            55.6959109
          ],
          [
            37.9030202,
            55.6966113
          ]
        ]
      }
    },
    {
      "type": "Feature",
      "properties": {
        "id": "moscow_nekrasovka_-1_-2_66ac3dc4_large_oks_osm_way_240410902_34",
        "object_type": "restriction",
        "restriction_type": "road",
        "name": "",
        "osm_kind": "road",
        "osm_id": 240410902,
        "osm_type": "way",
        "osm_tags": {
          "highway": "service"
        },
        "case_id": "moscow_nekrasovka_-1_-2_66ac3dc4_large_oks"
      },
      "geometry": {
        "type": "LineString",
        "coordinates": [
          [
            37.9017536,
            55.6955254
          ],
          [
            37.9018553,
            55.6955514
          ],
          [
            37.9020742,
            55.6956166
          ],
          [
            37.9026742,
            55.6957952
          ],
          [
            37.9030133,
            55.6958927
          ],
          [
            37.9032911,
            55.6958973
          ],
          [
            37.9033962,
            55.6958991
          ],
          [
            37.9036784,
            55.6959109
          ],
          [
            37.9040722,
            55.6960298
          ],
          [
            37.9041742,
            55.6960606
          ]
        ]
      }
    },
    {
      "type": "Feature",
      "properties": {
        "id": "moscow_nekrasovka_-1_-2_66ac3dc4_large_oks_osm_way_752829685_35",
        "object_type": "restriction",
        "restriction_type": "road",
        "name": "",
        "osm_kind": "road",
        "osm_id": 752829685,
        "osm_type": "way",
        "osm_tags": {
          "highway": "service"
        },
        "case_id": "moscow_nekrasovka_-1_-2_66ac3dc4_large_oks"
      },
      "geometry": {
        "type": "LineString",
        "coordinates": [
          [
            37.9015524,
            55.6985319
          ],
          [
            37.901511,
            55.6985901
          ],
          [
            37.9013485,
            55.6988188
          ],
          [
            37.9011206,
            55.6991846
          ],
          [
            37.9010617,
            55.6992791
          ],
          [
            37.9008552,
            55.6995669
          ],
          [
            37.9008048,
            55.6996371
          ],
          [
            37.9007354,
            55.6997652
          ],
          [
            37.9005733,
            55.7000646
          ],
          [
            37.9004484,
            55.7003767
          ],
          [
            37.9004382,
            55.7004273
          ],
          [
            37.9004449,
            55.7004769
          ],
          [
            37.9006882,
            55.700973
          ]
        ]
      }
    },
    {
      "type": "Feature",
      "properties": {
        "id": "moscow_nekrasovka_-1_-2_66ac3dc4_large_oks_osm_way_792586991_36",
        "object_type": "restriction",
        "restriction_type": "road",
        "name": "",
        "osm_kind": "road",
        "osm_id": 792586991,
        "osm_type": "way",
        "osm_tags": {
          "highway": "service"
        },
        "case_id": "moscow_nekrasovka_-1_-2_66ac3dc4_large_oks"
      },
      "geometry": {
        "type": "LineString",
        "coordinates": [
          [
            37.900632,
            55.6968016
          ],
          [
            37.9004346,
            55.6967524
          ],
          [
            37.9003795,
            55.6967364
          ],
          [
            37.8998609,
            55.6965924
          ],
          [
            37.8989838,
            55.6963534
          ],
          [
            37.8986999,
            55.6962683
          ]
        ]
      }
    },
    {
      "type": "Feature",
      "properties": {
        "id": "moscow_nekrasovka_-1_-2_66ac3dc4_large_oks_osm_way_792595120_37",
        "object_type": "restriction",
        "restriction_type": "road",
        "name": "",
        "osm_kind": "road",
        "osm_id": 792595120,
        "osm_type": "way",
        "osm_tags": {
          "highway": "footway"
        },
        "case_id": "moscow_nekrasovka_-1_-2_66ac3dc4_large_oks"
      },
      "geometry": {
        "type": "LineString",
        "coordinates": [
          [
            37.9020922,
            55.6984112
          ],
          [
            37.9017439,
            55.6983197
          ],
          [
            37.9015875,
            55.6982786
          ],
          [
            37.9011586,
            55.6981658
          ]
        ]
      }
    },
    {
      "type": "Feature",
      "properties": {
        "id": "moscow_nekrasovka_-1_-2_66ac3dc4_large_oks_osm_way_792595121_38",
        "object_type": "restriction",
        "restriction_type": "road",
        "name": "",
        "osm_kind": "road",
        "osm_id": 792595121,
        "osm_type": "way",
        "osm_tags": {
          "highway": "footway"
        },
        "case_id": "moscow_nekrasovka_-1_-2_66ac3dc4_large_oks"
      },
      "geometry": {
        "type": "LineString",
        "coordinates": [
          [
            37.9017439,
            55.6983197
          ],
          [
            37.9025204,
            55.6974652
          ]
        ]
      }
    },
    {
      "type": "Feature",
      "properties": {
        "id": "moscow_nekrasovka_-1_-2_66ac3dc4_large_oks_osm_way_792595122_39",
        "object_type": "restriction",
        "restriction_type": "road",
        "name": "",
        "osm_kind": "road",
        "osm_id": 792595122,
        "osm_type": "way",
        "osm_tags": {
          "highway": "service"
        },
        "case_id": "moscow_nekrasovka_-1_-2_66ac3dc4_large_oks"
      },
      "geometry": {
        "type": "LineString",
        "coordinates": [
          [
            37.9032135,
            55.6976472
          ],
          [
            37.9033633,
            55.6974785
          ]
        ]
      }
    },
    {
      "type": "Feature",
      "properties": {
        "id": "moscow_nekrasovka_-1_-2_66ac3dc4_large_oks_osm_way_792595123_40",
        "object_type": "restriction",
        "restriction_type": "road",
        "name": "",
        "osm_kind": "road",
        "osm_id": 792595123,
        "osm_type": "way",
        "osm_tags": {
          "highway": "service"
        },
        "case_id": "moscow_nekrasovka_-1_-2_66ac3dc4_large_oks"
      },
      "geometry": {
        "type": "LineString",
        "coordinates": [
          [
            37.9019311,
            55.6973039
          ],
          [
            37.9012607,
            55.6980575
          ],
          [
            37.9011586,
            55.6981658
          ],
          [
            37.900977,
            55.698373
          ]
        ]
      }
    },
    {
      "type": "Feature",
      "properties": {
        "id": "moscow_nekrasovka_-1_-2_66ac3dc4_large_oks_osm_way_792595124_41",
        "object_type": "restriction",
        "restriction_type": "road",
        "name": "",
        "osm_kind": "road",
        "osm_id": 792595124,
        "osm_type": "way",
        "osm_tags": {
          "highway": "service"
        },
        "case_id": "moscow_nekrasovka_-1_-2_66ac3dc4_large_oks"
      },
      "geometry": {
        "type": "LineString",
        "coordinates": [
          [
            37.9012607,
            55.6980575
          ],
          [
            37.9008951,
            55.6979568
          ]
        ]
      }
    },
    {
      "type": "Feature",
      "properties": {
        "id": "moscow_nekrasovka_-1_-2_66ac3dc4_large_oks_osm_way_792595125_42",
        "object_type": "restriction",
        "restriction_type": "road",
        "name": "",
        "osm_kind": "road",
        "osm_id": 792595125,
        "osm_type": "way",
        "osm_tags": {
          "highway": "service"
        },
        "case_id": "moscow_nekrasovka_-1_-2_66ac3dc4_large_oks"
      },
      "geometry": {
        "type": "LineString",
        "coordinates": [
          [
            37.900324,
            55.6971457
          ],
          [
            37.9003785,
            55.697171
          ],
          [
            37.9005263,
            55.6972397
          ],
          [
            37.9005543,
            55.6972818
          ],
          [
            37.9005449,
            55.6973108
          ],
          [
            37.9002227,
            55.6976871
          ]
        ]
      }
    },
    {
      "type": "Feature",
      "properties": {
        "id": "moscow_nekrasovka_-1_-2_66ac3dc4_large_oks_osm_way_792595126_43",
        "object_type": "restriction",
        "restriction_type": "road",
        "name": "",
        "osm_kind": "road",
        "osm_id": 792595126,
        "osm_type": "way",
        "osm_tags": {
          "highway": "footway"
        },
        "case_id": "moscow_nekrasovka_-1_-2_66ac3dc4_large_oks"
      },
      "geometry": {
        "type": "LineString",
        "coordinates": [
          [
            37.9013239,
            55.6971384
          ],
          [
            37.9014743,
            55.6969581
          ],
          [
            37.9015443,
            55.6969291
          ],
          [
            37.9016237,
            55.6969134
          ],
          [
            37.9017192,
            55.6969008
          ]
        ]
      }
    },
    {
      "type": "Feature",
      "properties": {
        "id": "moscow_nekrasovka_-1_-2_66ac3dc4_large_oks_osm_way_792595127_44",
        "object_type": "restriction",
        "restriction_type": "road",
        "name": "",
        "osm_kind": "road",
        "osm_id": 792595127,
        "osm_type": "way",
        "osm_tags": {
          "highway": "service"
        },
        "case_id": "moscow_nekrasovka_-1_-2_66ac3dc4_large_oks"
      },
      "geometry": {
        "type": "LineString",
        "coordinates": [
          [
            37.9021099,
            55.6970156
          ],
          [
            37.9024292,
            55.6966869
          ],
          [
            37.9025031,
            55.6966556
          ],
          [
            37.9026202,
            55.6966625
          ],
          [
            37.9028671,
            55.6967345
          ],
          [
            37.903344,
            55.6968847
          ],
          [
            37.9040683,
            55.6971071
          ],
          [
            37.9040806,
            55.6971453
          ],
          [
            37.9040331,
            55.6973985
          ]
        ]
      }
    },
    {
      "type": "Feature",
      "properties": {
        "id": "moscow_nekrasovka_-1_-2_66ac3dc4_large_oks_osm_way_792595128_45",
        "object_type": "restriction",
        "restriction_type": "road",
        "name": "",
        "osm_kind": "road",
        "osm_id": 792595128,
        "osm_type": "way",
        "osm_tags": {
          "highway": "footway"
        },
        "case_id": "moscow_nekrasovka_-1_-2_66ac3dc4_large_oks"
      },
      "geometry": {
        "type": "LineString",
        "coordinates": [
          [
            37.9030202,
            55.6966113
          ],
          [
            37.9028671,
            55.6967345
          ]
        ]
      }
    },
    {
      "type": "Feature",
      "properties": {
        "id": "moscow_nekrasovka_-1_-2_66ac3dc4_large_oks_osm_way_792595129_46",
        "object_type": "restriction",
        "restriction_type": "road",
        "name": "",
        "osm_kind": "road",
        "osm_id": 792595129,
        "osm_type": "way",
        "osm_tags": {
          "highway": "service"
        },
        "case_id": "moscow_nekrasovka_-1_-2_66ac3dc4_large_oks"
      },
      "geometry": {
        "type": "LineString",
        "coordinates": [
          [
            37.9040722,
            55.6960298
          ],
          [
            37.9034566,
            55.6967402
          ],
          [
            37.9034336,
            55.6967667
          ]
        ]
      }
    },
    {
      "type": "Feature",
      "properties": {
        "id": "moscow_nekrasovka_-1_-2_66ac3dc4_large_oks_osm_way_792595130_47",
        "object_type": "restriction",
        "restriction_type": "road",
        "name": "",
        "osm_kind": "road",
        "osm_id": 792595130,
        "osm_type": "way",
        "osm_tags": {
          "highway": "service"
        },
        "case_id": "moscow_nekrasovka_-1_-2_66ac3dc4_large_oks"
      },
      "geometry": {
        "type": "LineString",
        "coordinates": [
          [
            37.9030202,
            55.6966113
          ],
          [
            37.9034566,
            55.6967402
          ]
        ]
      }
    },
    {
      "type": "Feature",
      "properties": {
        "id": "moscow_nekrasovka_-1_-2_66ac3dc4_large_oks_osm_way_792595131_48",
        "object_type": "restriction",
        "restriction_type": "road",
        "name": "",
        "osm_kind": "road",
        "osm_id": 792595131,
        "osm_type": "way",
        "osm_tags": {
          "highway": "footway"
        },
        "case_id": "moscow_nekrasovka_-1_-2_66ac3dc4_large_oks"
      },
      "geometry": {
        "type": "LineString",
        "coordinates": [
          [
            37.9034336,
            55.6967667
          ],
          [
            37.903344,
            55.6968847
          ]
        ]
      }
    },
    {
      "type": "Feature",
      "properties": {
        "id": "moscow_nekrasovka_-1_-2_66ac3dc4_large_oks_osm_way_792595132_49",
        "object_type": "restriction",
        "restriction_type": "road",
        "name": "",
        "osm_kind": "road",
        "osm_id": 792595132,
        "osm_type": "way",
        "osm_tags": {
          "highway": "service"
        },
        "case_id": "moscow_nekrasovka_-1_-2_66ac3dc4_large_oks"
      },
      "geometry": {
        "type": "LineString",
        "coordinates": [
          [
            37.9041742,
            55.6960606
          ],
          [
            37.9042518,
            55.6960857
          ],
          [
            37.9044159,
            55.6961343
          ],
          [
            37.9044443,
            55.6961549
          ],
          [
            37.9044281,
            55.6966865
          ],
          [
            37.9044525,
            55.6967231
          ],
          [
            37.9044891,
            55.6967437
          ],
          [
            37.9052859,
            55.6967598
          ],
          [
            37.905355,
            55.6967644
          ],
          [
            37.9053794,
            55.6968056
          ],
          [
            37.9053672,
            55.6969477
          ],
          [
            37.9057819,
            55.697163
          ],
          [
            37.9058307,
            55.6971859
          ],
          [
            37.9058307,
            55.6972043
          ],
          [
            37.9058063,
            55.6972547
          ],
          [
            37.9058225,
            55.6973876
          ],
          [
            37.9058754,
            55.6974334
          ],
          [
            37.905861,
            55.6976
          ],
          [
            37.9058331,
            55.6977354
          ]
        ]
      }
    },
    {
      "type": "Feature",
      "properties": {
        "id": "moscow_nekrasovka_-1_-2_66ac3dc4_large_oks_osm_way_792595155_50",
        "object_type": "restriction",
        "restriction_type": "road",
        "name": "",
        "osm_kind": "road",
        "osm_id": 792595155,
        "osm_type": "way",
        "osm_tags": {
          "highway": "service"
        },
        "case_id": "moscow_nekrasovka_-1_-2_66ac3dc4_large_oks"
      },
      "geometry": {
        "type": "LineString",
        "coordinates": [
          [
            37.9040331,
            55.6973985
          ],
          [
            37.9058473,
            55.6979193
          ]
        ]
      }
    },
    {
      "type": "Feature",
      "properties": {
        "id": "moscow_nekrasovka_-1_-2_66ac3dc4_large_oks_osm_way_821346707_51",
        "object_type": "restriction",
        "restriction_type": "oks",
        "name": "",
        "osm_kind": "building",
        "osm_id": 821346707,
        "osm_type": "way",
        "osm_tags": {
          "building": "yes"
        },
        "case_id": "moscow_nekrasovka_-1_-2_66ac3dc4_large_oks"
      },
      "geometry": {
        "type": "Polygon",
        "coordinates": [
          [
            [
              37.9040115,
              55.6983947
            ],
            [
              37.9038301,
              55.6984237
            ],
            [
              37.9038599,
              55.698483
            ],
            [
              37.9040414,
              55.698454
            ],
            [
              37.9040115,
              55.6983947
            ]
          ]
        ]
      }
    },
    {
      "type": "Feature",
      "properties": {
        "id": "moscow_nekrasovka_-1_-2_66ac3dc4_large_oks_osm_way_1027030039_52",
        "object_type": "restriction",
        "restriction_type": "oks",
        "name": "",
        "osm_kind": "building",
        "osm_id": 1027030039,
        "osm_type": "way",
        "osm_tags": {
          "building": "retail"
        },
        "case_id": "moscow_nekrasovka_-1_-2_66ac3dc4_large_oks"
      },
      "geometry": {
        "type": "Polygon",
        "coordinates": [
          [
            [
              37.9014712,
              55.6987939
            ],
            [
              37.9017995,
              55.6988708
            ],
            [
              37.9019914,
              55.6987731
            ],
            [
              37.9015892,
              55.6986525
            ],
            [
              37.9014712,
              55.6987939
            ]
          ]
        ]
      }
    },
    {
      "type": "Feature",
      "properties": {
        "id": "moscow_nekrasovka_-1_-2_66ac3dc4_large_oks_osm_way_1192757839_53",
        "object_type": "restriction",
        "restriction_type": "road",
        "name": "",
        "osm_kind": "road",
        "osm_id": 1192757839,
        "osm_type": "way",
        "osm_tags": {
          "highway": "footway"
        },
        "case_id": "moscow_nekrasovka_-1_-2_66ac3dc4_large_oks"
      },
      "geometry": {
        "type": "LineString",
        "coordinates": [
          [
            37.9016511,
            55.6953073
          ],
          [
            37.9015609,
            55.6954062
          ],
          [
            37.9015373,
            55.6954323
          ],
          [
            37.9012269,
            55.6957753
          ],
          [
            37.9006552,
            55.6964439
          ]
        ]
      }
    },
    {
      "type": "Feature",
      "properties": {
        "id": "moscow_nekrasovka_-1_-2_66ac3dc4_large_oks_osm_way_1192757840_54",
        "object_type": "restriction",
        "restriction_type": "road",
        "name": "",
        "osm_kind": "road",
        "osm_id": 1192757840,
        "osm_type": "way",
        "osm_tags": {
          "highway": "footway"
        },
        "case_id": "moscow_nekrasovka_-1_-2_66ac3dc4_large_oks"
      },
      "geometry": {
        "type": "LineString",
        "coordinates": [
          [
            37.9006552,
            55.6964439
          ],
          [
            37.900433,
            55.6966796
          ],
          [
            37.9003795,
            55.6967364
          ],
          [
            37.899451,
            55.6978101
          ]
        ]
      }
    },
    {
      "type": "Feature",
      "properties": {
        "id": "moscow_nekrasovka_-1_-2_66ac3dc4_large_oks_osm_way_1308510130_55",
        "object_type": "restriction",
        "restriction_type": "road",
        "name": "",
        "osm_kind": "road",
        "osm_id": 1308510130,
        "osm_type": "way",
        "osm_tags": {
          "highway": "footway"
        },
        "case_id": "moscow_nekrasovka_-1_-2_66ac3dc4_large_oks"
      },
      "geometry": {
        "type": "LineString",
        "coordinates": [
          [
            37.9002795,
            55.7020678
          ],
          [
            37.9003387,
            55.7020058
          ],
          [
            37.9003871,
            55.7019283
          ],
          [
            37.9005551,
            55.701772
          ],
          [
            37.9006101,
            55.7017172
          ],
          [
            37.9011297,
            55.7011254
          ],
          [
            37.9013157,
            55.7008117
          ],
          [
            37.9016794,
            55.700481
          ],
          [
            37.9017951,
            55.7003241
          ],
          [
            37.9020808,
            55.6999973
          ],
          [
            37.9022704,
            55.699736
          ],
          [
            37.9023764,
            55.6996021
          ],
          [
            37.9025137,
            55.6995254
          ],
          [
            37.9025723,
            55.6994279
          ],
          [
            37.9025199,
            55.6991362
          ],
          [
            37.9024366,
            55.6989025
          ],
          [
            37.9023675,
            55.6988393
          ],
          [
            37.9022597,
            55.6987923
          ],
          [
            37.9021661,
            55.6987671
          ],
          [
            37.901511,
            55.6985901
          ]
        ]
      }
    },
    {
      "type": "Feature",
      "properties": {
        "id": "moscow_nekrasovka_-1_-2_66ac3dc4_large_oks_osm_way_1308510131_56",
        "object_type": "restriction",
        "restriction_type": "road",
        "name": "",
        "osm_kind": "road",
        "osm_id": 1308510131,
        "osm_type": "way",
        "osm_tags": {
          "highway": "footway"
        },
        "case_id": "moscow_nekrasovka_-1_-2_66ac3dc4_large_oks"
      },
      "geometry": {
        "type": "LineString",
        "coordinates": [
          [
            37.9021661,
            55.6987671
          ],
          [
            37.9022258,
            55.6987084
          ],
          [
            37.9022638,
            55.6986698
          ]
        ]
      }
    },
    {
      "type": "Feature",
      "properties": {
        "id": "moscow_nekrasovka_-1_-2_66ac3dc4_large_oks_osm_way_1492420613_57",
        "object_type": "restriction",
        "restriction_type": "road",
        "name": "",
        "osm_kind": "road",
        "osm_id": 1492420613,
        "osm_type": "way",
        "osm_tags": {
          "highway": "footway"
        },
        "case_id": "moscow_nekrasovka_-1_-2_66ac3dc4_large_oks"
      },
      "geometry": {
        "type": "LineString",
        "coordinates": [
          [
            37.9022638,
            55.6986698
          ],
          [
            37.9024152,
            55.6984994
          ]
        ]
      }
    },
    {
      "type": "Feature",
      "properties": {
        "id": "moscow_nekrasovka_-1_-2_66ac3dc4_large_oks_osm_way_1492663564_58",
        "object_type": "restriction",
        "restriction_type": "road",
        "name": "",
        "osm_kind": "road",
        "osm_id": 1492663564,
        "osm_type": "way",
        "osm_tags": {
          "highway": "footway"
        },
        "case_id": "moscow_nekrasovka_-1_-2_66ac3dc4_large_oks"
      },
      "geometry": {
        "type": "LineString",
        "coordinates": [
          [
            37.9025481,
            55.6985357
          ],
          [
            37.9024152,
            55.6984994
          ],
          [
            37.9020922,
            55.6984112
          ]
        ]
      }
    },
    {
      "type": "Feature",
      "properties": {
        "id": "moscow_nekrasovka_-1_-2_66ac3dc4_large_oks_osm_way_1492663565_59",
        "object_type": "restriction",
        "restriction_type": "road",
        "name": "улица Попова",
        "osm_kind": "road",
        "osm_id": 1492663565,
        "osm_type": "way",
        "osm_tags": {
          "highway": "residential",
          "name": "улица Попова"
        },
        "case_id": "moscow_nekrasovka_-1_-2_66ac3dc4_large_oks"
      },
      "geometry": {
        "type": "LineString",
        "coordinates": [
          [
            37.901855,
            55.6986127
          ],
          [
            37.9018997,
            55.6986246
          ],
          [
            37.9021484,
            55.6986848
          ],
          [
            37.9022258,
            55.6987084
          ],
          [
            37.9023055,
            55.6987327
          ],
          [
            37.9023916,
            55.6987708
          ]
        ]
      }
    },
    {
      "type": "Feature",
      "properties": {
        "id": "moscow_nekrasovka_-1_-2_66ac3dc4_large_oks_osm_way_1492682934_60",
        "object_type": "restriction",
        "restriction_type": "road",
        "name": "",
        "osm_kind": "road",
        "osm_id": 1492682934,
        "osm_type": "way",
        "osm_tags": {
          "highway": "footway"
        },
        "case_id": "moscow_nekrasovka_-1_-2_66ac3dc4_large_oks"
      },
      "geometry": {
        "type": "LineString",
        "coordinates": [
          [
            37.9011468,
            55.6967326
          ],
          [
            37.9009011,
            55.6970222
          ]
        ]
      }
    },
    {
      "type": "Feature",
      "properties": {
        "id": "moscow_nekrasovka_-1_-2_66ac3dc4_large_oks_osm_way_1492682935_61",
        "object_type": "restriction",
        "restriction_type": "road",
        "name": "",
        "osm_kind": "road",
        "osm_id": 1492682935,
        "osm_type": "way",
        "osm_tags": {
          "highway": "footway"
        },
        "case_id": "moscow_nekrasovka_-1_-2_66ac3dc4_large_oks"
      },
      "geometry": {
        "type": "LineString",
        "coordinates": [
          [
            37.9011468,
            55.6967326
          ],
          [
            37.9020742,
            55.6956166
          ],
          [
            37.9020944,
            55.6955927
          ],
          [
            37.9019803,
            55.6954041
          ]
        ]
      }
    },
    {
      "type": "Feature",
      "properties": {
        "id": "moscow_nekrasovka_-1_-2_66ac3dc4_large_oks_osm_way_1531497968_62",
        "object_type": "restriction",
        "restriction_type": "road",
        "name": "",
        "osm_kind": "road",
        "osm_id": 1531497968,
        "osm_type": "way",
        "osm_tags": {
          "highway": "footway"
        },
        "case_id": "moscow_nekrasovka_-1_-2_66ac3dc4_large_oks"
      },
      "geometry": {
        "type": "LineString",
        "coordinates": [
          [
            37.900433,
            55.6966796
          ],
          [
            37.9006802,
            55.6967469
          ],
          [
            37.9007511,
            55.696765
          ]
        ]
      }
    },
    {
      "type": "Feature",
      "properties": {
        "id": "moscow_nekrasovka_-1_-2_66ac3dc4_large_oks_osm_way_1531497969_63",
        "object_type": "restriction",
        "restriction_type": "oks",
        "name": "",
        "osm_kind": "building",
        "osm_id": 1531497969,
        "osm_type": "way",
        "osm_tags": {
          "building": "retail"
        },
        "case_id": "moscow_nekrasovka_-1_-2_66ac3dc4_large_oks"
      },
      "geometry": {
        "type": "Polygon",
        "coordinates": [
          [
            [
              37.9005939,
              55.6965444
            ],
            [
              37.900657,
              55.696475
            ],
            [
              37.9007109,
              55.6964906
            ],
            [
              37.9006478,
              55.6965599
            ],
            [
              37.9005939,
              55.6965444
            ]
          ]
        ]
      }
    },
    {
      "type": "Feature",
      "properties": {
        "id": "moscow_nekrasovka_-1_-2_66ac3dc4_large_oks_osm_way_1531497970_64",
        "object_type": "restriction",
        "restriction_type": "road",
        "name": "",
        "osm_kind": "road",
        "osm_id": 1531497970,
        "osm_type": "way",
        "osm_tags": {
          "highway": "service"
        },
        "case_id": "moscow_nekrasovka_-1_-2_66ac3dc4_large_oks"
      },
      "geometry": {
        "type": "LineString",
        "coordinates": [
          [
            37.9012512,
            55.696095
          ],
          [
            37.901366,
            55.6962498
          ],
          [
            37.9009864,
            55.6966854
          ]
        ]
      }
    },
    {
      "type": "Feature",
      "properties": {
        "id": "moscow_nekrasovka_-1_-2_66ac3dc4_large_oks_osm_way_1531497971_65",
        "object_type": "restriction",
        "restriction_type": "road",
        "name": "",
        "osm_kind": "road",
        "osm_id": 1531497971,
        "osm_type": "way",
        "osm_tags": {
          "highway": "footway"
        },
        "case_id": "moscow_nekrasovka_-1_-2_66ac3dc4_large_oks"
      },
      "geometry": {
        "type": "LineString",
        "coordinates": [
          [
            37.9003785,
            55.697171
          ],
          [
            37.9006039,
            55.6969309
          ],
          [
            37.9007511,
            55.696765
          ],
          [
            37.9008558,
            55.696647
          ]
        ]
      }
    },
    {
      "type": "Feature",
      "properties": {
        "id": "moscow_nekrasovka_-1_-2_66ac3dc4_large_oks_osm_way_1548621999_66",
        "object_type": "restriction",
        "restriction_type": "park",
        "name": "",
        "osm_kind": "green",
        "osm_id": 1548621999,
        "osm_type": "way",
        "osm_tags": {
          "landuse": "grass"
        },
        "case_id": "moscow_nekrasovka_-1_-2_66ac3dc4_large_oks"
      },
      "geometry": {
        "type": "Polygon",
        "coordinates": [
          [
            [
              37.9007637,
              55.6963992
            ],
            [
              37.900878,
              55.6964309
            ],
            [
              37.9013864,
              55.6958502
            ],
            [
              37.9012723,
              55.6958185
            ],
            [
              37.9007637,
              55.6963992
            ]
          ]
        ]
      }
    },
    {
      "type": "Feature",
      "properties": {
        "id": "moscow_nekrasovka_-1_-2_66ac3dc4_large_oks_osm_way_1548678876_67",
        "object_type": "restriction",
        "restriction_type": "road",
        "name": "",
        "osm_kind": "road",
        "osm_id": 1548678876,
        "osm_type": "way",
        "osm_tags": {
          "highway": "footway"
        },
        "case_id": "moscow_nekrasovka_-1_-2_66ac3dc4_large_oks"
      },
      "geometry": {
        "type": "LineString",
        "coordinates": [
          [
            37.8999188,
            55.6960537
          ],
          [
            37.9002883,
            55.6962792
          ],
          [
            37.9004957,
            55.6963723
          ],
          [
            37.9006552,
            55.6964439
          ]
        ]
      }
    },
    {
      "type": "Feature",
      "properties": {
        "id": "moscow_nekrasovka_-1_-2_66ac3dc4_large_oks_source",
        "object_type": "source",
        "case_id": "moscow_nekrasovka_-1_-2_66ac3dc4_large_oks"
      },
      "geometry": {
        "type": "Point",
        "coordinates": [
          37.9008248,
          55.69736435
        ]
      }
    },
    {
      "type": "Feature",
      "properties": {
        "id": "moscow_nekrasovka_-1_-2_66ac3dc4_large_oks_existing_network",
        "object_type": "heat_network",
        "diameter": 500,
        "flow_tph": 180.0,
        "upstream_object_id": "moscow_nekrasovka_-1_-2_66ac3dc4_large_oks_source",
        "case_id": "moscow_nekrasovka_-1_-2_66ac3dc4_large_oks"
      },
      "geometry": {
        "type": "LineString",
        "coordinates": [
          [
            37.9008248,
            55.69736435
          ],
          [
            37.9019406,
            55.69727452
          ]
        ]
      }
    },
    {
      "type": "Feature",
      "properties": {
        "id": "moscow_nekrasovka_-1_-2_66ac3dc4_large_oks_existing_chamber",
        "object_type": "heat_chamber",
        "diameter": 500,
        "upstream_object_id": "moscow_nekrasovka_-1_-2_66ac3dc4_large_oks_source",
        "case_id": "moscow_nekrasovka_-1_-2_66ac3dc4_large_oks"
      },
      "geometry": {
        "type": "Point",
        "coordinates": [
          37.9019406,
          55.69727452
        ]
      }
    },
    {
      "type": "Feature",
      "properties": {
        "id": "moscow_nekrasovka_-1_-2_66ac3dc4_large_oks_cp_1",
        "object_type": "oks_connection_point",
        "flow_tph": 20.0,
        "case_id": "moscow_nekrasovka_-1_-2_66ac3dc4_large_oks",
        "consumer_role": "osm_building_heat_demand_proxy",
        "source_building_osm_id": 35267186,
        "source_building_osm_type": "way",
        "source_building_name": "",
        "source_building_tags": {
          "building": "apartments"
        },
        "footprint_area_m2": 1030.3,
        "flow_basis": "synthetic_proxy_from_osm_footprint_area",
        "stress_bucket": "large_oks"
      },
      "geometry": {
        "type": "Point",
        "coordinates": [
          37.9035345512866,
          55.69633744844697
        ]
      }
    },
    {
      "type": "Feature",
      "properties": {
        "id": "moscow_nekrasovka_-1_-2_66ac3dc4_large_oks_cp_2",
        "object_type": "oks_connection_point",
        "flow_tph": 20.215,
        "case_id": "moscow_nekrasovka_-1_-2_66ac3dc4_large_oks",
        "consumer_role": "osm_building_heat_demand_proxy",
        "source_building_osm_id": 180737552,
        "source_building_osm_type": "way",
        "source_building_name": "",
        "source_building_tags": {
          "building": "apartments"
        },
        "footprint_area_m2": 1111.82,
        "flow_basis": "synthetic_proxy_from_osm_footprint_area",
        "stress_bucket": "large_oks"
      },
      "geometry": {
        "type": "Point",
        "coordinates": [
          37.90313311074009,
          55.69711713035169
        ]
      }
    },
    {
      "type": "Feature",
      "properties": {
        "id": "moscow_nekrasovka_-1_-2_66ac3dc4_large_oks_cp_3",
        "object_type": "oks_connection_point",
        "flow_tph": 29.009,
        "case_id": "moscow_nekrasovka_-1_-2_66ac3dc4_large_oks",
        "consumer_role": "osm_building_heat_demand_proxy",
        "source_building_osm_id": 180737549,
        "source_building_osm_type": "way",
        "source_building_name": "",
        "source_building_tags": {
          "building": "apartments"
        },
        "footprint_area_m2": 1595.47,
        "flow_basis": "synthetic_proxy_from_osm_footprint_area",
        "stress_bucket": "large_oks"
      },
      "geometry": {
        "type": "Point",
        "coordinates": [
          37.904872594006825,
          55.69774418098972
        ]
      }
    },
    {
      "type": "Feature",
      "properties": {
        "id": "moscow_nekrasovka_-1_-2_66ac3dc4_large_oks_cp_4",
        "object_type": "oks_connection_point",
        "flow_tph": 20.0,
        "case_id": "moscow_nekrasovka_-1_-2_66ac3dc4_large_oks",
        "consumer_role": "osm_building_heat_demand_proxy",
        "source_building_osm_id": 53789458,
        "source_building_osm_type": "way",
        "source_building_name": "",
        "source_building_tags": {
          "building": "kindergarten"
        },
        "footprint_area_m2": 834.73,
        "flow_basis": "synthetic_proxy_from_osm_footprint_area",
        "stress_bucket": "large_oks"
      },
      "geometry": {
        "type": "Point",
        "coordinates": [
          37.90409923333333,
          55.698025575
        ]
      }
    }
  ]
}