{
  "type": "FeatureCollection",
  "name": "moscow_nekrasovka_+2_-2_e6d0f8ac_large_oks",
  "crs": {
    "type": "name",
    "properties": {
      "name": "EPSG:4326"
    }
  },
  "metadata": {
    "dataset_version": "osm_building_anchored_routing_scenes_v3",
    "parent_scene_id": "moscow_nekrasovka_+2_-2_e6d0f8ac",
    "split": "train",
    "city": "Москва Некрасовка",
    "seed": "moscow_nekrasovka",
    "research_bucket": "large_oks",
    "source_research_bucket": "separate_pipes",
    "research_bucket_is_ground_truth": false,
    "bbox_south_west_north_east": [
      55.7189238,
      37.9005046,
      55.7216188,
      37.9052894
    ],
    "real_data_source": "OpenStreetMap via Overpass API",
    "source_file": "data/real_geojson_places/separate_pipes/084_moscow_nekrasovka_+2_-2_e6d0f8ac.geojson",
    "real_layers": [
      "restrictions",
      "consumer_building_footprints"
    ],
    "synthetic_layers": [
      "source",
      "heat_network",
      "heat_chamber",
      "heat_demand"
    ],
    "consumer_selection": "deterministic points inside real OSM building footprints",
    "flow_model": "synthetic proxy derived from building footprint area; not metered demand",
    "note": "OSM buildings anchor consumers; heat demand and seed network are synthetic proxies."
  },
  "features": [
    {
      "type": "Feature",
      "properties": {
        "id": "moscow_nekrasovka_+2_-2_e6d0f8ac_large_oks_osm_way_51239973_1",
        "object_type": "restriction",
        "restriction_type": "road",
        "name": "",
        "osm_kind": "road",
        "osm_id": 51239973,
        "osm_type": "way",
        "osm_tags": {
          "highway": "service"
        },
        "case_id": "moscow_nekrasovka_+2_-2_e6d0f8ac_large_oks"
      },
      "geometry": {
        "type": "LineString",
        "coordinates": [
          [
            37.900715,
            55.7202027
          ],
          [
            37.901006,
            55.7201757
          ],
          [
            37.9011952,
            55.7201684
          ],
          [
            37.9014567,
            55.7201822
          ],
          [
            37.9017921,
            55.7201939
          ],
          [
            37.9021948,
            55.7202273
          ],
          [
            37.9027832,
            55.7202771
          ],
          [
            37.9030947,
            55.7203298
          ],
          [
            37.9032205,
            55.7203511
          ],
          [
            37.9035435,
            55.7204482
          ],
          [
            37.9039157,
            55.720566
          ],
          [
            37.9040033,
            55.72059
          ],
          [
            37.9041844,
            55.7206398
          ],
          [
            37.9042005,
            55.7206442
          ],
          [
            37.9046017,
            55.7207833
          ],
          [
            37.9048769,
            55.7208981
          ],
          [
            37.9050324,
            55.720984
          ],
          [
            37.9053138,
            55.7210558
          ],
          [
            37.9055117,
            55.7212775
          ],
          [
            37.9056379,
            55.7213591
          ],
          [
            37.9057968,
            55.7215144
          ],
          [
            37.9059091,
            55.7215914
          ],
          [
            37.9062663,
            55.7217436
          ],
          [
            37.9065299,
            55.7217267
          ],
          [
            37.9068102,
            55.7217767
          ],
          [
            37.9073641,
            55.7217761
          ],
          [
            37.9075927,
            55.7218668
          ],
          [
            37.9078738,
            55.7218939
          ],
          [
            37.9079583,
            55.7219147
          ],
          [
            37.9082143,
            55.7219761
          ],
          [
            37.9084833,
            55.7220605
          ],
          [
            37.908682,
            55.7221231
          ],
          [
            37.9088919,
            55.7221966
          ],
          [
            37.9092334,
            55.7223362
          ],
          [
            37.9093147,
            55.7223672
          ],
          [
            37.9094803,
            55.7224302
          ],
          [
            37.9096214,
            55.7224864
          ],
          [
            37.9098298,
            55.7225827
          ],
          [
            37.9099867,
            55.7226682
          ],
          [
            37.9101178,
            55.7227619
          ],
          [
            37.9103252,
            55.7228843
          ],
          [
            37.9104878,
            55.722993
          ],
          [
            37.9106323,
            55.7231179
          ],
          [
            37.910647,
            55.7232338
          ],
          [
            37.9106064,
            55.7233353
          ],
          [
            37.9105798,
            55.7233933
          ],
          [
            37.9105156,
            55.7235138
          ],
          [
            37.9103235,
            55.7238343
          ],
          [
            37.910182,
            55.7239906
          ],
          [
            37.9100606,
            55.7241353
          ]
        ]
      }
    },
    {
      "type": "Feature",
      "properties": {
        "id": "moscow_nekrasovka_+2_-2_e6d0f8ac_large_oks_osm_way_53758306_2",
        "object_type": "restriction",
        "restriction_type": "road",
        "name": "",
        "osm_kind": "road",
        "osm_id": 53758306,
        "osm_type": "way",
        "osm_tags": {
          "highway": "service"
        },
        "case_id": "moscow_nekrasovka_+2_-2_e6d0f8ac_large_oks"
      },
      "geometry": {
        "type": "LineString",
        "coordinates": [
          [
            37.9021635,
            55.7215547
          ],
          [
            37.9023217,
            55.721441
          ],
          [
            37.9025177,
            55.7213048
          ],
          [
            37.9030469,
            55.7215532
          ],
          [
            37.9037084,
            55.7217187
          ],
          [
            37.9043994,
            55.7217933
          ],
          [
            37.9050609,
            55.721785
          ],
          [
            37.9058317,
            55.721701
          ],
          [
            37.9059091,
            55.7215914
          ]
        ]
      }
    },
    {
      "type": "Feature",
      "properties": {
        "id": "moscow_nekrasovka_+2_-2_e6d0f8ac_large_oks_osm_way_53758307_3",
        "object_type": "restriction",
        "restriction_type": "road",
        "name": "",
        "osm_kind": "road",
        "osm_id": 53758307,
        "osm_type": "way",
        "osm_tags": {
          "highway": "service"
        },
        "case_id": "moscow_nekrasovka_+2_-2_e6d0f8ac_large_oks"
      },
      "geometry": {
        "type": "LineString",
        "coordinates": [
          [
            37.9057968,
            55.7215144
          ],
          [
            37.9058685,
            55.7214072
          ],
          [
            37.9059616,
            55.7212679
          ],
          [
            37.9060832,
            55.7211035
          ],
          [
            37.9061222,
            55.7210508
          ],
          [
            37.9061259,
            55.7210355
          ],
          [
            37.9061787,
            55.7208176
          ],
          [
            37.9061726,
            55.7206854
          ],
          [
            37.9061655,
            55.720652
          ],
          [
            37.9061061,
            55.7205171
          ],
          [
            37.905961,
            55.7202481
          ],
          [
            37.9059529,
            55.7202294
          ],
          [
            37.9058059,
            55.7200608
          ],
          [
            37.9056517,
            55.7199408
          ],
          [
            37.9052418,
            55.7197062
          ],
          [
            37.9049731,
            55.7196145
          ],
          [
            37.9048949,
            55.7195878
          ],
          [
            37.9044688,
            55.7195129
          ],
          [
            37.9041711,
            55.7194777
          ],
          [
            37.9038611,
            55.7194704
          ],
          [
            37.9037162,
            55.7194753
          ],
          [
            37.903057,
            55.7195613
          ],
          [
            37.903015,
            55.7195689
          ],
          [
            37.90266,
            55.7196465
          ],
          [
            37.902501,
            55.7197191
          ],
          [
            37.9023033,
            55.7198474
          ],
          [
            37.9021187,
            55.7199706
          ],
          [
            37.9018443,
            55.7201582
          ],
          [
            37.9017921,
            55.7201939
          ]
        ]
      }
    },
    {
      "type": "Feature",
      "properties": {
        "id": "moscow_nekrasovka_+2_-2_e6d0f8ac_large_oks_osm_way_53758308_4",
        "object_type": "restriction",
        "restriction_type": "road",
        "name": "",
        "osm_kind": "road",
        "osm_id": 53758308,
        "osm_type": "way",
        "osm_tags": {
          "highway": "service"
        },
        "case_id": "moscow_nekrasovka_+2_-2_e6d0f8ac_large_oks"
      },
      "geometry": {
        "type": "LineString",
        "coordinates": [
          [
            37.9041588,
            55.721427
          ],
          [
            37.9037526,
            55.7213464
          ],
          [
            37.9034061,
            55.721243
          ],
          [
            37.9031834,
            55.721145
          ],
          [
            37.9030771,
            55.7209263
          ],
          [
            37.9029376,
            55.7208533
          ],
          [
            37.9026222,
            55.720827
          ],
          [
            37.9025138,
            55.7207273
          ],
          [
            37.9023686,
            55.7205092
          ],
          [
            37.9023304,
            55.7204473
          ],
          [
            37.9021948,
            55.7202273
          ]
        ]
      }
    },
    {
      "type": "Feature",
      "properties": {
        "id": "moscow_nekrasovka_+2_-2_e6d0f8ac_large_oks_osm_way_53758310_5",
        "object_type": "restriction",
        "restriction_type": "road",
        "name": "",
        "osm_kind": "road",
        "osm_id": 53758310,
        "osm_type": "way",
        "osm_tags": {
          "highway": "service"
        },
        "case_id": "moscow_nekrasovka_+2_-2_e6d0f8ac_large_oks"
      },
      "geometry": {
        "type": "LineString",
        "coordinates": [
          [
            37.9032205,
            55.7203511
          ],
          [
            37.9032941,
            55.7203105
          ],
          [
            37.9033851,
            55.7202597
          ],
          [
            37.9035239,
            55.7200993
          ],
          [
            37.9034207,
            55.7199306
          ],
          [
            37.9031359,
            55.7198524
          ],
          [
            37.9028364,
            55.7199105
          ],
          [
            37.9027292,
            55.7200339
          ],
          [
            37.9027364,
            55.720086
          ],
          [
            37.9027832,
            55.7202771
          ]
        ]
      }
    },
    {
      "type": "Feature",
      "properties": {
        "id": "moscow_nekrasovka_+2_-2_e6d0f8ac_large_oks_osm_way_53758315_6",
        "object_type": "restriction",
        "restriction_type": "road",
        "name": "",
        "osm_kind": "road",
        "osm_id": 53758315,
        "osm_type": "way",
        "osm_tags": {
          "highway": "service"
        },
        "case_id": "moscow_nekrasovka_+2_-2_e6d0f8ac_large_oks"
      },
      "geometry": {
        "type": "LineString",
        "coordinates": [
          [
            37.9014567,
            55.7201822
          ],
          [
            37.9014923,
            55.7202393
          ],
          [
            37.901717,
            55.7205995
          ],
          [
            37.9017386,
            55.7206341
          ],
          [
            37.9019885,
            55.7209487
          ],
          [
            37.9023119,
            55.7212137
          ],
          [
            37.902118,
            55.7213297
          ],
          [
            37.9019315,
            55.7214388
          ]
        ]
      }
    },
    {
      "type": "Feature",
      "properties": {
        "id": "moscow_nekrasovka_+2_-2_e6d0f8ac_large_oks_osm_way_53758316_7",
        "object_type": "restriction",
        "restriction_type": "oks",
        "name": "Детский сад №2615",
        "osm_kind": "building",
        "osm_id": 53758316,
        "osm_type": "way",
        "osm_tags": {
          "building": "kindergarten",
          "name": "Детский сад №2615"
        },
        "case_id": "moscow_nekrasovka_+2_-2_e6d0f8ac_large_oks",
        "selected_as_heat_demand_proxy": true,
        "connection_point_id": "moscow_nekrasovka_+2_-2_e6d0f8ac_large_oks_cp_2"
      },
      "geometry": {
        "type": "Polygon",
        "coordinates": [
          [
            [
              37.9045005,
              55.7200085
            ],
            [
              37.9045872,
              55.7200362
            ],
            [
              37.9045682,
              55.7200551
            ],
            [
              37.9046742,
              55.720089
            ],
            [
              37.9046932,
              55.7200701
            ],
            [
              37.904783,
              55.7200988
            ],
            [
              37.9047944,
              55.7200875
            ],
            [
              37.9048635,
              55.7201096
            ],
            [
              37.9047927,
              55.7201799
            ],
            [
              37.9049663,
              55.7202353
            ],
            [
              37.9051799,
              55.7200232
            ],
            [
              37.9050063,
              55.7199677
            ],
            [
              37.9049344,
              55.7200391
            ],
            [
              37.9048654,
              55.720017
            ],
            [
              37.9048771,
              55.7200053
            ],
            [
              37.9047873,
              55.7199766
            ],
            [
              37.9048059,
              55.7199581
            ],
            [
              37.9047,
              55.7199242
            ],
            [
              37.9046813,
              55.7199428
            ],
            [
              37.9045946,
              55.719915
            ],
            [
              37.9045828,
              55.7199268
            ],
            [
              37.90452,
              55.7199067
            ],
            [
              37.9045919,
              55.7198353
            ],
            [
              37.9044132,
              55.7197783
            ],
            [
              37.9041996,
              55.7199904
            ],
            [
              37.9043783,
              55.7200475
            ],
            [
              37.904449,
              55.7199772
            ],
            [
              37.9045118,
              55.7199973
            ],
            [
              37.9045005,
              55.7200085
            ]
          ]
        ]
      }
    },
    {
      "type": "Feature",
      "properties": {
        "id": "moscow_nekrasovka_+2_-2_e6d0f8ac_large_oks_osm_way_53758318_8",
        "object_type": "restriction",
        "restriction_type": "road",
        "name": "",
        "osm_kind": "road",
        "osm_id": 53758318,
        "osm_type": "way",
        "osm_tags": {
          "highway": "service"
        },
        "case_id": "moscow_nekrasovka_+2_-2_e6d0f8ac_large_oks"
      },
      "geometry": {
        "type": "LineString",
        "coordinates": [
          [
            37.9056379,
            55.7213591
          ],
          [
            37.9054227,
            55.7213773
          ],
          [
            37.9047703,
            55.7214429
          ],
          [
            37.904441,
            55.7214535
          ],
          [
            37.9041588,
            55.721427
          ]
        ]
      }
    },
    {
      "type": "Feature",
      "properties": {
        "id": "moscow_nekrasovka_+2_-2_e6d0f8ac_large_oks_osm_way_53758322_9",
        "object_type": "restriction",
        "restriction_type": "road",
        "name": "",
        "osm_kind": "road",
        "osm_id": 53758322,
        "osm_type": "way",
        "osm_tags": {
          "highway": "service"
        },
        "case_id": "moscow_nekrasovka_+2_-2_e6d0f8ac_large_oks"
      },
      "geometry": {
        "type": "LineString",
        "coordinates": [
          [
            37.9053138,
            55.7210558
          ],
          [
            37.9056134,
            55.7209977
          ],
          [
            37.9057093,
            55.7208358
          ],
          [
            37.9056008,
            55.7206818
          ],
          [
            37.9055874,
            55.7206656
          ],
          [
            37.9053643,
            55.7205904
          ],
          [
            37.9050647,
            55.7206485
          ],
          [
            37.9049259,
            55.7208089
          ],
          [
            37.9050324,
            55.720984
          ]
        ]
      }
    },
    {
      "type": "Feature",
      "properties": {
        "id": "moscow_nekrasovka_+2_-2_e6d0f8ac_large_oks_osm_way_53758323_10",
        "object_type": "restriction",
        "restriction_type": "oks",
        "name": "",
        "osm_kind": "building",
        "osm_id": 53758323,
        "osm_type": "way",
        "osm_tags": {
          "building": "apartments"
        },
        "case_id": "moscow_nekrasovka_+2_-2_e6d0f8ac_large_oks"
      },
      "geometry": {
        "type": "Polygon",
        "coordinates": [
          [
            [
              37.9054745,
              55.7209016
            ],
            [
              37.9054967,
              55.7209015
            ],
            [
              37.9054964,
              55.7208597
            ],
            [
              37.9054742,
              55.7208597
            ],
            [
              37.9054738,
              55.7208051
            ],
            [
              37.905498,
              55.7208051
            ],
            [
              37.9054977,
              55.7207632
            ],
            [
              37.9054735,
              55.7207633
            ],
            [
              37.9054733,
              55.7207303
            ],
            [
              37.9054423,
              55.7207303
            ],
            [
              37.9054421,
              55.7207047
            ],
            [
              37.9051776,
              55.7207053
            ],
            [
              37.9051777,
              55.7207309
            ],
            [
              37.9051513,
              55.720731
            ],
            [
              37.9051516,
              55.720764
            ],
            [
              37.9051264,
              55.7207641
            ],
            [
              37.9051267,
              55.7208059
            ],
            [
              37.9051519,
              55.7208058
            ],
            [
              37.9051523,
              55.7208604
            ],
            [
              37.9051251,
              55.7208605
            ],
            [
              37.9051254,
              55.7209023
            ],
            [
              37.9051525,
              55.7209023
            ],
            [
              37.9051527,
              55.7209296
            ],
            [
              37.9051791,
              55.7209295
            ],
            [
              37.9051794,
              55.7209676
            ],
            [
              37.9054439,
              55.720967
            ],
            [
              37.9054437,
              55.7209289
            ],
            [
              37.9054747,
              55.7209289
            ],
            [
              37.9054745,
              55.7209016
            ]
          ]
        ]
      }
    },
    {
      "type": "Feature",
      "properties": {
        "id": "moscow_nekrasovka_+2_-2_e6d0f8ac_large_oks_osm_way_53758324_11",
        "object_type": "restriction",
        "restriction_type": "oks",
        "name": "",
        "osm_kind": "building",
        "osm_id": 53758324,
        "osm_type": "way",
        "osm_tags": {
          "building": "apartments"
        },
        "case_id": "moscow_nekrasovka_+2_-2_e6d0f8ac_large_oks",
        "selected_as_heat_demand_proxy": true,
        "connection_point_id": "moscow_nekrasovka_+2_-2_e6d0f8ac_large_oks_cp_1"
      },
      "geometry": {
        "type": "Polygon",
        "coordinates": [
          [
            [
              37.9032716,
              55.7201584
            ],
            [
              37.9032937,
              55.7201583
            ],
            [
              37.9032934,
              55.7201165
            ],
            [
              37.9032713,
              55.7201165
            ],
            [
              37.9032709,
              55.7200619
            ],
            [
              37.9032951,
              55.7200619
            ],
            [
              37.9032948,
              55.72002
            ],
            [
              37.9032706,
              55.7200201
            ],
            [
              37.9032703,
              55.7199871
            ],
            [
              37.9032393,
              55.7199871
            ],
            [
              37.9032392,
              55.7199615
            ],
            [
              37.9029747,
              55.7199621
            ],
            [
              37.9029748,
              55.7199877
            ],
            [
              37.9029484,
              55.7199878
            ],
            [
              37.9029487,
              55.7200208
            ],
            [
              37.9029235,
              55.7200209
            ],
            [
              37.9029238,
              55.7200627
            ],
            [
              37.902949,
              55.7200626
            ],
            [
              37.9029493,
              55.7201172
            ],
            [
              37.9029222,
              55.7201173
            ],
            [
              37.9029224,
              55.7201591
            ],
            [
              37.9029496,
              55.7201591
            ],
            [
              37.9029498,
              55.7201864
            ],
            [
              37.9029762,
              55.7201863
            ],
            [
              37.9029765,
              55.7202244
            ],
            [
              37.903241,
              55.7202238
            ],
            [
              37.9032407,
              55.7201857
            ],
            [
              37.9032717,
              55.7201857
            ],
            [
              37.9032716,
              55.7201584
            ]
          ]
        ]
      }
    },
    {
      "type": "Feature",
      "properties": {
        "id": "moscow_nekrasovka_+2_-2_e6d0f8ac_large_oks_osm_way_53758325_12",
        "object_type": "restriction",
        "restriction_type": "oks",
        "name": "",
        "osm_kind": "building",
        "osm_id": 53758325,
        "osm_type": "way",
        "osm_tags": {
          "building": "service"
        },
        "case_id": "moscow_nekrasovka_+2_-2_e6d0f8ac_large_oks"
      },
      "geometry": {
        "type": "Polygon",
        "coordinates": [
          [
            [
              37.9044665,
              55.7208983
            ],
            [
              37.9043264,
              55.7210404
            ],
            [
              37.9045136,
              55.7210991
            ],
            [
              37.9046539,
              55.7209569
            ],
            [
              37.9044665,
              55.7208983
            ]
          ]
        ]
      }
    },
    {
      "type": "Feature",
      "properties": {
        "id": "moscow_nekrasovka_+2_-2_e6d0f8ac_large_oks_osm_way_53758326_13",
        "object_type": "restriction",
        "restriction_type": "oks",
        "name": "",
        "osm_kind": "building",
        "osm_id": 53758326,
        "osm_type": "way",
        "osm_tags": {
          "building": "service"
        },
        "case_id": "moscow_nekrasovka_+2_-2_e6d0f8ac_large_oks"
      },
      "geometry": {
        "type": "Polygon",
        "coordinates": [
          [
            [
              37.903232,
              55.7204725
            ],
            [
              37.9030897,
              55.7206281
            ],
            [
              37.9032884,
              55.7206858
            ],
            [
              37.9034307,
              55.7205302
            ],
            [
              37.903232,
              55.7204725
            ]
          ]
        ]
      }
    },
    {
      "type": "Feature",
      "properties": {
        "id": "moscow_nekrasovka_+2_-2_e6d0f8ac_large_oks_osm_way_53758327_14",
        "object_type": "restriction",
        "restriction_type": "oks",
        "name": "",
        "osm_kind": "building",
        "osm_id": 53758327,
        "osm_type": "way",
        "osm_tags": {
          "building": "apartments"
        },
        "case_id": "moscow_nekrasovka_+2_-2_e6d0f8ac_large_oks",
        "selected_as_heat_demand_proxy": true,
        "connection_point_id": "moscow_nekrasovka_+2_-2_e6d0f8ac_large_oks_cp_4"
      },
      "geometry": {
        "type": "Polygon",
        "coordinates": [
          [
            [
              37.9040384,
              55.7208692
            ],
            [
              37.9040606,
              55.7208692
            ],
            [
              37.9040603,
              55.7208273
            ],
            [
              37.9040381,
              55.7208274
            ],
            [
              37.9040377,
              55.7207728
            ],
            [
              37.9040619,
              55.7207727
            ],
            [
              37.9040616,
              55.7207309
            ],
            [
              37.9040374,
              55.720731
            ],
            [
              37.9040372,
              55.7206979
            ],
            [
              37.9040062,
              55.720698
            ],
            [
              37.904006,
              55.7206724
            ],
            [
              37.9037415,
              55.720673
            ],
            [
              37.9037416,
              55.7206986
            ],
            [
              37.9037152,
              55.7206987
            ],
            [
              37.9037155,
              55.7207317
            ],
            [
              37.9036903,
              55.7207317
            ],
            [
              37.9036906,
              55.7207736
            ],
            [
              37.9037158,
              55.7207735
            ],
            [
              37.9037161,
              55.7208281
            ],
            [
              37.903689,
              55.7208282
            ],
            [
              37.9036893,
              55.72087
            ],
            [
              37.9037164,
              55.7208699
            ],
            [
              37.9037166,
              55.7208972
            ],
            [
              37.903743,
              55.7208972
            ],
            [
              37.9037433,
              55.7209353
            ],
            [
              37.9040078,
              55.7209347
            ],
            [
              37.9040076,
              55.7208966
            ],
            [
              37.9040386,
              55.7208965
            ],
            [
              37.9040384,
              55.7208692
            ]
          ]
        ]
      }
    },
    {
      "type": "Feature",
      "properties": {
        "id": "moscow_nekrasovka_+2_-2_e6d0f8ac_large_oks_osm_way_53758328_15",
        "object_type": "restriction",
        "restriction_type": "road",
        "name": "",
        "osm_kind": "road",
        "osm_id": 53758328,
        "osm_type": "way",
        "osm_tags": {
          "highway": "service"
        },
        "case_id": "moscow_nekrasovka_+2_-2_e6d0f8ac_large_oks"
      },
      "geometry": {
        "type": "LineString",
        "coordinates": [
          [
            37.9039157,
            55.720566
          ],
          [
            37.9036161,
            55.7206241
          ],
          [
            37.9035233,
            55.7206827
          ],
          [
            37.9034773,
            55.7207845
          ],
          [
            37.9035022,
            55.7209106
          ],
          [
            37.9036736,
            55.7210078
          ],
          [
            37.9038653,
            55.7210314
          ],
          [
            37.9040336,
            55.7210108
          ],
          [
            37.9041744,
            55.7209423
          ],
          [
            37.9042349,
            55.7209129
          ],
          [
            37.9042866,
            55.7208429
          ],
          [
            37.9042005,
            55.7206442
          ]
        ]
      }
    },
    {
      "type": "Feature",
      "properties": {
        "id": "moscow_nekrasovka_+2_-2_e6d0f8ac_large_oks_osm_way_74890069_16",
        "object_type": "restriction",
        "restriction_type": "road",
        "name": "",
        "osm_kind": "road",
        "osm_id": 74890069,
        "osm_type": "way",
        "osm_tags": {
          "highway": "tertiary"
        },
        "case_id": "moscow_nekrasovka_+2_-2_e6d0f8ac_large_oks"
      },
      "geometry": {
        "type": "LineString",
        "coordinates": [
          [
            37.9005006,
            55.7211183
          ],
          [
            37.9005925,
            55.7209357
          ],
          [
            37.9006408,
            55.7208077
          ],
          [
            37.9006756,
            55.7206763
          ],
          [
            37.9006966,
            55.7205746
          ],
          [
            37.9007022,
            55.7205476
          ],
          [
            37.9007683,
            55.720358
          ]
        ]
      }
    },
    {
      "type": "Feature",
      "properties": {
        "id": "moscow_nekrasovka_+2_-2_e6d0f8ac_large_oks_osm_way_74947610_17",
        "object_type": "restriction",
        "restriction_type": "road",
        "name": "Лухмановская улица",
        "osm_kind": "road",
        "osm_id": 74947610,
        "osm_type": "way",
        "osm_tags": {
          "highway": "tertiary",
          "name": "Лухмановская улица"
        },
        "case_id": "moscow_nekrasovka_+2_-2_e6d0f8ac_large_oks"
      },
      "geometry": {
        "type": "LineString",
        "coordinates": [
          [
            37.9002825,
            55.7182512
          ],
          [
            37.9003073,
            55.7183639
          ],
          [
            37.9003914,
            55.7187711
          ],
          [
            37.9004788,
            55.7191742
          ],
          [
            37.9004809,
            55.719182
          ],
          [
            37.9005556,
            55.7194954
          ],
          [
            37.900574,
            55.7195839
          ],
          [
            37.9006187,
            55.7197992
          ],
          [
            37.900715,
            55.7202027
          ],
          [
            37.9007683,
            55.720358
          ]
        ]
      }
    },
    {
      "type": "Feature",
      "properties": {
        "id": "moscow_nekrasovka_+2_-2_e6d0f8ac_large_oks_osm_way_133542288_18",
        "object_type": "restriction",
        "restriction_type": "road",
        "name": "",
        "osm_kind": "road",
        "osm_id": 133542288,
        "osm_type": "way",
        "osm_tags": {
          "highway": "service"
        },
        "case_id": "moscow_nekrasovka_+2_-2_e6d0f8ac_large_oks"
      },
      "geometry": {
        "type": "LineString",
        "coordinates": [
          [
            37.9022424,
            55.718872
          ],
          [
            37.9022518,
            55.7188975
          ],
          [
            37.9022725,
            55.7189207
          ],
          [
            37.9023033,
            55.71894
          ],
          [
            37.902342,
            55.7189542
          ],
          [
            37.9023934,
            55.7189665
          ],
          [
            37.9024493,
            55.7189683
          ],
          [
            37.9025029,
            55.7189592
          ]
        ]
      }
    },
    {
      "type": "Feature",
      "properties": {
        "id": "moscow_nekrasovka_+2_-2_e6d0f8ac_large_oks_osm_way_133542292_19",
        "object_type": "restriction",
        "restriction_type": "road",
        "name": "",
        "osm_kind": "road",
        "osm_id": 133542292,
        "osm_type": "way",
        "osm_tags": {
          "highway": "service"
        },
        "case_id": "moscow_nekrasovka_+2_-2_e6d0f8ac_large_oks"
      },
      "geometry": {
        "type": "LineString",
        "coordinates": [
          [
            37.9021749,
            55.719332
          ],
          [
            37.902166,
            55.7192626
          ],
          [
            37.9021646,
            55.7192183
          ],
          [
            37.9021609,
            55.7190973
          ],
          [
            37.9022424,
            55.718872
          ]
        ]
      }
    },
    {
      "type": "Feature",
      "properties": {
        "id": "moscow_nekrasovka_+2_-2_e6d0f8ac_large_oks_osm_way_234090530_20",
        "object_type": "restriction",
        "restriction_type": "road",
        "name": "",
        "osm_kind": "road",
        "osm_id": 234090530,
        "osm_type": "way",
        "osm_tags": {
          "highway": "tertiary"
        },
        "case_id": "moscow_nekrasovka_+2_-2_e6d0f8ac_large_oks"
      },
      "geometry": {
        "type": "LineString",
        "coordinates": [
          [
            37.9005006,
            55.7211183
          ],
          [
            37.9008058,
            55.7208892
          ],
          [
            37.9008744,
            55.7208579
          ],
          [
            37.9010761,
            55.7207969
          ]
        ]
      }
    },
    {
      "type": "Feature",
      "properties": {
        "id": "moscow_nekrasovka_+2_-2_e6d0f8ac_large_oks_osm_way_378132237_21",
        "object_type": "restriction",
        "restriction_type": "road",
        "name": "",
        "osm_kind": "road",
        "osm_id": 378132237,
        "osm_type": "way",
        "osm_tags": {
          "highway": "footway"
        },
        "case_id": "moscow_nekrasovka_+2_-2_e6d0f8ac_large_oks"
      },
      "geometry": {
        "type": "LineString",
        "coordinates": [
          [
            37.9023304,
            55.7204473
          ],
          [
            37.9025967,
            55.7204755
          ],
          [
            37.9028002,
            55.7205258
          ],
          [
            37.9029429,
            55.7205879
          ],
          [
            37.9031197,
            55.7207197
          ],
          [
            37.9031901,
            55.7208493
          ],
          [
            37.9032928,
            55.720921
          ],
          [
            37.9034772,
            55.720996
          ],
          [
            37.9036192,
            55.7210454
          ],
          [
            37.9037758,
            55.7210999
          ],
          [
            37.9040192,
            55.7211642
          ],
          [
            37.9041485,
            55.7211631
          ],
          [
            37.9043759,
            55.7211382
          ],
          [
            37.9047552,
            55.7210967
          ],
          [
            37.904932,
            55.7211406
          ],
          [
            37.905067,
            55.7212091
          ],
          [
            37.9051203,
            55.7212681
          ],
          [
            37.9054227,
            55.7213773
          ]
        ]
      }
    },
    {
      "type": "Feature",
      "properties": {
        "id": "moscow_nekrasovka_+2_-2_e6d0f8ac_large_oks_osm_way_378132239_22",
        "object_type": "restriction",
        "restriction_type": "road",
        "name": "",
        "osm_kind": "road",
        "osm_id": 378132239,
        "osm_type": "way",
        "osm_tags": {
          "highway": "service"
        },
        "case_id": "moscow_nekrasovka_+2_-2_e6d0f8ac_large_oks"
      },
      "geometry": {
        "type": "LineString",
        "coordinates": [
          [
            37.9029136,
            55.7210206
          ],
          [
            37.9031834,
            55.721145
          ]
        ]
      }
    },
    {
      "type": "Feature",
      "properties": {
        "id": "moscow_nekrasovka_+2_-2_e6d0f8ac_large_oks_osm_way_378132240_23",
        "object_type": "restriction",
        "restriction_type": "road",
        "name": "",
        "osm_kind": "road",
        "osm_id": 378132240,
        "osm_type": "way",
        "osm_tags": {
          "highway": "service"
        },
        "case_id": "moscow_nekrasovka_+2_-2_e6d0f8ac_large_oks"
      },
      "geometry": {
        "type": "LineString",
        "coordinates": [
          [
            37.8997131,
            55.7203059
          ],
          [
            37.9001582,
            55.72026
          ],
          [
            37.9005336,
            55.7202213
          ],
          [
            37.900715,
            55.7202027
          ]
        ]
      }
    },
    {
      "type": "Feature",
      "properties": {
        "id": "moscow_nekrasovka_+2_-2_e6d0f8ac_large_oks_osm_way_378132242_24",
        "object_type": "restriction",
        "restriction_type": "road",
        "name": "",
        "osm_kind": "road",
        "osm_id": 378132242,
        "osm_type": "way",
        "osm_tags": {
          "highway": "service"
        },
        "case_id": "moscow_nekrasovka_+2_-2_e6d0f8ac_large_oks"
      },
      "geometry": {
        "type": "LineString",
        "coordinates": [
          [
            37.9026222,
            55.720827
          ],
          [
            37.9028034,
            55.7209522
          ]
        ]
      }
    },
    {
      "type": "Feature",
      "properties": {
        "id": "moscow_nekrasovka_+2_-2_e6d0f8ac_large_oks_osm_way_378132244_25",
        "object_type": "restriction",
        "restriction_type": "road",
        "name": "",
        "osm_kind": "road",
        "osm_id": 378132244,
        "osm_type": "way",
        "osm_tags": {
          "highway": "footway"
        },
        "case_id": "moscow_nekrasovka_+2_-2_e6d0f8ac_large_oks"
      },
      "geometry": {
        "type": "LineString",
        "coordinates": [
          [
            37.9036736,
            55.7210078
          ],
          [
            37.9036192,
            55.7210454
          ],
          [
            37.9034061,
            55.721243
          ]
        ]
      }
    },
    {
      "type": "Feature",
      "properties": {
        "id": "moscow_nekrasovka_+2_-2_e6d0f8ac_large_oks_osm_way_378132250_26",
        "object_type": "restriction",
        "restriction_type": "road",
        "name": "",
        "osm_kind": "road",
        "osm_id": 378132250,
        "osm_type": "way",
        "osm_tags": {
          "highway": "footway"
        },
        "case_id": "moscow_nekrasovka_+2_-2_e6d0f8ac_large_oks"
      },
      "geometry": {
        "type": "LineString",
        "coordinates": [
          [
            37.905171,
            55.7204583
          ],
          [
            37.9055795,
            55.7204956
          ],
          [
            37.9057811,
            55.7205545
          ],
          [
            37.9059766,
            55.7206048
          ],
          [
            37.9061655,
            55.720652
          ]
        ]
      }
    },
    {
      "type": "Feature",
      "properties": {
        "id": "moscow_nekrasovka_+2_-2_e6d0f8ac_large_oks_osm_way_378132251_27",
        "object_type": "restriction",
        "restriction_type": "road",
        "name": "",
        "osm_kind": "road",
        "osm_id": 378132251,
        "osm_type": "way",
        "osm_tags": {
          "highway": "footway"
        },
        "case_id": "moscow_nekrasovka_+2_-2_e6d0f8ac_large_oks"
      },
      "geometry": {
        "type": "LineString",
        "coordinates": [
          [
            37.9037162,
            55.7194753
          ],
          [
            37.9037769,
            55.7200917
          ],
          [
            37.9037837,
            55.7201608
          ],
          [
            37.9036457,
            55.7203261
          ],
          [
            37.9035435,
            55.7204482
          ]
        ]
      }
    },
    {
      "type": "Feature",
      "properties": {
        "id": "moscow_nekrasovka_+2_-2_e6d0f8ac_large_oks_osm_way_378132252_28",
        "object_type": "restriction",
        "restriction_type": "road",
        "name": "",
        "osm_kind": "road",
        "osm_id": 378132252,
        "osm_type": "way",
        "osm_tags": {
          "highway": "footway"
        },
        "case_id": "moscow_nekrasovka_+2_-2_e6d0f8ac_large_oks"
      },
      "geometry": {
        "type": "LineString",
        "coordinates": [
          [
            37.9046017,
            55.7207833
          ],
          [
            37.9047166,
            55.7206885
          ],
          [
            37.9047259,
            55.7206809
          ],
          [
            37.9049248,
            55.7205229
          ],
          [
            37.905171,
            55.7204583
          ],
          [
            37.905961,
            55.7202481
          ]
        ]
      }
    },
    {
      "type": "Feature",
      "properties": {
        "id": "moscow_nekrasovka_+2_-2_e6d0f8ac_large_oks_osm_way_378132253_29",
        "object_type": "restriction",
        "restriction_type": "road",
        "name": "",
        "osm_kind": "road",
        "osm_id": 378132253,
        "osm_type": "way",
        "osm_tags": {
          "highway": "footway"
        },
        "case_id": "moscow_nekrasovka_+2_-2_e6d0f8ac_large_oks"
      },
      "geometry": {
        "type": "LineString",
        "coordinates": [
          [
            37.9048769,
            55.7208981
          ],
          [
            37.9047259,
            55.7206809
          ],
          [
            37.9043302,
            55.7203553
          ],
          [
            37.9036457,
            55.7203261
          ],
          [
            37.9032941,
            55.7203105
          ]
        ]
      }
    },
    {
      "type": "Feature",
      "properties": {
        "id": "moscow_nekrasovka_+2_-2_e6d0f8ac_large_oks_osm_way_378142651_30",
        "object_type": "restriction",
        "restriction_type": "road",
        "name": "",
        "osm_kind": "road",
        "osm_id": 378142651,
        "osm_type": "way",
        "osm_tags": {
          "highway": "footway"
        },
        "case_id": "moscow_nekrasovka_+2_-2_e6d0f8ac_large_oks"
      },
      "geometry": {
        "type": "LineString",
        "coordinates": [
          [
            37.9027083,
            55.7216068
          ],
          [
            37.9025247,
            55.7215371
          ],
          [
            37.9023217,
            55.721441
          ],
          [
            37.902118,
            55.7213297
          ],
          [
            37.9017729,
            55.7211466
          ],
          [
            37.9015782,
            55.7210033
          ],
          [
            37.9013342,
            55.7206904
          ],
          [
            37.901717,
            55.7205995
          ]
        ]
      }
    },
    {
      "type": "Feature",
      "properties": {
        "id": "moscow_nekrasovka_+2_-2_e6d0f8ac_large_oks_osm_way_378142657_31",
        "object_type": "restriction",
        "restriction_type": "road",
        "name": "",
        "osm_kind": "road",
        "osm_id": 378142657,
        "osm_type": "way",
        "osm_tags": {
          "highway": "footway"
        },
        "case_id": "moscow_nekrasovka_+2_-2_e6d0f8ac_large_oks"
      },
      "geometry": {
        "type": "LineString",
        "coordinates": [
          [
            37.8989377,
            55.722447
          ],
          [
            37.8990321,
            55.7222476
          ],
          [
            37.8990902,
            55.7221823
          ],
          [
            37.8992218,
            55.7220811
          ],
          [
            37.8993784,
            55.7219607
          ],
          [
            37.8996196,
            55.7217752
          ],
          [
            37.8999894,
            55.7214422
          ],
          [
            37.900174,
            55.721256
          ],
          [
            37.9003134,
            55.7211245
          ],
          [
            37.9003884,
            55.7210142
          ],
          [
            37.9005361,
            55.7207449
          ],
          [
            37.900578,
            55.7206609
          ],
          [
            37.9005958,
            55.7205693
          ],
          [
            37.900539,
            55.7202518
          ],
          [
            37.9005336,
            55.7202213
          ]
        ]
      }
    },
    {
      "type": "Feature",
      "properties": {
        "id": "moscow_nekrasovka_+2_-2_e6d0f8ac_large_oks_osm_way_378142660_32",
        "object_type": "restriction",
        "restriction_type": "road",
        "name": "",
        "osm_kind": "road",
        "osm_id": 378142660,
        "osm_type": "way",
        "osm_tags": {
          "highway": "path"
        },
        "case_id": "moscow_nekrasovka_+2_-2_e6d0f8ac_large_oks"
      },
      "geometry": {
        "type": "LineString",
        "coordinates": [
          [
            37.902501,
            55.7197191
          ],
          [
            37.9023049,
            55.7195598
          ],
          [
            37.9022033,
            55.7194305
          ],
          [
            37.9021749,
            55.719332
          ]
        ]
      }
    },
    {
      "type": "Feature",
      "properties": {
        "id": "moscow_nekrasovka_+2_-2_e6d0f8ac_large_oks_osm_way_378142664_33",
        "object_type": "restriction",
        "restriction_type": "road",
        "name": "",
        "osm_kind": "road",
        "osm_id": 378142664,
        "osm_type": "way",
        "osm_tags": {
          "highway": "footway"
        },
        "case_id": "moscow_nekrasovka_+2_-2_e6d0f8ac_large_oks"
      },
      "geometry": {
        "type": "LineString",
        "coordinates": [
          [
            37.900578,
            55.7206609
          ],
          [
            37.9006756,
            55.7206763
          ],
          [
            37.9007433,
            55.7206921
          ]
        ]
      }
    },
    {
      "type": "Feature",
      "properties": {
        "id": "moscow_nekrasovka_+2_-2_e6d0f8ac_large_oks_osm_way_378142665_34",
        "object_type": "restriction",
        "restriction_type": "road",
        "name": "",
        "osm_kind": "road",
        "osm_id": 378142665,
        "osm_type": "way",
        "osm_tags": {
          "highway": "footway"
        },
        "case_id": "moscow_nekrasovka_+2_-2_e6d0f8ac_large_oks"
      },
      "geometry": {
        "type": "LineString",
        "coordinates": [
          [
            37.9008367,
            55.7208138
          ],
          [
            37.901042,
            55.7207649
          ],
          [
            37.901164,
            55.7207354
          ]
        ]
      }
    },
    {
      "type": "Feature",
      "properties": {
        "id": "moscow_nekrasovka_+2_-2_e6d0f8ac_large_oks_osm_way_426373828_35",
        "object_type": "restriction",
        "restriction_type": "road",
        "name": "",
        "osm_kind": "road",
        "osm_id": 426373828,
        "osm_type": "way",
        "osm_tags": {
          "highway": "footway"
        },
        "case_id": "moscow_nekrasovka_+2_-2_e6d0f8ac_large_oks"
      },
      "geometry": {
        "type": "LineString",
        "coordinates": [
          [
            37.9027083,
            55.7216068
          ],
          [
            37.904475,
            55.7221953
          ],
          [
            37.9052567,
            55.7224545
          ],
          [
            37.9059249,
            55.7226782
          ],
          [
            37.9060792,
            55.7227296
          ],
          [
            37.9068028,
            55.7229684
          ],
          [
            37.9070123,
            55.7230396
          ],
          [
            37.9072023,
            55.7231038
          ],
          [
            37.9072195,
            55.723109
          ],
          [
            37.9072542,
            55.7231194
          ],
          [
            37.9083585,
            55.7234887
          ],
          [
            37.908589,
            55.7235612
          ],
          [
            37.9092419,
            55.7237439
          ],
          [
            37.9095075,
            55.7238183
          ],
          [
            37.910182,
            55.7239906
          ],
          [
            37.910348,
            55.7240383
          ],
          [
            37.9106082,
            55.7241009
          ]
        ]
      }
    },
    {
      "type": "Feature",
      "properties": {
        "id": "moscow_nekrasovka_+2_-2_e6d0f8ac_large_oks_osm_way_428276143_36",
        "object_type": "restriction",
        "restriction_type": "road",
        "name": "",
        "osm_kind": "road",
        "osm_id": 428276143,
        "osm_type": "way",
        "osm_tags": {
          "highway": "footway"
        },
        "case_id": "moscow_nekrasovka_+2_-2_e6d0f8ac_large_oks"
      },
      "geometry": {
        "type": "LineString",
        "coordinates": [
          [
            37.9002332,
            55.7189218
          ],
          [
            37.9003773,
            55.7194777
          ],
          [
            37.9003853,
            55.7195084
          ],
          [
            37.9004035,
            55.7195958
          ],
          [
            37.9004959,
            55.7200778
          ],
          [
            37.9005336,
            55.7202213
          ]
        ]
      }
    },
    {
      "type": "Feature",
      "properties": {
        "id": "moscow_nekrasovka_+2_-2_e6d0f8ac_large_oks_osm_way_428276715_37",
        "object_type": "restriction",
        "restriction_type": "road",
        "name": "",
        "osm_kind": "road",
        "osm_id": 428276715,
        "osm_type": "way",
        "osm_tags": {
          "highway": "footway"
        },
        "case_id": "moscow_nekrasovka_+2_-2_e6d0f8ac_large_oks"
      },
      "geometry": {
        "type": "LineString",
        "coordinates": [
          [
            37.901006,
            55.7201757
          ],
          [
            37.9009778,
            55.7201152
          ],
          [
            37.9008423,
            55.7198245
          ],
          [
            37.9007767,
            55.7196838
          ],
          [
            37.9007002,
            55.7194809
          ],
          [
            37.9006539,
            55.7192734
          ],
          [
            37.9005847,
            55.7189638
          ],
          [
            37.9005505,
            55.7188106
          ],
          [
            37.9004132,
            55.7182396
          ]
        ]
      }
    },
    {
      "type": "Feature",
      "properties": {
        "id": "moscow_nekrasovka_+2_-2_e6d0f8ac_large_oks_osm_way_428277465_38",
        "object_type": "restriction",
        "restriction_type": "road",
        "name": "",
        "osm_kind": "road",
        "osm_id": 428277465,
        "osm_type": "way",
        "osm_tags": {
          "highway": "footway"
        },
        "case_id": "moscow_nekrasovka_+2_-2_e6d0f8ac_large_oks"
      },
      "geometry": {
        "type": "LineString",
        "coordinates": [
          [
            37.9007002,
            55.7194809
          ],
          [
            37.9005556,
            55.7194954
          ],
          [
            37.9003853,
            55.7195084
          ]
        ]
      }
    },
    {
      "type": "Feature",
      "properties": {
        "id": "moscow_nekrasovka_+2_-2_e6d0f8ac_large_oks_osm_way_433143964_39",
        "object_type": "restriction",
        "restriction_type": "road",
        "name": "",
        "osm_kind": "road",
        "osm_id": 433143964,
        "osm_type": "way",
        "osm_tags": {
          "highway": "footway"
        },
        "case_id": "moscow_nekrasovka_+2_-2_e6d0f8ac_large_oks"
      },
      "geometry": {
        "type": "LineString",
        "coordinates": [
          [
            37.8998352,
            55.7205382
          ],
          [
            37.8998725,
            55.7205444
          ],
          [
            37.900578,
            55.7206609
          ]
        ]
      }
    },
    {
      "type": "Feature",
      "properties": {
        "id": "moscow_nekrasovka_+2_-2_e6d0f8ac_large_oks_osm_way_433143967_40",
        "object_type": "restriction",
        "restriction_type": "road",
        "name": "",
        "osm_kind": "road",
        "osm_id": 433143967,
        "osm_type": "way",
        "osm_tags": {
          "highway": "footway"
        },
        "case_id": "moscow_nekrasovka_+2_-2_e6d0f8ac_large_oks"
      },
      "geometry": {
        "type": "LineString",
        "coordinates": [
          [
            37.9007433,
            55.7206921
          ],
          [
            37.9008367,
            55.7208138
          ]
        ]
      }
    },
    {
      "type": "Feature",
      "properties": {
        "id": "moscow_nekrasovka_+2_-2_e6d0f8ac_large_oks_osm_way_433143995_41",
        "object_type": "restriction",
        "restriction_type": "road",
        "name": "",
        "osm_kind": "road",
        "osm_id": 433143995,
        "osm_type": "way",
        "osm_tags": {
          "highway": "footway"
        },
        "case_id": "moscow_nekrasovka_+2_-2_e6d0f8ac_large_oks"
      },
      "geometry": {
        "type": "LineString",
        "coordinates": [
          [
            37.901164,
            55.7207354
          ],
          [
            37.9013342,
            55.7206904
          ],
          [
            37.9010444,
            55.720236
          ],
          [
            37.901006,
            55.7201757
          ]
        ]
      }
    },
    {
      "type": "Feature",
      "properties": {
        "id": "moscow_nekrasovka_+2_-2_e6d0f8ac_large_oks_osm_way_433143997_42",
        "object_type": "restriction",
        "restriction_type": "road",
        "name": "",
        "osm_kind": "road",
        "osm_id": 433143997,
        "osm_type": "way",
        "osm_tags": {
          "highway": "footway"
        },
        "case_id": "moscow_nekrasovka_+2_-2_e6d0f8ac_large_oks"
      },
      "geometry": {
        "type": "LineString",
        "coordinates": [
          [
            37.9024549,
            55.7218095
          ],
          [
            37.9025696,
            55.7217258
          ],
          [
            37.9027083,
            55.7216068
          ]
        ]
      }
    },
    {
      "type": "Feature",
      "properties": {
        "id": "moscow_nekrasovka_+2_-2_e6d0f8ac_large_oks_osm_way_433144008_43",
        "object_type": "restriction",
        "restriction_type": "road",
        "name": "",
        "osm_kind": "road",
        "osm_id": 433144008,
        "osm_type": "way",
        "osm_tags": {
          "highway": "footway"
        },
        "case_id": "moscow_nekrasovka_+2_-2_e6d0f8ac_large_oks"
      },
      "geometry": {
        "type": "LineString",
        "coordinates": [
          [
            37.9008367,
            55.7208138
          ],
          [
            37.9008744,
            55.7208579
          ],
          [
            37.9009276,
            55.7209224
          ]
        ]
      }
    },
    {
      "type": "Feature",
      "properties": {
        "id": "moscow_nekrasovka_+2_-2_e6d0f8ac_large_oks_osm_way_433144020_44",
        "object_type": "restriction",
        "restriction_type": "road",
        "name": "",
        "osm_kind": "road",
        "osm_id": 433144020,
        "osm_type": "way",
        "osm_tags": {
          "highway": "path"
        },
        "case_id": "moscow_nekrasovka_+2_-2_e6d0f8ac_large_oks"
      },
      "geometry": {
        "type": "LineString",
        "coordinates": [
          [
            37.9021646,
            55.7192183
          ],
          [
            37.9014614,
            55.7192211
          ],
          [
            37.9011725,
            55.7193839
          ],
          [
            37.9007002,
            55.7194809
          ]
        ]
      }
    },
    {
      "type": "Feature",
      "properties": {
        "id": "moscow_nekrasovka_+2_-2_e6d0f8ac_large_oks_osm_way_433144042_45",
        "object_type": "restriction",
        "restriction_type": "road",
        "name": "Лухмановская улица",
        "osm_kind": "road",
        "osm_id": 433144042,
        "osm_type": "way",
        "osm_tags": {
          "highway": "tertiary",
          "name": "Лухмановская улица"
        },
        "case_id": "moscow_nekrasovka_+2_-2_e6d0f8ac_large_oks"
      },
      "geometry": {
        "type": "LineString",
        "coordinates": [
          [
            37.9010761,
            55.7207969
          ],
          [
            37.9013947,
            55.7210944
          ],
          [
            37.9015459,
            55.7212023
          ],
          [
            37.9017016,
            55.7213013
          ],
          [
            37.9019315,
            55.7214388
          ],
          [
            37.9020353,
            55.7214941
          ],
          [
            37.9021635,
            55.7215547
          ],
          [
            37.902501,
            55.7216976
          ],
          [
            37.9025696,
            55.7217258
          ]
        ]
      }
    },
    {
      "type": "Feature",
      "properties": {
        "id": "moscow_nekrasovka_+2_-2_e6d0f8ac_large_oks_osm_way_517367853_46",
        "object_type": "restriction",
        "restriction_type": "road",
        "name": "",
        "osm_kind": "road",
        "osm_id": 517367853,
        "osm_type": "way",
        "osm_tags": {
          "highway": "footway"
        },
        "case_id": "moscow_nekrasovka_+2_-2_e6d0f8ac_large_oks"
      },
      "geometry": {
        "type": "LineString",
        "coordinates": [
          [
            37.9006646,
            55.7210891
          ],
          [
            37.9008259,
            55.7209611
          ],
          [
            37.9008803,
            55.7209419
          ],
          [
            37.9009386,
            55.7209415
          ]
        ]
      }
    },
    {
      "type": "Feature",
      "properties": {
        "id": "moscow_nekrasovka_+2_-2_e6d0f8ac_large_oks_osm_way_517367854_47",
        "object_type": "restriction",
        "restriction_type": "road",
        "name": "",
        "osm_kind": "road",
        "osm_id": 517367854,
        "osm_type": "way",
        "osm_tags": {
          "highway": "footway"
        },
        "case_id": "moscow_nekrasovka_+2_-2_e6d0f8ac_large_oks"
      },
      "geometry": {
        "type": "LineString",
        "coordinates": [
          [
            37.9021688,
            55.7225234
          ],
          [
            37.9015122,
            55.7226064
          ],
          [
            37.9012374,
            55.722626
          ],
          [
            37.9010024,
            55.7226404
          ],
          [
            37.9003778,
            55.7226608
          ],
          [
            37.8999952,
            55.7226659
          ],
          [
            37.8997612,
            55.722663
          ],
          [
            37.8996239,
            55.7226564
          ],
          [
            37.8995497,
            55.7226447
          ],
          [
            37.8994723,
            55.7226227
          ],
          [
            37.8993856,
            55.7225705
          ],
          [
            37.8993359,
            55.7225292
          ],
          [
            37.899294,
            55.7224963
          ],
          [
            37.8992707,
            55.7224357
          ],
          [
            37.8992928,
            55.7223218
          ],
          [
            37.899371,
            55.7222343
          ],
          [
            37.8995943,
            55.7220583
          ],
          [
            37.90002,
            55.7217266
          ],
          [
            37.9002279,
            55.7215257
          ],
          [
            37.9002516,
            55.7215057
          ],
          [
            37.9005949,
            55.7211522
          ],
          [
            37.9006646,
            55.7210891
          ],
          [
            37.9007236,
            55.7210646
          ],
          [
            37.9008309,
            55.7210588
          ],
          [
            37.901008,
            55.7210646
          ],
          [
            37.9010871,
            55.7210789
          ],
          [
            37.9012655,
            55.7211744
          ]
        ]
      }
    },
    {
      "type": "Feature",
      "properties": {
        "id": "moscow_nekrasovka_+2_-2_e6d0f8ac_large_oks_osm_way_696527392_48",
        "object_type": "restriction",
        "restriction_type": "road",
        "name": "",
        "osm_kind": "road",
        "osm_id": 696527392,
        "osm_type": "way",
        "osm_tags": {
          "highway": "path"
        },
        "case_id": "moscow_nekrasovka_+2_-2_e6d0f8ac_large_oks"
      },
      "geometry": {
        "type": "LineString",
        "coordinates": [
          [
            37.9014614,
            55.7192211
          ],
          [
            37.901059,
            55.7191869
          ],
          [
            37.9009544,
            55.7190691
          ],
          [
            37.9005847,
            55.7189638
          ]
        ]
      }
    },
    {
      "type": "Feature",
      "properties": {
        "id": "moscow_nekrasovka_+2_-2_e6d0f8ac_large_oks_osm_way_696527400_49",
        "object_type": "restriction",
        "restriction_type": "road",
        "name": "",
        "osm_kind": "road",
        "osm_id": 696527400,
        "osm_type": "way",
        "osm_tags": {
          "highway": "footway"
        },
        "case_id": "moscow_nekrasovka_+2_-2_e6d0f8ac_large_oks"
      },
      "geometry": {
        "type": "LineString",
        "coordinates": [
          [
            37.9027292,
            55.7200339
          ],
          [
            37.9026777,
            55.7200113
          ],
          [
            37.9025404,
            55.7199512
          ],
          [
            37.9023033,
            55.7198474
          ]
        ]
      }
    },
    {
      "type": "Feature",
      "properties": {
        "id": "moscow_nekrasovka_+2_-2_e6d0f8ac_large_oks_osm_way_763228333_50",
        "object_type": "restriction",
        "restriction_type": "road",
        "name": "",
        "osm_kind": "road",
        "osm_id": 763228333,
        "osm_type": "way",
        "osm_tags": {
          "highway": "cycleway"
        },
        "case_id": "moscow_nekrasovka_+2_-2_e6d0f8ac_large_oks"
      },
      "geometry": {
        "type": "LineString",
        "coordinates": [
          [
            37.9033204,
            55.7222168
          ],
          [
            37.9033081,
            55.7222709
          ],
          [
            37.9032534,
            55.7223112
          ],
          [
            37.9030898,
            55.7223474
          ],
          [
            37.9023418,
            55.722479
          ],
          [
            37.9021547,
            55.722507
          ],
          [
            37.9018318,
            55.7225529
          ],
          [
            37.9010781,
            55.7226057
          ],
          [
            37.900319,
            55.7226405
          ],
          [
            37.8998148,
            55.7226314
          ],
          [
            37.8996619,
            55.7226163
          ],
          [
            37.8995324,
            55.7225957
          ],
          [
            37.8994332,
            55.7225485
          ],
          [
            37.8993801,
            55.7224963
          ],
          [
            37.8993446,
            55.7224388
          ],
          [
            37.8993507,
            55.7223609
          ],
          [
            37.8993774,
            55.7222978
          ],
          [
            37.8995519,
            55.7221631
          ],
          [
            37.8996941,
            55.7220725
          ],
          [
            37.8999187,
            55.7219086
          ],
          [
            37.9002695,
            55.7215906
          ],
          [
            37.900555,
            55.7212952
          ],
          [
            37.9006812,
            55.7212438
          ],
          [
            37.9008233,
            55.7212175
          ],
          [
            37.9009547,
            55.7212144
          ],
          [
            37.9010593,
            55.7212175
          ],
          [
            37.9011693,
            55.7212371
          ],
          [
            37.9012102,
            55.7212572
          ],
          [
            37.9014027,
            55.7213519
          ],
          [
            37.9017352,
            55.7215619
          ],
          [
            37.9019257,
            55.7216737
          ],
          [
            37.9021081,
            55.7217492
          ],
          [
            37.9024606,
            55.7218645
          ],
          [
            37.9028269,
            55.7219894
          ],
          [
            37.9030629,
            55.7220748
          ],
          [
            37.9032199,
            55.7221458
          ],
          [
            37.9032788,
            55.7221767
          ],
          [
            37.9033204,
            55.7222168
          ]
        ]
      }
    },
    {
      "type": "Feature",
      "properties": {
        "id": "moscow_nekrasovka_+2_-2_e6d0f8ac_large_oks_osm_way_1154344133_51",
        "object_type": "restriction",
        "restriction_type": "road",
        "name": "",
        "osm_kind": "road",
        "osm_id": 1154344133,
        "osm_type": "way",
        "osm_tags": {
          "highway": "service"
        },
        "case_id": "moscow_nekrasovka_+2_-2_e6d0f8ac_large_oks"
      },
      "geometry": {
        "type": "LineString",
        "coordinates": [
          [
            37.9025029,
            55.7189592
          ],
          [
            37.9025479,
            55.7189406
          ],
          [
            37.902579,
            55.7189145
          ],
          [
            37.9025927,
            55.718884
          ]
        ]
      }
    },
    {
      "type": "Feature",
      "properties": {
        "id": "moscow_nekrasovka_+2_-2_e6d0f8ac_large_oks_osm_way_1177966735_52",
        "object_type": "restriction",
        "restriction_type": "road",
        "name": "",
        "osm_kind": "road",
        "osm_id": 1177966735,
        "osm_type": "way",
        "osm_tags": {
          "highway": "path"
        },
        "case_id": "moscow_nekrasovka_+2_-2_e6d0f8ac_large_oks"
      },
      "geometry": {
        "type": "LineString",
        "coordinates": [
          [
            37.9022033,
            55.7194305
          ],
          [
            37.9018226,
            55.7194416
          ],
          [
            37.9016716,
            55.7194381
          ],
          [
            37.9013943,
            55.7193982
          ],
          [
            37.9012988,
            55.719393
          ],
          [
            37.9011725,
            55.7193839
          ]
        ]
      }
    },
    {
      "type": "Feature",
      "properties": {
        "id": "moscow_nekrasovka_+2_-2_e6d0f8ac_large_oks_osm_way_1185360810_53",
        "object_type": "restriction",
        "restriction_type": "road",
        "name": "",
        "osm_kind": "road",
        "osm_id": 1185360810,
        "osm_type": "way",
        "osm_tags": {
          "highway": "path"
        },
        "case_id": "moscow_nekrasovka_+2_-2_e6d0f8ac_large_oks"
      },
      "geometry": {
        "type": "LineString",
        "coordinates": [
          [
            37.901059,
            55.7191869
          ],
          [
            37.9008791,
            55.7192467
          ],
          [
            37.9006539,
            55.7192734
          ]
        ]
      }
    },
    {
      "type": "Feature",
      "properties": {
        "id": "moscow_nekrasovka_+2_-2_e6d0f8ac_large_oks_osm_way_1207136635_54",
        "object_type": "restriction",
        "restriction_type": "road",
        "name": "Лухмановская улица",
        "osm_kind": "road",
        "osm_id": 1207136635,
        "osm_type": "way",
        "osm_tags": {
          "highway": "tertiary",
          "name": "Лухмановская улица"
        },
        "case_id": "moscow_nekrasovka_+2_-2_e6d0f8ac_large_oks"
      },
      "geometry": {
        "type": "LineString",
        "coordinates": [
          [
            37.9007683,
            55.720358
          ],
          [
            37.9009403,
            55.7206363
          ],
          [
            37.901042,
            55.7207649
          ],
          [
            37.9010761,
            55.7207969
          ]
        ]
      }
    },
    {
      "type": "Feature",
      "properties": {
        "id": "moscow_nekrasovka_+2_-2_e6d0f8ac_large_oks_osm_way_1215117523_55",
        "object_type": "restriction",
        "restriction_type": "oks",
        "name": "",
        "osm_kind": "building",
        "osm_id": 1215117523,
        "osm_type": "way",
        "osm_tags": {
          "building": "service"
        },
        "case_id": "moscow_nekrasovka_+2_-2_e6d0f8ac_large_oks"
      },
      "geometry": {
        "type": "Polygon",
        "coordinates": [
          [
            [
              37.9053207,
              55.7212693
            ],
            [
              37.9053782,
              55.7212418
            ],
            [
              37.9053269,
              55.7212078
            ],
            [
              37.9052694,
              55.7212352
            ],
            [
              37.9053207,
              55.7212693
            ]
          ]
        ]
      }
    },
    {
      "type": "Feature",
      "properties": {
        "id": "moscow_nekrasovka_+2_-2_e6d0f8ac_large_oks_osm_way_1215117526_56",
        "object_type": "restriction",
        "restriction_type": "oks",
        "name": "",
        "osm_kind": "building",
        "osm_id": 1215117526,
        "osm_type": "way",
        "osm_tags": {
          "building": "service"
        },
        "case_id": "moscow_nekrasovka_+2_-2_e6d0f8ac_large_oks",
        "selected_as_heat_demand_proxy": true,
        "connection_point_id": "moscow_nekrasovka_+2_-2_e6d0f8ac_large_oks_cp_3"
      },
      "geometry": {
        "type": "Polygon",
        "coordinates": [
          [
            [
              37.9041604,
              55.7205712
            ],
            [
              37.9041986,
              55.7205346
            ],
            [
              37.9041302,
              55.720512
            ],
            [
              37.904092,
              55.7205486
            ],
            [
              37.9041604,
              55.7205712
            ]
          ]
        ]
      }
    },
    {
      "type": "Feature",
      "properties": {
        "id": "moscow_nekrasovka_+2_-2_e6d0f8ac_large_oks_osm_way_1215117528_57",
        "object_type": "restriction",
        "restriction_type": "oks",
        "name": "",
        "osm_kind": "building",
        "osm_id": 1215117528,
        "osm_type": "way",
        "osm_tags": {
          "building": "service"
        },
        "case_id": "moscow_nekrasovka_+2_-2_e6d0f8ac_large_oks"
      },
      "geometry": {
        "type": "Polygon",
        "coordinates": [
          [
            [
              37.9024614,
              55.7203612
            ],
            [
              37.902478,
              55.7203095
            ],
            [
              37.9024063,
              55.7203022
            ],
            [
              37.9023898,
              55.7203539
            ],
            [
              37.9024614,
              55.7203612
            ]
          ]
        ]
      }
    },
    {
      "type": "Feature",
      "properties": {
        "id": "moscow_nekrasovka_+2_-2_e6d0f8ac_large_oks_osm_way_1319982565_58",
        "object_type": "restriction",
        "restriction_type": "road",
        "name": "",
        "osm_kind": "road",
        "osm_id": 1319982565,
        "osm_type": "way",
        "osm_tags": {
          "highway": "service"
        },
        "case_id": "moscow_nekrasovka_+2_-2_e6d0f8ac_large_oks"
      },
      "geometry": {
        "type": "LineString",
        "coordinates": [
          [
            37.9003403,
            55.7196002
          ],
          [
            37.9004035,
            55.7195958
          ],
          [
            37.900574,
            55.7195839
          ]
        ]
      }
    },
    {
      "type": "Feature",
      "properties": {
        "id": "moscow_nekrasovka_+2_-2_e6d0f8ac_large_oks_osm_way_1326428971_59",
        "object_type": "restriction",
        "restriction_type": "road",
        "name": "",
        "osm_kind": "road",
        "osm_id": 1326428971,
        "osm_type": "way",
        "osm_tags": {
          "highway": "footway"
        },
        "case_id": "moscow_nekrasovka_+2_-2_e6d0f8ac_large_oks"
      },
      "geometry": {
        "type": "LineString",
        "coordinates": [
          [
            37.9012102,
            55.7212572
          ],
          [
            37.9012655,
            55.7211744
          ]
        ]
      }
    },
    {
      "type": "Feature",
      "properties": {
        "id": "moscow_nekrasovka_+2_-2_e6d0f8ac_large_oks_osm_way_1326428972_60",
        "object_type": "restriction",
        "restriction_type": "road",
        "name": "",
        "osm_kind": "road",
        "osm_id": 1326428972,
        "osm_type": "way",
        "osm_tags": {
          "highway": "footway"
        },
        "case_id": "moscow_nekrasovka_+2_-2_e6d0f8ac_large_oks"
      },
      "geometry": {
        "type": "LineString",
        "coordinates": [
          [
            37.9009276,
            55.7209224
          ],
          [
            37.9009386,
            55.7209415
          ]
        ]
      }
    },
    {
      "type": "Feature",
      "properties": {
        "id": "moscow_nekrasovka_+2_-2_e6d0f8ac_large_oks_osm_way_1326429799_61",
        "object_type": "restriction",
        "restriction_type": "road",
        "name": "",
        "osm_kind": "road",
        "osm_id": 1326429799,
        "osm_type": "way",
        "osm_tags": {
          "highway": "footway"
        },
        "case_id": "moscow_nekrasovka_+2_-2_e6d0f8ac_large_oks"
      },
      "geometry": {
        "type": "LineString",
        "coordinates": [
          [
            37.9009386,
            55.7209415
          ],
          [
            37.9009783,
            55.72095
          ],
          [
            37.9011109,
            55.7210464
          ],
          [
            37.9011939,
            55.7211146
          ],
          [
            37.9012655,
            55.7211744
          ],
          [
            37.9015417,
            55.7213718
          ],
          [
            37.9016834,
            55.7214756
          ],
          [
            37.901791,
            55.7215544
          ],
          [
            37.9020479,
            55.7216732
          ],
          [
            37.9022438,
            55.7217599
          ],
          [
            37.9024549,
            55.7218095
          ]
        ]
      }
    },
    {
      "type": "Feature",
      "properties": {
        "id": "moscow_nekrasovka_+2_-2_e6d0f8ac_large_oks_osm_way_1393154977_62",
        "object_type": "restriction",
        "restriction_type": "road",
        "name": "",
        "osm_kind": "road",
        "osm_id": 1393154977,
        "osm_type": "way",
        "osm_tags": {
          "highway": "footway"
        },
        "case_id": "moscow_nekrasovka_+2_-2_e6d0f8ac_large_oks"
      },
      "geometry": {
        "type": "LineString",
        "coordinates": [
          [
            37.9009778,
            55.7201152
          ],
          [
            37.901237,
            55.720112
          ],
          [
            37.9013811,
            55.7201202
          ],
          [
            37.9014484,
            55.720124
          ],
          [
            37.9018443,
            55.7201582
          ]
        ]
      }
    },
    {
      "type": "Feature",
      "properties": {
        "id": "moscow_nekrasovka_+2_-2_e6d0f8ac_large_oks_osm_way_1393154978_63",
        "object_type": "restriction",
        "restriction_type": "road",
        "name": "",
        "osm_kind": "road",
        "osm_id": 1393154978,
        "osm_type": "way",
        "osm_tags": {
          "highway": "footway"
        },
        "case_id": "moscow_nekrasovka_+2_-2_e6d0f8ac_large_oks"
      },
      "geometry": {
        "type": "LineString",
        "coordinates": [
          [
            37.9008423,
            55.7198245
          ],
          [
            37.9013811,
            55.7201202
          ]
        ]
      }
    },
    {
      "type": "Feature",
      "properties": {
        "id": "moscow_nekrasovka_+2_-2_e6d0f8ac_large_oks_osm_way_1393154979_64",
        "object_type": "restriction",
        "restriction_type": "road",
        "name": "",
        "osm_kind": "road",
        "osm_id": 1393154979,
        "osm_type": "way",
        "osm_tags": {
          "highway": "service"
        },
        "case_id": "moscow_nekrasovka_+2_-2_e6d0f8ac_large_oks"
      },
      "geometry": {
        "type": "LineString",
        "coordinates": [
          [
            37.9049139,
            55.7196669
          ],
          [
            37.9049731,
            55.7196145
          ]
        ]
      }
    },
    {
      "type": "Feature",
      "properties": {
        "id": "moscow_nekrasovka_+2_-2_e6d0f8ac_large_oks_osm_way_1393308591_65",
        "object_type": "restriction",
        "restriction_type": "road",
        "name": "",
        "osm_kind": "road",
        "osm_id": 1393308591,
        "osm_type": "way",
        "osm_tags": {
          "highway": "footway"
        },
        "case_id": "moscow_nekrasovka_+2_-2_e6d0f8ac_large_oks"
      },
      "geometry": {
        "type": "LineString",
        "coordinates": [
          [
            37.9010444,
            55.720236
          ],
          [
            37.9014923,
            55.7202393
          ]
        ]
      }
    },
    {
      "type": "Feature",
      "properties": {
        "id": "moscow_nekrasovka_+2_-2_e6d0f8ac_large_oks_osm_way_1469928968_66",
        "object_type": "restriction",
        "restriction_type": "road",
        "name": "",
        "osm_kind": "road",
        "osm_id": 1469928968,
        "osm_type": "way",
        "osm_tags": {
          "highway": "footway"
        },
        "case_id": "moscow_nekrasovka_+2_-2_e6d0f8ac_large_oks"
      },
      "geometry": {
        "type": "LineString",
        "coordinates": [
          [
            37.9036457,
            55.7203261
          ],
          [
            37.9040927,
            55.7204794
          ],
          [
            37.904271,
            55.7205353
          ],
          [
            37.9047166,
            55.7206885
          ]
        ]
      }
    },
    {
      "type": "Feature",
      "properties": {
        "id": "moscow_nekrasovka_+2_-2_e6d0f8ac_large_oks_osm_way_1469928969_67",
        "object_type": "restriction",
        "restriction_type": "road",
        "name": "",
        "osm_kind": "road",
        "osm_id": 1469928969,
        "osm_type": "way",
        "osm_tags": {
          "highway": "footway"
        },
        "case_id": "moscow_nekrasovka_+2_-2_e6d0f8ac_large_oks"
      },
      "geometry": {
        "type": "LineString",
        "coordinates": [
          [
            37.9042858,
            55.7204001
          ],
          [
            37.9040927,
            55.7204794
          ],
          [
            37.9040033,
            55.72059
          ]
        ]
      }
    },
    {
      "type": "Feature",
      "properties": {
        "id": "moscow_nekrasovka_+2_-2_e6d0f8ac_large_oks_osm_way_1469928971_68",
        "object_type": "restriction",
        "restriction_type": "road",
        "name": "",
        "osm_kind": "road",
        "osm_id": 1469928971,
        "osm_type": "way",
        "osm_tags": {
          "highway": "footway"
        },
        "case_id": "moscow_nekrasovka_+2_-2_e6d0f8ac_large_oks"
      },
      "geometry": {
        "type": "LineString",
        "coordinates": [
          [
            37.9026777,
            55.7200113
          ],
          [
            37.9027851,
            55.7199016
          ],
          [
            37.9029149,
            55.7197933
          ],
          [
            37.9030915,
            55.7196508
          ],
          [
            37.903057,
            55.7195613
          ]
        ]
      }
    },
    {
      "type": "Feature",
      "properties": {
        "id": "moscow_nekrasovka_+2_-2_e6d0f8ac_large_oks_osm_way_1469928972_69",
        "object_type": "restriction",
        "restriction_type": "road",
        "name": "",
        "osm_kind": "road",
        "osm_id": 1469928972,
        "osm_type": "way",
        "osm_tags": {
          "highway": "footway"
        },
        "case_id": "moscow_nekrasovka_+2_-2_e6d0f8ac_large_oks"
      },
      "geometry": {
        "type": "LineString",
        "coordinates": [
          [
            37.9034207,
            55.7199306
          ],
          [
            37.9035426,
            55.7198792
          ]
        ]
      }
    },
    {
      "type": "Feature",
      "properties": {
        "id": "moscow_nekrasovka_+2_-2_e6d0f8ac_large_oks_osm_way_1469928973_70",
        "object_type": "restriction",
        "restriction_type": "road",
        "name": "",
        "osm_kind": "road",
        "osm_id": 1469928973,
        "osm_type": "way",
        "osm_tags": {
          "highway": "footway"
        },
        "case_id": "moscow_nekrasovka_+2_-2_e6d0f8ac_large_oks"
      },
      "geometry": {
        "type": "LineString",
        "coordinates": [
          [
            37.9025404,
            55.7199512
          ],
          [
            37.9026242,
            55.719905
          ],
          [
            37.9028106,
            55.719823
          ],
          [
            37.9029149,
            55.7197933
          ],
          [
            37.9029326,
            55.7197883
          ],
          [
            37.903052,
            55.7197724
          ],
          [
            37.9031593,
            55.7197664
          ],
          [
            37.903288,
            55.7197807
          ],
          [
            37.9034328,
            55.7198275
          ],
          [
            37.9035426,
            55.7198792
          ],
          [
            37.9035629,
            55.7198887
          ],
          [
            37.9036494,
            55.7199654
          ],
          [
            37.9037769,
            55.7200917
          ]
        ]
      }
    },
    {
      "type": "Feature",
      "properties": {
        "id": "moscow_nekrasovka_+2_-2_e6d0f8ac_large_oks_osm_way_1469928977_71",
        "object_type": "restriction",
        "restriction_type": "road",
        "name": "",
        "osm_kind": "road",
        "osm_id": 1469928977,
        "osm_type": "way",
        "osm_tags": {
          "highway": "footway"
        },
        "case_id": "moscow_nekrasovka_+2_-2_e6d0f8ac_large_oks"
      },
      "geometry": {
        "type": "LineString",
        "coordinates": [
          [
            37.9041744,
            55.7209423
          ],
          [
            37.9042536,
            55.7210202
          ],
          [
            37.9043759,
            55.7211382
          ]
        ]
      }
    },
    {
      "type": "Feature",
      "properties": {
        "id": "moscow_nekrasovka_+2_-2_e6d0f8ac_large_oks_osm_way_1469928985_72",
        "object_type": "restriction",
        "restriction_type": "road",
        "name": "",
        "osm_kind": "road",
        "osm_id": 1469928985,
        "osm_type": "way",
        "osm_tags": {
          "highway": "footway"
        },
        "case_id": "moscow_nekrasovka_+2_-2_e6d0f8ac_large_oks"
      },
      "geometry": {
        "type": "LineString",
        "coordinates": [
          [
            37.9043475,
            55.720337
          ],
          [
            37.9043302,
            55.7203553
          ],
          [
            37.9042858,
            55.7204001
          ],
          [
            37.904271,
            55.7205353
          ],
          [
            37.9041844,
            55.7206398
          ]
        ]
      }
    },
    {
      "type": "Feature",
      "properties": {
        "id": "moscow_nekrasovka_+2_-2_e6d0f8ac_large_oks_osm_way_1469928986_73",
        "object_type": "restriction",
        "restriction_type": "road",
        "name": "",
        "osm_kind": "road",
        "osm_id": 1469928986,
        "osm_type": "way",
        "osm_tags": {
          "highway": "footway"
        },
        "case_id": "moscow_nekrasovka_+2_-2_e6d0f8ac_large_oks"
      },
      "geometry": {
        "type": "LineString",
        "coordinates": [
          [
            37.9037837,
            55.7201608
          ],
          [
            37.9043475,
            55.720337
          ],
          [
            37.9049248,
            55.7205229
          ]
        ]
      }
    },
    {
      "type": "Feature",
      "properties": {
        "id": "moscow_nekrasovka_+2_-2_e6d0f8ac_large_oks_osm_way_1511194302_74",
        "object_type": "restriction",
        "restriction_type": "road",
        "name": "",
        "osm_kind": "road",
        "osm_id": 1511194302,
        "osm_type": "way",
        "osm_tags": {
          "highway": "footway"
        },
        "case_id": "moscow_nekrasovka_+2_-2_e6d0f8ac_large_oks"
      },
      "geometry": {
        "type": "LineString",
        "coordinates": [
          [
            37.900539,
            55.7202518
          ],
          [
            37.8998924,
            55.7203175
          ],
          [
            37.899728,
            55.7203342
          ],
          [
            37.8991647,
            55.720469
          ]
        ]
      }
    },
    {
      "type": "Feature",
      "properties": {
        "id": "moscow_nekrasovka_+2_-2_e6d0f8ac_large_oks_source",
        "object_type": "source",
        "case_id": "moscow_nekrasovka_+2_-2_e6d0f8ac_large_oks"
      },
      "geometry": {
        "type": "Point",
        "coordinates": [
          37.90082358666667,
          55.7202713
        ]
      }
    },
    {
      "type": "Feature",
      "properties": {
        "id": "moscow_nekrasovka_+2_-2_e6d0f8ac_large_oks_existing_network",
        "object_type": "heat_network",
        "diameter": 500,
        "flow_tph": 180.0,
        "upstream_object_id": "moscow_nekrasovka_+2_-2_e6d0f8ac_large_oks_source",
        "case_id": "moscow_nekrasovka_+2_-2_e6d0f8ac_large_oks"
      },
      "geometry": {
        "type": "LineString",
        "coordinates": [
          [
            37.90082358666667,
            55.7202713
          ],
          [
            37.90194004,
            55.7202713
          ]
        ]
      }
    },
    {
      "type": "Feature",
      "properties": {
        "id": "moscow_nekrasovka_+2_-2_e6d0f8ac_large_oks_existing_chamber",
        "object_type": "heat_chamber",
        "diameter": 500,
        "upstream_object_id": "moscow_nekrasovka_+2_-2_e6d0f8ac_large_oks_source",
        "case_id": "moscow_nekrasovka_+2_-2_e6d0f8ac_large_oks"
      },
      "geometry": {
        "type": "Point",
        "coordinates": [
          37.90194004,
          55.7202713
        ]
      }
    },
    {
      "type": "Feature",
      "properties": {
        "id": "moscow_nekrasovka_+2_-2_e6d0f8ac_large_oks_cp_1",
        "object_type": "oks_connection_point",
        "flow_tph": 20.0,
        "case_id": "moscow_nekrasovka_+2_-2_e6d0f8ac_large_oks",
        "consumer_role": "osm_building_heat_demand_proxy",
        "source_building_osm_id": 53758324,
        "source_building_osm_type": "way",
        "source_building_name": "",
        "source_building_tags": {
          "building": "apartments"
        },
        "footprint_area_m2": 592.68,
        "flow_basis": "synthetic_proxy_from_osm_footprint_area",
        "stress_bucket": "large_oks"
      },
      "geometry": {
        "type": "Point",
        "coordinates": [
          37.90314749674107,
          55.720148361278525
        ]
      }
    },
    {
      "type": "Feature",
      "properties": {
        "id": "moscow_nekrasovka_+2_-2_e6d0f8ac_large_oks_cp_2",
        "object_type": "oks_connection_point",
        "flow_tph": 20.0,
        "case_id": "moscow_nekrasovka_+2_-2_e6d0f8ac_large_oks",
        "consumer_role": "osm_building_heat_demand_proxy",
        "source_building_osm_id": 53758316,
        "source_building_osm_type": "way",
        "source_building_name": "Детский сад №2615",
        "source_building_tags": {
          "building": "kindergarten",
          "name": "Детский сад №2615"
        },
        "footprint_area_m2": 1055.32,
        "flow_basis": "synthetic_proxy_from_osm_footprint_area",
        "stress_bucket": "large_oks"
      },
      "geometry": {
        "type": "Point",
        "coordinates": [
          37.90469976098886,
          55.72002349467159
        ]
      }
    },
    {
      "type": "Feature",
      "properties": {
        "id": "moscow_nekrasovka_+2_-2_e6d0f8ac_large_oks_cp_3",
        "object_type": "oks_connection_point",
        "flow_tph": 20.0,
        "case_id": "moscow_nekrasovka_+2_-2_e6d0f8ac_large_oks",
        "consumer_role": "osm_building_heat_demand_proxy",
        "source_building_osm_id": 1215117526,
        "source_building_osm_type": "way",
        "source_building_name": "",
        "source_building_tags": {
          "building": "service"
        },
        "footprint_area_m2": 23.5,
        "flow_basis": "synthetic_proxy_from_osm_footprint_area",
        "stress_bucket": "large_oks"
      },
      "geometry": {
        "type": "Point",
        "coordinates": [
          37.904145299999996,
          55.720541600000004
        ]
      }
    },
    {
      "type": "Feature",
      "properties": {
        "id": "moscow_nekrasovka_+2_-2_e6d0f8ac_large_oks_cp_4",
        "object_type": "oks_connection_point",
        "flow_tph": 20.0,
        "case_id": "moscow_nekrasovka_+2_-2_e6d0f8ac_large_oks",
        "consumer_role": "osm_building_heat_demand_proxy",
        "source_building_osm_id": 53758327,
        "source_building_osm_type": "way",
        "source_building_name": "",
        "source_building_tags": {
          "building": "apartments"
        },
        "footprint_area_m2": 592.72,
        "flow_basis": "synthetic_proxy_from_osm_footprint_area",
        "stress_bucket": "large_oks"
      },
      "geometry": {
        "type": "Point",
        "coordinates": [
          37.90388732480703,
          55.72081956858362
        ]
      }
    }
  ]
}