{
  "type": "FeatureCollection",
  "name": "moscow_mitino_-3_-3_aeaec586_large_oks",
  "crs": {
    "type": "name",
    "properties": {
      "name": "EPSG:4326"
    }
  },
  "metadata": {
    "dataset_version": "osm_building_anchored_routing_scenes_v3",
    "parent_scene_id": "moscow_mitino_-3_-3_aeaec586",
    "split": "train",
    "city": "Москва Митино",
    "seed": "moscow_mitino",
    "research_bucket": "large_oks",
    "source_research_bucket": "refusal",
    "research_bucket_is_ground_truth": false,
    "bbox_south_west_north_east": [
      55.8217456,
      37.3177995,
      55.8244405,
      37.3225969
    ],
    "real_data_source": "OpenStreetMap via Overpass API",
    "source_file": "data/real_geojson_places/refusal/091_moscow_mitino_-3_-3_aeaec586.geojson",
    "real_layers": [
      "restrictions",
      "consumer_building_footprints"
    ],
    "synthetic_layers": [
      "source",
      "heat_network",
      "heat_chamber",
      "heat_demand"
    ],
    "consumer_selection": "deterministic points inside real OSM building footprints",
    "flow_model": "synthetic proxy derived from building footprint area; not metered demand",
    "note": "OSM buildings anchor consumers; heat demand and seed network are synthetic proxies."
  },
  "features": [
    {
      "type": "Feature",
      "properties": {
        "id": "moscow_mitino_-3_-3_aeaec586_large_oks_osm_way_94621260_1",
        "object_type": "restriction",
        "restriction_type": "oks",
        "name": "",
        "osm_kind": "building",
        "osm_id": 94621260,
        "osm_type": "way",
        "osm_tags": {
          "building": "yes"
        },
        "case_id": "moscow_mitino_-3_-3_aeaec586_large_oks"
      },
      "geometry": {
        "type": "Polygon",
        "coordinates": [
          [
            [
              37.3210091,
              55.8217753
            ],
            [
              37.3211363,
              55.8218597
            ],
            [
              37.3211941,
              55.8218323
            ],
            [
              37.3212742,
              55.8218854
            ],
            [
              37.3214418,
              55.8218057
            ],
            [
              37.3213617,
              55.8217525
            ],
            [
              37.321413,
              55.8217281
            ],
            [
              37.3212859,
              55.8216437
            ],
            [
              37.3212031,
              55.821683
            ],
            [
              37.3211808,
              55.8216682
            ],
            [
              37.3210626,
              55.8217246
            ],
            [
              37.3210847,
              55.8217393
            ],
            [
              37.3210091,
              55.8217753
            ]
          ]
        ]
      }
    },
    {
      "type": "Feature",
      "properties": {
        "id": "moscow_mitino_-3_-3_aeaec586_large_oks_osm_way_94621274_2",
        "object_type": "restriction",
        "restriction_type": "oks",
        "name": "",
        "osm_kind": "building",
        "osm_id": 94621274,
        "osm_type": "way",
        "osm_tags": {
          "building": "civic"
        },
        "case_id": "moscow_mitino_-3_-3_aeaec586_large_oks",
        "selected_as_heat_demand_proxy": true,
        "connection_point_id": "moscow_mitino_-3_-3_aeaec586_large_oks_cp_2"
      },
      "geometry": {
        "type": "Polygon",
        "coordinates": [
          [
            [
              37.3223333,
              55.8220158
            ],
            [
              37.3223407,
              55.8220176
            ],
            [
              37.3223614,
              55.8220187
            ],
            [
              37.3223816,
              55.8220161
            ],
            [
              37.3223994,
              55.8220102
            ],
            [
              37.322413,
              55.8220014
            ],
            [
              37.3224212,
              55.8219907
            ],
            [
              37.3224231,
              55.8219792
            ],
            [
              37.3224211,
              55.8219741
            ],
            [
              37.3225425,
              55.8219163
            ],
            [
              37.3223058,
              55.8217592
            ],
            [
              37.3222004,
              55.8218093
            ],
            [
              37.3221819,
              55.8217969
            ],
            [
              37.3221161,
              55.8218282
            ],
            [
              37.3220842,
              55.8218434
            ],
            [
              37.3220559,
              55.8218568
            ],
            [
              37.3220744,
              55.8218692
            ],
            [
              37.3219716,
              55.821918
            ],
            [
              37.3222083,
              55.8220752
            ],
            [
              37.3223333,
              55.8220158
            ]
          ]
        ]
      }
    },
    {
      "type": "Feature",
      "properties": {
        "id": "moscow_mitino_-3_-3_aeaec586_large_oks_osm_way_94621278_3",
        "object_type": "restriction",
        "restriction_type": "oks",
        "name": "",
        "osm_kind": "building",
        "osm_id": 94621278,
        "osm_type": "way",
        "osm_tags": {
          "building": "yes"
        },
        "case_id": "moscow_mitino_-3_-3_aeaec586_large_oks",
        "selected_as_heat_demand_proxy": true,
        "connection_point_id": "moscow_mitino_-3_-3_aeaec586_large_oks_cp_1"
      },
      "geometry": {
        "type": "Polygon",
        "coordinates": [
          [
            [
              37.3194065,
              55.8224939
            ],
            [
              37.3195341,
              55.8225796
            ],
            [
              37.3200912,
              55.822318
            ],
            [
              37.319989,
              55.8222494
            ],
            [
              37.3199635,
              55.8222323
            ],
            [
              37.3194065,
              55.8224939
            ]
          ]
        ]
      }
    },
    {
      "type": "Feature",
      "properties": {
        "id": "moscow_mitino_-3_-3_aeaec586_large_oks_osm_way_178301656_4",
        "object_type": "restriction",
        "restriction_type": "road",
        "name": "",
        "osm_kind": "road",
        "osm_id": 178301656,
        "osm_type": "way",
        "osm_tags": {
          "highway": "path"
        },
        "case_id": "moscow_mitino_-3_-3_aeaec586_large_oks"
      },
      "geometry": {
        "type": "LineString",
        "coordinates": [
          [
            37.327402,
            55.8212239
          ],
          [
            37.3271562,
            55.8211371
          ],
          [
            37.3266745,
            55.8211535
          ],
          [
            37.32617,
            55.8212188
          ],
          [
            37.3256528,
            55.8212874
          ],
          [
            37.3252888,
            55.8213573
          ],
          [
            37.3249398,
            55.8214766
          ],
          [
            37.3246928,
            55.821598
          ],
          [
            37.3244242,
            55.8218159
          ],
          [
            37.3239906,
            55.8221052
          ],
          [
            37.3235895,
            55.8224061
          ],
          [
            37.3233589,
            55.8225013
          ],
          [
            37.3231829,
            55.8225739
          ],
          [
            37.3230324,
            55.8228026
          ],
          [
            37.3227597,
            55.8232457
          ],
          [
            37.3226002,
            55.8236845
          ],
          [
            37.3224369,
            55.8243224
          ],
          [
            37.3230511,
            55.8244452
          ],
          [
            37.3236465,
            55.8245446
          ],
          [
            37.3246188,
            55.8246885
          ],
          [
            37.3252746,
            55.8247586
          ],
          [
            37.3253887,
            55.8247574
          ]
        ]
      }
    },
    {
      "type": "Feature",
      "properties": {
        "id": "moscow_mitino_-3_-3_aeaec586_large_oks_osm_way_178301657_5",
        "object_type": "restriction",
        "restriction_type": "road",
        "name": "",
        "osm_kind": "road",
        "osm_id": 178301657,
        "osm_type": "way",
        "osm_tags": {
          "highway": "footway"
        },
        "case_id": "moscow_mitino_-3_-3_aeaec586_large_oks"
      },
      "geometry": {
        "type": "LineString",
        "coordinates": [
          [
            37.3256449,
            55.8237171
          ],
          [
            37.3255147,
            55.8237404
          ],
          [
            37.3248963,
            55.8238124
          ],
          [
            37.324584,
            55.8238563
          ],
          [
            37.3235629,
            55.8240152
          ],
          [
            37.3230275,
            55.8241264
          ],
          [
            37.3224369,
            55.8243224
          ],
          [
            37.3221905,
            55.8243562
          ],
          [
            37.3206611,
            55.8247838
          ],
          [
            37.3198047,
            55.8250126
          ],
          [
            37.319776,
            55.8250378
          ]
        ]
      }
    },
    {
      "type": "Feature",
      "properties": {
        "id": "moscow_mitino_-3_-3_aeaec586_large_oks_osm_way_178303911_6",
        "object_type": "restriction",
        "restriction_type": "road",
        "name": "",
        "osm_kind": "road",
        "osm_id": 178303911,
        "osm_type": "way",
        "osm_tags": {
          "highway": "service"
        },
        "case_id": "moscow_mitino_-3_-3_aeaec586_large_oks"
      },
      "geometry": {
        "type": "LineString",
        "coordinates": [
          [
            37.3185493,
            55.8246544
          ],
          [
            37.3186013,
            55.8246335
          ],
          [
            37.3186341,
            55.8246134
          ],
          [
            37.3186906,
            55.8245789
          ],
          [
            37.3191405,
            55.824304
          ],
          [
            37.3191774,
            55.8242809
          ]
        ]
      }
    },
    {
      "type": "Feature",
      "properties": {
        "id": "moscow_mitino_-3_-3_aeaec586_large_oks_osm_way_178303912_7",
        "object_type": "restriction",
        "restriction_type": "road",
        "name": "",
        "osm_kind": "road",
        "osm_id": 178303912,
        "osm_type": "way",
        "osm_tags": {
          "highway": "service"
        },
        "case_id": "moscow_mitino_-3_-3_aeaec586_large_oks"
      },
      "geometry": {
        "type": "LineString",
        "coordinates": [
          [
            37.3185931,
            55.824418
          ],
          [
            37.3187931,
            55.8242863
          ],
          [
            37.3184444,
            55.8241085
          ],
          [
            37.3183931,
            55.8241412
          ],
          [
            37.3185931,
            55.824418
          ]
        ]
      }
    },
    {
      "type": "Feature",
      "properties": {
        "id": "moscow_mitino_-3_-3_aeaec586_large_oks_osm_way_178310460_8",
        "object_type": "restriction",
        "restriction_type": "road",
        "name": "",
        "osm_kind": "road",
        "osm_id": 178310460,
        "osm_type": "way",
        "osm_tags": {
          "highway": "service"
        },
        "case_id": "moscow_mitino_-3_-3_aeaec586_large_oks"
      },
      "geometry": {
        "type": "LineString",
        "coordinates": [
          [
            37.3189807,
            55.8222596
          ],
          [
            37.3188825,
            55.8222174
          ],
          [
            37.3187307,
            55.8221457
          ],
          [
            37.3181103,
            55.8218557
          ]
        ]
      }
    },
    {
      "type": "Feature",
      "properties": {
        "id": "moscow_mitino_-3_-3_aeaec586_large_oks_osm_way_178310461_9",
        "object_type": "restriction",
        "restriction_type": "oks",
        "name": "",
        "osm_kind": "building",
        "osm_id": 178310461,
        "osm_type": "way",
        "osm_tags": {
          "building": "fire_station"
        },
        "case_id": "moscow_mitino_-3_-3_aeaec586_large_oks"
      },
      "geometry": {
        "type": "Polygon",
        "coordinates": [
          [
            [
              37.3176367,
              55.8218519
            ],
            [
              37.3178894,
              55.8219625
            ],
            [
              37.3182527,
              55.8217007
            ],
            [
              37.3179998,
              55.8215901
            ],
            [
              37.3178906,
              55.8216688
            ],
            [
              37.3179743,
              55.8217055
            ],
            [
              37.3178249,
              55.8218132
            ],
            [
              37.3177412,
              55.8217766
            ],
            [
              37.3176367,
              55.8218519
            ]
          ]
        ]
      }
    },
    {
      "type": "Feature",
      "properties": {
        "id": "moscow_mitino_-3_-3_aeaec586_large_oks_osm_way_183899524_10",
        "object_type": "restriction",
        "restriction_type": "road",
        "name": "",
        "osm_kind": "road",
        "osm_id": 183899524,
        "osm_type": "way",
        "osm_tags": {
          "highway": "footway"
        },
        "case_id": "moscow_mitino_-3_-3_aeaec586_large_oks"
      },
      "geometry": {
        "type": "LineString",
        "coordinates": [
          [
            37.3176752,
            55.8242694
          ],
          [
            37.3176982,
            55.82423
          ],
          [
            37.3178076,
            55.8240825
          ],
          [
            37.3178581,
            55.8240239
          ],
          [
            37.3179206,
            55.8239607
          ],
          [
            37.3179081,
            55.8239132
          ]
        ]
      }
    },
    {
      "type": "Feature",
      "properties": {
        "id": "moscow_mitino_-3_-3_aeaec586_large_oks_osm_way_183916588_11",
        "object_type": "restriction",
        "restriction_type": "road",
        "name": "",
        "osm_kind": "road",
        "osm_id": 183916588,
        "osm_type": "way",
        "osm_tags": {
          "highway": "footway"
        },
        "case_id": "moscow_mitino_-3_-3_aeaec586_large_oks"
      },
      "geometry": {
        "type": "LineString",
        "coordinates": [
          [
            37.3182808,
            55.8239389
          ],
          [
            37.31835,
            55.8238953
          ],
          [
            37.3183727,
            55.8238738
          ],
          [
            37.3184352,
            55.8238151
          ],
          [
            37.3185353,
            55.8237537
          ],
          [
            37.3186357,
            55.823692
          ],
          [
            37.3188837,
            55.8235398
          ],
          [
            37.3190819,
            55.8234183
          ],
          [
            37.3194187,
            55.8232114
          ],
          [
            37.3194328,
            55.8232029
          ],
          [
            37.3194506,
            55.8231736
          ],
          [
            37.3198418,
            55.8229284
          ],
          [
            37.3198833,
            55.8229034
          ]
        ]
      }
    },
    {
      "type": "Feature",
      "properties": {
        "id": "moscow_mitino_-3_-3_aeaec586_large_oks_osm_way_183916590_12",
        "object_type": "restriction",
        "restriction_type": "road",
        "name": "",
        "osm_kind": "road",
        "osm_id": 183916590,
        "osm_type": "way",
        "osm_tags": {
          "highway": "steps"
        },
        "case_id": "moscow_mitino_-3_-3_aeaec586_large_oks"
      },
      "geometry": {
        "type": "LineString",
        "coordinates": [
          [
            37.3181808,
            55.823842
          ],
          [
            37.3181536,
            55.8238488
          ]
        ]
      }
    },
    {
      "type": "Feature",
      "properties": {
        "id": "moscow_mitino_-3_-3_aeaec586_large_oks_osm_way_183916593_13",
        "object_type": "restriction",
        "restriction_type": "road",
        "name": "",
        "osm_kind": "road",
        "osm_id": 183916593,
        "osm_type": "way",
        "osm_tags": {
          "highway": "footway"
        },
        "case_id": "moscow_mitino_-3_-3_aeaec586_large_oks"
      },
      "geometry": {
        "type": "LineString",
        "coordinates": [
          [
            37.3185353,
            55.8237537
          ],
          [
            37.3185203,
            55.8236349
          ],
          [
            37.3186773,
            55.8232122
          ],
          [
            37.3188056,
            55.8229084
          ],
          [
            37.3188201,
            55.8228774
          ],
          [
            37.3189463,
            55.8226213
          ],
          [
            37.3191342,
            55.8225124
          ]
        ]
      }
    },
    {
      "type": "Feature",
      "properties": {
        "id": "moscow_mitino_-3_-3_aeaec586_large_oks_osm_way_183916597_14",
        "object_type": "restriction",
        "restriction_type": "road",
        "name": "",
        "osm_kind": "road",
        "osm_id": 183916597,
        "osm_type": "way",
        "osm_tags": {
          "highway": "footway"
        },
        "case_id": "moscow_mitino_-3_-3_aeaec586_large_oks"
      },
      "geometry": {
        "type": "LineString",
        "coordinates": [
          [
            37.3197269,
            55.8209001
          ],
          [
            37.3194018,
            55.8214301
          ],
          [
            37.3187307,
            55.8221457
          ],
          [
            37.3173841,
            55.8230268
          ]
        ]
      }
    },
    {
      "type": "Feature",
      "properties": {
        "id": "moscow_mitino_-3_-3_aeaec586_large_oks_osm_way_184655869_15",
        "object_type": "restriction",
        "restriction_type": "road",
        "name": "",
        "osm_kind": "road",
        "osm_id": 184655869,
        "osm_type": "way",
        "osm_tags": {
          "highway": "footway"
        },
        "case_id": "moscow_mitino_-3_-3_aeaec586_large_oks"
      },
      "geometry": {
        "type": "LineString",
        "coordinates": [
          [
            37.3218346,
            55.8212936
          ],
          [
            37.3219429,
            55.821367
          ],
          [
            37.3223561,
            55.8216472
          ],
          [
            37.3222636,
            55.8216906
          ],
          [
            37.322124,
            55.8217561
          ],
          [
            37.3218942,
            55.821863
          ],
          [
            37.3214803,
            55.8215823
          ],
          [
            37.3213688,
            55.8215067
          ]
        ]
      }
    },
    {
      "type": "Feature",
      "properties": {
        "id": "moscow_mitino_-3_-3_aeaec586_large_oks_osm_way_184655870_16",
        "object_type": "restriction",
        "restriction_type": "road",
        "name": "",
        "osm_kind": "road",
        "osm_id": 184655870,
        "osm_type": "way",
        "osm_tags": {
          "highway": "footway"
        },
        "case_id": "moscow_mitino_-3_-3_aeaec586_large_oks"
      },
      "geometry": {
        "type": "LineString",
        "coordinates": [
          [
            37.3215225,
            55.8214469
          ],
          [
            37.3213688,
            55.8215067
          ],
          [
            37.3212016,
            55.8215877
          ],
          [
            37.321026,
            55.8216701
          ],
          [
            37.3209769,
            55.8216375
          ],
          [
            37.320869,
            55.8216824
          ],
          [
            37.3205271,
            55.8218371
          ],
          [
            37.3201002,
            55.8220474
          ],
          [
            37.3200407,
            55.8220785
          ]
        ]
      }
    },
    {
      "type": "Feature",
      "properties": {
        "id": "moscow_mitino_-3_-3_aeaec586_large_oks_osm_way_184655871_17",
        "object_type": "restriction",
        "restriction_type": "oks",
        "name": "",
        "osm_kind": "building",
        "osm_id": 184655871,
        "osm_type": "way",
        "osm_tags": {
          "building": "yes"
        },
        "case_id": "moscow_mitino_-3_-3_aeaec586_large_oks",
        "selected_as_heat_demand_proxy": true,
        "connection_point_id": "moscow_mitino_-3_-3_aeaec586_large_oks_cp_4"
      },
      "geometry": {
        "type": "Polygon",
        "coordinates": [
          [
            [
              37.3203077,
              55.8243034
            ],
            [
              37.3204314,
              55.8243667
            ],
            [
              37.3205067,
              55.8243203
            ],
            [
              37.320383,
              55.824257
            ],
            [
              37.3203077,
              55.8243034
            ]
          ]
        ]
      }
    },
    {
      "type": "Feature",
      "properties": {
        "id": "moscow_mitino_-3_-3_aeaec586_large_oks_osm_way_185996888_18",
        "object_type": "restriction",
        "restriction_type": "road",
        "name": "",
        "osm_kind": "road",
        "osm_id": 185996888,
        "osm_type": "way",
        "osm_tags": {
          "highway": "path"
        },
        "case_id": "moscow_mitino_-3_-3_aeaec586_large_oks"
      },
      "geometry": {
        "type": "LineString",
        "coordinates": [
          [
            37.3210913,
            55.8226893
          ],
          [
            37.3211793,
            55.8226887
          ],
          [
            37.3218171,
            55.8227038
          ],
          [
            37.322282,
            55.8226785
          ],
          [
            37.3227827,
            55.8226706
          ],
          [
            37.3231829,
            55.8225739
          ]
        ]
      }
    },
    {
      "type": "Feature",
      "properties": {
        "id": "moscow_mitino_-3_-3_aeaec586_large_oks_osm_way_185996893_19",
        "object_type": "restriction",
        "restriction_type": "road",
        "name": "",
        "osm_kind": "road",
        "osm_id": 185996893,
        "osm_type": "way",
        "osm_tags": {
          "highway": "footway"
        },
        "case_id": "moscow_mitino_-3_-3_aeaec586_large_oks"
      },
      "geometry": {
        "type": "LineString",
        "coordinates": [
          [
            37.3221905,
            55.8243562
          ],
          [
            37.3217286,
            55.8241537
          ],
          [
            37.3214593,
            55.824019
          ],
          [
            37.3212755,
            55.8239464
          ],
          [
            37.3210521,
            55.8238496
          ],
          [
            37.3209573,
            55.82382
          ]
        ]
      }
    },
    {
      "type": "Feature",
      "properties": {
        "id": "moscow_mitino_-3_-3_aeaec586_large_oks_osm_way_204273478_20",
        "object_type": "restriction",
        "restriction_type": "road",
        "name": "улица Ленина",
        "osm_kind": "major_road",
        "osm_id": 204273478,
        "osm_type": "way",
        "osm_tags": {
          "highway": "primary",
          "name": "улица Ленина"
        },
        "case_id": "moscow_mitino_-3_-3_aeaec586_large_oks"
      },
      "geometry": {
        "type": "LineString",
        "coordinates": [
          [
            37.317335,
            55.8232158
          ],
          [
            37.3174463,
            55.8231436
          ],
          [
            37.3175228,
            55.8230939
          ],
          [
            37.3183881,
            55.8225377
          ],
          [
            37.3187387,
            55.8223088
          ],
          [
            37.3188825,
            55.8222174
          ],
          [
            37.3191401,
            55.8220285
          ],
          [
            37.3194887,
            55.8217766
          ]
        ]
      }
    },
    {
      "type": "Feature",
      "properties": {
        "id": "moscow_mitino_-3_-3_aeaec586_large_oks_osm_way_218758605_21",
        "object_type": "restriction",
        "restriction_type": "road",
        "name": "",
        "osm_kind": "road",
        "osm_id": 218758605,
        "osm_type": "way",
        "osm_tags": {
          "highway": "footway"
        },
        "case_id": "moscow_mitino_-3_-3_aeaec586_large_oks"
      },
      "geometry": {
        "type": "LineString",
        "coordinates": [
          [
            37.3198139,
            55.824606
          ],
          [
            37.3191774,
            55.8242809
          ],
          [
            37.3185504,
            55.8239641
          ],
          [
            37.3185093,
            55.8239431
          ]
        ]
      }
    },
    {
      "type": "Feature",
      "properties": {
        "id": "moscow_mitino_-3_-3_aeaec586_large_oks_osm_way_218758606_22",
        "object_type": "restriction",
        "restriction_type": "road",
        "name": "",
        "osm_kind": "road",
        "osm_id": 218758606,
        "osm_type": "way",
        "osm_tags": {
          "highway": "steps"
        },
        "case_id": "moscow_mitino_-3_-3_aeaec586_large_oks"
      },
      "geometry": {
        "type": "LineString",
        "coordinates": [
          [
            37.3195205,
            55.8232482
          ],
          [
            37.3195012,
            55.8232382
          ]
        ]
      }
    },
    {
      "type": "Feature",
      "properties": {
        "id": "moscow_mitino_-3_-3_aeaec586_large_oks_osm_way_218758608_23",
        "object_type": "restriction",
        "restriction_type": "park",
        "name": "",
        "osm_kind": "green",
        "osm_id": 218758608,
        "osm_type": "way",
        "osm_tags": {
          "landuse": "grass"
        },
        "case_id": "moscow_mitino_-3_-3_aeaec586_large_oks"
      },
      "geometry": {
        "type": "Polygon",
        "coordinates": [
          [
            [
              37.3194924,
              55.8231939
            ],
            [
              37.319536,
              55.8232168
            ],
            [
              37.3198428,
              55.8233702
            ],
            [
              37.3200711,
              55.8234777
            ],
            [
              37.3201112,
              55.8234838
            ],
            [
              37.3202171,
              55.8234188
            ],
            [
              37.3202204,
              55.8234011
            ],
            [
              37.3199244,
              55.8232432
            ],
            [
              37.3199111,
              55.8232246
            ],
            [
              37.3199161,
              55.8232042
            ],
            [
              37.3200749,
              55.8231076
            ],
            [
              37.3200898,
              55.8230899
            ],
            [
              37.3200864,
              55.823075
            ],
            [
              37.3200732,
              55.8230574
            ],
            [
              37.3199078,
              55.8229719
            ],
            [
              37.3198715,
              55.8229682
            ],
            [
              37.3198533,
              55.8229756
            ],
            [
              37.3194924,
              55.8231939
            ]
          ]
        ]
      }
    },
    {
      "type": "Feature",
      "properties": {
        "id": "moscow_mitino_-3_-3_aeaec586_large_oks_osm_way_232617187_24",
        "object_type": "restriction",
        "restriction_type": "road",
        "name": "",
        "osm_kind": "road",
        "osm_id": 232617187,
        "osm_type": "way",
        "osm_tags": {
          "highway": "footway"
        },
        "case_id": "moscow_mitino_-3_-3_aeaec586_large_oks"
      },
      "geometry": {
        "type": "LineString",
        "coordinates": [
          [
            37.3173537,
            55.824059
          ],
          [
            37.3178581,
            55.8240239
          ]
        ]
      }
    },
    {
      "type": "Feature",
      "properties": {
        "id": "moscow_mitino_-3_-3_aeaec586_large_oks_osm_way_237141349_25",
        "object_type": "restriction",
        "restriction_type": "road",
        "name": "",
        "osm_kind": "road",
        "osm_id": 237141349,
        "osm_type": "way",
        "osm_tags": {
          "highway": "footway"
        },
        "case_id": "moscow_mitino_-3_-3_aeaec586_large_oks"
      },
      "geometry": {
        "type": "LineString",
        "coordinates": [
          [
            37.31835,
            55.8238953
          ],
          [
            37.3183947,
            55.8239176
          ],
          [
            37.3184444,
            55.8241085
          ]
        ]
      }
    },
    {
      "type": "Feature",
      "properties": {
        "id": "moscow_mitino_-3_-3_aeaec586_large_oks_osm_way_237141350_26",
        "object_type": "restriction",
        "restriction_type": "road",
        "name": "",
        "osm_kind": "road",
        "osm_id": 237141350,
        "osm_type": "way",
        "osm_tags": {
          "highway": "path"
        },
        "case_id": "moscow_mitino_-3_-3_aeaec586_large_oks"
      },
      "geometry": {
        "type": "LineString",
        "coordinates": [
          [
            37.3205271,
            55.8218371
          ],
          [
            37.3204378,
            55.8220298
          ],
          [
            37.3203924,
            55.8221498
          ]
        ]
      }
    },
    {
      "type": "Feature",
      "properties": {
        "id": "moscow_mitino_-3_-3_aeaec586_large_oks_osm_way_261458121_27",
        "object_type": "restriction",
        "restriction_type": "road",
        "name": "",
        "osm_kind": "road",
        "osm_id": 261458121,
        "osm_type": "way",
        "osm_tags": {
          "highway": "steps"
        },
        "case_id": "moscow_mitino_-3_-3_aeaec586_large_oks"
      },
      "geometry": {
        "type": "LineString",
        "coordinates": [
          [
            37.3182808,
            55.8239389
          ],
          [
            37.3182581,
            55.8239485
          ]
        ]
      }
    },
    {
      "type": "Feature",
      "properties": {
        "id": "moscow_mitino_-3_-3_aeaec586_large_oks_osm_way_261458122_28",
        "object_type": "restriction",
        "restriction_type": "road",
        "name": "",
        "osm_kind": "road",
        "osm_id": 261458122,
        "osm_type": "way",
        "osm_tags": {
          "highway": "footway"
        },
        "case_id": "moscow_mitino_-3_-3_aeaec586_large_oks"
      },
      "geometry": {
        "type": "LineString",
        "coordinates": [
          [
            37.3182581,
            55.8239485
          ],
          [
            37.3182028,
            55.8239722
          ]
        ]
      }
    },
    {
      "type": "Feature",
      "properties": {
        "id": "moscow_mitino_-3_-3_aeaec586_large_oks_osm_way_261458123_29",
        "object_type": "restriction",
        "restriction_type": "road",
        "name": "",
        "osm_kind": "road",
        "osm_id": 261458123,
        "osm_type": "way",
        "osm_tags": {
          "highway": "steps"
        },
        "case_id": "moscow_mitino_-3_-3_aeaec586_large_oks"
      },
      "geometry": {
        "type": "LineString",
        "coordinates": [
          [
            37.3185093,
            55.8239431
          ],
          [
            37.3184796,
            55.823928
          ]
        ]
      }
    },
    {
      "type": "Feature",
      "properties": {
        "id": "moscow_mitino_-3_-3_aeaec586_large_oks_osm_way_261458124_30",
        "object_type": "restriction",
        "restriction_type": "road",
        "name": "",
        "osm_kind": "road",
        "osm_id": 261458124,
        "osm_type": "way",
        "osm_tags": {
          "highway": "steps"
        },
        "case_id": "moscow_mitino_-3_-3_aeaec586_large_oks"
      },
      "geometry": {
        "type": "LineString",
        "coordinates": [
          [
            37.319033,
            55.8236157
          ],
          [
            37.3190019,
            55.8236002
          ]
        ]
      }
    },
    {
      "type": "Feature",
      "properties": {
        "id": "moscow_mitino_-3_-3_aeaec586_large_oks_osm_way_261458125_31",
        "object_type": "restriction",
        "restriction_type": "road",
        "name": "",
        "osm_kind": "road",
        "osm_id": 261458125,
        "osm_type": "way",
        "osm_tags": {
          "highway": "footway"
        },
        "case_id": "moscow_mitino_-3_-3_aeaec586_large_oks"
      },
      "geometry": {
        "type": "LineString",
        "coordinates": [
          [
            37.3179297,
            55.823907
          ],
          [
            37.3179081,
            55.8239132
          ],
          [
            37.3178449,
            55.8239272
          ],
          [
            37.317347,
            55.8239374
          ],
          [
            37.3171189,
            55.8239497
          ],
          [
            37.3170486,
            55.8239668
          ],
          [
            37.3169855,
            55.8239976
          ]
        ]
      }
    },
    {
      "type": "Feature",
      "properties": {
        "id": "moscow_mitino_-3_-3_aeaec586_large_oks_osm_way_261458126_32",
        "object_type": "restriction",
        "restriction_type": "road",
        "name": "",
        "osm_kind": "road",
        "osm_id": 261458126,
        "osm_type": "way",
        "osm_tags": {
          "highway": "footway"
        },
        "case_id": "moscow_mitino_-3_-3_aeaec586_large_oks"
      },
      "geometry": {
        "type": "LineString",
        "coordinates": [
          [
            37.3185504,
            55.8239641
          ],
          [
            37.3190787,
            55.8236389
          ],
          [
            37.3192491,
            55.823534
          ],
          [
            37.3192952,
            55.8234204
          ],
          [
            37.3193859,
            55.8233648
          ],
          [
            37.3194554,
            55.8232146
          ]
        ]
      }
    },
    {
      "type": "Feature",
      "properties": {
        "id": "moscow_mitino_-3_-3_aeaec586_large_oks_osm_way_261458127_33",
        "object_type": "restriction",
        "restriction_type": "road",
        "name": "",
        "osm_kind": "road",
        "osm_id": 261458127,
        "osm_type": "way",
        "osm_tags": {
          "highway": "footway"
        },
        "case_id": "moscow_mitino_-3_-3_aeaec586_large_oks"
      },
      "geometry": {
        "type": "LineString",
        "coordinates": [
          [
            37.319033,
            55.8236157
          ],
          [
            37.3190787,
            55.8236389
          ],
          [
            37.3191513,
            55.8236758
          ]
        ]
      }
    },
    {
      "type": "Feature",
      "properties": {
        "id": "moscow_mitino_-3_-3_aeaec586_large_oks_osm_way_261458128_34",
        "object_type": "restriction",
        "restriction_type": "road",
        "name": "",
        "osm_kind": "road",
        "osm_id": 261458128,
        "osm_type": "way",
        "osm_tags": {
          "highway": "footway"
        },
        "case_id": "moscow_mitino_-3_-3_aeaec586_large_oks"
      },
      "geometry": {
        "type": "LineString",
        "coordinates": [
          [
            37.3195205,
            55.8232482
          ],
          [
            37.3201801,
            55.8235879
          ],
          [
            37.3203703,
            55.8234696
          ]
        ]
      }
    },
    {
      "type": "Feature",
      "properties": {
        "id": "moscow_mitino_-3_-3_aeaec586_large_oks_osm_way_261458130_35",
        "object_type": "restriction",
        "restriction_type": "road",
        "name": "",
        "osm_kind": "road",
        "osm_id": 261458130,
        "osm_type": "way",
        "osm_tags": {
          "highway": "footway"
        },
        "case_id": "moscow_mitino_-3_-3_aeaec586_large_oks"
      },
      "geometry": {
        "type": "LineString",
        "coordinates": [
          [
            37.3176799,
            55.823392
          ],
          [
            37.3179435,
            55.8237047
          ],
          [
            37.3180656,
            55.823805
          ],
          [
            37.3181105,
            55.8238597
          ],
          [
            37.3182028,
            55.8239722
          ]
        ]
      }
    },
    {
      "type": "Feature",
      "properties": {
        "id": "moscow_mitino_-3_-3_aeaec586_large_oks_osm_way_261458131_36",
        "object_type": "restriction",
        "restriction_type": "road",
        "name": "",
        "osm_kind": "road",
        "osm_id": 261458131,
        "osm_type": "way",
        "osm_tags": {
          "highway": "service"
        },
        "case_id": "moscow_mitino_-3_-3_aeaec586_large_oks"
      },
      "geometry": {
        "type": "LineString",
        "coordinates": [
          [
            37.3181631,
            55.82414
          ],
          [
            37.318253,
            55.8241225
          ],
          [
            37.3183034,
            55.8241127
          ],
          [
            37.3183461,
            55.8241126
          ],
          [
            37.318374,
            55.8241218
          ],
          [
            37.3183931,
            55.8241412
          ]
        ]
      }
    },
    {
      "type": "Feature",
      "properties": {
        "id": "moscow_mitino_-3_-3_aeaec586_large_oks_osm_way_261458132_37",
        "object_type": "restriction",
        "restriction_type": "road",
        "name": "",
        "osm_kind": "road",
        "osm_id": 261458132,
        "osm_type": "way",
        "osm_tags": {
          "highway": "footway"
        },
        "case_id": "moscow_mitino_-3_-3_aeaec586_large_oks"
      },
      "geometry": {
        "type": "LineString",
        "coordinates": [
          [
            37.3182028,
            55.8239722
          ],
          [
            37.3182302,
            55.8240086
          ],
          [
            37.318253,
            55.8241225
          ],
          [
            37.3182642,
            55.8241784
          ],
          [
            37.3184422,
            55.824469
          ],
          [
            37.3184731,
            55.8245021
          ],
          [
            37.3186341,
            55.8246134
          ],
          [
            37.3186963,
            55.8246478
          ]
        ]
      }
    },
    {
      "type": "Feature",
      "properties": {
        "id": "moscow_mitino_-3_-3_aeaec586_large_oks_osm_way_261458133_38",
        "object_type": "restriction",
        "restriction_type": "oks",
        "name": "",
        "osm_kind": "building",
        "osm_id": 261458133,
        "osm_type": "way",
        "osm_tags": {
          "building": "commercial"
        },
        "case_id": "moscow_mitino_-3_-3_aeaec586_large_oks",
        "selected_as_heat_demand_proxy": true,
        "connection_point_id": "moscow_mitino_-3_-3_aeaec586_large_oks_cp_3"
      },
      "geometry": {
        "type": "Polygon",
        "coordinates": [
          [
            [
              37.3209216,
              55.82443
            ],
            [
              37.3209219,
              55.8244554
            ],
            [
              37.3209221,
              55.8244681
            ],
            [
              37.320861,
              55.8244684
            ],
            [
              37.3209641,
              55.8245197
            ],
            [
              37.3210462,
              55.8244674
            ],
            [
              37.3209919,
              55.8244674
            ],
            [
              37.3209921,
              55.8244551
            ],
            [
              37.3209922,
              55.8244458
            ],
            [
              37.3211789,
              55.8243273
            ],
            [
              37.3208746,
              55.8241759
            ],
            [
              37.3206707,
              55.8243051
            ],
            [
              37.3209216,
              55.82443
            ]
          ]
        ]
      }
    },
    {
      "type": "Feature",
      "properties": {
        "id": "moscow_mitino_-3_-3_aeaec586_large_oks_osm_way_261460047_39",
        "object_type": "restriction",
        "restriction_type": "road",
        "name": "",
        "osm_kind": "road",
        "osm_id": 261460047,
        "osm_type": "way",
        "osm_tags": {
          "highway": "footway"
        },
        "case_id": "moscow_mitino_-3_-3_aeaec586_large_oks"
      },
      "geometry": {
        "type": "LineString",
        "coordinates": [
          [
            37.3185399,
            55.8227446
          ],
          [
            37.3185996,
            55.8227749
          ]
        ]
      }
    },
    {
      "type": "Feature",
      "properties": {
        "id": "moscow_mitino_-3_-3_aeaec586_large_oks_osm_way_261460048_40",
        "object_type": "restriction",
        "restriction_type": "road",
        "name": "",
        "osm_kind": "road",
        "osm_id": 261460048,
        "osm_type": "way",
        "osm_tags": {
          "highway": "steps"
        },
        "case_id": "moscow_mitino_-3_-3_aeaec586_large_oks"
      },
      "geometry": {
        "type": "LineString",
        "coordinates": [
          [
            37.3186151,
            55.8227828
          ],
          [
            37.3185996,
            55.8227749
          ]
        ]
      }
    },
    {
      "type": "Feature",
      "properties": {
        "id": "moscow_mitino_-3_-3_aeaec586_large_oks_osm_way_261460049_41",
        "object_type": "restriction",
        "restriction_type": "road",
        "name": "",
        "osm_kind": "road",
        "osm_id": 261460049,
        "osm_type": "way",
        "osm_tags": {
          "highway": "steps"
        },
        "case_id": "moscow_mitino_-3_-3_aeaec586_large_oks"
      },
      "geometry": {
        "type": "LineString",
        "coordinates": [
          [
            37.3178046,
            55.8232808
          ],
          [
            37.3177818,
            55.8232692
          ]
        ]
      }
    },
    {
      "type": "Feature",
      "properties": {
        "id": "moscow_mitino_-3_-3_aeaec586_large_oks_osm_way_261460052_42",
        "object_type": "restriction",
        "restriction_type": "road",
        "name": "",
        "osm_kind": "road",
        "osm_id": 261460052,
        "osm_type": "way",
        "osm_tags": {
          "highway": "footway"
        },
        "case_id": "moscow_mitino_-3_-3_aeaec586_large_oks"
      },
      "geometry": {
        "type": "LineString",
        "coordinates": [
          [
            37.317694,
            55.8231768
          ],
          [
            37.3184553,
            55.8227136
          ],
          [
            37.318489,
            55.8227195
          ]
        ]
      }
    },
    {
      "type": "Feature",
      "properties": {
        "id": "moscow_mitino_-3_-3_aeaec586_large_oks_osm_way_261460053_43",
        "object_type": "restriction",
        "restriction_type": "park",
        "name": "",
        "osm_kind": "green",
        "osm_id": 261460053,
        "osm_type": "way",
        "osm_tags": {
          "landuse": "grass"
        },
        "case_id": "moscow_mitino_-3_-3_aeaec586_large_oks"
      },
      "geometry": {
        "type": "Polygon",
        "coordinates": [
          [
            [
              37.3189467,
              55.8244597
            ],
            [
              37.3191593,
              55.8243261
            ],
            [
              37.3191994,
              55.8243248
            ],
            [
              37.3197777,
              55.8246151
            ],
            [
              37.3197582,
              55.8246675
            ],
            [
              37.3197342,
              55.8246735
            ],
            [
              37.3196992,
              55.8246354
            ],
            [
              37.3195987,
              55.8246207
            ],
            [
              37.3194937,
              55.8246219
            ],
            [
              37.3193932,
              55.8246379
            ],
            [
              37.3193188,
              55.8245949
            ],
            [
              37.3192707,
              55.8245421
            ],
            [
              37.3191636,
              55.824547
            ],
            [
              37.3191133,
              55.824536
            ],
            [
              37.3190434,
              55.8244856
            ],
            [
              37.3189467,
              55.8244597
            ]
          ]
        ]
      }
    },
    {
      "type": "Feature",
      "properties": {
        "id": "moscow_mitino_-3_-3_aeaec586_large_oks_osm_way_261460054_44",
        "object_type": "restriction",
        "restriction_type": "park",
        "name": "",
        "osm_kind": "green",
        "osm_id": 261460054,
        "osm_type": "way",
        "osm_tags": {
          "landuse": "grass"
        },
        "case_id": "moscow_mitino_-3_-3_aeaec586_large_oks"
      },
      "geometry": {
        "type": "Polygon",
        "coordinates": [
          [
            [
              37.318436,
              55.8240013
            ],
            [
              37.3184176,
              55.8239306
            ],
            [
              37.3187499,
              55.8240993
            ],
            [
              37.3186956,
              55.8241331
            ],
            [
              37.318436,
              55.8240013
            ]
          ]
        ]
      }
    },
    {
      "type": "Feature",
      "properties": {
        "id": "moscow_mitino_-3_-3_aeaec586_large_oks_osm_way_261460055_45",
        "object_type": "restriction",
        "restriction_type": "park",
        "name": "",
        "osm_kind": "green",
        "osm_id": 261460055,
        "osm_type": "way",
        "osm_tags": {
          "landuse": "grass"
        },
        "case_id": "moscow_mitino_-3_-3_aeaec586_large_oks"
      },
      "geometry": {
        "type": "Polygon",
        "coordinates": [
          [
            [
              37.318726,
              55.8241482
            ],
            [
              37.31878,
              55.824114
            ],
            [
              37.3189692,
              55.8242084
            ],
            [
              37.3189152,
              55.8242426
            ],
            [
              37.318726,
              55.8241482
            ]
          ]
        ]
      }
    },
    {
      "type": "Feature",
      "properties": {
        "id": "moscow_mitino_-3_-3_aeaec586_large_oks_osm_way_261460056_46",
        "object_type": "restriction",
        "restriction_type": "park",
        "name": "",
        "osm_kind": "green",
        "osm_id": 261460056,
        "osm_type": "way",
        "osm_tags": {
          "landuse": "grass"
        },
        "case_id": "moscow_mitino_-3_-3_aeaec586_large_oks"
      },
      "geometry": {
        "type": "Polygon",
        "coordinates": [
          [
            [
              37.3182888,
              55.8240931
            ],
            [
              37.3182663,
              55.8240922
            ],
            [
              37.3182578,
              55.8240796
            ],
            [
              37.3182455,
              55.8240106
            ],
            [
              37.3183141,
              55.823964
            ],
            [
              37.3183794,
              55.8239264
            ],
            [
              37.318404,
              55.8240213
            ],
            [
              37.3182888,
              55.8240931
            ]
          ]
        ]
      }
    },
    {
      "type": "Feature",
      "properties": {
        "id": "moscow_mitino_-3_-3_aeaec586_large_oks_osm_way_261460057_47",
        "object_type": "restriction",
        "restriction_type": "park",
        "name": "",
        "osm_kind": "green",
        "osm_id": 261460057,
        "osm_type": "way",
        "osm_tags": {
          "landuse": "grass"
        },
        "case_id": "moscow_mitino_-3_-3_aeaec586_large_oks"
      },
      "geometry": {
        "type": "Polygon",
        "coordinates": [
          [
            [
              37.3189443,
              55.824257
            ],
            [
              37.318998,
              55.824223
            ],
            [
              37.3191029,
              55.8242753
            ],
            [
              37.3191058,
              55.8243033
            ],
            [
              37.3186371,
              55.824589
            ],
            [
              37.3186103,
              55.8245856
            ],
            [
              37.3185274,
              55.8245183
            ],
            [
              37.3186159,
              55.8244608
            ],
            [
              37.3189443,
              55.824257
            ]
          ]
        ]
      }
    },
    {
      "type": "Feature",
      "properties": {
        "id": "moscow_mitino_-3_-3_aeaec586_large_oks_osm_way_261460058_48",
        "object_type": "restriction",
        "restriction_type": "park",
        "name": "",
        "osm_kind": "green",
        "osm_id": 261460058,
        "osm_type": "way",
        "osm_tags": {
          "landuse": "grass"
        },
        "case_id": "moscow_mitino_-3_-3_aeaec586_large_oks"
      },
      "geometry": {
        "type": "Polygon",
        "coordinates": [
          [
            [
              37.31833,
              55.8241485
            ],
            [
              37.3183051,
              55.8241441
            ],
            [
              37.3182858,
              55.8241428
            ],
            [
              37.3182735,
              55.8241493
            ],
            [
              37.3182735,
              55.8241619
            ],
            [
              37.3182804,
              55.8241754
            ],
            [
              37.3184583,
              55.8244659
            ],
            [
              37.3184753,
              55.8244626
            ],
            [
              37.3185324,
              55.8244208
            ],
            [
              37.31833,
              55.8241485
            ]
          ]
        ]
      }
    },
    {
      "type": "Feature",
      "properties": {
        "id": "moscow_mitino_-3_-3_aeaec586_large_oks_osm_way_262128593_49",
        "object_type": "restriction",
        "restriction_type": "road",
        "name": "",
        "osm_kind": "road",
        "osm_id": 262128593,
        "osm_type": "way",
        "osm_tags": {
          "highway": "path"
        },
        "case_id": "moscow_mitino_-3_-3_aeaec586_large_oks"
      },
      "geometry": {
        "type": "LineString",
        "coordinates": [
          [
            37.3236089,
            55.8258927
          ],
          [
            37.3233029,
            55.8258017
          ],
          [
            37.3228794,
            55.8257021
          ],
          [
            37.3225629,
            55.8255861
          ],
          [
            37.3223886,
            55.8253661
          ],
          [
            37.3222679,
            55.8250858
          ],
          [
            37.3222116,
            55.8248297
          ],
          [
            37.3223618,
            55.8245013
          ],
          [
            37.3221905,
            55.8243562
          ]
        ]
      }
    },
    {
      "type": "Feature",
      "properties": {
        "id": "moscow_mitino_-3_-3_aeaec586_large_oks_osm_way_278794486_50",
        "object_type": "restriction",
        "restriction_type": "road",
        "name": "",
        "osm_kind": "road",
        "osm_id": 278794486,
        "osm_type": "way",
        "osm_tags": {
          "highway": "service"
        },
        "case_id": "moscow_mitino_-3_-3_aeaec586_large_oks"
      },
      "geometry": {
        "type": "LineString",
        "coordinates": [
          [
            37.3192281,
            55.8224594
          ],
          [
            37.3198134,
            55.8221287
          ],
          [
            37.3199009,
            55.8221114
          ],
          [
            37.3199972,
            55.8221012
          ],
          [
            37.3201051,
            55.8221296
          ],
          [
            37.3202549,
            55.8222104
          ],
          [
            37.3203233,
            55.8222465
          ]
        ]
      }
    },
    {
      "type": "Feature",
      "properties": {
        "id": "moscow_mitino_-3_-3_aeaec586_large_oks_osm_way_278794487_51",
        "object_type": "restriction",
        "restriction_type": "road",
        "name": "",
        "osm_kind": "road",
        "osm_id": 278794487,
        "osm_type": "way",
        "osm_tags": {
          "highway": "service"
        },
        "case_id": "moscow_mitino_-3_-3_aeaec586_large_oks"
      },
      "geometry": {
        "type": "LineString",
        "coordinates": [
          [
            37.3196118,
            55.8250912
          ],
          [
            37.3196802,
            55.8250122
          ],
          [
            37.3197076,
            55.8249796
          ],
          [
            37.3197124,
            55.8249624
          ],
          [
            37.3197797,
            55.8247182
          ],
          [
            37.3198139,
            55.824606
          ],
          [
            37.3198375,
            55.8245631
          ],
          [
            37.3201569,
            55.824363
          ],
          [
            37.3204091,
            55.8242061
          ],
          [
            37.3204869,
            55.8241577
          ],
          [
            37.3206434,
            55.8240597
          ],
          [
            37.3209273,
            55.823882
          ],
          [
            37.3209449,
            55.8238635
          ],
          [
            37.3209564,
            55.8238421
          ],
          [
            37.3209573,
            55.82382
          ],
          [
            37.3209418,
            55.823797
          ],
          [
            37.3204196,
            55.8235302
          ],
          [
            37.3203703,
            55.8234696
          ],
          [
            37.3203291,
            55.823419
          ],
          [
            37.3199444,
            55.8232251
          ],
          [
            37.3201013,
            55.823126
          ],
          [
            37.3201546,
            55.8230923
          ],
          [
            37.3201962,
            55.8230667
          ]
        ]
      }
    },
    {
      "type": "Feature",
      "properties": {
        "id": "moscow_mitino_-3_-3_aeaec586_large_oks_osm_way_278808129_52",
        "object_type": "restriction",
        "restriction_type": "road",
        "name": "",
        "osm_kind": "road",
        "osm_id": 278808129,
        "osm_type": "way",
        "osm_tags": {
          "highway": "service"
        },
        "case_id": "moscow_mitino_-3_-3_aeaec586_large_oks"
      },
      "geometry": {
        "type": "LineString",
        "coordinates": [
          [
            37.3201962,
            55.8230667
          ],
          [
            37.3198833,
            55.8229034
          ],
          [
            37.3195739,
            55.8227419
          ],
          [
            37.3191342,
            55.8225124
          ],
          [
            37.3189463,
            55.8224142
          ],
          [
            37.318835,
            55.8223576
          ],
          [
            37.3187387,
            55.8223088
          ]
        ]
      }
    },
    {
      "type": "Feature",
      "properties": {
        "id": "moscow_mitino_-3_-3_aeaec586_large_oks_osm_way_282927625_53",
        "object_type": "restriction",
        "restriction_type": "road",
        "name": "",
        "osm_kind": "road",
        "osm_id": 282927625,
        "osm_type": "way",
        "osm_tags": {
          "highway": "path"
        },
        "case_id": "moscow_mitino_-3_-3_aeaec586_large_oks"
      },
      "geometry": {
        "type": "LineString",
        "coordinates": [
          [
            37.3214593,
            55.824019
          ],
          [
            37.3218171,
            55.8227038
          ]
        ]
      }
    },
    {
      "type": "Feature",
      "properties": {
        "id": "moscow_mitino_-3_-3_aeaec586_large_oks_osm_way_317388997_54",
        "object_type": "restriction",
        "restriction_type": "road",
        "name": "",
        "osm_kind": "road",
        "osm_id": 317388997,
        "osm_type": "way",
        "osm_tags": {
          "highway": "service"
        },
        "case_id": "moscow_mitino_-3_-3_aeaec586_large_oks"
      },
      "geometry": {
        "type": "LineString",
        "coordinates": [
          [
            37.3181103,
            55.8218557
          ],
          [
            37.3179101,
            55.8219999
          ],
          [
            37.3175007,
            55.8218207
          ],
          [
            37.3179166,
            55.8215209
          ],
          [
            37.318326,
            55.8217002
          ],
          [
            37.3181103,
            55.8218557
          ]
        ]
      }
    },
    {
      "type": "Feature",
      "properties": {
        "id": "moscow_mitino_-3_-3_aeaec586_large_oks_osm_way_321270253_55",
        "object_type": "restriction",
        "restriction_type": "oks",
        "name": "",
        "osm_kind": "building",
        "osm_id": 321270253,
        "osm_type": "way",
        "osm_tags": {
          "building": "gazebo"
        },
        "case_id": "moscow_mitino_-3_-3_aeaec586_large_oks"
      },
      "geometry": {
        "type": "Polygon",
        "coordinates": [
          [
            [
              37.3185422,
              55.8217809
            ],
            [
              37.3185655,
              55.8217859
            ],
            [
              37.3185883,
              55.8217803
            ],
            [
              37.3185973,
              55.8217672
            ],
            [
              37.3185872,
              55.8217543
            ],
            [
              37.3185639,
              55.8217493
            ],
            [
              37.3185411,
              55.821755
            ],
            [
              37.3185321,
              55.8217681
            ],
            [
              37.3185422,
              55.8217809
            ]
          ]
        ]
      }
    },
    {
      "type": "Feature",
      "properties": {
        "id": "moscow_mitino_-3_-3_aeaec586_large_oks_osm_way_322940782_56",
        "object_type": "restriction",
        "restriction_type": "road",
        "name": "улица Ленина",
        "osm_kind": "major_road",
        "osm_id": 322940782,
        "osm_type": "way",
        "osm_tags": {
          "highway": "primary",
          "name": "улица Ленина"
        },
        "case_id": "moscow_mitino_-3_-3_aeaec586_large_oks"
      },
      "geometry": {
        "type": "LineString",
        "coordinates": [
          [
            37.3206596,
            55.8209127
          ],
          [
            37.3204304,
            55.8211446
          ],
          [
            37.3202326,
            55.8213311
          ],
          [
            37.3198993,
            55.8216188
          ],
          [
            37.3196162,
            55.8218288
          ],
          [
            37.3192788,
            55.8220648
          ],
          [
            37.3189807,
            55.8222596
          ],
          [
            37.318835,
            55.8223576
          ],
          [
            37.3184849,
            55.8225808
          ],
          [
            37.3180577,
            55.8228562
          ]
        ]
      }
    },
    {
      "type": "Feature",
      "properties": {
        "id": "moscow_mitino_-3_-3_aeaec586_large_oks_osm_way_322940791_57",
        "object_type": "restriction",
        "restriction_type": "road",
        "name": "улица Ленина",
        "osm_kind": "major_road",
        "osm_id": 322940791,
        "osm_type": "way",
        "osm_tags": {
          "highway": "primary",
          "name": "улица Ленина"
        },
        "case_id": "moscow_mitino_-3_-3_aeaec586_large_oks"
      },
      "geometry": {
        "type": "LineString",
        "coordinates": [
          [
            37.3180577,
            55.8228562
          ],
          [
            37.3176501,
            55.8231218
          ],
          [
            37.3176204,
            55.8231412
          ],
          [
            37.3174311,
            55.8232622
          ]
        ]
      }
    },
    {
      "type": "Feature",
      "properties": {
        "id": "moscow_mitino_-3_-3_aeaec586_large_oks_osm_way_323508282_58",
        "object_type": "restriction",
        "restriction_type": "road",
        "name": "улица Маяковского",
        "osm_kind": "road",
        "osm_id": 323508282,
        "osm_type": "way",
        "osm_tags": {
          "highway": "tertiary",
          "name": "улица Маяковского"
        },
        "case_id": "moscow_mitino_-3_-3_aeaec586_large_oks"
      },
      "geometry": {
        "type": "LineString",
        "coordinates": [
          [
            37.3174311,
            55.8232622
          ],
          [
            37.3176099,
            55.823434
          ],
          [
            37.3179915,
            55.8238908
          ],
          [
            37.3180239,
            55.8239342
          ],
          [
            37.3180964,
            55.8240311
          ],
          [
            37.3181631,
            55.82414
          ],
          [
            37.3183706,
            55.8244789
          ]
        ]
      }
    },
    {
      "type": "Feature",
      "properties": {
        "id": "moscow_mitino_-3_-3_aeaec586_large_oks_osm_way_366668880_59",
        "object_type": "restriction",
        "restriction_type": "road",
        "name": "",
        "osm_kind": "road",
        "osm_id": 366668880,
        "osm_type": "way",
        "osm_tags": {
          "highway": "service"
        },
        "case_id": "moscow_mitino_-3_-3_aeaec586_large_oks"
      },
      "geometry": {
        "type": "LineString",
        "coordinates": [
          [
            37.3202549,
            55.8222104
          ],
          [
            37.3203046,
            55.8221885
          ],
          [
            37.3203924,
            55.8221498
          ],
          [
            37.320554,
            55.8220795
          ],
          [
            37.3210699,
            55.8218552
          ]
        ]
      }
    },
    {
      "type": "Feature",
      "properties": {
        "id": "moscow_mitino_-3_-3_aeaec586_large_oks_osm_way_383682540_60",
        "object_type": "restriction",
        "restriction_type": "road",
        "name": "",
        "osm_kind": "road",
        "osm_id": 383682540,
        "osm_type": "way",
        "osm_tags": {
          "highway": "footway"
        },
        "case_id": "moscow_mitino_-3_-3_aeaec586_large_oks"
      },
      "geometry": {
        "type": "LineString",
        "coordinates": [
          [
            37.3183152,
            55.8230278
          ],
          [
            37.3186773,
            55.8232122
          ],
          [
            37.3190819,
            55.8234183
          ]
        ]
      }
    },
    {
      "type": "Feature",
      "properties": {
        "id": "moscow_mitino_-3_-3_aeaec586_large_oks_osm_way_383682541_61",
        "object_type": "restriction",
        "restriction_type": "road",
        "name": "",
        "osm_kind": "road",
        "osm_id": 383682541,
        "osm_type": "way",
        "osm_tags": {
          "highway": "footway"
        },
        "case_id": "moscow_mitino_-3_-3_aeaec586_large_oks"
      },
      "geometry": {
        "type": "LineString",
        "coordinates": [
          [
            37.3190019,
            55.8236002
          ],
          [
            37.3188837,
            55.8235398
          ]
        ]
      }
    },
    {
      "type": "Feature",
      "properties": {
        "id": "moscow_mitino_-3_-3_aeaec586_large_oks_osm_way_383682544_62",
        "object_type": "restriction",
        "restriction_type": "road",
        "name": "",
        "osm_kind": "road",
        "osm_id": 383682544,
        "osm_type": "way",
        "osm_tags": {
          "highway": "footway"
        },
        "case_id": "moscow_mitino_-3_-3_aeaec586_large_oks"
      },
      "geometry": {
        "type": "LineString",
        "coordinates": [
          [
            37.3195012,
            55.8232382
          ],
          [
            37.3194554,
            55.8232146
          ],
          [
            37.3194328,
            55.8232029
          ]
        ]
      }
    },
    {
      "type": "Feature",
      "properties": {
        "id": "moscow_mitino_-3_-3_aeaec586_large_oks_osm_way_383682550_63",
        "object_type": "restriction",
        "restriction_type": "road",
        "name": "",
        "osm_kind": "road",
        "osm_id": 383682550,
        "osm_type": "way",
        "osm_tags": {
          "highway": "footway"
        },
        "case_id": "moscow_mitino_-3_-3_aeaec586_large_oks"
      },
      "geometry": {
        "type": "LineString",
        "coordinates": [
          [
            37.3178046,
            55.8232808
          ],
          [
            37.3178615,
            55.823309
          ],
          [
            37.3185203,
            55.8236349
          ],
          [
            37.3186357,
            55.823692
          ]
        ]
      }
    },
    {
      "type": "Feature",
      "properties": {
        "id": "moscow_mitino_-3_-3_aeaec586_large_oks_osm_way_383682552_64",
        "object_type": "restriction",
        "restriction_type": "road",
        "name": "",
        "osm_kind": "road",
        "osm_id": 383682552,
        "osm_type": "way",
        "osm_tags": {
          "highway": "footway"
        },
        "case_id": "moscow_mitino_-3_-3_aeaec586_large_oks"
      },
      "geometry": {
        "type": "LineString",
        "coordinates": [
          [
            37.3186151,
            55.8227828
          ],
          [
            37.3186666,
            55.822809
          ],
          [
            37.3186197,
            55.8228391
          ]
        ]
      }
    },
    {
      "type": "Feature",
      "properties": {
        "id": "moscow_mitino_-3_-3_aeaec586_large_oks_osm_way_383682555_65",
        "object_type": "restriction",
        "restriction_type": "road",
        "name": "",
        "osm_kind": "road",
        "osm_id": 383682555,
        "osm_type": "way",
        "osm_tags": {
          "highway": "footway"
        },
        "case_id": "moscow_mitino_-3_-3_aeaec586_large_oks"
      },
      "geometry": {
        "type": "LineString",
        "coordinates": [
          [
            37.3184796,
            55.823928
          ],
          [
            37.3183727,
            55.8238738
          ],
          [
            37.3182686,
            55.8238203
          ],
          [
            37.3181808,
            55.823842
          ]
        ]
      }
    },
    {
      "type": "Feature",
      "properties": {
        "id": "moscow_mitino_-3_-3_aeaec586_large_oks_osm_way_383682558_66",
        "object_type": "restriction",
        "restriction_type": "road",
        "name": "",
        "osm_kind": "road",
        "osm_id": 383682558,
        "osm_type": "way",
        "osm_tags": {
          "highway": "footway"
        },
        "case_id": "moscow_mitino_-3_-3_aeaec586_large_oks"
      },
      "geometry": {
        "type": "LineString",
        "coordinates": [
          [
            37.3178615,
            55.823309
          ],
          [
            37.3183152,
            55.8230278
          ],
          [
            37.3184216,
            55.8229618
          ],
          [
            37.3186082,
            55.8228462
          ],
          [
            37.3186197,
            55.8228391
          ],
          [
            37.3188056,
            55.8229084
          ],
          [
            37.3194187,
            55.8232114
          ]
        ]
      }
    },
    {
      "type": "Feature",
      "properties": {
        "id": "moscow_mitino_-3_-3_aeaec586_large_oks_osm_way_396795675_67",
        "object_type": "restriction",
        "restriction_type": "road",
        "name": "",
        "osm_kind": "road",
        "osm_id": 396795675,
        "osm_type": "way",
        "osm_tags": {
          "highway": "footway"
        },
        "case_id": "moscow_mitino_-3_-3_aeaec586_large_oks"
      },
      "geometry": {
        "type": "LineString",
        "coordinates": [
          [
            37.3190819,
            55.8223048
          ],
          [
            37.3189463,
            55.8224142
          ],
          [
            37.3188785,
            55.8224689
          ]
        ]
      }
    },
    {
      "type": "Feature",
      "properties": {
        "id": "moscow_mitino_-3_-3_aeaec586_large_oks_osm_way_396795682_68",
        "object_type": "restriction",
        "restriction_type": "road",
        "name": "",
        "osm_kind": "road",
        "osm_id": 396795682,
        "osm_type": "way",
        "osm_tags": {
          "highway": "footway"
        },
        "case_id": "moscow_mitino_-3_-3_aeaec586_large_oks"
      },
      "geometry": {
        "type": "LineString",
        "coordinates": [
          [
            37.3188785,
            55.8224689
          ],
          [
            37.318489,
            55.8227195
          ],
          [
            37.3185399,
            55.8227446
          ],
          [
            37.3184793,
            55.8227815
          ],
          [
            37.3182917,
            55.8228957
          ],
          [
            37.3177248,
            55.8232405
          ],
          [
            37.3177038,
            55.8232605
          ],
          [
            37.317688,
            55.8232914
          ],
          [
            37.3176799,
            55.823392
          ]
        ]
      }
    },
    {
      "type": "Feature",
      "properties": {
        "id": "moscow_mitino_-3_-3_aeaec586_large_oks_osm_way_468524626_69",
        "object_type": "restriction",
        "restriction_type": "road",
        "name": "",
        "osm_kind": "road",
        "osm_id": 468524626,
        "osm_type": "way",
        "osm_tags": {
          "highway": "service"
        },
        "case_id": "moscow_mitino_-3_-3_aeaec586_large_oks"
      },
      "geometry": {
        "type": "LineString",
        "coordinates": [
          [
            37.3204489,
            55.8242266
          ],
          [
            37.3208925,
            55.8244554
          ],
          [
            37.3209219,
            55.8244554
          ]
        ]
      }
    },
    {
      "type": "Feature",
      "properties": {
        "id": "moscow_mitino_-3_-3_aeaec586_large_oks_osm_way_468524627_70",
        "object_type": "restriction",
        "restriction_type": "road",
        "name": "",
        "osm_kind": "road",
        "osm_id": 468524627,
        "osm_type": "way",
        "osm_tags": {
          "highway": "service"
        },
        "case_id": "moscow_mitino_-3_-3_aeaec586_large_oks"
      },
      "geometry": {
        "type": "LineString",
        "coordinates": [
          [
            37.3204091,
            55.8242061
          ],
          [
            37.3204489,
            55.8242266
          ]
        ]
      }
    },
    {
      "type": "Feature",
      "properties": {
        "id": "moscow_mitino_-3_-3_aeaec586_large_oks_osm_way_501457569_71",
        "object_type": "restriction",
        "restriction_type": "road",
        "name": "",
        "osm_kind": "road",
        "osm_id": 501457569,
        "osm_type": "way",
        "osm_tags": {
          "highway": "path"
        },
        "case_id": "moscow_mitino_-3_-3_aeaec586_large_oks"
      },
      "geometry": {
        "type": "LineString",
        "coordinates": [
          [
            37.3222169,
            55.8222427
          ],
          [
            37.3223725,
            55.8222231
          ],
          [
            37.3232543,
            55.8219792
          ],
          [
            37.3236948,
            55.8218991
          ],
          [
            37.3244242,
            55.8218159
          ],
          [
            37.3250842,
            55.8218268
          ],
          [
            37.3256421,
            55.8218238
          ],
          [
            37.3261785,
            55.8217485
          ],
          [
            37.3266345,
            55.8216852
          ],
          [
            37.3270861,
            55.8217076
          ]
        ]
      }
    },
    {
      "type": "Feature",
      "properties": {
        "id": "moscow_mitino_-3_-3_aeaec586_large_oks_osm_way_517381603_72",
        "object_type": "restriction",
        "restriction_type": "water",
        "name": "",
        "osm_kind": "water",
        "osm_id": 517381603,
        "osm_type": "way",
        "osm_tags": {
          "waterway": "ditch"
        },
        "case_id": "moscow_mitino_-3_-3_aeaec586_large_oks"
      },
      "geometry": {
        "type": "LineString",
        "coordinates": [
          [
            37.3215973,
            55.8239875
          ],
          [
            37.3222679,
            55.8243039
          ]
        ]
      }
    },
    {
      "type": "Feature",
      "properties": {
        "id": "moscow_mitino_-3_-3_aeaec586_large_oks_osm_way_517381605_73",
        "object_type": "restriction",
        "restriction_type": "water",
        "name": "",
        "osm_kind": "water",
        "osm_id": 517381605,
        "osm_type": "way",
        "osm_tags": {
          "waterway": "ditch"
        },
        "case_id": "moscow_mitino_-3_-3_aeaec586_large_oks"
      },
      "geometry": {
        "type": "LineString",
        "coordinates": [
          [
            37.3224128,
            55.8243533
          ],
          [
            37.3225683,
            55.8244063
          ],
          [
            37.3236412,
            55.8245962
          ],
          [
            37.3245692,
            55.8247318
          ],
          [
            37.3252666,
            55.8247981
          ],
          [
            37.325516,
            55.8248026
          ],
          [
            37.3255546,
            55.8248006
          ],
          [
            37.3257588,
            55.8246813
          ],
          [
            37.3260069,
            55.8245645
          ]
        ]
      }
    },
    {
      "type": "Feature",
      "properties": {
        "id": "moscow_mitino_-3_-3_aeaec586_large_oks_osm_way_542298648_74",
        "object_type": "restriction",
        "restriction_type": "road",
        "name": "улица Ленина",
        "osm_kind": "major_road",
        "osm_id": 542298648,
        "osm_type": "way",
        "osm_tags": {
          "highway": "primary",
          "name": "улица Ленина"
        },
        "case_id": "moscow_mitino_-3_-3_aeaec586_large_oks"
      },
      "geometry": {
        "type": "LineString",
        "coordinates": [
          [
            37.3194887,
            55.8217766
          ],
          [
            37.319764,
            55.8215661
          ],
          [
            37.320184,
            55.8211735
          ]
        ]
      }
    },
    {
      "type": "Feature",
      "properties": {
        "id": "moscow_mitino_-3_-3_aeaec586_large_oks_osm_way_557140539_75",
        "object_type": "restriction",
        "restriction_type": "road",
        "name": "",
        "osm_kind": "road",
        "osm_id": 557140539,
        "osm_type": "way",
        "osm_tags": {
          "highway": "footway"
        },
        "case_id": "moscow_mitino_-3_-3_aeaec586_large_oks"
      },
      "geometry": {
        "type": "LineString",
        "coordinates": [
          [
            37.3180907,
            55.8238646
          ],
          [
            37.3179915,
            55.8238908
          ],
          [
            37.3179297,
            55.823907
          ]
        ]
      }
    },
    {
      "type": "Feature",
      "properties": {
        "id": "moscow_mitino_-3_-3_aeaec586_large_oks_osm_way_557140540_76",
        "object_type": "restriction",
        "restriction_type": "road",
        "name": "",
        "osm_kind": "road",
        "osm_id": 557140540,
        "osm_type": "way",
        "osm_tags": {
          "highway": "footway"
        },
        "case_id": "moscow_mitino_-3_-3_aeaec586_large_oks"
      },
      "geometry": {
        "type": "LineString",
        "coordinates": [
          [
            37.3181536,
            55.8238488
          ],
          [
            37.3181105,
            55.8238597
          ],
          [
            37.3180907,
            55.8238646
          ]
        ]
      }
    },
    {
      "type": "Feature",
      "properties": {
        "id": "moscow_mitino_-3_-3_aeaec586_large_oks_osm_way_597910579_77",
        "object_type": "restriction",
        "restriction_type": "road",
        "name": "",
        "osm_kind": "road",
        "osm_id": 597910579,
        "osm_type": "way",
        "osm_tags": {
          "highway": "path"
        },
        "case_id": "moscow_mitino_-3_-3_aeaec586_large_oks"
      },
      "geometry": {
        "type": "LineString",
        "coordinates": [
          [
            37.3227827,
            55.8226706
          ],
          [
            37.3222169,
            55.8222427
          ],
          [
            37.3213372,
            55.8222517
          ]
        ]
      }
    },
    {
      "type": "Feature",
      "properties": {
        "id": "moscow_mitino_-3_-3_aeaec586_large_oks_osm_way_780135249_78",
        "object_type": "restriction",
        "restriction_type": "oks",
        "name": "",
        "osm_kind": "building",
        "osm_id": 780135249,
        "osm_type": "way",
        "osm_tags": {
          "building": "roof"
        },
        "case_id": "moscow_mitino_-3_-3_aeaec586_large_oks"
      },
      "geometry": {
        "type": "Polygon",
        "coordinates": [
          [
            [
              37.3178163,
              55.8233673
            ],
            [
              37.3184289,
              55.8236724
            ],
            [
              37.3184849,
              55.8236368
            ],
            [
              37.3178722,
              55.8233319
            ],
            [
              37.3178163,
              55.8233673
            ]
          ]
        ]
      }
    },
    {
      "type": "Feature",
      "properties": {
        "id": "moscow_mitino_-3_-3_aeaec586_large_oks_osm_way_871995716_79",
        "object_type": "restriction",
        "restriction_type": "road",
        "name": "",
        "osm_kind": "road",
        "osm_id": 871995716,
        "osm_type": "way",
        "osm_tags": {
          "highway": "service"
        },
        "case_id": "moscow_mitino_-3_-3_aeaec586_large_oks"
      },
      "geometry": {
        "type": "LineString",
        "coordinates": [
          [
            37.3185931,
            55.824418
          ],
          [
            37.3184731,
            55.8245021
          ],
          [
            37.3184252,
            55.8245377
          ]
        ]
      }
    },
    {
      "type": "Feature",
      "properties": {
        "id": "moscow_mitino_-3_-3_aeaec586_large_oks_osm_way_1149679361_80",
        "object_type": "restriction",
        "restriction_type": "road",
        "name": "",
        "osm_kind": "road",
        "osm_id": 1149679361,
        "osm_type": "way",
        "osm_tags": {
          "highway": "footway"
        },
        "case_id": "moscow_mitino_-3_-3_aeaec586_large_oks"
      },
      "geometry": {
        "type": "LineString",
        "coordinates": [
          [
            37.3184793,
            55.8227815
          ],
          [
            37.3185095,
            55.8227963
          ]
        ]
      }
    },
    {
      "type": "Feature",
      "properties": {
        "id": "moscow_mitino_-3_-3_aeaec586_large_oks_osm_way_1149679362_81",
        "object_type": "restriction",
        "restriction_type": "road",
        "name": "",
        "osm_kind": "road",
        "osm_id": 1149679362,
        "osm_type": "way",
        "osm_tags": {
          "highway": "steps"
        },
        "case_id": "moscow_mitino_-3_-3_aeaec586_large_oks"
      },
      "geometry": {
        "type": "LineString",
        "coordinates": [
          [
            37.3185401,
            55.8228119
          ],
          [
            37.3185095,
            55.8227963
          ]
        ]
      }
    },
    {
      "type": "Feature",
      "properties": {
        "id": "moscow_mitino_-3_-3_aeaec586_large_oks_osm_way_1149679363_82",
        "object_type": "restriction",
        "restriction_type": "road",
        "name": "",
        "osm_kind": "road",
        "osm_id": 1149679363,
        "osm_type": "way",
        "osm_tags": {
          "highway": "footway"
        },
        "case_id": "moscow_mitino_-3_-3_aeaec586_large_oks"
      },
      "geometry": {
        "type": "LineString",
        "coordinates": [
          [
            37.3185401,
            55.8228119
          ],
          [
            37.3186082,
            55.8228462
          ]
        ]
      }
    },
    {
      "type": "Feature",
      "properties": {
        "id": "moscow_mitino_-3_-3_aeaec586_large_oks_osm_way_1149679364_83",
        "object_type": "restriction",
        "restriction_type": "road",
        "name": "",
        "osm_kind": "road",
        "osm_id": 1149679364,
        "osm_type": "way",
        "osm_tags": {
          "highway": "service"
        },
        "case_id": "moscow_mitino_-3_-3_aeaec586_large_oks"
      },
      "geometry": {
        "type": "LineString",
        "coordinates": [
          [
            37.3209921,
            55.8244551
          ],
          [
            37.3210783,
            55.8244548
          ],
          [
            37.3212243,
            55.8243621
          ]
        ]
      }
    },
    {
      "type": "Feature",
      "properties": {
        "id": "moscow_mitino_-3_-3_aeaec586_large_oks_osm_way_1348980497_84",
        "object_type": "restriction",
        "restriction_type": "road",
        "name": "",
        "osm_kind": "road",
        "osm_id": 1348980497,
        "osm_type": "way",
        "osm_tags": {
          "highway": "footway"
        },
        "case_id": "moscow_mitino_-3_-3_aeaec586_large_oks"
      },
      "geometry": {
        "type": "LineString",
        "coordinates": [
          [
            37.3207196,
            55.8209853
          ],
          [
            37.3206697,
            55.8210127
          ],
          [
            37.3204991,
            55.8211781
          ],
          [
            37.3202963,
            55.8213649
          ],
          [
            37.319998,
            55.8216263
          ],
          [
            37.3198714,
            55.8217228
          ],
          [
            37.3196718,
            55.8218582
          ],
          [
            37.3190893,
            55.8222604
          ],
          [
            37.3190819,
            55.8223048
          ]
        ]
      }
    },
    {
      "type": "Feature",
      "properties": {
        "id": "moscow_mitino_-3_-3_aeaec586_large_oks_osm_way_1348980500_85",
        "object_type": "restriction",
        "restriction_type": "road",
        "name": "",
        "osm_kind": "road",
        "osm_id": 1348980500,
        "osm_type": "way",
        "osm_tags": {
          "highway": "footway"
        },
        "case_id": "moscow_mitino_-3_-3_aeaec586_large_oks"
      },
      "geometry": {
        "type": "LineString",
        "coordinates": [
          [
            37.3200407,
            55.8220785
          ],
          [
            37.3199972,
            55.8221012
          ]
        ]
      }
    },
    {
      "type": "Feature",
      "properties": {
        "id": "moscow_mitino_-3_-3_aeaec586_large_oks_osm_way_1348980501_86",
        "object_type": "restriction",
        "restriction_type": "road",
        "name": "",
        "osm_kind": "road",
        "osm_id": 1348980501,
        "osm_type": "way",
        "osm_tags": {
          "highway": "path"
        },
        "case_id": "moscow_mitino_-3_-3_aeaec586_large_oks"
      },
      "geometry": {
        "type": "LineString",
        "coordinates": [
          [
            37.3203046,
            55.8221885
          ],
          [
            37.320393,
            55.8222359
          ],
          [
            37.3203952,
            55.8222845
          ]
        ]
      }
    },
    {
      "type": "Feature",
      "properties": {
        "id": "moscow_mitino_-3_-3_aeaec586_large_oks_osm_way_1348980502_87",
        "object_type": "restriction",
        "restriction_type": "road",
        "name": "",
        "osm_kind": "road",
        "osm_id": 1348980502,
        "osm_type": "way",
        "osm_tags": {
          "highway": "service"
        },
        "case_id": "moscow_mitino_-3_-3_aeaec586_large_oks"
      },
      "geometry": {
        "type": "LineString",
        "coordinates": [
          [
            37.3203233,
            55.8222465
          ],
          [
            37.3203952,
            55.8222845
          ],
          [
            37.3204416,
            55.822309
          ],
          [
            37.3209836,
            55.8225927
          ],
          [
            37.3201962,
            55.8230667
          ]
        ]
      }
    },
    {
      "type": "Feature",
      "properties": {
        "id": "moscow_mitino_-3_-3_aeaec586_large_oks_osm_way_1348980503_88",
        "object_type": "restriction",
        "restriction_type": "road",
        "name": "",
        "osm_kind": "road",
        "osm_id": 1348980503,
        "osm_type": "way",
        "osm_tags": {
          "highway": "service"
        },
        "case_id": "moscow_mitino_-3_-3_aeaec586_large_oks"
      },
      "geometry": {
        "type": "LineString",
        "coordinates": [
          [
            37.3191342,
            55.8225124
          ],
          [
            37.3192281,
            55.8224594
          ]
        ]
      }
    },
    {
      "type": "Feature",
      "properties": {
        "id": "moscow_mitino_-3_-3_aeaec586_large_oks_osm_way_1348980507_89",
        "object_type": "restriction",
        "restriction_type": "road",
        "name": "",
        "osm_kind": "road",
        "osm_id": 1348980507,
        "osm_type": "way",
        "osm_tags": {
          "highway": "footway"
        },
        "case_id": "moscow_mitino_-3_-3_aeaec586_large_oks"
      },
      "geometry": {
        "type": "LineString",
        "coordinates": [
          [
            37.322124,
            55.8217561
          ],
          [
            37.32171,
            55.8214754
          ]
        ]
      }
    },
    {
      "type": "Feature",
      "properties": {
        "id": "moscow_mitino_-3_-3_aeaec586_large_oks_source",
        "object_type": "source",
        "case_id": "moscow_mitino_-3_-3_aeaec586_large_oks"
      },
      "geometry": {
        "type": "Point",
        "coordinates": [
          37.31811932666667,
          55.82309305
        ]
      }
    },
    {
      "type": "Feature",
      "properties": {
        "id": "moscow_mitino_-3_-3_aeaec586_large_oks_existing_network",
        "object_type": "heat_network",
        "diameter": 500,
        "flow_tph": 180.0,
        "upstream_object_id": "moscow_mitino_-3_-3_aeaec586_large_oks_source",
        "case_id": "moscow_mitino_-3_-3_aeaec586_large_oks"
      },
      "geometry": {
        "type": "LineString",
        "coordinates": [
          [
            37.31811932666667,
            55.82309305
          ],
          [
            37.31923872,
            55.82309305
          ]
        ]
      }
    },
    {
      "type": "Feature",
      "properties": {
        "id": "moscow_mitino_-3_-3_aeaec586_large_oks_existing_chamber",
        "object_type": "heat_chamber",
        "diameter": 500,
        "upstream_object_id": "moscow_mitino_-3_-3_aeaec586_large_oks_source",
        "case_id": "moscow_mitino_-3_-3_aeaec586_large_oks"
      },
      "geometry": {
        "type": "Point",
        "coordinates": [
          37.31923872,
          55.82309305
        ]
      }
    },
    {
      "type": "Feature",
      "properties": {
        "id": "moscow_mitino_-3_-3_aeaec586_large_oks_cp_1",
        "object_type": "oks_connection_point",
        "flow_tph": 20.0,
        "case_id": "moscow_mitino_-3_-3_aeaec586_large_oks",
        "consumer_role": "osm_building_heat_demand_proxy",
        "source_building_osm_id": 94621278,
        "source_building_osm_type": "way",
        "source_building_name": "",
        "source_building_tags": {
          "building": "yes"
        },
        "footprint_area_m2": 564.79,
        "flow_basis": "synthetic_proxy_from_osm_footprint_area",
        "stress_bucket": "large_oks"
      },
      "geometry": {
        "type": "Point",
        "coordinates": [
          37.319748849999996,
          55.822405950000004
        ]
      }
    },
    {
      "type": "Feature",
      "properties": {
        "id": "moscow_mitino_-3_-3_aeaec586_large_oks_cp_2",
        "object_type": "oks_connection_point",
        "flow_tph": 20.0,
        "case_id": "moscow_mitino_-3_-3_aeaec586_large_oks",
        "consumer_role": "osm_building_heat_demand_proxy",
        "source_building_osm_id": 94621274,
        "source_building_osm_type": "way",
        "source_building_name": "",
        "source_building_tags": {
          "building": "civic"
        },
        "footprint_area_m2": 657.04,
        "flow_basis": "synthetic_proxy_from_osm_footprint_area",
        "stress_bucket": "large_oks"
      },
      "geometry": {
        "type": "Point",
        "coordinates": [
          37.32222351353943,
          55.821868223514635
        ]
      }
    },
    {
      "type": "Feature",
      "properties": {
        "id": "moscow_mitino_-3_-3_aeaec586_large_oks_cp_3",
        "object_type": "oks_connection_point",
        "flow_tph": 20.0,
        "case_id": "moscow_mitino_-3_-3_aeaec586_large_oks",
        "consumer_role": "osm_building_heat_demand_proxy",
        "source_building_osm_id": 261458133,
        "source_building_osm_type": "way",
        "source_building_name": "",
        "source_building_tags": {
          "building": "commercial"
        },
        "footprint_area_m2": 533.35,
        "flow_basis": "synthetic_proxy_from_osm_footprint_area",
        "stress_bucket": "large_oks"
      },
      "geometry": {
        "type": "Point",
        "coordinates": [
          37.320898361214354,
          55.82428629534561
        ]
      }
    },
    {
      "type": "Feature",
      "properties": {
        "id": "moscow_mitino_-3_-3_aeaec586_large_oks_cp_4",
        "object_type": "oks_connection_point",
        "flow_tph": 20.0,
        "case_id": "moscow_mitino_-3_-3_aeaec586_large_oks",
        "consumer_role": "osm_building_heat_demand_proxy",
        "source_building_osm_id": 184655871,
        "source_building_osm_type": "way",
        "source_building_name": "",
        "source_building_tags": {
          "building": "yes"
        },
        "footprint_area_m2": 73.14,
        "flow_basis": "synthetic_proxy_from_osm_footprint_area",
        "stress_bucket": "large_oks"
      },
      "geometry": {
        "type": "Point",
        "coordinates": [
          37.320407200000005,
          55.82431185
        ]
      }
    }
  ]
}