{
  "type": "FeatureCollection",
  "name": "moscow_mitino_-1_-2_8d489c74_large_oks",
  "crs": {
    "type": "name",
    "properties": {
      "name": "EPSG:4326"
    }
  },
  "metadata": {
    "dataset_version": "osm_building_anchored_routing_scenes_v3",
    "parent_scene_id": "moscow_mitino_-1_-2_8d489c74",
    "split": "train",
    "city": "Москва Митино",
    "seed": "moscow_mitino",
    "research_bucket": "large_oks",
    "source_research_bucket": "refusal",
    "research_bucket_is_ground_truth": false,
    "bbox_south_west_north_east": [
      55.8370169,
      37.3313991,
      55.8397118,
      37.3361984
    ],
    "real_data_source": "OpenStreetMap via Overpass API",
    "source_file": "data/real_geojson_places/refusal/096_moscow_mitino_-1_-2_8d489c74.geojson",
    "real_layers": [
      "restrictions",
      "consumer_building_footprints"
    ],
    "synthetic_layers": [
      "source",
      "heat_network",
      "heat_chamber",
      "heat_demand"
    ],
    "consumer_selection": "deterministic points inside real OSM building footprints",
    "flow_model": "synthetic proxy derived from building footprint area; not metered demand",
    "note": "OSM buildings anchor consumers; heat demand and seed network are synthetic proxies."
  },
  "features": [
    {
      "type": "Feature",
      "properties": {
        "id": "moscow_mitino_-1_-2_8d489c74_large_oks_osm_way_88614289_1",
        "object_type": "restriction",
        "restriction_type": "road",
        "name": "",
        "osm_kind": "road",
        "osm_id": 88614289,
        "osm_type": "way",
        "osm_tags": {
          "highway": "service"
        },
        "case_id": "moscow_mitino_-1_-2_8d489c74_large_oks"
      },
      "geometry": {
        "type": "LineString",
        "coordinates": [
          [
            37.3311057,
            55.8370042
          ],
          [
            37.3311495,
            55.8369737
          ],
          [
            37.3312442,
            55.8369078
          ],
          [
            37.3330433,
            55.8356557
          ],
          [
            37.33335,
            55.8357961
          ],
          [
            37.3314427,
            55.8371095
          ],
          [
            37.3314045,
            55.8371358
          ]
        ]
      }
    },
    {
      "type": "Feature",
      "properties": {
        "id": "moscow_mitino_-1_-2_8d489c74_large_oks_osm_way_88614306_2",
        "object_type": "restriction",
        "restriction_type": "road",
        "name": "",
        "osm_kind": "road",
        "osm_id": 88614306,
        "osm_type": "way",
        "osm_tags": {
          "highway": "service"
        },
        "case_id": "moscow_mitino_-1_-2_8d489c74_large_oks"
      },
      "geometry": {
        "type": "LineString",
        "coordinates": [
          [
            37.3322851,
            55.8375528
          ],
          [
            37.332333,
            55.8375206
          ],
          [
            37.3323954,
            55.8374786
          ],
          [
            37.3349445,
            55.8357638
          ]
        ]
      }
    },
    {
      "type": "Feature",
      "properties": {
        "id": "moscow_mitino_-1_-2_8d489c74_large_oks_osm_way_88614317_3",
        "object_type": "restriction",
        "restriction_type": "road",
        "name": "",
        "osm_kind": "road",
        "osm_id": 88614317,
        "osm_type": "way",
        "osm_tags": {
          "highway": "service"
        },
        "case_id": "moscow_mitino_-1_-2_8d489c74_large_oks"
      },
      "geometry": {
        "type": "LineString",
        "coordinates": [
          [
            37.3317184,
            55.8372788
          ],
          [
            37.331757,
            55.8372535
          ],
          [
            37.3317981,
            55.8372265
          ],
          [
            37.3332765,
            55.8362566
          ],
          [
            37.33398,
            55.8358119
          ],
          [
            37.3341941,
            55.8356553
          ],
          [
            37.3331903,
            55.8351641
          ],
          [
            37.3334574,
            55.8350089
          ],
          [
            37.3347092,
            55.8356137
          ],
          [
            37.3337978,
            55.8362294
          ],
          [
            37.3320817,
            55.8373554
          ],
          [
            37.3320368,
            55.8373849
          ],
          [
            37.3319961,
            55.8374116
          ]
        ]
      }
    },
    {
      "type": "Feature",
      "properties": {
        "id": "moscow_mitino_-1_-2_8d489c74_large_oks_osm_way_94602830_4",
        "object_type": "restriction",
        "restriction_type": "oks",
        "name": "",
        "osm_kind": "building",
        "osm_id": 94602830,
        "osm_type": "way",
        "osm_tags": {
          "building": "garages"
        },
        "case_id": "moscow_mitino_-1_-2_8d489c74_large_oks"
      },
      "geometry": {
        "type": "Polygon",
        "coordinates": [
          [
            [
              37.3322597,
              55.8374682
            ],
            [
              37.3335932,
              55.8366137
            ],
            [
              37.3349165,
              55.8357276
            ],
            [
              37.334749,
              55.8356469
            ],
            [
              37.3320922,
              55.8373876
            ],
            [
              37.3322597,
              55.8374682
            ]
          ]
        ]
      }
    },
    {
      "type": "Feature",
      "properties": {
        "id": "moscow_mitino_-1_-2_8d489c74_large_oks_osm_way_94602855_5",
        "object_type": "restriction",
        "restriction_type": "oks",
        "name": "",
        "osm_kind": "building",
        "osm_id": 94602855,
        "osm_type": "way",
        "osm_tags": {
          "building": "yes"
        },
        "case_id": "moscow_mitino_-1_-2_8d489c74_large_oks"
      },
      "geometry": {
        "type": "Polygon",
        "coordinates": [
          [
            [
              37.3334606,
              55.8375912
            ],
            [
              37.333304,
              55.8375212
            ],
            [
              37.3333122,
              55.8375154
            ],
            [
              37.333199,
              55.8374649
            ],
            [
              37.3330956,
              55.8375379
            ],
            [
              37.3333654,
              55.8376584
            ],
            [
              37.3334606,
              55.8375912
            ]
          ]
        ]
      }
    },
    {
      "type": "Feature",
      "properties": {
        "id": "moscow_mitino_-1_-2_8d489c74_large_oks_osm_way_94602859_6",
        "object_type": "restriction",
        "restriction_type": "oks",
        "name": "",
        "osm_kind": "building",
        "osm_id": 94602859,
        "osm_type": "way",
        "osm_tags": {
          "building": "industrial"
        },
        "case_id": "moscow_mitino_-1_-2_8d489c74_large_oks"
      },
      "geometry": {
        "type": "Polygon",
        "coordinates": [
          [
            [
              37.3349183,
              55.8368154
            ],
            [
              37.3349789,
              55.8368425
            ],
            [
              37.3349431,
              55.8368677
            ],
            [
              37.3354285,
              55.8370841
            ],
            [
              37.3354642,
              55.8370589
            ],
            [
              37.3355284,
              55.8370875
            ],
            [
              37.3360618,
              55.8367103
            ],
            [
              37.3361012,
              55.8367279
            ],
            [
              37.3362041,
              55.8366551
            ],
            [
              37.3361647,
              55.8366375
            ],
            [
              37.3362485,
              55.8365783
            ],
            [
              37.3356383,
              55.8363062
            ],
            [
              37.3355545,
              55.8363655
            ],
            [
              37.335514,
              55.8363474
            ],
            [
              37.335411,
              55.8364202
            ],
            [
              37.3354516,
              55.8364383
            ],
            [
              37.3349183,
              55.8368154
            ]
          ]
        ]
      }
    },
    {
      "type": "Feature",
      "properties": {
        "id": "moscow_mitino_-1_-2_8d489c74_large_oks_osm_way_94602862_7",
        "object_type": "restriction",
        "restriction_type": "oks",
        "name": "",
        "osm_kind": "building",
        "osm_id": 94602862,
        "osm_type": "way",
        "osm_tags": {
          "building": "industrial"
        },
        "case_id": "moscow_mitino_-1_-2_8d489c74_large_oks",
        "selected_as_heat_demand_proxy": true,
        "connection_point_id": "moscow_mitino_-1_-2_8d489c74_large_oks_cp_4"
      },
      "geometry": {
        "type": "Polygon",
        "coordinates": [
          [
            [
              37.3371944,
              55.8372726
            ],
            [
              37.3368719,
              55.8371271
            ],
            [
              37.3356876,
              55.8379546
            ],
            [
              37.33601,
              55.8381001
            ],
            [
              37.3371944,
              55.8372726
            ]
          ]
        ]
      }
    },
    {
      "type": "Feature",
      "properties": {
        "id": "moscow_mitino_-1_-2_8d489c74_large_oks_osm_way_94602916_8",
        "object_type": "restriction",
        "restriction_type": "oks",
        "name": "",
        "osm_kind": "building",
        "osm_id": 94602916,
        "osm_type": "way",
        "osm_tags": {
          "building": "industrial"
        },
        "case_id": "moscow_mitino_-1_-2_8d489c74_large_oks"
      },
      "geometry": {
        "type": "Polygon",
        "coordinates": [
          [
            [
              37.3351875,
              55.837729
            ],
            [
              37.3355161,
              55.8378773
            ],
            [
              37.3367005,
              55.8370497
            ],
            [
              37.3363719,
              55.8369014
            ],
            [
              37.3351875,
              55.837729
            ]
          ]
        ]
      }
    },
    {
      "type": "Feature",
      "properties": {
        "id": "moscow_mitino_-1_-2_8d489c74_large_oks_osm_way_94602919_9",
        "object_type": "restriction",
        "restriction_type": "oks",
        "name": "",
        "osm_kind": "building",
        "osm_id": 94602919,
        "osm_type": "way",
        "osm_tags": {
          "building": "garages"
        },
        "case_id": "moscow_mitino_-1_-2_8d489c74_large_oks"
      },
      "geometry": {
        "type": "Polygon",
        "coordinates": [
          [
            [
              37.3315232,
              55.8371177
            ],
            [
              37.3317338,
              55.8372129
            ],
            [
              37.3332512,
              55.8362002
            ],
            [
              37.3332686,
              55.836205
            ],
            [
              37.3333632,
              55.8361492
            ],
            [
              37.3333288,
              55.8361332
            ],
            [
              37.3338467,
              55.8357867
            ],
            [
              37.3330476,
              55.8354076
            ],
            [
              37.3319104,
              55.836193
            ],
            [
              37.3309391,
              55.836856
            ],
            [
              37.3310918,
              55.8369282
            ],
            [
              37.3322984,
              55.8361159
            ],
            [
              37.3330225,
              55.8356169
            ],
            [
              37.3334241,
              55.8358074
            ],
            [
              37.3330445,
              55.8360585
            ],
            [
              37.3330427,
              55.8360577
            ],
            [
              37.3315232,
              55.8371177
            ]
          ]
        ]
      }
    },
    {
      "type": "Feature",
      "properties": {
        "id": "moscow_mitino_-1_-2_8d489c74_large_oks_osm_way_94602923_10",
        "object_type": "restriction",
        "restriction_type": "oks",
        "name": "",
        "osm_kind": "building",
        "osm_id": 94602923,
        "osm_type": "way",
        "osm_tags": {
          "building": "industrial"
        },
        "case_id": "moscow_mitino_-1_-2_8d489c74_large_oks",
        "selected_as_heat_demand_proxy": true,
        "connection_point_id": "moscow_mitino_-1_-2_8d489c74_large_oks_cp_1"
      },
      "geometry": {
        "type": "Polygon",
        "coordinates": [
          [
            [
              37.3338078,
              55.837577
            ],
            [
              37.334199,
              55.8377463
            ],
            [
              37.3344838,
              55.8375389
            ],
            [
              37.3340926,
              55.8373696
            ],
            [
              37.3338078,
              55.837577
            ]
          ]
        ]
      }
    },
    {
      "type": "Feature",
      "properties": {
        "id": "moscow_mitino_-1_-2_8d489c74_large_oks_osm_way_94602999_11",
        "object_type": "restriction",
        "restriction_type": "oks",
        "name": "",
        "osm_kind": "building",
        "osm_id": 94602999,
        "osm_type": "way",
        "osm_tags": {
          "building": "industrial"
        },
        "case_id": "moscow_mitino_-1_-2_8d489c74_large_oks"
      },
      "geometry": {
        "type": "Polygon",
        "coordinates": [
          [
            [
              37.3340926,
              55.8373696
            ],
            [
              37.3344838,
              55.8375389
            ],
            [
              37.3345587,
              55.8375714
            ],
            [
              37.3349571,
              55.8372812
            ],
            [
              37.334491,
              55.8370794
            ],
            [
              37.3340926,
              55.8373696
            ]
          ]
        ]
      }
    },
    {
      "type": "Feature",
      "properties": {
        "id": "moscow_mitino_-1_-2_8d489c74_large_oks_osm_way_94603018_12",
        "object_type": "restriction",
        "restriction_type": "oks",
        "name": "",
        "osm_kind": "building",
        "osm_id": 94603018,
        "osm_type": "way",
        "osm_tags": {
          "building": "garages"
        },
        "case_id": "moscow_mitino_-1_-2_8d489c74_large_oks"
      },
      "geometry": {
        "type": "Polygon",
        "coordinates": [
          [
            [
              37.3324254,
              55.8370426
            ],
            [
              37.333601,
              55.8363234
            ],
            [
              37.334594,
              55.8356277
            ],
            [
              37.3334364,
              55.8350594
            ],
            [
              37.3332665,
              55.8351685
            ],
            [
              37.3342724,
              55.8356631
            ],
            [
              37.3318422,
              55.8372687
            ],
            [
              37.3320125,
              55.837355
            ],
            [
              37.3323807,
              55.8371151
            ],
            [
              37.3322987,
              55.8370762
            ],
            [
              37.3323886,
              55.8370248
            ],
            [
              37.3324254,
              55.8370426
            ]
          ]
        ]
      }
    },
    {
      "type": "Feature",
      "properties": {
        "id": "moscow_mitino_-1_-2_8d489c74_large_oks_osm_way_94603049_13",
        "object_type": "restriction",
        "restriction_type": "oks",
        "name": "",
        "osm_kind": "building",
        "osm_id": 94603049,
        "osm_type": "way",
        "osm_tags": {
          "building": "industrial"
        },
        "case_id": "moscow_mitino_-1_-2_8d489c74_large_oks",
        "selected_as_heat_demand_proxy": true,
        "connection_point_id": "moscow_mitino_-1_-2_8d489c74_large_oks_cp_2"
      },
      "geometry": {
        "type": "Polygon",
        "coordinates": [
          [
            [
              37.3344048,
              55.8378403
            ],
            [
              37.3346314,
              55.8379396
            ],
            [
              37.33504,
              55.8376458
            ],
            [
              37.3348134,
              55.8375465
            ],
            [
              37.3344048,
              55.8378403
            ]
          ]
        ]
      }
    },
    {
      "type": "Feature",
      "properties": {
        "id": "moscow_mitino_-1_-2_8d489c74_large_oks_osm_way_94603074_14",
        "object_type": "restriction",
        "restriction_type": "oks",
        "name": "",
        "osm_kind": "building",
        "osm_id": 94603074,
        "osm_type": "way",
        "osm_tags": {
          "building": "industrial"
        },
        "case_id": "moscow_mitino_-1_-2_8d489c74_large_oks",
        "selected_as_heat_demand_proxy": true,
        "connection_point_id": "moscow_mitino_-1_-2_8d489c74_large_oks_cp_3"
      },
      "geometry": {
        "type": "Polygon",
        "coordinates": [
          [
            [
              37.3349355,
              55.837905
            ],
            [
              37.335348,
              55.8380912
            ],
            [
              37.335758,
              55.8382762
            ],
            [
              37.33601,
              55.8381001
            ],
            [
              37.3356876,
              55.8379546
            ],
            [
              37.3355999,
              55.8379151
            ],
            [
              37.3355161,
              55.8378773
            ],
            [
              37.3351875,
              55.837729
            ],
            [
              37.3349355,
              55.837905
            ]
          ]
        ]
      }
    },
    {
      "type": "Feature",
      "properties": {
        "id": "moscow_mitino_-1_-2_8d489c74_large_oks_osm_way_150725181_15",
        "object_type": "restriction",
        "restriction_type": "road",
        "name": "",
        "osm_kind": "major_road",
        "osm_id": 150725181,
        "osm_type": "way",
        "osm_tags": {
          "highway": "secondary"
        },
        "case_id": "moscow_mitino_-1_-2_8d489c74_large_oks"
      },
      "geometry": {
        "type": "LineString",
        "coordinates": [
          [
            37.3299646,
            55.8363595
          ],
          [
            37.3300954,
            55.8364693
          ],
          [
            37.3301194,
            55.8364897
          ],
          [
            37.3302479,
            55.8365947
          ],
          [
            37.3304229,
            55.8367014
          ],
          [
            37.330564,
            55.8367712
          ],
          [
            37.3308493,
            55.8368893
          ],
          [
            37.3311057,
            55.8370042
          ],
          [
            37.3314045,
            55.8371358
          ],
          [
            37.3317184,
            55.8372788
          ],
          [
            37.3319961,
            55.8374116
          ],
          [
            37.3321863,
            55.8375045
          ],
          [
            37.3322851,
            55.8375528
          ],
          [
            37.3323733,
            55.8375955
          ],
          [
            37.33275,
            55.8377547
          ],
          [
            37.3329914,
            55.8378391
          ],
          [
            37.3332784,
            55.8379159
          ],
          [
            37.3336405,
            55.8380168
          ],
          [
            37.3339167,
            55.8381147
          ],
          [
            37.3351428,
            55.838617
          ]
        ]
      }
    },
    {
      "type": "Feature",
      "properties": {
        "id": "moscow_mitino_-1_-2_8d489c74_large_oks_osm_way_197175618_16",
        "object_type": "restriction",
        "restriction_type": "oks",
        "name": "",
        "osm_kind": "building",
        "osm_id": 197175618,
        "osm_type": "way",
        "osm_tags": {
          "building": "yes"
        },
        "case_id": "moscow_mitino_-1_-2_8d489c74_large_oks"
      },
      "geometry": {
        "type": "Polygon",
        "coordinates": [
          [
            [
              37.3327749,
              55.8375776
            ],
            [
              37.3329239,
              55.8374753
            ],
            [
              37.3327696,
              55.8374044
            ],
            [
              37.3326206,
              55.8375067
            ],
            [
              37.3326668,
              55.8375279
            ],
            [
              37.3327749,
              55.8375776
            ]
          ]
        ]
      }
    },
    {
      "type": "Feature",
      "properties": {
        "id": "moscow_mitino_-1_-2_8d489c74_large_oks_osm_way_197175619_17",
        "object_type": "restriction",
        "restriction_type": "oks",
        "name": "",
        "osm_kind": "building",
        "osm_id": 197175619,
        "osm_type": "way",
        "osm_tags": {
          "building": "yes"
        },
        "case_id": "moscow_mitino_-1_-2_8d489c74_large_oks"
      },
      "geometry": {
        "type": "Polygon",
        "coordinates": [
          [
            [
              37.3330134,
              55.8372281
            ],
            [
              37.3327696,
              55.8374044
            ],
            [
              37.3329239,
              55.8374753
            ],
            [
              37.3329931,
              55.8375069
            ],
            [
              37.333088,
              55.8374417
            ],
            [
              37.3329969,
              55.8373996
            ],
            [
              37.3330655,
              55.8373524
            ],
            [
              37.3331047,
              55.8373266
            ],
            [
              37.333153,
              55.8372907
            ],
            [
              37.3330134,
              55.8372281
            ]
          ]
        ]
      }
    },
    {
      "type": "Feature",
      "properties": {
        "id": "moscow_mitino_-1_-2_8d489c74_large_oks_osm_way_204256798_18",
        "object_type": "restriction",
        "restriction_type": "road",
        "name": "",
        "osm_kind": "road",
        "osm_id": 204256798,
        "osm_type": "way",
        "osm_tags": {
          "highway": "service"
        },
        "case_id": "moscow_mitino_-1_-2_8d489c74_large_oks"
      },
      "geometry": {
        "type": "LineString",
        "coordinates": [
          [
            37.3356205,
            55.8383116
          ],
          [
            37.3352607,
            55.8381521
          ],
          [
            37.3350279,
            55.8380489
          ],
          [
            37.3346726,
            55.8379747
          ],
          [
            37.3344529,
            55.8379057
          ],
          [
            37.3341164,
            55.8377708
          ],
          [
            37.3337416,
            55.837621
          ],
          [
            37.3336712,
            55.8375762
          ],
          [
            37.3336337,
            55.8375313
          ]
        ]
      }
    },
    {
      "type": "Feature",
      "properties": {
        "id": "moscow_mitino_-1_-2_8d489c74_large_oks_osm_way_204256800_19",
        "object_type": "restriction",
        "restriction_type": "road",
        "name": "",
        "osm_kind": "road",
        "osm_id": 204256800,
        "osm_type": "way",
        "osm_tags": {
          "highway": "service"
        },
        "case_id": "moscow_mitino_-1_-2_8d489c74_large_oks"
      },
      "geometry": {
        "type": "LineString",
        "coordinates": [
          [
            37.3357026,
            55.8359688
          ],
          [
            37.3357211,
            55.8360422
          ],
          [
            37.3358038,
            55.8361234
          ],
          [
            37.3359443,
            55.8361977
          ],
          [
            37.3364154,
            55.8364019
          ],
          [
            37.3364609,
            55.836446
          ],
          [
            37.3364774,
            55.8364994
          ],
          [
            37.3364568,
            55.8365551
          ],
          [
            37.3363989,
            55.8366108
          ],
          [
            37.3354979,
            55.8372351
          ],
          [
            37.3353988,
            55.837242
          ],
          [
            37.3352954,
            55.8372142
          ],
          [
            37.3345127,
            55.8368666
          ]
        ]
      }
    },
    {
      "type": "Feature",
      "properties": {
        "id": "moscow_mitino_-1_-2_8d489c74_large_oks_osm_way_218749023_20",
        "object_type": "restriction",
        "restriction_type": "road",
        "name": "",
        "osm_kind": "road",
        "osm_id": 218749023,
        "osm_type": "way",
        "osm_tags": {
          "highway": "service"
        },
        "case_id": "moscow_mitino_-1_-2_8d489c74_large_oks"
      },
      "geometry": {
        "type": "LineString",
        "coordinates": [
          [
            37.3334139,
            55.8376835
          ],
          [
            37.3335599,
            55.8375824
          ],
          [
            37.3336337,
            55.8375313
          ],
          [
            37.3337043,
            55.8374764
          ],
          [
            37.3345127,
            55.8368666
          ],
          [
            37.3357026,
            55.8359688
          ],
          [
            37.3359039,
            55.8358169
          ]
        ]
      }
    },
    {
      "type": "Feature",
      "properties": {
        "id": "moscow_mitino_-1_-2_8d489c74_large_oks_osm_way_218749029_21",
        "object_type": "restriction",
        "restriction_type": "oks",
        "name": "",
        "osm_kind": "building",
        "osm_id": 218749029,
        "osm_type": "way",
        "osm_tags": {
          "building": "garages"
        },
        "case_id": "moscow_mitino_-1_-2_8d489c74_large_oks"
      },
      "geometry": {
        "type": "Polygon",
        "coordinates": [
          [
            [
              37.3339638,
              55.8364539
            ],
            [
              37.3340336,
              55.8364913
            ],
            [
              37.3330134,
              55.8372281
            ],
            [
              37.3327696,
              55.8374044
            ],
            [
              37.3326206,
              55.8375067
            ],
            [
              37.3325815,
              55.8375325
            ],
            [
              37.3325614,
              55.8375457
            ],
            [
              37.3324624,
              55.8374972
            ],
            [
              37.332816,
              55.8372685
            ],
            [
              37.3332018,
              55.8369885
            ],
            [
              37.3336719,
              55.8366498
            ],
            [
              37.3339638,
              55.8364539
            ]
          ]
        ]
      }
    },
    {
      "type": "Feature",
      "properties": {
        "id": "moscow_mitino_-1_-2_8d489c74_large_oks_osm_way_221539474_22",
        "object_type": "restriction",
        "restriction_type": "road",
        "name": "",
        "osm_kind": "road",
        "osm_id": 221539474,
        "osm_type": "way",
        "osm_tags": {
          "highway": "path"
        },
        "case_id": "moscow_mitino_-1_-2_8d489c74_large_oks"
      },
      "geometry": {
        "type": "LineString",
        "coordinates": [
          [
            37.3346221,
            55.841404
          ],
          [
            37.3343754,
            55.8410727
          ],
          [
            37.3341876,
            55.840892
          ],
          [
            37.3338818,
            55.8405456
          ],
          [
            37.333796,
            55.8403287
          ],
          [
            37.333656,
            55.8401115
          ],
          [
            37.3335439,
            55.8398678
          ],
          [
            37.3334312,
            55.8394792
          ],
          [
            37.3331523,
            55.8391088
          ],
          [
            37.3329967,
            55.8388798
          ],
          [
            37.3328787,
            55.8386479
          ],
          [
            37.3328143,
            55.8383165
          ],
          [
            37.3327875,
            55.8382533
          ]
        ]
      }
    },
    {
      "type": "Feature",
      "properties": {
        "id": "moscow_mitino_-1_-2_8d489c74_large_oks_osm_way_273170380_23",
        "object_type": "restriction",
        "restriction_type": "oks",
        "name": "",
        "osm_kind": "building",
        "osm_id": 273170380,
        "osm_type": "way",
        "osm_tags": {
          "building": "yes"
        },
        "case_id": "moscow_mitino_-1_-2_8d489c74_large_oks"
      },
      "geometry": {
        "type": "Polygon",
        "coordinates": [
          [
            [
              37.3326206,
              55.8375067
            ],
            [
              37.3326668,
              55.8375279
            ],
            [
              37.3326252,
              55.8375512
            ],
            [
              37.3325815,
              55.8375325
            ],
            [
              37.3326206,
              55.8375067
            ]
          ]
        ]
      }
    },
    {
      "type": "Feature",
      "properties": {
        "id": "moscow_mitino_-1_-2_8d489c74_large_oks_osm_way_273170381_24",
        "object_type": "restriction",
        "restriction_type": "oks",
        "name": "",
        "osm_kind": "building",
        "osm_id": 273170381,
        "osm_type": "way",
        "osm_tags": {
          "building": "yes"
        },
        "case_id": "moscow_mitino_-1_-2_8d489c74_large_oks"
      },
      "geometry": {
        "type": "Polygon",
        "coordinates": [
          [
            [
              37.3334094,
              55.8374129
            ],
            [
              37.3335844,
              55.8374937
            ],
            [
              37.3335401,
              55.837524
            ],
            [
              37.333365,
              55.8374432
            ],
            [
              37.3334094,
              55.8374129
            ]
          ]
        ]
      }
    },
    {
      "type": "Feature",
      "properties": {
        "id": "moscow_mitino_-1_-2_8d489c74_large_oks_osm_way_273170383_25",
        "object_type": "restriction",
        "restriction_type": "oks",
        "name": "",
        "osm_kind": "building",
        "osm_id": 273170383,
        "osm_type": "way",
        "osm_tags": {
          "building": "yes"
        },
        "case_id": "moscow_mitino_-1_-2_8d489c74_large_oks"
      },
      "geometry": {
        "type": "Polygon",
        "coordinates": [
          [
            [
              37.333153,
              55.8372907
            ],
            [
              37.3333369,
              55.8373774
            ],
            [
              37.3332855,
              55.8374117
            ],
            [
              37.3331047,
              55.8373266
            ],
            [
              37.333153,
              55.8372907
            ]
          ]
        ]
      }
    },
    {
      "type": "Feature",
      "properties": {
        "id": "moscow_mitino_-1_-2_8d489c74_large_oks_osm_way_273170386_26",
        "object_type": "restriction",
        "restriction_type": "oks",
        "name": "",
        "osm_kind": "building",
        "osm_id": 273170386,
        "osm_type": "way",
        "osm_tags": {
          "building": "yes"
        },
        "case_id": "moscow_mitino_-1_-2_8d489c74_large_oks"
      },
      "geometry": {
        "type": "Polygon",
        "coordinates": [
          [
            [
              37.3329969,
              55.8373996
            ],
            [
              37.333088,
              55.8374417
            ],
            [
              37.3331354,
              55.8374636
            ],
            [
              37.3332044,
              55.8374165
            ],
            [
              37.3330655,
              55.8373524
            ],
            [
              37.3329969,
              55.8373996
            ]
          ]
        ]
      }
    },
    {
      "type": "Feature",
      "properties": {
        "id": "moscow_mitino_-1_-2_8d489c74_large_oks_osm_way_273174780_27",
        "object_type": "restriction",
        "restriction_type": "oks",
        "name": "",
        "osm_kind": "building",
        "osm_id": 273174780,
        "osm_type": "way",
        "osm_tags": {
          "building": "yes"
        },
        "case_id": "moscow_mitino_-1_-2_8d489c74_large_oks"
      },
      "geometry": {
        "type": "Polygon",
        "coordinates": [
          [
            [
              37.3335418,
              55.8376772
            ],
            [
              37.3335913,
              55.8376992
            ],
            [
              37.3336316,
              55.8376705
            ],
            [
              37.3336583,
              55.8376823
            ],
            [
              37.3336834,
              55.8376644
            ],
            [
              37.3336567,
              55.8376526
            ],
            [
              37.3336765,
              55.8376385
            ],
            [
              37.333627,
              55.8376166
            ],
            [
              37.3335418,
              55.8376772
            ]
          ]
        ]
      }
    },
    {
      "type": "Feature",
      "properties": {
        "id": "moscow_mitino_-1_-2_8d489c74_large_oks_osm_way_343288905_28",
        "object_type": "restriction",
        "restriction_type": "road",
        "name": "",
        "osm_kind": "road",
        "osm_id": 343288905,
        "osm_type": "way",
        "osm_tags": {
          "highway": "path"
        },
        "case_id": "moscow_mitino_-1_-2_8d489c74_large_oks"
      },
      "geometry": {
        "type": "LineString",
        "coordinates": [
          [
            37.336839,
            55.8393016
          ],
          [
            37.3362852,
            55.8391645
          ],
          [
            37.3359255,
            55.8390856
          ],
          [
            37.3355199,
            55.8389697
          ],
          [
            37.3347303,
            55.838769
          ],
          [
            37.3340213,
            55.8385876
          ],
          [
            37.3332647,
            55.8383307
          ],
          [
            37.3328143,
            55.8383165
          ],
          [
            37.332404,
            55.8383602
          ],
          [
            37.3319564,
            55.8383494
          ],
          [
            37.3316744,
            55.8383165
          ],
          [
            37.331264,
            55.8382232
          ]
        ]
      }
    },
    {
      "type": "Feature",
      "properties": {
        "id": "moscow_mitino_-1_-2_8d489c74_large_oks_osm_way_597639670_29",
        "object_type": "restriction",
        "restriction_type": "road",
        "name": "",
        "osm_kind": "road",
        "osm_id": 597639670,
        "osm_type": "way",
        "osm_tags": {
          "highway": "service"
        },
        "case_id": "moscow_mitino_-1_-2_8d489c74_large_oks"
      },
      "geometry": {
        "type": "LineString",
        "coordinates": [
          [
            37.33275,
            55.8377547
          ],
          [
            37.333029,
            55.8377779
          ],
          [
            37.3331734,
            55.8377737
          ],
          [
            37.3332874,
            55.8377545
          ],
          [
            37.3334139,
            55.8376835
          ]
        ]
      }
    },
    {
      "type": "Feature",
      "properties": {
        "id": "moscow_mitino_-1_-2_8d489c74_large_oks_osm_way_773742209_30",
        "object_type": "restriction",
        "restriction_type": "road",
        "name": "",
        "osm_kind": "road",
        "osm_id": 773742209,
        "osm_type": "way",
        "osm_tags": {
          "highway": "path"
        },
        "case_id": "moscow_mitino_-1_-2_8d489c74_large_oks"
      },
      "geometry": {
        "type": "LineString",
        "coordinates": [
          [
            37.3301853,
            55.8364674
          ],
          [
            37.3304151,
            55.8366424
          ],
          [
            37.3304889,
            55.8366816
          ],
          [
            37.3305935,
            55.8367275
          ],
          [
            37.3308948,
            55.8368569
          ],
          [
            37.3311495,
            55.8369737
          ],
          [
            37.3314427,
            55.8371095
          ],
          [
            37.331757,
            55.8372535
          ],
          [
            37.3320368,
            55.8373849
          ],
          [
            37.332333,
            55.8375206
          ],
          [
            37.3324238,
            55.8375626
          ],
          [
            37.3325327,
            55.8376117
          ],
          [
            37.3327473,
            55.8376817
          ],
          [
            37.3329015,
            55.8377246
          ],
          [
            37.332994,
            55.8377367
          ],
          [
            37.333029,
            55.8377779
          ]
        ]
      }
    },
    {
      "type": "Feature",
      "properties": {
        "id": "moscow_mitino_-1_-2_8d489c74_large_oks_osm_way_786469824_31",
        "object_type": "restriction",
        "restriction_type": "road",
        "name": "",
        "osm_kind": "road",
        "osm_id": 786469824,
        "osm_type": "way",
        "osm_tags": {
          "highway": "service"
        },
        "case_id": "moscow_mitino_-1_-2_8d489c74_large_oks"
      },
      "geometry": {
        "type": "LineString",
        "coordinates": [
          [
            37.3355999,
            55.8379151
          ],
          [
            37.3367843,
            55.8370875
          ]
        ]
      }
    },
    {
      "type": "Feature",
      "properties": {
        "id": "moscow_mitino_-1_-2_8d489c74_large_oks_osm_way_786469825_32",
        "object_type": "restriction",
        "restriction_type": "road",
        "name": "",
        "osm_kind": "road",
        "osm_id": 786469825,
        "osm_type": "way",
        "osm_tags": {
          "highway": "service"
        },
        "case_id": "moscow_mitino_-1_-2_8d489c74_large_oks"
      },
      "geometry": {
        "type": "LineString",
        "coordinates": [
          [
            37.335348,
            55.8380912
          ],
          [
            37.3355999,
            55.8379151
          ]
        ]
      }
    },
    {
      "type": "Feature",
      "properties": {
        "id": "moscow_mitino_-1_-2_8d489c74_large_oks_osm_way_786469826_33",
        "object_type": "restriction",
        "restriction_type": "road",
        "name": "",
        "osm_kind": "road",
        "osm_id": 786469826,
        "osm_type": "way",
        "osm_tags": {
          "highway": "service"
        },
        "case_id": "moscow_mitino_-1_-2_8d489c74_large_oks"
      },
      "geometry": {
        "type": "LineString",
        "coordinates": [
          [
            37.3352607,
            55.8381521
          ],
          [
            37.335348,
            55.8380912
          ]
        ]
      }
    },
    {
      "type": "Feature",
      "properties": {
        "id": "moscow_mitino_-1_-2_8d489c74_large_oks_osm_way_799237742_34",
        "object_type": "restriction",
        "restriction_type": "road",
        "name": "",
        "osm_kind": "road",
        "osm_id": 799237742,
        "osm_type": "way",
        "osm_tags": {
          "highway": "path"
        },
        "case_id": "moscow_mitino_-1_-2_8d489c74_large_oks"
      },
      "geometry": {
        "type": "LineString",
        "coordinates": [
          [
            37.3347303,
            55.838769
          ],
          [
            37.3347401,
            55.8392172
          ],
          [
            37.3347452,
            55.8395244
          ],
          [
            37.3347559,
            55.8401605
          ],
          [
            37.3347668,
            55.8408102
          ],
          [
            37.3347782,
            55.8414899
          ]
        ]
      }
    },
    {
      "type": "Feature",
      "properties": {
        "id": "moscow_mitino_-1_-2_8d489c74_large_oks_osm_way_825445852_35",
        "object_type": "restriction",
        "restriction_type": "road",
        "name": "",
        "osm_kind": "road",
        "osm_id": 825445852,
        "osm_type": "way",
        "osm_tags": {
          "highway": "path"
        },
        "case_id": "moscow_mitino_-1_-2_8d489c74_large_oks"
      },
      "geometry": {
        "type": "LineString",
        "coordinates": [
          [
            37.3316744,
            55.8383165
          ],
          [
            37.3315993,
            55.8383693
          ],
          [
            37.3315859,
            55.8384295
          ]
        ]
      }
    },
    {
      "type": "Feature",
      "properties": {
        "id": "moscow_mitino_-1_-2_8d489c74_large_oks_osm_way_850536744_36",
        "object_type": "restriction",
        "restriction_type": "road",
        "name": "",
        "osm_kind": "road",
        "osm_id": 850536744,
        "osm_type": "way",
        "osm_tags": {
          "highway": "path"
        },
        "case_id": "moscow_mitino_-1_-2_8d489c74_large_oks"
      },
      "geometry": {
        "type": "LineString",
        "coordinates": [
          [
            37.3347303,
            55.838769
          ],
          [
            37.3340803,
            55.838925
          ],
          [
            37.3335439,
            55.8390003
          ],
          [
            37.3331523,
            55.8391088
          ]
        ]
      }
    },
    {
      "type": "Feature",
      "properties": {
        "id": "moscow_mitino_-1_-2_8d489c74_large_oks_osm_way_877286252_37",
        "object_type": "restriction",
        "restriction_type": "oks",
        "name": "",
        "osm_kind": "building",
        "osm_id": 877286252,
        "osm_type": "way",
        "osm_tags": {
          "building": "yes"
        },
        "case_id": "moscow_mitino_-1_-2_8d489c74_large_oks"
      },
      "geometry": {
        "type": "Polygon",
        "coordinates": [
          [
            [
              37.3320231,
              55.8374904
            ],
            [
              37.3319451,
              55.8374528
            ],
            [
              37.3318955,
              55.8374852
            ],
            [
              37.3319735,
              55.8375228
            ],
            [
              37.3320231,
              55.8374904
            ]
          ]
        ]
      }
    },
    {
      "type": "Feature",
      "properties": {
        "id": "moscow_mitino_-1_-2_8d489c74_large_oks_osm_way_877286253_38",
        "object_type": "restriction",
        "restriction_type": "road",
        "name": "",
        "osm_kind": "road",
        "osm_id": 877286253,
        "osm_type": "way",
        "osm_tags": {
          "highway": "service"
        },
        "case_id": "moscow_mitino_-1_-2_8d489c74_large_oks"
      },
      "geometry": {
        "type": "LineString",
        "coordinates": [
          [
            37.3321457,
            55.8375337
          ],
          [
            37.3320351,
            55.8376179
          ],
          [
            37.3318785,
            55.8376073
          ],
          [
            37.3311985,
            55.8373213
          ]
        ]
      }
    },
    {
      "type": "Feature",
      "properties": {
        "id": "moscow_mitino_-1_-2_8d489c74_large_oks_osm_way_877286254_39",
        "object_type": "restriction",
        "restriction_type": "road",
        "name": "",
        "osm_kind": "road",
        "osm_id": 877286254,
        "osm_type": "way",
        "osm_tags": {
          "highway": "service"
        },
        "case_id": "moscow_mitino_-1_-2_8d489c74_large_oks"
      },
      "geometry": {
        "type": "LineString",
        "coordinates": [
          [
            37.3321863,
            55.8375045
          ],
          [
            37.3321457,
            55.8375337
          ]
        ]
      }
    },
    {
      "type": "Feature",
      "properties": {
        "id": "moscow_mitino_-1_-2_8d489c74_large_oks_osm_way_1010048065_40",
        "object_type": "restriction",
        "restriction_type": "road",
        "name": "",
        "osm_kind": "road",
        "osm_id": 1010048065,
        "osm_type": "way",
        "osm_tags": {
          "highway": "service"
        },
        "case_id": "moscow_mitino_-1_-2_8d489c74_large_oks"
      },
      "geometry": {
        "type": "LineString",
        "coordinates": [
          [
            37.3323733,
            55.8375955
          ],
          [
            37.3324238,
            55.8375626
          ],
          [
            37.3324374,
            55.8375537
          ],
          [
            37.3325468,
            55.8375725
          ],
          [
            37.3327589,
            55.8376089
          ],
          [
            37.3329645,
            55.8376169
          ],
          [
            37.3330536,
            55.837554
          ]
        ]
      }
    },
    {
      "type": "Feature",
      "properties": {
        "id": "moscow_mitino_-1_-2_8d489c74_large_oks_osm_way_1337205704_41",
        "object_type": "restriction",
        "restriction_type": "road",
        "name": "",
        "osm_kind": "major_road",
        "osm_id": 1337205704,
        "osm_type": "way",
        "osm_tags": {
          "highway": "secondary"
        },
        "case_id": "moscow_mitino_-1_-2_8d489c74_large_oks"
      },
      "geometry": {
        "type": "LineString",
        "coordinates": [
          [
            37.3351428,
            55.838617
          ],
          [
            37.3357072,
            55.8388421
          ],
          [
            37.3360249,
            55.8389401
          ],
          [
            37.3364487,
            55.8390485
          ],
          [
            37.3375049,
            55.8392634
          ],
          [
            37.3377965,
            55.8393181
          ],
          [
            37.3380513,
            55.839352
          ],
          [
            37.3382847,
            55.8393708
          ],
          [
            37.3384923,
            55.839379
          ],
          [
            37.3387638,
            55.8393756
          ],
          [
            37.3390585,
            55.8393603
          ],
          [
            37.339253,
            55.8393415
          ],
          [
            37.3395038,
            55.8393015
          ],
          [
            37.3398025,
            55.8392391
          ]
        ]
      }
    },
    {
      "type": "Feature",
      "properties": {
        "id": "moscow_mitino_-1_-2_8d489c74_large_oks_osm_way_1376304853_42",
        "object_type": "restriction",
        "restriction_type": "road",
        "name": "",
        "osm_kind": "road",
        "osm_id": 1376304853,
        "osm_type": "way",
        "osm_tags": {
          "highway": "path"
        },
        "case_id": "moscow_mitino_-1_-2_8d489c74_large_oks"
      },
      "geometry": {
        "type": "LineString",
        "coordinates": [
          [
            37.333029,
            55.8377779
          ],
          [
            37.3331939,
            55.8378429
          ],
          [
            37.3334514,
            55.8379091
          ],
          [
            37.3337276,
            55.8379889
          ],
          [
            37.3339328,
            55.8380756
          ],
          [
            37.3342252,
            55.838181
          ],
          [
            37.334995,
            55.8385033
          ],
          [
            37.3351143,
            55.8385447
          ]
        ]
      }
    },
    {
      "type": "Feature",
      "properties": {
        "id": "moscow_mitino_-1_-2_8d489c74_large_oks_osm_way_1376304883_43",
        "object_type": "restriction",
        "restriction_type": "oks",
        "name": "",
        "osm_kind": "building",
        "osm_id": 1376304883,
        "osm_type": "way",
        "osm_tags": {
          "building": "yes"
        },
        "case_id": "moscow_mitino_-1_-2_8d489c74_large_oks"
      },
      "geometry": {
        "type": "Polygon",
        "coordinates": [
          [
            [
              37.3315725,
              55.8374015
            ],
            [
              37.3317294,
              55.8374693
            ],
            [
              37.3318072,
              55.8374125
            ],
            [
              37.3316503,
              55.8373447
            ],
            [
              37.3315725,
              55.8374015
            ]
          ]
        ]
      }
    },
    {
      "type": "Feature",
      "properties": {
        "id": "moscow_mitino_-1_-2_8d489c74_large_oks_osm_way_1385951997_44",
        "object_type": "restriction",
        "restriction_type": "water",
        "name": "",
        "osm_kind": "water",
        "osm_id": 1385951997,
        "osm_type": "way",
        "osm_tags": {
          "waterway": "ditch"
        },
        "case_id": "moscow_mitino_-1_-2_8d489c74_large_oks"
      },
      "geometry": {
        "type": "LineString",
        "coordinates": [
          [
            37.3361054,
            55.8388783
          ],
          [
            37.3358506,
            55.8389672
          ]
        ]
      }
    },
    {
      "type": "Feature",
      "properties": {
        "id": "moscow_mitino_-1_-2_8d489c74_large_oks_osm_way_1393364217_45",
        "object_type": "restriction",
        "restriction_type": "road",
        "name": "",
        "osm_kind": "road",
        "osm_id": 1393364217,
        "osm_type": "way",
        "osm_tags": {
          "highway": "path"
        },
        "case_id": "moscow_mitino_-1_-2_8d489c74_large_oks"
      },
      "geometry": {
        "type": "LineString",
        "coordinates": [
          [
            37.3295313,
            55.8379033
          ],
          [
            37.3297296,
            55.8378411
          ],
          [
            37.3299837,
            55.8377931
          ],
          [
            37.3302609,
            55.8378591
          ],
          [
            37.3304676,
            55.8379004
          ],
          [
            37.330642,
            55.8378912
          ],
          [
            37.3308868,
            55.837896
          ],
          [
            37.3310438,
            55.8379208
          ],
          [
            37.3311625,
            55.837914
          ],
          [
            37.3312193,
            55.837894
          ],
          [
            37.3314088,
            55.8379196
          ],
          [
            37.3314963,
            55.8379422
          ],
          [
            37.3317143,
            55.8379789
          ],
          [
            37.3318678,
            55.8380657
          ],
          [
            37.3319649,
            55.8381249
          ],
          [
            37.3321602,
            55.8382334
          ],
          [
            37.3323758,
            55.8382965
          ],
          [
            37.3325595,
            55.8382894
          ],
          [
            37.3327875,
            55.8382533
          ],
          [
            37.3330509,
            55.8382368
          ],
          [
            37.3332521,
            55.8382821
          ],
          [
            37.3335159,
            55.8383125
          ],
          [
            37.3336276,
            55.8383252
          ],
          [
            37.3336824,
            55.8383792
          ],
          [
            37.3338845,
            55.8384221
          ],
          [
            37.3339336,
            55.8384752
          ],
          [
            37.3340359,
            55.8385097
          ],
          [
            37.3342353,
            55.8385536
          ],
          [
            37.3347303,
            55.838769
          ]
        ]
      }
    },
    {
      "type": "Feature",
      "properties": {
        "id": "moscow_mitino_-1_-2_8d489c74_large_oks_osm_way_1393364981_46",
        "object_type": "restriction",
        "restriction_type": "road",
        "name": "",
        "osm_kind": "road",
        "osm_id": 1393364981,
        "osm_type": "way",
        "osm_tags": {
          "highway": "path"
        },
        "case_id": "moscow_mitino_-1_-2_8d489c74_large_oks"
      },
      "geometry": {
        "type": "LineString",
        "coordinates": [
          [
            37.329821,
            55.8379099
          ],
          [
            37.3299766,
            55.8379129
          ],
          [
            37.3301268,
            55.837931
          ],
          [
            37.3305825,
            55.8379612
          ],
          [
            37.331264,
            55.8382232
          ],
          [
            37.3315859,
            55.8384295
          ],
          [
            37.3322511,
            55.8392021
          ],
          [
            37.3327392,
            55.8395305
          ],
          [
            37.3334527,
            55.8400727
          ],
          [
            37.333656,
            55.8401115
          ]
        ]
      }
    },
    {
      "type": "Feature",
      "properties": {
        "id": "moscow_mitino_-1_-2_8d489c74_large_oks_osm_way_1442552487_47",
        "object_type": "restriction",
        "restriction_type": "road",
        "name": "",
        "osm_kind": "road",
        "osm_id": 1442552487,
        "osm_type": "way",
        "osm_tags": {
          "highway": "path"
        },
        "case_id": "moscow_mitino_-1_-2_8d489c74_large_oks"
      },
      "geometry": {
        "type": "LineString",
        "coordinates": [
          [
            37.3351143,
            55.8385447
          ],
          [
            37.3354295,
            55.8386185
          ],
          [
            37.3358157,
            55.838684
          ],
          [
            37.3359847,
            55.8386931
          ],
          [
            37.3361456,
            55.8386871
          ],
          [
            37.336615,
            55.8386208
          ],
          [
            37.3368019,
            55.8386255
          ]
        ]
      }
    },
    {
      "type": "Feature",
      "properties": {
        "id": "moscow_mitino_-1_-2_8d489c74_large_oks_source",
        "object_type": "source",
        "case_id": "moscow_mitino_-1_-2_8d489c74_large_oks"
      },
      "geometry": {
        "type": "Point",
        "coordinates": [
          37.33171905333333,
          55.838364350000006
        ]
      }
    },
    {
      "type": "Feature",
      "properties": {
        "id": "moscow_mitino_-1_-2_8d489c74_large_oks_existing_network",
        "object_type": "heat_network",
        "diameter": 500,
        "flow_tph": 180.0,
        "upstream_object_id": "moscow_mitino_-1_-2_8d489c74_large_oks_source",
        "case_id": "moscow_mitino_-1_-2_8d489c74_large_oks"
      },
      "geometry": {
        "type": "LineString",
        "coordinates": [
          [
            37.33171905333333,
            55.838364350000006
          ],
          [
            37.33283889,
            55.838364350000006
          ]
        ]
      }
    },
    {
      "type": "Feature",
      "properties": {
        "id": "moscow_mitino_-1_-2_8d489c74_large_oks_existing_chamber",
        "object_type": "heat_chamber",
        "diameter": 500,
        "upstream_object_id": "moscow_mitino_-1_-2_8d489c74_large_oks_source",
        "case_id": "moscow_mitino_-1_-2_8d489c74_large_oks"
      },
      "geometry": {
        "type": "Point",
        "coordinates": [
          37.33283889,
          55.838364350000006
        ]
      }
    },
    {
      "type": "Feature",
      "properties": {
        "id": "moscow_mitino_-1_-2_8d489c74_large_oks_cp_1",
        "object_type": "oks_connection_point",
        "flow_tph": 20.0,
        "case_id": "moscow_mitino_-1_-2_8d489c74_large_oks",
        "consumer_role": "osm_building_heat_demand_proxy",
        "source_building_osm_id": 94602923,
        "source_building_osm_type": "way",
        "source_building_name": "",
        "source_building_tags": {
          "building": "industrial"
        },
        "footprint_area_m2": 900.1,
        "flow_basis": "synthetic_proxy_from_osm_footprint_area",
        "stress_bucket": "large_oks"
      },
      "geometry": {
        "type": "Point",
        "coordinates": [
          37.33415638367505,
          55.83757377850329
        ]
      }
    },
    {
      "type": "Feature",
      "properties": {
        "id": "moscow_mitino_-1_-2_8d489c74_large_oks_cp_2",
        "object_type": "oks_connection_point",
        "flow_tph": 20.0,
        "case_id": "moscow_mitino_-1_-2_8d489c74_large_oks",
        "consumer_role": "osm_building_heat_demand_proxy",
        "source_building_osm_id": 94603049,
        "source_building_osm_type": "way",
        "source_building_name": "",
        "source_building_tags": {
          "building": "industrial"
        },
        "footprint_area_m2": 745.6,
        "flow_basis": "synthetic_proxy_from_osm_footprint_area",
        "stress_bucket": "large_oks"
      },
      "geometry": {
        "type": "Point",
        "coordinates": [
          37.33472016581851,
          55.83773970928627
        ]
      }
    },
    {
      "type": "Feature",
      "properties": {
        "id": "moscow_mitino_-1_-2_8d489c74_large_oks_cp_3",
        "object_type": "oks_connection_point",
        "flow_tph": 30.155,
        "case_id": "moscow_mitino_-1_-2_8d489c74_large_oks",
        "consumer_role": "osm_building_heat_demand_proxy",
        "source_building_osm_id": 94603074,
        "source_building_osm_type": "way",
        "source_building_name": "",
        "source_building_tags": {
          "building": "industrial"
        },
        "footprint_area_m2": 1658.52,
        "flow_basis": "synthetic_proxy_from_osm_footprint_area",
        "stress_bucket": "large_oks"
      },
      "geometry": {
        "type": "Point",
        "coordinates": [
          37.335456280146154,
          55.83797793245015
        ]
      }
    },
    {
      "type": "Feature",
      "properties": {
        "id": "moscow_mitino_-1_-2_8d489c74_large_oks_cp_4",
        "object_type": "oks_connection_point",
        "flow_tph": 55.561,
        "case_id": "moscow_mitino_-1_-2_8d489c74_large_oks",
        "consumer_role": "osm_building_heat_demand_proxy",
        "source_building_osm_id": 94602862,
        "source_building_osm_type": "way",
        "source_building_name": "",
        "source_building_tags": {
          "building": "industrial"
        },
        "footprint_area_m2": 3055.85,
        "flow_basis": "synthetic_proxy_from_osm_footprint_area",
        "stress_bucket": "large_oks"
      },
      "geometry": {
        "type": "Point",
        "coordinates": [
          37.33644107659445,
          55.83761371027678
        ]
      }
    }
  ]
}