{
  "type": "FeatureCollection",
  "name": "moscow_mitino_-2_+1_369380e3_large_oks",
  "crs": {
    "type": "name",
    "properties": {
      "name": "EPSG:4326"
    }
  },
  "metadata": {
    "dataset_version": "osm_building_anchored_routing_scenes_v3",
    "parent_scene_id": "moscow_mitino_-2_+1_369380e3",
    "split": "train",
    "city": "Москва Митино",
    "seed": "moscow_mitino",
    "research_bucket": "large_oks",
    "source_research_bucket": "refusal",
    "research_bucket_is_ground_truth": false,
    "bbox_south_west_north_east": [
      55.8293812,
      37.3722014,
      55.8320762,
      37.3769998
    ],
    "real_data_source": "OpenStreetMap via Overpass API",
    "source_file": "data/real_geojson_places/refusal/098_moscow_mitino_-2_+1_369380e3.geojson",
    "real_layers": [
      "restrictions",
      "consumer_building_footprints"
    ],
    "synthetic_layers": [
      "source",
      "heat_network",
      "heat_chamber",
      "heat_demand"
    ],
    "consumer_selection": "deterministic points inside real OSM building footprints",
    "flow_model": "synthetic proxy derived from building footprint area; not metered demand",
    "note": "OSM buildings anchor consumers; heat demand and seed network are synthetic proxies."
  },
  "features": [
    {
      "type": "Feature",
      "properties": {
        "id": "moscow_mitino_-2_+1_369380e3_large_oks_osm_way_77663197_1",
        "object_type": "restriction",
        "restriction_type": "oks",
        "name": "",
        "osm_kind": "building",
        "osm_id": 77663197,
        "osm_type": "way",
        "osm_tags": {
          "building": "yes"
        },
        "case_id": "moscow_mitino_-2_+1_369380e3_large_oks"
      },
      "geometry": {
        "type": "Polygon",
        "coordinates": [
          [
            [
              37.3727719,
              55.8298144
            ],
            [
              37.3736955,
              55.8300378
            ],
            [
              37.373839,
              55.8300725
            ],
            [
              37.3739228,
              55.8299633
            ],
            [
              37.3728557,
              55.8297051
            ],
            [
              37.3727719,
              55.8298144
            ]
          ]
        ]
      }
    },
    {
      "type": "Feature",
      "properties": {
        "id": "moscow_mitino_-2_+1_369380e3_large_oks_osm_way_77663206_2",
        "object_type": "restriction",
        "restriction_type": "oks",
        "name": "",
        "osm_kind": "building",
        "osm_id": 77663206,
        "osm_type": "way",
        "osm_tags": {
          "building": "yes"
        },
        "case_id": "moscow_mitino_-2_+1_369380e3_large_oks"
      },
      "geometry": {
        "type": "Polygon",
        "coordinates": [
          [
            [
              37.3713991,
              55.8301661
            ],
            [
              37.3715205,
              55.830198
            ],
            [
              37.3724505,
              55.8304421
            ],
            [
              37.3726186,
              55.8302383
            ],
            [
              37.3718044,
              55.8300248
            ],
            [
              37.3715682,
              55.8299628
            ],
            [
              37.3713991,
              55.8301661
            ]
          ]
        ]
      }
    },
    {
      "type": "Feature",
      "properties": {
        "id": "moscow_mitino_-2_+1_369380e3_large_oks_osm_way_114375170_3",
        "object_type": "restriction",
        "restriction_type": "road",
        "name": "Волоколамское шоссе",
        "osm_kind": "major_road",
        "osm_id": 114375170,
        "osm_type": "way",
        "osm_tags": {
          "highway": "primary",
          "name": "Волоколамское шоссе"
        },
        "case_id": "moscow_mitino_-2_+1_369380e3_large_oks"
      },
      "geometry": {
        "type": "LineString",
        "coordinates": [
          [
            37.3716457,
            55.8288562
          ],
          [
            37.3717172,
            55.828875
          ],
          [
            37.3725434,
            55.8290761
          ],
          [
            37.3734869,
            55.8293057
          ],
          [
            37.3742745,
            55.8294974
          ],
          [
            37.3776604,
            55.8303278
          ],
          [
            37.3788383,
            55.8306338
          ],
          [
            37.3803282,
            55.8310182
          ]
        ]
      }
    },
    {
      "type": "Feature",
      "properties": {
        "id": "moscow_mitino_-2_+1_369380e3_large_oks_osm_way_114375178_4",
        "object_type": "restriction",
        "restriction_type": "road",
        "name": "",
        "osm_kind": "major_road",
        "osm_id": 114375178,
        "osm_type": "way",
        "osm_tags": {
          "highway": "secondary"
        },
        "case_id": "moscow_mitino_-2_+1_369380e3_large_oks"
      },
      "geometry": {
        "type": "LineString",
        "coordinates": [
          [
            37.3774198,
            55.8305989
          ],
          [
            37.3768848,
            55.8304678
          ],
          [
            37.3765059,
            55.8303603
          ],
          [
            37.3761282,
            55.8302336
          ],
          [
            37.3758157,
            55.8301039
          ],
          [
            37.3755014,
            55.8299445
          ],
          [
            37.3751886,
            55.8297629
          ],
          [
            37.3749231,
            55.82957
          ],
          [
            37.3747077,
            55.8293853
          ],
          [
            37.3745586,
            55.829236
          ],
          [
            37.3744211,
            55.8290762
          ]
        ]
      }
    },
    {
      "type": "Feature",
      "properties": {
        "id": "moscow_mitino_-2_+1_369380e3_large_oks_osm_way_114375186_5",
        "object_type": "restriction",
        "restriction_type": "road",
        "name": "Волоколамское шоссе",
        "osm_kind": "major_road",
        "osm_id": 114375186,
        "osm_type": "way",
        "osm_tags": {
          "highway": "primary",
          "name": "Волоколамское шоссе"
        },
        "case_id": "moscow_mitino_-2_+1_369380e3_large_oks"
      },
      "geometry": {
        "type": "LineString",
        "coordinates": [
          [
            37.3741917,
            55.8296472
          ],
          [
            37.3733429,
            55.8294401
          ],
          [
            37.371667,
            55.829046
          ],
          [
            37.3714539,
            55.8289959
          ]
        ]
      }
    },
    {
      "type": "Feature",
      "properties": {
        "id": "moscow_mitino_-2_+1_369380e3_large_oks_osm_way_114375194_6",
        "object_type": "restriction",
        "restriction_type": "road",
        "name": "Волоколамское шоссе",
        "osm_kind": "major_road",
        "osm_id": 114375194,
        "osm_type": "way",
        "osm_tags": {
          "highway": "primary",
          "name": "Волоколамское шоссе"
        },
        "case_id": "moscow_mitino_-2_+1_369380e3_large_oks"
      },
      "geometry": {
        "type": "LineString",
        "coordinates": [
          [
            37.3829177,
            55.8317992
          ],
          [
            37.3821837,
            55.831657
          ],
          [
            37.3816795,
            55.8315398
          ],
          [
            37.3810659,
            55.8313855
          ],
          [
            37.3792062,
            55.8308955
          ],
          [
            37.377887,
            55.8305543
          ],
          [
            37.3772001,
            55.8303853
          ],
          [
            37.3771199,
            55.8303654
          ],
          [
            37.3752529,
            55.8299066
          ],
          [
            37.3751731,
            55.8298876
          ],
          [
            37.3741917,
            55.8296472
          ]
        ]
      }
    },
    {
      "type": "Feature",
      "properties": {
        "id": "moscow_mitino_-2_+1_369380e3_large_oks_osm_way_130860938_7",
        "object_type": "restriction",
        "restriction_type": "oks",
        "name": "",
        "osm_kind": "building",
        "osm_id": 130860938,
        "osm_type": "way",
        "osm_tags": {
          "building": "yes"
        },
        "case_id": "moscow_mitino_-2_+1_369380e3_large_oks"
      },
      "geometry": {
        "type": "Polygon",
        "coordinates": [
          [
            [
              37.3736854,
              55.8302011
            ],
            [
              37.3734866,
              55.8301627
            ],
            [
              37.3734277,
              55.830259
            ],
            [
              37.3736265,
              55.8302974
            ],
            [
              37.3736854,
              55.8302011
            ]
          ]
        ]
      }
    },
    {
      "type": "Feature",
      "properties": {
        "id": "moscow_mitino_-2_+1_369380e3_large_oks_osm_way_130860943_8",
        "object_type": "restriction",
        "restriction_type": "oks",
        "name": "",
        "osm_kind": "building",
        "osm_id": 130860943,
        "osm_type": "way",
        "osm_tags": {
          "building": "yes"
        },
        "case_id": "moscow_mitino_-2_+1_369380e3_large_oks"
      },
      "geometry": {
        "type": "Polygon",
        "coordinates": [
          [
            [
              37.3727971,
              55.8300237
            ],
            [
              37.3726186,
              55.8302383
            ],
            [
              37.3718044,
              55.8300248
            ],
            [
              37.3719829,
              55.8298102
            ],
            [
              37.3727971,
              55.8300237
            ]
          ]
        ]
      }
    },
    {
      "type": "Feature",
      "properties": {
        "id": "moscow_mitino_-2_+1_369380e3_large_oks_osm_way_130860949_9",
        "object_type": "restriction",
        "restriction_type": "oks",
        "name": "",
        "osm_kind": "building",
        "osm_id": 130860949,
        "osm_type": "way",
        "osm_tags": {
          "building": "yes"
        },
        "case_id": "moscow_mitino_-2_+1_369380e3_large_oks"
      },
      "geometry": {
        "type": "Polygon",
        "coordinates": [
          [
            [
              37.3726186,
              55.8302383
            ],
            [
              37.3727971,
              55.8300237
            ],
            [
              37.3729765,
              55.830072
            ],
            [
              37.3726502,
              55.8304606
            ],
            [
              37.3724505,
              55.8304421
            ],
            [
              37.3726186,
              55.8302383
            ]
          ]
        ]
      }
    },
    {
      "type": "Feature",
      "properties": {
        "id": "moscow_mitino_-2_+1_369380e3_large_oks_osm_way_233333914_10",
        "object_type": "restriction",
        "restriction_type": "road",
        "name": "",
        "osm_kind": "major_road",
        "osm_id": 233333914,
        "osm_type": "way",
        "osm_tags": {
          "highway": "secondary"
        },
        "case_id": "moscow_mitino_-2_+1_369380e3_large_oks"
      },
      "geometry": {
        "type": "LineString",
        "coordinates": [
          [
            37.3741729,
            55.8277593
          ],
          [
            37.3741917,
            55.8280404
          ],
          [
            37.3742259,
            55.8282675
          ],
          [
            37.3742925,
            55.8284781
          ],
          [
            37.374382,
            55.8286435
          ],
          [
            37.3745259,
            55.8288311
          ],
          [
            37.3746688,
            55.8289848
          ],
          [
            37.3748597,
            55.8291363
          ],
          [
            37.3751119,
            55.8293095
          ],
          [
            37.3754471,
            55.8294865
          ],
          [
            37.375928,
            55.8296897
          ],
          [
            37.3763598,
            55.8298484
          ],
          [
            37.3766561,
            55.8299409
          ],
          [
            37.3772424,
            55.8301066
          ],
          [
            37.3780824,
            55.8303185
          ],
          [
            37.3786733,
            55.8304798
          ],
          [
            37.379256,
            55.8306527
          ],
          [
            37.3797063,
            55.8307871
          ],
          [
            37.3800781,
            55.8309094
          ],
          [
            37.3803282,
            55.8310182
          ]
        ]
      }
    },
    {
      "type": "Feature",
      "properties": {
        "id": "moscow_mitino_-2_+1_369380e3_large_oks_osm_way_238196238_11",
        "object_type": "restriction",
        "restriction_type": "road",
        "name": "",
        "osm_kind": "road",
        "osm_id": 238196238,
        "osm_type": "way",
        "osm_tags": {
          "highway": "footway"
        },
        "case_id": "moscow_mitino_-2_+1_369380e3_large_oks"
      },
      "geometry": {
        "type": "LineString",
        "coordinates": [
          [
            37.3648186,
            55.8261717
          ],
          [
            37.3649626,
            55.8262978
          ],
          [
            37.3654008,
            55.8266961
          ],
          [
            37.3656947,
            55.8269433
          ],
          [
            37.3657489,
            55.8270021
          ],
          [
            37.3659675,
            55.827169
          ],
          [
            37.3663611,
            55.8274073
          ],
          [
            37.3667749,
            55.8276446
          ],
          [
            37.367141,
            55.827832
          ],
          [
            37.3674333,
            55.8279761
          ],
          [
            37.3677195,
            55.8281046
          ],
          [
            37.3680198,
            55.8282176
          ],
          [
            37.3683457,
            55.8283285
          ],
          [
            37.3686353,
            55.8284167
          ],
          [
            37.3689129,
            55.8284941
          ],
          [
            37.3696283,
            55.8286778
          ],
          [
            37.3701635,
            55.8287995
          ],
          [
            37.3709156,
            55.8289834
          ],
          [
            37.3713769,
            55.8290961
          ],
          [
            37.3736172,
            55.8296408
          ],
          [
            37.373844,
            55.8296959
          ],
          [
            37.3750927,
            55.8299998
          ],
          [
            37.3755685,
            55.8301149
          ],
          [
            37.3758909,
            55.8302496
          ],
          [
            37.3762696,
            55.8303986
          ],
          [
            37.3770963,
            55.8306307
          ],
          [
            37.3780023,
            55.8308612
          ],
          [
            37.3787867,
            55.8310426
          ],
          [
            37.3791658,
            55.8311079
          ],
          [
            37.3797877,
            55.8312444
          ],
          [
            37.38114,
            55.8315458
          ],
          [
            37.3824373,
            55.8318249
          ],
          [
            37.3826558,
            55.8318573
          ],
          [
            37.3833245,
            55.8319446
          ],
          [
            37.3839714,
            55.8320302
          ],
          [
            37.3845079,
            55.8320826
          ],
          [
            37.3849387,
            55.8321273
          ],
          [
            37.3852143,
            55.8321617
          ],
          [
            37.3860006,
            55.8323064
          ],
          [
            37.3863183,
            55.8323751
          ],
          [
            37.3869515,
            55.8325292
          ],
          [
            37.3875872,
            55.8326925
          ],
          [
            37.3881347,
            55.8328474
          ],
          [
            37.3886828,
            55.8329871
          ],
          [
            37.3889265,
            55.833042
          ]
        ]
      }
    },
    {
      "type": "Feature",
      "properties": {
        "id": "moscow_mitino_-2_+1_369380e3_large_oks_osm_way_238197839_12",
        "object_type": "restriction",
        "restriction_type": "road",
        "name": "",
        "osm_kind": "road",
        "osm_id": 238197839,
        "osm_type": "way",
        "osm_tags": {
          "highway": "footway"
        },
        "case_id": "moscow_mitino_-2_+1_369380e3_large_oks"
      },
      "geometry": {
        "type": "LineString",
        "coordinates": [
          [
            37.3745479,
            55.8247746
          ],
          [
            37.3746271,
            55.8247773
          ],
          [
            37.374663,
            55.8247785
          ],
          [
            37.3746557,
            55.82486
          ],
          [
            37.3746508,
            55.8249059
          ],
          [
            37.3745455,
            55.8259306
          ],
          [
            37.3744546,
            55.8268144
          ],
          [
            37.3744166,
            55.8271483
          ],
          [
            37.3743396,
            55.8272703
          ],
          [
            37.374309,
            55.827503
          ],
          [
            37.3743071,
            55.8277522
          ],
          [
            37.3743055,
            55.827844
          ],
          [
            37.3743139,
            55.8280781
          ],
          [
            37.3743571,
            55.828299
          ],
          [
            37.3744298,
            55.8284889
          ],
          [
            37.3745682,
            55.8287139
          ],
          [
            37.3746919,
            55.8289018
          ],
          [
            37.375058,
            55.8292006
          ],
          [
            37.3754901,
            55.8294539
          ],
          [
            37.3757973,
            55.8295865
          ],
          [
            37.3762407,
            55.8297568
          ],
          [
            37.3767633,
            55.8299236
          ],
          [
            37.3773768,
            55.8300934
          ],
          [
            37.3785807,
            55.8303998
          ],
          [
            37.3791414,
            55.8305638
          ],
          [
            37.3806301,
            55.8309723
          ],
          [
            37.3812843,
            55.8311677
          ],
          [
            37.3816453,
            55.8312698
          ],
          [
            37.3819724,
            55.8313437
          ],
          [
            37.3824851,
            55.8314495
          ],
          [
            37.383041,
            55.8315473
          ],
          [
            37.3836551,
            55.8316393
          ],
          [
            37.3842312,
            55.8317026
          ],
          [
            37.3847965,
            55.8317466
          ],
          [
            37.3858262,
            55.831809
          ],
          [
            37.3870142,
            55.8319056
          ],
          [
            37.3870829,
            55.8319172
          ],
          [
            37.3871498,
            55.8319422
          ],
          [
            37.3872881,
            55.8319916
          ],
          [
            37.3878159,
            55.8321449
          ],
          [
            37.387974,
            55.83218
          ],
          [
            37.3880489,
            55.8321769
          ],
          [
            37.3881206,
            55.8321774
          ],
          [
            37.388622,
            55.8323597
          ],
          [
            37.3888832,
            55.8324474
          ],
          [
            37.3891955,
            55.8325337
          ],
          [
            37.3894541,
            55.8325927
          ],
          [
            37.3897281,
            55.8326171
          ],
          [
            37.3899329,
            55.83262
          ],
          [
            37.3899706,
            55.8326176
          ],
          [
            37.3901403,
            55.832607
          ],
          [
            37.390427,
            55.8325639
          ],
          [
            37.3907266,
            55.8325107
          ],
          [
            37.3910492,
            55.8324633
          ],
          [
            37.3913922,
            55.8324172
          ],
          [
            37.3919451,
            55.8323555
          ]
        ]
      }
    },
    {
      "type": "Feature",
      "properties": {
        "id": "moscow_mitino_-2_+1_369380e3_large_oks_osm_way_238286409_13",
        "object_type": "restriction",
        "restriction_type": "road",
        "name": "",
        "osm_kind": "road",
        "osm_id": 238286409,
        "osm_type": "way",
        "osm_tags": {
          "highway": "path"
        },
        "case_id": "moscow_mitino_-2_+1_369380e3_large_oks"
      },
      "geometry": {
        "type": "LineString",
        "coordinates": [
          [
            37.373844,
            55.8296959
          ],
          [
            37.3739004,
            55.8298293
          ],
          [
            37.3739527,
            55.8298662
          ],
          [
            37.3739594,
            55.8299008
          ],
          [
            37.3739882,
            55.8299564
          ],
          [
            37.3734816,
            55.8305995
          ],
          [
            37.3733878,
            55.8307854
          ],
          [
            37.373358,
            55.8309747
          ],
          [
            37.373287,
            55.831088
          ],
          [
            37.3732385,
            55.8311284
          ],
          [
            37.3729589,
            55.8311665
          ],
          [
            37.3729018,
            55.8311731
          ]
        ]
      }
    },
    {
      "type": "Feature",
      "properties": {
        "id": "moscow_mitino_-2_+1_369380e3_large_oks_osm_way_340102732_14",
        "object_type": "restriction",
        "restriction_type": "park",
        "name": "",
        "osm_kind": "green",
        "osm_id": 340102732,
        "osm_type": "way",
        "osm_tags": {
          "landuse": "grass"
        },
        "case_id": "moscow_mitino_-2_+1_369380e3_large_oks"
      },
      "geometry": {
        "type": "Polygon",
        "coordinates": [
          [
            [
              37.3881238,
              55.8324601
            ],
            [
              37.3881424,
              55.832469
            ],
            [
              37.388158,
              55.8324796
            ],
            [
              37.3881701,
              55.8324916
            ],
            [
              37.3881783,
              55.8325046
            ],
            [
              37.3881824,
              55.8325181
            ],
            [
              37.3881822,
              55.8325319
            ],
            [
              37.3881778,
              55.8325454
            ],
            [
              37.3881693,
              55.8325583
            ],
            [
              37.3881569,
              55.8325702
            ],
            [
              37.388141,
              55.8325806
            ],
            [
              37.3881221,
              55.8325894
            ],
            [
              37.3881008,
              55.8325962
            ],
            [
              37.3880778,
              55.8326008
            ],
            [
              37.3880536,
              55.8326031
            ],
            [
              37.3880291,
              55.832603
            ],
            [
              37.388005,
              55.8326005
            ],
            [
              37.3879821,
              55.8325957
            ],
            [
              37.3874395,
              55.8324469
            ],
            [
              37.3870188,
              55.8323382
            ],
            [
              37.3867356,
              55.8322681
            ],
            [
              37.3865295,
              55.8322224
            ],
            [
              37.3863163,
              55.832187
            ],
            [
              37.3858761,
              55.8321153
            ],
            [
              37.3853026,
              55.8320287
            ],
            [
              37.3845637,
              55.8319429
            ],
            [
              37.3840617,
              55.8318941
            ],
            [
              37.3837701,
              55.8318626
            ],
            [
              37.3834153,
              55.8318169
            ],
            [
              37.3831349,
              55.8317736
            ],
            [
              37.382797,
              55.8317145
            ],
            [
              37.3823483,
              55.8316255
            ],
            [
              37.3819697,
              55.8315484
            ],
            [
              37.3815561,
              55.8314523
            ],
            [
              37.3808002,
              55.8312561
            ],
            [
              37.3790989,
              55.8308112
            ],
            [
              37.3778335,
              55.8304847
            ],
            [
              37.376363,
              55.8301229
            ],
            [
              37.3746161,
              55.8296924
            ],
            [
              37.3723134,
              55.8291321
            ],
            [
              37.3716095,
              55.8289609
            ],
            [
              37.3715944,
              55.8289552
            ],
            [
              37.3715974,
              55.828945
            ],
            [
              37.3716115,
              55.8289331
            ],
            [
              37.3716296,
              55.8289241
            ],
            [
              37.3716447,
              55.8289252
            ],
            [
              37.3724024,
              55.8291097
            ],
            [
              37.3735178,
              55.829383
            ],
            [
              37.3746503,
              55.8296592
            ],
            [
              37.3763914,
              55.8300859
            ],
            [
              37.3778584,
              55.8304481
            ],
            [
              37.379134,
              55.8307786
            ],
            [
              37.3808308,
              55.8312222
            ],
            [
              37.3815844,
              55.831409
            ],
            [
              37.3819996,
              55.8315018
            ],
            [
              37.3823764,
              55.8315798
            ],
            [
              37.3828358,
              55.8316625
            ],
            [
              37.3831744,
              55.8317191
            ],
            [
              37.383527,
              55.8317711
            ],
            [
              37.3839139,
              55.8318175
            ],
            [
              37.38445,
              55.831873
            ],
            [
              37.3848691,
              55.8319069
            ],
            [
              37.3853628,
              55.8319431
            ],
            [
              37.3855845,
              55.8319658
            ],
            [
              37.3859049,
              55.8320077
            ],
            [
              37.3865558,
              55.8321038
            ],
            [
              37.3869749,
              55.8321842
            ],
            [
              37.3874263,
              55.8322827
            ],
            [
              37.3878032,
              55.8323743
            ],
            [
              37.3881238,
              55.8324601
            ]
          ]
        ]
      }
    },
    {
      "type": "Feature",
      "properties": {
        "id": "moscow_mitino_-2_+1_369380e3_large_oks_osm_way_344612902_15",
        "object_type": "restriction",
        "restriction_type": "road",
        "name": "",
        "osm_kind": "road",
        "osm_id": 344612902,
        "osm_type": "way",
        "osm_tags": {
          "highway": "service"
        },
        "case_id": "moscow_mitino_-2_+1_369380e3_large_oks"
      },
      "geometry": {
        "type": "LineString",
        "coordinates": [
          [
            37.3721903,
            55.8297715
          ],
          [
            37.3726957,
            55.8298986
          ],
          [
            37.3727889,
            55.829922
          ],
          [
            37.3732807,
            55.830041
          ],
          [
            37.3733399,
            55.8301247
          ],
          [
            37.3730893,
            55.8304514
          ],
          [
            37.3728685,
            55.8305008
          ],
          [
            37.3721086,
            55.8304295
          ],
          [
            37.3698694,
            55.8298455
          ]
        ]
      }
    },
    {
      "type": "Feature",
      "properties": {
        "id": "moscow_mitino_-2_+1_369380e3_large_oks_osm_way_376003137_16",
        "object_type": "restriction",
        "restriction_type": "oks",
        "name": "",
        "osm_kind": "building",
        "osm_id": 376003137,
        "osm_type": "way",
        "osm_tags": {
          "building": "yes"
        },
        "case_id": "moscow_mitino_-2_+1_369380e3_large_oks",
        "selected_as_heat_demand_proxy": true,
        "connection_point_id": "moscow_mitino_-2_+1_369380e3_large_oks_cp_3"
      },
      "geometry": {
        "type": "Polygon",
        "coordinates": [
          [
            [
              37.3754766,
              55.8309796
            ],
            [
              37.3757474,
              55.8310508
            ],
            [
              37.3758473,
              55.8309308
            ],
            [
              37.3755765,
              55.8308597
            ],
            [
              37.3754766,
              55.8309796
            ]
          ]
        ]
      }
    },
    {
      "type": "Feature",
      "properties": {
        "id": "moscow_mitino_-2_+1_369380e3_large_oks_osm_way_376003139_17",
        "object_type": "restriction",
        "restriction_type": "oks",
        "name": "",
        "osm_kind": "building",
        "osm_id": 376003139,
        "osm_type": "way",
        "osm_tags": {
          "building": "roof"
        },
        "case_id": "moscow_mitino_-2_+1_369380e3_large_oks",
        "selected_as_heat_demand_proxy": true,
        "connection_point_id": "moscow_mitino_-2_+1_369380e3_large_oks_cp_2"
      },
      "geometry": {
        "type": "Polygon",
        "coordinates": [
          [
            [
              37.3756504,
              55.8307367
            ],
            [
              37.3759873,
              55.8308251
            ],
            [
              37.3760366,
              55.8307659
            ],
            [
              37.3756997,
              55.8306774
            ],
            [
              37.3756504,
              55.8307367
            ]
          ]
        ]
      }
    },
    {
      "type": "Feature",
      "properties": {
        "id": "moscow_mitino_-2_+1_369380e3_large_oks_osm_way_391542857_18",
        "object_type": "restriction",
        "restriction_type": "road",
        "name": "",
        "osm_kind": "road",
        "osm_id": 391542857,
        "osm_type": "way",
        "osm_tags": {
          "highway": "service"
        },
        "case_id": "moscow_mitino_-2_+1_369380e3_large_oks"
      },
      "geometry": {
        "type": "LineString",
        "coordinates": [
          [
            37.3771199,
            55.8303654
          ],
          [
            37.3768119,
            55.8303419
          ],
          [
            37.3765281,
            55.8303296
          ],
          [
            37.3763626,
            55.8303473
          ],
          [
            37.3762696,
            55.8303986
          ],
          [
            37.3761736,
            55.8304662
          ],
          [
            37.3761186,
            55.8305393
          ],
          [
            37.3761132,
            55.8305983
          ],
          [
            37.3761559,
            55.8306707
          ],
          [
            37.3759741,
            55.830889
          ],
          [
            37.375568,
            55.8307824
          ],
          [
            37.3757499,
            55.8305639
          ],
          [
            37.3758504,
            55.8305079
          ],
          [
            37.3758728,
            55.8304439
          ],
          [
            37.375794,
            55.8302699
          ],
          [
            37.3755685,
            55.8301149
          ],
          [
            37.3752529,
            55.8299066
          ]
        ]
      }
    },
    {
      "type": "Feature",
      "properties": {
        "id": "moscow_mitino_-2_+1_369380e3_large_oks_osm_way_478729210_19",
        "object_type": "restriction",
        "restriction_type": "road",
        "name": "",
        "osm_kind": "road",
        "osm_id": 478729210,
        "osm_type": "way",
        "osm_tags": {
          "highway": "service"
        },
        "case_id": "moscow_mitino_-2_+1_369380e3_large_oks"
      },
      "geometry": {
        "type": "LineString",
        "coordinates": [
          [
            37.3761559,
            55.8306707
          ],
          [
            37.3757499,
            55.8305639
          ]
        ]
      }
    },
    {
      "type": "Feature",
      "properties": {
        "id": "moscow_mitino_-2_+1_369380e3_large_oks_osm_way_624238534_20",
        "object_type": "restriction",
        "restriction_type": "road",
        "name": "",
        "osm_kind": "road",
        "osm_id": 624238534,
        "osm_type": "way",
        "osm_tags": {
          "highway": "path"
        },
        "case_id": "moscow_mitino_-2_+1_369380e3_large_oks"
      },
      "geometry": {
        "type": "LineString",
        "coordinates": [
          [
            37.3768337,
            55.8323153
          ],
          [
            37.3768467,
            55.8322701
          ],
          [
            37.376847,
            55.8322302
          ],
          [
            37.3767209,
            55.8321601
          ],
          [
            37.3764901,
            55.8320979
          ],
          [
            37.3761486,
            55.832019
          ],
          [
            37.3756738,
            55.8319251
          ],
          [
            37.3754393,
            55.8318763
          ],
          [
            37.3751858,
            55.8318312
          ],
          [
            37.3750265,
            55.8318026
          ],
          [
            37.3748633,
            55.8317914
          ],
          [
            37.3747399,
            55.8317718
          ]
        ]
      }
    },
    {
      "type": "Feature",
      "properties": {
        "id": "moscow_mitino_-2_+1_369380e3_large_oks_osm_way_712986749_21",
        "object_type": "restriction",
        "restriction_type": "oks",
        "name": "",
        "osm_kind": "building",
        "osm_id": 712986749,
        "osm_type": "way",
        "osm_tags": {
          "building": "industrial"
        },
        "case_id": "moscow_mitino_-2_+1_369380e3_large_oks",
        "selected_as_heat_demand_proxy": true,
        "connection_point_id": "moscow_mitino_-2_+1_369380e3_large_oks_cp_4"
      },
      "geometry": {
        "type": "Polygon",
        "coordinates": [
          [
            [
              37.3738139,
              55.8311463
            ],
            [
              37.3740594,
              55.8312001
            ],
            [
              37.3741199,
              55.8311131
            ],
            [
              37.3738743,
              55.8310593
            ],
            [
              37.3738139,
              55.8311463
            ]
          ]
        ]
      }
    },
    {
      "type": "Feature",
      "properties": {
        "id": "moscow_mitino_-2_+1_369380e3_large_oks_osm_way_712986750_22",
        "object_type": "restriction",
        "restriction_type": "road",
        "name": "",
        "osm_kind": "road",
        "osm_id": 712986750,
        "osm_type": "way",
        "osm_tags": {
          "highway": "path"
        },
        "case_id": "moscow_mitino_-2_+1_369380e3_large_oks"
      },
      "geometry": {
        "type": "LineString",
        "coordinates": [
          [
            37.3748982,
            55.8310811
          ],
          [
            37.37498,
            55.8309983
          ],
          [
            37.3750135,
            55.8307926
          ],
          [
            37.3750216,
            55.8306375
          ],
          [
            37.3750457,
            55.8305094
          ],
          [
            37.3750564,
            55.8303829
          ],
          [
            37.3750511,
            55.830291
          ],
          [
            37.375043,
            55.8301961
          ],
          [
            37.375094,
            55.8300643
          ]
        ]
      }
    },
    {
      "type": "Feature",
      "properties": {
        "id": "moscow_mitino_-2_+1_369380e3_large_oks_osm_way_712986751_23",
        "object_type": "restriction",
        "restriction_type": "road",
        "name": "",
        "osm_kind": "road",
        "osm_id": 712986751,
        "osm_type": "way",
        "osm_tags": {
          "highway": "steps"
        },
        "case_id": "moscow_mitino_-2_+1_369380e3_large_oks"
      },
      "geometry": {
        "type": "LineString",
        "coordinates": [
          [
            37.3748416,
            55.8315618
          ],
          [
            37.3748658,
            55.8315175
          ]
        ]
      }
    },
    {
      "type": "Feature",
      "properties": {
        "id": "moscow_mitino_-2_+1_369380e3_large_oks_osm_way_712986752_24",
        "object_type": "restriction",
        "restriction_type": "road",
        "name": "",
        "osm_kind": "road",
        "osm_id": 712986752,
        "osm_type": "way",
        "osm_tags": {
          "highway": "footway"
        },
        "case_id": "moscow_mitino_-2_+1_369380e3_large_oks"
      },
      "geometry": {
        "type": "LineString",
        "coordinates": [
          [
            37.3747521,
            55.8317487
          ],
          [
            37.3747399,
            55.8317718
          ],
          [
            37.3747252,
            55.831829
          ],
          [
            37.3747507,
            55.8318961
          ],
          [
            37.3747627,
            55.8319597
          ],
          [
            37.3747131,
            55.8320377
          ],
          [
            37.3747503,
            55.8320481
          ]
        ]
      }
    },
    {
      "type": "Feature",
      "properties": {
        "id": "moscow_mitino_-2_+1_369380e3_large_oks_osm_way_712986753_25",
        "object_type": "restriction",
        "restriction_type": "road",
        "name": "",
        "osm_kind": "road",
        "osm_id": 712986753,
        "osm_type": "way",
        "osm_tags": {
          "highway": "footway"
        },
        "case_id": "moscow_mitino_-2_+1_369380e3_large_oks"
      },
      "geometry": {
        "type": "LineString",
        "coordinates": [
          [
            37.3748416,
            55.8315618
          ],
          [
            37.3748369,
            55.8315704
          ],
          [
            37.3747346,
            55.8315528
          ],
          [
            37.3747265,
            55.8315678
          ],
          [
            37.3748401,
            55.8315873
          ],
          [
            37.3748182,
            55.8316274
          ],
          [
            37.3747833,
            55.8316914
          ],
          [
            37.3747667,
            55.8317219
          ],
          [
            37.3746379,
            55.8316997
          ],
          [
            37.3746232,
            55.8317266
          ],
          [
            37.3747521,
            55.8317487
          ]
        ]
      }
    },
    {
      "type": "Feature",
      "properties": {
        "id": "moscow_mitino_-2_+1_369380e3_large_oks_osm_way_720852549_26",
        "object_type": "restriction",
        "restriction_type": "road",
        "name": "",
        "osm_kind": "road",
        "osm_id": 720852549,
        "osm_type": "way",
        "osm_tags": {
          "highway": "path"
        },
        "case_id": "moscow_mitino_-2_+1_369380e3_large_oks"
      },
      "geometry": {
        "type": "LineString",
        "coordinates": [
          [
            37.3701801,
            55.8313726
          ],
          [
            37.3710948,
            55.8314027
          ],
          [
            37.3719048,
            55.8314329
          ],
          [
            37.3721302,
            55.8313334
          ],
          [
            37.3726996,
            55.8313468
          ]
        ]
      }
    },
    {
      "type": "Feature",
      "properties": {
        "id": "moscow_mitino_-2_+1_369380e3_large_oks_osm_way_748616507_27",
        "object_type": "restriction",
        "restriction_type": "railway",
        "name": "Рижское направление",
        "osm_kind": "railway",
        "osm_id": 748616507,
        "osm_type": "way",
        "osm_tags": {
          "name": "Рижское направление",
          "railway": "rail"
        },
        "case_id": "moscow_mitino_-2_+1_369380e3_large_oks"
      },
      "geometry": {
        "type": "LineString",
        "coordinates": [
          [
            37.3833156,
            55.8322389
          ],
          [
            37.3824544,
            55.8322013
          ],
          [
            37.3801082,
            55.8320991
          ],
          [
            37.3795699,
            55.8320781
          ],
          [
            37.3787746,
            55.832047
          ],
          [
            37.3782311,
            55.8320214
          ],
          [
            37.3777705,
            55.8320005
          ],
          [
            37.3772142,
            55.8319738
          ],
          [
            37.3766222,
            55.8319351
          ],
          [
            37.3761961,
            55.831891
          ],
          [
            37.3754946,
            55.8318051
          ],
          [
            37.3750611,
            55.8317391
          ],
          [
            37.3747833,
            55.8316914
          ],
          [
            37.3744624,
            55.8316362
          ],
          [
            37.3739617,
            55.8315345
          ],
          [
            37.3734537,
            55.8314175
          ],
          [
            37.3727993,
            55.8312632
          ],
          [
            37.3724736,
            55.831185
          ],
          [
            37.3717515,
            55.831009
          ],
          [
            37.3712076,
            55.8308779
          ],
          [
            37.3706318,
            55.8307319
          ],
          [
            37.3701331,
            55.830599
          ],
          [
            37.3696857,
            55.8304738
          ],
          [
            37.3692071,
            55.8303232
          ],
          [
            37.3688161,
            55.8301907
          ],
          [
            37.3683302,
            55.8300274
          ],
          [
            37.367904,
            55.8298562
          ],
          [
            37.3674113,
            55.8296482
          ],
          [
            37.367105,
            55.8295197
          ],
          [
            37.3666803,
            55.8293205
          ],
          [
            37.3664951,
            55.8292211
          ],
          [
            37.3662845,
            55.8291081
          ],
          [
            37.3659372,
            55.8289195
          ],
          [
            37.3656551,
            55.8287622
          ],
          [
            37.3653303,
            55.8285769
          ],
          [
            37.3651118,
            55.8284321
          ],
          [
            37.3647957,
            55.828208
          ],
          [
            37.3644908,
            55.8279869
          ],
          [
            37.3641144,
            55.8276963
          ],
          [
            37.3637831,
            55.8274237
          ],
          [
            37.3634334,
            55.8271063
          ],
          [
            37.3631999,
            55.8268485
          ],
          [
            37.3629962,
            55.8266178
          ],
          [
            37.3629236,
            55.8265343
          ],
          [
            37.3627998,
            55.8263762
          ],
          [
            37.3626339,
            55.8261675
          ],
          [
            37.3624706,
            55.8259509
          ],
          [
            37.3623226,
            55.8257455
          ],
          [
            37.3621131,
            55.8253946
          ],
          [
            37.3619342,
            55.8250705
          ],
          [
            37.3615765,
            55.8242242
          ]
        ]
      }
    },
    {
      "type": "Feature",
      "properties": {
        "id": "moscow_mitino_-2_+1_369380e3_large_oks_osm_way_748616509_28",
        "object_type": "restriction",
        "restriction_type": "railway",
        "name": "Рижское направление",
        "osm_kind": "railway",
        "osm_id": 748616509,
        "osm_type": "way",
        "osm_tags": {
          "name": "Рижское направление",
          "railway": "rail"
        },
        "case_id": "moscow_mitino_-2_+1_369380e3_large_oks"
      },
      "geometry": {
        "type": "LineString",
        "coordinates": [
          [
            37.3617798,
            55.824198
          ],
          [
            37.3620369,
            55.8248519
          ],
          [
            37.3623133,
            55.8253601
          ],
          [
            37.3625305,
            55.8257186
          ],
          [
            37.3628309,
            55.8261224
          ],
          [
            37.3631179,
            55.826484
          ],
          [
            37.3633862,
            55.8267823
          ],
          [
            37.3636249,
            55.8270309
          ],
          [
            37.3639467,
            55.8273307
          ],
          [
            37.3642713,
            55.8276215
          ],
          [
            37.3649338,
            55.8281246
          ],
          [
            37.3654488,
            55.8284757
          ],
          [
            37.3660496,
            55.8288448
          ],
          [
            37.3663983,
            55.8290466
          ],
          [
            37.3665973,
            55.8291462
          ],
          [
            37.3667684,
            55.8292319
          ],
          [
            37.3671707,
            55.8294353
          ],
          [
            37.3674872,
            55.8295814
          ],
          [
            37.367962,
            55.8297848
          ],
          [
            37.3683912,
            55.8299581
          ],
          [
            37.3688713,
            55.8301373
          ],
          [
            37.3692521,
            55.8302729
          ],
          [
            37.369716,
            55.8304286
          ],
          [
            37.3701712,
            55.8305615
          ],
          [
            37.3706555,
            55.8306945
          ],
          [
            37.3712201,
            55.8308333
          ],
          [
            37.3717888,
            55.8309704
          ],
          [
            37.3725108,
            55.8311438
          ],
          [
            37.3728433,
            55.8312205
          ],
          [
            37.3734863,
            55.8313751
          ],
          [
            37.3739719,
            55.8314766
          ],
          [
            37.3744985,
            55.831576
          ],
          [
            37.3748182,
            55.8316274
          ],
          [
            37.3750886,
            55.8316709
          ],
          [
            37.3755366,
            55.8317326
          ],
          [
            37.3762339,
            55.8318095
          ],
          [
            37.3766443,
            55.8318381
          ],
          [
            37.377221,
            55.8318788
          ],
          [
            37.3777762,
            55.8319044
          ],
          [
            37.3782697,
            55.8319224
          ],
          [
            37.3787901,
            55.8319375
          ],
          [
            37.3792515,
            55.8319502
          ],
          [
            37.3796644,
            55.8319616
          ],
          [
            37.3808797,
            55.8320167
          ],
          [
            37.3824727,
            55.8320853
          ],
          [
            37.3835054,
            55.8321297
          ],
          [
            37.3840495,
            55.832162
          ],
          [
            37.384287,
            55.832186
          ],
          [
            37.3846165,
            55.8322252
          ],
          [
            37.3849485,
            55.832287
          ],
          [
            37.3853107,
            55.8323529
          ]
        ]
      }
    },
    {
      "type": "Feature",
      "properties": {
        "id": "moscow_mitino_-2_+1_369380e3_large_oks_osm_way_781590040_29",
        "object_type": "restriction",
        "restriction_type": "road",
        "name": "",
        "osm_kind": "road",
        "osm_id": 781590040,
        "osm_type": "way",
        "osm_tags": {
          "highway": "footway"
        },
        "case_id": "moscow_mitino_-2_+1_369380e3_large_oks"
      },
      "geometry": {
        "type": "LineString",
        "coordinates": [
          [
            37.3747503,
            55.8320481
          ],
          [
            37.3747949,
            55.8320636
          ],
          [
            37.3747694,
            55.832168
          ],
          [
            37.3747869,
            55.8322328
          ]
        ]
      }
    },
    {
      "type": "Feature",
      "properties": {
        "id": "moscow_mitino_-2_+1_369380e3_large_oks_osm_way_935352939_30",
        "object_type": "restriction",
        "restriction_type": "road",
        "name": "",
        "osm_kind": "road",
        "osm_id": 935352939,
        "osm_type": "way",
        "osm_tags": {
          "highway": "service"
        },
        "case_id": "moscow_mitino_-2_+1_369380e3_large_oks"
      },
      "geometry": {
        "type": "LineString",
        "coordinates": [
          [
            37.3751731,
            55.8298876
          ],
          [
            37.3750927,
            55.8299998
          ],
          [
            37.3750845,
            55.830025
          ],
          [
            37.375094,
            55.8300643
          ],
          [
            37.3751463,
            55.8301027
          ],
          [
            37.3753032,
            55.8301614
          ],
          [
            37.3754641,
            55.8302458
          ],
          [
            37.3755527,
            55.8303151
          ],
          [
            37.3755822,
            55.8303995
          ],
          [
            37.3755634,
            55.8304672
          ],
          [
            37.3755044,
            55.8305606
          ],
          [
            37.3750705,
            55.8310279
          ],
          [
            37.3750363,
            55.8310525
          ],
          [
            37.3749773,
            55.8310728
          ],
          [
            37.3748982,
            55.8310811
          ],
          [
            37.3747909,
            55.8310721
          ],
          [
            37.3741656,
            55.8309394
          ]
        ]
      }
    },
    {
      "type": "Feature",
      "properties": {
        "id": "moscow_mitino_-2_+1_369380e3_large_oks_osm_way_935354281_31",
        "object_type": "restriction",
        "restriction_type": "oks",
        "name": "",
        "osm_kind": "building",
        "osm_id": 935354281,
        "osm_type": "way",
        "osm_tags": {
          "building": "yes"
        },
        "case_id": "moscow_mitino_-2_+1_369380e3_large_oks",
        "selected_as_heat_demand_proxy": true,
        "connection_point_id": "moscow_mitino_-2_+1_369380e3_large_oks_cp_1"
      },
      "geometry": {
        "type": "Polygon",
        "coordinates": [
          [
            [
              37.373839,
              55.8300725
            ],
            [
              37.3736955,
              55.8300378
            ],
            [
              37.3736255,
              55.830129
            ],
            [
              37.373769,
              55.8301638
            ],
            [
              37.373839,
              55.8300725
            ]
          ]
        ]
      }
    },
    {
      "type": "Feature",
      "properties": {
        "id": "moscow_mitino_-2_+1_369380e3_large_oks_osm_way_935354282_32",
        "object_type": "restriction",
        "restriction_type": "road",
        "name": "",
        "osm_kind": "road",
        "osm_id": 935354282,
        "osm_type": "way",
        "osm_tags": {
          "highway": "service"
        },
        "case_id": "moscow_mitino_-2_+1_369380e3_large_oks"
      },
      "geometry": {
        "type": "LineString",
        "coordinates": [
          [
            37.3721281,
            55.8296263
          ],
          [
            37.3722625,
            55.8296375
          ],
          [
            37.3727202,
            55.8297532
          ],
          [
            37.3727444,
            55.8298375
          ],
          [
            37.3726957,
            55.8298986
          ]
        ]
      }
    },
    {
      "type": "Feature",
      "properties": {
        "id": "moscow_mitino_-2_+1_369380e3_large_oks_osm_way_1097923638_33",
        "object_type": "restriction",
        "restriction_type": "road",
        "name": "",
        "osm_kind": "road",
        "osm_id": 1097923638,
        "osm_type": "way",
        "osm_tags": {
          "highway": "path"
        },
        "case_id": "moscow_mitino_-2_+1_369380e3_large_oks"
      },
      "geometry": {
        "type": "LineString",
        "coordinates": [
          [
            37.3729018,
            55.8311731
          ],
          [
            37.3728433,
            55.8312205
          ],
          [
            37.3727993,
            55.8312632
          ],
          [
            37.3727613,
            55.8312951
          ]
        ]
      }
    },
    {
      "type": "Feature",
      "properties": {
        "id": "moscow_mitino_-2_+1_369380e3_large_oks_osm_way_1097923639_34",
        "object_type": "restriction",
        "restriction_type": "road",
        "name": "",
        "osm_kind": "road",
        "osm_id": 1097923639,
        "osm_type": "way",
        "osm_tags": {
          "highway": "path"
        },
        "case_id": "moscow_mitino_-2_+1_369380e3_large_oks"
      },
      "geometry": {
        "type": "LineString",
        "coordinates": [
          [
            37.3701801,
            55.8313726
          ],
          [
            37.3703948,
            55.831454
          ],
          [
            37.3707515,
            55.8315232
          ],
          [
            37.3718056,
            55.8317462
          ],
          [
            37.3722009,
            55.831765
          ],
          [
            37.3725727,
            55.831823
          ],
          [
            37.3729563,
            55.8318923
          ],
          [
            37.3732701,
            55.8319842
          ],
          [
            37.3736134,
            55.8320445
          ],
          [
            37.3741391,
            55.8320942
          ],
          [
            37.3745012,
            55.8320746
          ],
          [
            37.3747131,
            55.8320377
          ]
        ]
      }
    },
    {
      "type": "Feature",
      "properties": {
        "id": "moscow_mitino_-2_+1_369380e3_large_oks_osm_way_1274707170_35",
        "object_type": "restriction",
        "restriction_type": "road",
        "name": "",
        "osm_kind": "road",
        "osm_id": 1274707170,
        "osm_type": "way",
        "osm_tags": {
          "highway": "footway"
        },
        "case_id": "moscow_mitino_-2_+1_369380e3_large_oks"
      },
      "geometry": {
        "type": "LineString",
        "coordinates": [
          [
            37.3748658,
            55.8315175
          ],
          [
            37.3749049,
            55.8314525
          ],
          [
            37.3748714,
            55.8314072
          ],
          [
            37.3748982,
            55.8310811
          ]
        ]
      }
    },
    {
      "type": "Feature",
      "properties": {
        "id": "moscow_mitino_-2_+1_369380e3_large_oks_osm_way_1285771626_36",
        "object_type": "restriction",
        "restriction_type": "water",
        "name": "",
        "osm_kind": "water",
        "osm_id": 1285771626,
        "osm_type": "way",
        "osm_tags": {
          "waterway": "ditch"
        },
        "case_id": "moscow_mitino_-2_+1_369380e3_large_oks"
      },
      "geometry": {
        "type": "LineString",
        "coordinates": [
          [
            37.3749545,
            55.8314698
          ],
          [
            37.3761615,
            55.8315556
          ],
          [
            37.3768052,
            55.8316121
          ],
          [
            37.3770319,
            55.8316498
          ],
          [
            37.3776448,
            55.8316799
          ],
          [
            37.3779747,
            55.8316784
          ]
        ]
      }
    },
    {
      "type": "Feature",
      "properties": {
        "id": "moscow_mitino_-2_+1_369380e3_large_oks_osm_way_1285771627_37",
        "object_type": "restriction",
        "restriction_type": "water",
        "name": "",
        "osm_kind": "water",
        "osm_id": 1285771627,
        "osm_type": "way",
        "osm_tags": {
          "waterway": "ditch"
        },
        "case_id": "moscow_mitino_-2_+1_369380e3_large_oks"
      },
      "geometry": {
        "type": "LineString",
        "coordinates": [
          [
            37.3748419,
            55.8314668
          ],
          [
            37.3749545,
            55.8314698
          ]
        ]
      }
    },
    {
      "type": "Feature",
      "properties": {
        "id": "moscow_mitino_-2_+1_369380e3_large_oks_osm_way_1285771628_38",
        "object_type": "restriction",
        "restriction_type": "water",
        "name": "",
        "osm_kind": "water",
        "osm_id": 1285771628,
        "osm_type": "way",
        "osm_tags": {
          "waterway": "ditch"
        },
        "case_id": "moscow_mitino_-2_+1_369380e3_large_oks"
      },
      "geometry": {
        "type": "LineString",
        "coordinates": [
          [
            37.3734109,
            55.8313056
          ],
          [
            37.3735826,
            55.831341
          ],
          [
            37.3742585,
            55.8314683
          ],
          [
            37.3743282,
            55.8314743
          ],
          [
            37.3746528,
            55.8314758
          ],
          [
            37.3748419,
            55.8314668
          ]
        ]
      }
    },
    {
      "type": "Feature",
      "properties": {
        "id": "moscow_mitino_-2_+1_369380e3_large_oks_osm_way_1304592302_39",
        "object_type": "restriction",
        "restriction_type": "road",
        "name": "",
        "osm_kind": "road",
        "osm_id": 1304592302,
        "osm_type": "way",
        "osm_tags": {
          "highway": "path"
        },
        "case_id": "moscow_mitino_-2_+1_369380e3_large_oks"
      },
      "geometry": {
        "type": "LineString",
        "coordinates": [
          [
            37.3727613,
            55.8312951
          ],
          [
            37.3726996,
            55.8313468
          ],
          [
            37.3722009,
            55.831765
          ]
        ]
      }
    },
    {
      "type": "Feature",
      "properties": {
        "id": "moscow_mitino_-2_+1_369380e3_large_oks_osm_way_1314452238_40",
        "object_type": "restriction",
        "restriction_type": "road",
        "name": "",
        "osm_kind": "road",
        "osm_id": 1314452238,
        "osm_type": "way",
        "osm_tags": {
          "highway": "service"
        },
        "case_id": "moscow_mitino_-2_+1_369380e3_large_oks"
      },
      "geometry": {
        "type": "LineString",
        "coordinates": [
          [
            37.3721585,
            55.8294451
          ],
          [
            37.3730882,
            55.8296716
          ],
          [
            37.3732004,
            55.8297306
          ],
          [
            37.373866,
            55.8298928
          ]
        ]
      }
    },
    {
      "type": "Feature",
      "properties": {
        "id": "moscow_mitino_-2_+1_369380e3_large_oks_osm_way_1427763006_41",
        "object_type": "restriction",
        "restriction_type": "road",
        "name": "",
        "osm_kind": "road",
        "osm_id": 1427763006,
        "osm_type": "way",
        "osm_tags": {
          "highway": "service"
        },
        "case_id": "moscow_mitino_-2_+1_369380e3_large_oks"
      },
      "geometry": {
        "type": "LineString",
        "coordinates": [
          [
            37.375568,
            55.8307824
          ],
          [
            37.3754226,
            55.830957
          ]
        ]
      }
    },
    {
      "type": "Feature",
      "properties": {
        "id": "moscow_mitino_-2_+1_369380e3_large_oks_osm_way_1427763007_42",
        "object_type": "restriction",
        "restriction_type": "road",
        "name": "",
        "osm_kind": "road",
        "osm_id": 1427763007,
        "osm_type": "way",
        "osm_tags": {
          "highway": "service"
        },
        "case_id": "moscow_mitino_-2_+1_369380e3_large_oks"
      },
      "geometry": {
        "type": "LineString",
        "coordinates": [
          [
            37.3759741,
            55.830889
          ],
          [
            37.3758378,
            55.8310528
          ]
        ]
      }
    },
    {
      "type": "Feature",
      "properties": {
        "id": "moscow_mitino_-2_+1_369380e3_large_oks_source",
        "object_type": "source",
        "case_id": "moscow_mitino_-2_+1_369380e3_large_oks"
      },
      "geometry": {
        "type": "Point",
        "coordinates": [
          37.372521293333335,
          55.8307287
        ]
      }
    },
    {
      "type": "Feature",
      "properties": {
        "id": "moscow_mitino_-2_+1_369380e3_large_oks_existing_network",
        "object_type": "heat_network",
        "diameter": 500,
        "flow_tph": 180.0,
        "upstream_object_id": "moscow_mitino_-2_+1_369380e3_large_oks_source",
        "case_id": "moscow_mitino_-2_+1_369380e3_large_oks"
      },
      "geometry": {
        "type": "LineString",
        "coordinates": [
          [
            37.372521293333335,
            55.8307287
          ],
          [
            37.37364092,
            55.8307287
          ]
        ]
      }
    },
    {
      "type": "Feature",
      "properties": {
        "id": "moscow_mitino_-2_+1_369380e3_large_oks_existing_chamber",
        "object_type": "heat_chamber",
        "diameter": 500,
        "upstream_object_id": "moscow_mitino_-2_+1_369380e3_large_oks_source",
        "case_id": "moscow_mitino_-2_+1_369380e3_large_oks"
      },
      "geometry": {
        "type": "Point",
        "coordinates": [
          37.37364092,
          55.8307287
        ]
      }
    },
    {
      "type": "Feature",
      "properties": {
        "id": "moscow_mitino_-2_+1_369380e3_large_oks_cp_1",
        "object_type": "oks_connection_point",
        "flow_tph": 20.0,
        "case_id": "moscow_mitino_-2_+1_369380e3_large_oks",
        "consumer_role": "osm_building_heat_demand_proxy",
        "source_building_osm_id": 935354281,
        "source_building_osm_type": "way",
        "source_building_name": "",
        "source_building_tags": {
          "building": "yes"
        },
        "footprint_area_m2": 108.07,
        "flow_basis": "synthetic_proxy_from_osm_footprint_area",
        "stress_bucket": "large_oks"
      },
      "geometry": {
        "type": "Point",
        "coordinates": [
          37.37373225,
          55.8301008
        ]
      }
    },
    {
      "type": "Feature",
      "properties": {
        "id": "moscow_mitino_-2_+1_369380e3_large_oks_cp_2",
        "object_type": "oks_connection_point",
        "flow_tph": 20.0,
        "case_id": "moscow_mitino_-2_+1_369380e3_large_oks",
        "consumer_role": "osm_building_heat_demand_proxy",
        "source_building_osm_id": 376003139,
        "source_building_osm_type": "way",
        "source_building_name": "",
        "source_building_tags": {
          "building": "roof"
        },
        "footprint_area_m2": 169.28,
        "flow_basis": "synthetic_proxy_from_osm_footprint_area",
        "stress_bucket": "large_oks"
      },
      "geometry": {
        "type": "Point",
        "coordinates": [
          37.37585910614001,
          55.83077462999717
        ]
      }
    },
    {
      "type": "Feature",
      "properties": {
        "id": "moscow_mitino_-2_+1_369380e3_large_oks_cp_3",
        "object_type": "oks_connection_point",
        "flow_tph": 20.0,
        "case_id": "moscow_mitino_-2_+1_369380e3_large_oks",
        "consumer_role": "osm_building_heat_demand_proxy",
        "source_building_osm_id": 376003137,
        "source_building_osm_type": "way",
        "source_building_name": "",
        "source_building_tags": {
          "building": "yes"
        },
        "footprint_area_m2": 275.55,
        "flow_basis": "synthetic_proxy_from_osm_footprint_area",
        "stress_bucket": "large_oks"
      },
      "geometry": {
        "type": "Point",
        "coordinates": [
          37.37564890220011,
          55.83093572174007
        ]
      }
    },
    {
      "type": "Feature",
      "properties": {
        "id": "moscow_mitino_-2_+1_369380e3_large_oks_cp_4",
        "object_type": "oks_connection_point",
        "flow_tph": 20.0,
        "case_id": "moscow_mitino_-2_+1_369380e3_large_oks",
        "consumer_role": "osm_building_heat_demand_proxy",
        "source_building_osm_id": 712986749,
        "source_building_osm_type": "way",
        "source_building_name": "",
        "source_building_tags": {
          "building": "industrial"
        },
        "footprint_area_m2": 171.32,
        "flow_basis": "synthetic_proxy_from_osm_footprint_area",
        "stress_bucket": "large_oks"
      },
      "geometry": {
        "type": "Point",
        "coordinates": [
          37.3739669,
          55.8311297
        ]
      }
    }
  ]
}