{
  "type": "FeatureCollection",
  "name": "kazan_center_+3_-3_e2386015",
  "crs": {
    "type": "name",
    "properties": {
      "name": "EPSG:4326"
    }
  },
  "metadata": {
    "dataset_version": "osm_building_anchored_routing_scenes_v3",
    "parent_scene_id": "kazan_center_+3_-3_e2386015",
    "split": "validation",
    "city": "Казань",
    "seed": "kazan_center",
    "research_bucket": "shared_pipe",
    "source_research_bucket": "shared_pipe",
    "research_bucket_is_ground_truth": false,
    "bbox_south_west_north_east": [
      55.8176595,
      49.063252,
      55.8203544,
      49.0680489
    ],
    "real_data_source": "OpenStreetMap via Overpass API",
    "source_file": "data/real_geojson_places/shared_pipe/041_kazan_center_+3_-3_e2386015.geojson",
    "real_layers": [
      "restrictions",
      "consumer_building_footprints"
    ],
    "synthetic_layers": [
      "source",
      "heat_network",
      "heat_chamber",
      "heat_demand"
    ],
    "consumer_selection": "deterministic points inside real OSM building footprints",
    "flow_model": "synthetic proxy derived from building footprint area; not metered demand",
    "note": "OSM buildings anchor consumers; heat demand and seed network are synthetic proxies."
  },
  "features": [
    {
      "type": "Feature",
      "properties": {
        "id": "kazan_center_+3_-3_e2386015_osm_way_50344552_1",
        "object_type": "restriction",
        "restriction_type": "road",
        "name": "Повстанческая улица",
        "osm_kind": "road",
        "osm_id": 50344552,
        "osm_type": "way",
        "osm_tags": {
          "highway": "residential",
          "name": "Повстанческая улица"
        },
        "case_id": "kazan_center_+3_-3_e2386015"
      },
      "geometry": {
        "type": "LineString",
        "coordinates": [
          [
            49.0751132,
            55.8177612
          ],
          [
            49.0747774,
            55.8177696
          ],
          [
            49.073274,
            55.8178098
          ],
          [
            49.0707287,
            55.8178314
          ],
          [
            49.0682829,
            55.8178763
          ],
          [
            49.0656663,
            55.8179243
          ]
        ]
      }
    },
    {
      "type": "Feature",
      "properties": {
        "id": "kazan_center_+3_-3_e2386015_osm_way_61424366_2",
        "object_type": "restriction",
        "restriction_type": "road",
        "name": "Полевая улица",
        "osm_kind": "road",
        "osm_id": 61424366,
        "osm_type": "way",
        "osm_tags": {
          "highway": "residential",
          "name": "Полевая улица"
        },
        "case_id": "kazan_center_+3_-3_e2386015"
      },
      "geometry": {
        "type": "LineString",
        "coordinates": [
          [
            49.0649177,
            55.8191015
          ],
          [
            49.0663794,
            55.8186429
          ],
          [
            49.0709688,
            55.8186299
          ]
        ]
      }
    },
    {
      "type": "Feature",
      "properties": {
        "id": "kazan_center_+3_-3_e2386015_osm_way_61424465_3",
        "object_type": "restriction",
        "restriction_type": "road",
        "name": "Одноэтажная улица",
        "osm_kind": "road",
        "osm_id": 61424465,
        "osm_type": "way",
        "osm_tags": {
          "highway": "residential",
          "name": "Одноэтажная улица"
        },
        "case_id": "kazan_center_+3_-3_e2386015"
      },
      "geometry": {
        "type": "LineString",
        "coordinates": [
          [
            49.0674679,
            55.8197446
          ],
          [
            49.0678489,
            55.8197052
          ],
          [
            49.0698539,
            55.8191772
          ]
        ]
      }
    },
    {
      "type": "Feature",
      "properties": {
        "id": "kazan_center_+3_-3_e2386015_osm_way_73833561_4",
        "object_type": "restriction",
        "restriction_type": "oks",
        "name": "",
        "osm_kind": "building",
        "osm_id": 73833561,
        "osm_type": "way",
        "osm_tags": {
          "building": "apartments"
        },
        "case_id": "kazan_center_+3_-3_e2386015"
      },
      "geometry": {
        "type": "Polygon",
        "coordinates": [
          [
            [
              49.0657719,
              55.8183115
            ],
            [
              49.0656545,
              55.8181888
            ],
            [
              49.0652695,
              55.818305
            ],
            [
              49.0649018,
              55.8184161
            ],
            [
              49.0648152,
              55.8184422
            ],
            [
              49.0647082,
              55.8183304
            ],
            [
              49.0645341,
              55.8183829
            ],
            [
              49.0645354,
              55.8183843
            ],
            [
              49.0645775,
              55.8184283
            ],
            [
              49.0645234,
              55.8184446
            ],
            [
              49.0646196,
              55.8185451
            ],
            [
              49.0646443,
              55.8185376
            ],
            [
              49.0647292,
              55.8186263
            ],
            [
              49.0657719,
              55.8183115
            ]
          ]
        ]
      }
    },
    {
      "type": "Feature",
      "properties": {
        "id": "kazan_center_+3_-3_e2386015_osm_way_73833562_5",
        "object_type": "restriction",
        "restriction_type": "oks",
        "name": "",
        "osm_kind": "building",
        "osm_id": 73833562,
        "osm_type": "way",
        "osm_tags": {
          "building": "apartments"
        },
        "case_id": "kazan_center_+3_-3_e2386015"
      },
      "geometry": {
        "type": "Polygon",
        "coordinates": [
          [
            [
              49.0640953,
              55.8192356
            ],
            [
              49.063615,
              55.8186936
            ],
            [
              49.0634375,
              55.8187446
            ],
            [
              49.0634979,
              55.8188127
            ],
            [
              49.0636445,
              55.8189783
            ],
            [
              49.0637571,
              55.8191053
            ],
            [
              49.0638636,
              55.8192256
            ],
            [
              49.0639177,
              55.8192866
            ],
            [
              49.0640953,
              55.8192356
            ]
          ]
        ]
      }
    },
    {
      "type": "Feature",
      "properties": {
        "id": "kazan_center_+3_-3_e2386015_osm_way_73833603_6",
        "object_type": "restriction",
        "restriction_type": "oks",
        "name": "",
        "osm_kind": "building",
        "osm_id": 73833603,
        "osm_type": "way",
        "osm_tags": {
          "building": "apartments"
        },
        "case_id": "kazan_center_+3_-3_e2386015"
      },
      "geometry": {
        "type": "Polygon",
        "coordinates": [
          [
            [
              49.0634683,
              55.8184411
            ],
            [
              49.0629813,
              55.8178939
            ],
            [
              49.0627954,
              55.8179461
            ],
            [
              49.062852,
              55.8180097
            ],
            [
              49.0629773,
              55.8181505
            ],
            [
              49.0631126,
              55.8183025
            ],
            [
              49.0632406,
              55.8184463
            ],
            [
              49.0632824,
              55.8184933
            ],
            [
              49.0634683,
              55.8184411
            ]
          ]
        ]
      }
    },
    {
      "type": "Feature",
      "properties": {
        "id": "kazan_center_+3_-3_e2386015_osm_way_73833651_7",
        "object_type": "restriction",
        "restriction_type": "oks",
        "name": "",
        "osm_kind": "building",
        "osm_id": 73833651,
        "osm_type": "way",
        "osm_tags": {
          "building": "school"
        },
        "case_id": "kazan_center_+3_-3_e2386015"
      },
      "geometry": {
        "type": "Polygon",
        "coordinates": [
          [
            [
              49.062943,
              55.8198842
            ],
            [
              49.0628481,
              55.819781
            ],
            [
              49.0628263,
              55.8197874
            ],
            [
              49.0627833,
              55.8197407
            ],
            [
              49.0628053,
              55.8197343
            ],
            [
              49.0626674,
              55.819584
            ],
            [
              49.0628553,
              55.8195294
            ],
            [
              49.0629916,
              55.8196781
            ],
            [
              49.0630731,
              55.8196543
            ],
            [
              49.0630294,
              55.8196067
            ],
            [
              49.0631117,
              55.8195828
            ],
            [
              49.0631554,
              55.8196304
            ],
            [
              49.0632377,
              55.8196065
            ],
            [
              49.0631006,
              55.819457
            ],
            [
              49.063288,
              55.8194025
            ],
            [
              49.0634261,
              55.8195549
            ],
            [
              49.0634486,
              55.8195484
            ],
            [
              49.0634914,
              55.8195951
            ],
            [
              49.0634686,
              55.8196017
            ],
            [
              49.063561,
              55.8197036
            ],
            [
              49.0635653,
              55.8197024
            ],
            [
              49.0636495,
              55.8197955
            ],
            [
              49.0636678,
              55.8197902
            ],
            [
              49.0636974,
              55.8198229
            ],
            [
              49.0636793,
              55.8198281
            ],
            [
              49.0638555,
              55.8200231
            ],
            [
              49.0638499,
              55.8200246
            ],
            [
              49.0638714,
              55.8200484
            ],
            [
              49.0637603,
              55.8200803
            ],
            [
              49.0637387,
              55.8200565
            ],
            [
              49.0636248,
              55.8200891
            ],
            [
              49.063335,
              55.8197684
            ],
            [
              49.0633762,
              55.8197567
            ],
            [
              49.0632898,
              55.8196623
            ],
            [
              49.063043,
              55.8197339
            ],
            [
              49.0631309,
              55.8198297
            ],
            [
              49.062943,
              55.8198842
            ]
          ]
        ]
      }
    },
    {
      "type": "Feature",
      "properties": {
        "id": "kazan_center_+3_-3_e2386015_osm_way_73833696_8",
        "object_type": "restriction",
        "restriction_type": "oks",
        "name": "",
        "osm_kind": "building",
        "osm_id": 73833696,
        "osm_type": "way",
        "osm_tags": {
          "building": "apartments"
        },
        "case_id": "kazan_center_+3_-3_e2386015"
      },
      "geometry": {
        "type": "Polygon",
        "coordinates": [
          [
            [
              49.0653412,
              55.820551
            ],
            [
              49.0647912,
              55.8199546
            ],
            [
              49.0645879,
              55.8200138
            ],
            [
              49.0646337,
              55.8200635
            ],
            [
              49.0647929,
              55.8202361
            ],
            [
              49.0649396,
              55.8203951
            ],
            [
              49.0650805,
              55.8205479
            ],
            [
              49.0651378,
              55.8206101
            ],
            [
              49.0653412,
              55.820551
            ]
          ]
        ]
      }
    },
    {
      "type": "Feature",
      "properties": {
        "id": "kazan_center_+3_-3_e2386015_osm_way_73833704_9",
        "object_type": "restriction",
        "restriction_type": "oks",
        "name": "Ягодная Слобода",
        "osm_kind": "building",
        "osm_id": 73833704,
        "osm_type": "way",
        "osm_tags": {
          "building": "retail",
          "name": "Ягодная Слобода"
        },
        "case_id": "kazan_center_+3_-3_e2386015"
      },
      "geometry": {
        "type": "Polygon",
        "coordinates": [
          [
            [
              49.0641399,
              55.8182705
            ],
            [
              49.0644267,
              55.8181813
            ],
            [
              49.0642353,
              55.817987
            ],
            [
              49.0647636,
              55.8178227
            ],
            [
              49.0646188,
              55.8176757
            ],
            [
              49.0645343,
              55.8175899
            ],
            [
              49.0637793,
              55.8178246
            ],
            [
              49.0638003,
              55.8178459
            ],
            [
              49.0637401,
              55.8178646
            ],
            [
              49.0641399,
              55.8182705
            ]
          ]
        ]
      }
    },
    {
      "type": "Feature",
      "properties": {
        "id": "kazan_center_+3_-3_e2386015_osm_way_73833706_10",
        "object_type": "restriction",
        "restriction_type": "road",
        "name": "",
        "osm_kind": "road",
        "osm_id": 73833706,
        "osm_type": "way",
        "osm_tags": {
          "highway": "service"
        },
        "case_id": "kazan_center_+3_-3_e2386015"
      },
      "geometry": {
        "type": "LineString",
        "coordinates": [
          [
            49.0631368,
            55.8177418
          ],
          [
            49.0633094,
            55.8176817
          ],
          [
            49.0633536,
            55.8176664
          ],
          [
            49.0633424,
            55.8175233
          ],
          [
            49.0638026,
            55.817372
          ],
          [
            49.0647248,
            55.8170688
          ]
        ]
      }
    },
    {
      "type": "Feature",
      "properties": {
        "id": "kazan_center_+3_-3_e2386015_osm_way_173008273_11",
        "object_type": "restriction",
        "restriction_type": "road",
        "name": "",
        "osm_kind": "road",
        "osm_id": 173008273,
        "osm_type": "way",
        "osm_tags": {
          "highway": "service"
        },
        "case_id": "kazan_center_+3_-3_e2386015"
      },
      "geometry": {
        "type": "LineString",
        "coordinates": [
          [
            49.0644026,
            55.8199801
          ],
          [
            49.0648182,
            55.8198739
          ],
          [
            49.0650348,
            55.8198161
          ]
        ]
      }
    },
    {
      "type": "Feature",
      "properties": {
        "id": "kazan_center_+3_-3_e2386015_osm_way_173008275_12",
        "object_type": "restriction",
        "restriction_type": "road",
        "name": "",
        "osm_kind": "road",
        "osm_id": 173008275,
        "osm_type": "way",
        "osm_tags": {
          "highway": "service"
        },
        "case_id": "kazan_center_+3_-3_e2386015"
      },
      "geometry": {
        "type": "LineString",
        "coordinates": [
          [
            49.0633445,
            55.8187471
          ],
          [
            49.0631742,
            55.8190283
          ],
          [
            49.0610449,
            55.8196439
          ],
          [
            49.0607712,
            55.81939
          ]
        ]
      }
    },
    {
      "type": "Feature",
      "properties": {
        "id": "kazan_center_+3_-3_e2386015_osm_way_173008289_13",
        "object_type": "restriction",
        "restriction_type": "road",
        "name": "",
        "osm_kind": "road",
        "osm_id": 173008289,
        "osm_type": "way",
        "osm_tags": {
          "highway": "service"
        },
        "case_id": "kazan_center_+3_-3_e2386015"
      },
      "geometry": {
        "type": "LineString",
        "coordinates": [
          [
            49.0632505,
            55.8186433
          ],
          [
            49.0633445,
            55.8187471
          ],
          [
            49.0644026,
            55.8199801
          ],
          [
            49.0648138,
            55.8204287
          ],
          [
            49.0649888,
            55.8206156
          ],
          [
            49.0656214,
            55.8212911
          ],
          [
            49.0656717,
            55.821339
          ],
          [
            49.0657393,
            55.821407
          ]
        ]
      }
    },
    {
      "type": "Feature",
      "properties": {
        "id": "kazan_center_+3_-3_e2386015_osm_way_183121772_14",
        "object_type": "restriction",
        "restriction_type": "road",
        "name": "Повстанческая улица",
        "osm_kind": "road",
        "osm_id": 183121772,
        "osm_type": "way",
        "osm_tags": {
          "highway": "residential",
          "name": "Повстанческая улица"
        },
        "case_id": "kazan_center_+3_-3_e2386015"
      },
      "geometry": {
        "type": "LineString",
        "coordinates": [
          [
            49.0638046,
            55.8184771
          ],
          [
            49.0636676,
            55.8185174
          ],
          [
            49.0633232,
            55.8186196
          ],
          [
            49.0632505,
            55.8186433
          ],
          [
            49.0625133,
            55.8188636
          ],
          [
            49.0608276,
            55.819373
          ],
          [
            49.0607712,
            55.81939
          ],
          [
            49.0606505,
            55.8194265
          ],
          [
            49.0602431,
            55.8195496
          ],
          [
            49.0601469,
            55.8195787
          ],
          [
            49.0597959,
            55.8196969
          ],
          [
            49.0596756,
            55.8197375
          ]
        ]
      }
    },
    {
      "type": "Feature",
      "properties": {
        "id": "kazan_center_+3_-3_e2386015_osm_way_183247881_15",
        "object_type": "restriction",
        "restriction_type": "oks",
        "name": "",
        "osm_kind": "building",
        "osm_id": 183247881,
        "osm_type": "way",
        "osm_tags": {
          "building": "apartments"
        },
        "case_id": "kazan_center_+3_-3_e2386015"
      },
      "geometry": {
        "type": "Polygon",
        "coordinates": [
          [
            [
              49.0639177,
              55.8192866
            ],
            [
              49.0639709,
              55.8193451
            ],
            [
              49.0641149,
              55.8195412
            ],
            [
              49.0642787,
              55.8197213
            ],
            [
              49.0644048,
              55.8198599
            ],
            [
              49.0644635,
              55.8199244
            ],
            [
              49.0646411,
              55.8198734
            ],
            [
              49.0640953,
              55.8192356
            ],
            [
              49.0639177,
              55.8192866
            ]
          ]
        ]
      }
    },
    {
      "type": "Feature",
      "properties": {
        "id": "kazan_center_+3_-3_e2386015_osm_way_189631235_16",
        "object_type": "restriction",
        "restriction_type": "road",
        "name": "улица Галимджана Баруди",
        "osm_kind": "road",
        "osm_id": 189631235,
        "osm_type": "way",
        "osm_tags": {
          "highway": "tertiary",
          "name": "улица Галимджана Баруди"
        },
        "case_id": "kazan_center_+3_-3_e2386015"
      },
      "geometry": {
        "type": "LineString",
        "coordinates": [
          [
            49.0631368,
            55.8177418
          ],
          [
            49.0636377,
            55.8182887
          ],
          [
            49.0636882,
            55.8183467
          ],
          [
            49.0637492,
            55.818415
          ],
          [
            49.0638046,
            55.8184771
          ],
          [
            49.0638567,
            55.8185316
          ],
          [
            49.0639265,
            55.8186048
          ],
          [
            49.0648695,
            55.8196336
          ],
          [
            49.0649712,
            55.8197446
          ],
          [
            49.0650348,
            55.8198161
          ],
          [
            49.0651075,
            55.8198937
          ],
          [
            49.0652626,
            55.8200594
          ],
          [
            49.065505,
            55.8203174
          ]
        ]
      }
    },
    {
      "type": "Feature",
      "properties": {
        "id": "kazan_center_+3_-3_e2386015_osm_way_201369346_17",
        "object_type": "restriction",
        "restriction_type": "oks",
        "name": "",
        "osm_kind": "building",
        "osm_id": 201369346,
        "osm_type": "way",
        "osm_tags": {
          "building": "detached"
        },
        "case_id": "kazan_center_+3_-3_e2386015",
        "selected_as_heat_demand_proxy": true,
        "connection_point_id": "kazan_center_+3_-3_e2386015_cp_3"
      },
      "geometry": {
        "type": "Polygon",
        "coordinates": [
          [
            [
              49.0671848,
              55.8191013
            ],
            [
              49.0672542,
              55.8191738
            ],
            [
              49.0671326,
              55.8192105
            ],
            [
              49.0670632,
              55.819138
            ],
            [
              49.0671848,
              55.8191013
            ]
          ]
        ]
      }
    },
    {
      "type": "Feature",
      "properties": {
        "id": "kazan_center_+3_-3_e2386015_osm_way_201369365_18",
        "object_type": "restriction",
        "restriction_type": "oks",
        "name": "",
        "osm_kind": "building",
        "osm_id": 201369365,
        "osm_type": "way",
        "osm_tags": {
          "building": "detached"
        },
        "case_id": "kazan_center_+3_-3_e2386015",
        "selected_as_heat_demand_proxy": true,
        "connection_point_id": "kazan_center_+3_-3_e2386015_cp_4"
      },
      "geometry": {
        "type": "Polygon",
        "coordinates": [
          [
            [
              49.0672906,
              55.8192321
            ],
            [
              49.0673601,
              55.8193046
            ],
            [
              49.0672385,
              55.8193413
            ],
            [
              49.0671691,
              55.8192688
            ],
            [
              49.0672906,
              55.8192321
            ]
          ]
        ]
      }
    },
    {
      "type": "Feature",
      "properties": {
        "id": "kazan_center_+3_-3_e2386015_osm_way_201369384_19",
        "object_type": "restriction",
        "restriction_type": "oks",
        "name": "",
        "osm_kind": "building",
        "osm_id": 201369384,
        "osm_type": "way",
        "osm_tags": {
          "building": "detached"
        },
        "case_id": "kazan_center_+3_-3_e2386015",
        "selected_as_heat_demand_proxy": true,
        "connection_point_id": "kazan_center_+3_-3_e2386015_cp_5"
      },
      "geometry": {
        "type": "Polygon",
        "coordinates": [
          [
            [
              49.067467,
              55.8193827
            ],
            [
              49.0675364,
              55.8194553
            ],
            [
              49.0674149,
              55.819492
            ],
            [
              49.0673454,
              55.8194194
            ],
            [
              49.067467,
              55.8193827
            ]
          ]
        ]
      }
    },
    {
      "type": "Feature",
      "properties": {
        "id": "kazan_center_+3_-3_e2386015_osm_way_201369403_20",
        "object_type": "restriction",
        "restriction_type": "oks",
        "name": "",
        "osm_kind": "building",
        "osm_id": 201369403,
        "osm_type": "way",
        "osm_tags": {
          "building": "detached"
        },
        "case_id": "kazan_center_+3_-3_e2386015"
      },
      "geometry": {
        "type": "Polygon",
        "coordinates": [
          [
            [
              49.0676882,
              55.8195621
            ],
            [
              49.0677576,
              55.8196347
            ],
            [
              49.067636,
              55.8196714
            ],
            [
              49.0675666,
              55.8195989
            ],
            [
              49.0676882,
              55.8195621
            ]
          ]
        ]
      }
    },
    {
      "type": "Feature",
      "properties": {
        "id": "kazan_center_+3_-3_e2386015_osm_way_201369464_21",
        "object_type": "restriction",
        "restriction_type": "oks",
        "name": "",
        "osm_kind": "building",
        "osm_id": 201369464,
        "osm_type": "way",
        "osm_tags": {
          "building": "detached"
        },
        "case_id": "kazan_center_+3_-3_e2386015"
      },
      "geometry": {
        "type": "Polygon",
        "coordinates": [
          [
            [
              49.067353,
              55.8178241
            ],
            [
              49.0673476,
              55.81773
            ],
            [
              49.0675451,
              55.8177264
            ],
            [
              49.0675505,
              55.8178205
            ],
            [
              49.067353,
              55.8178241
            ]
          ]
        ]
      }
    },
    {
      "type": "Feature",
      "properties": {
        "id": "kazan_center_+3_-3_e2386015_osm_way_201369519_22",
        "object_type": "restriction",
        "restriction_type": "oks",
        "name": "",
        "osm_kind": "building",
        "osm_id": 201369519,
        "osm_type": "way",
        "osm_tags": {
          "building": "detached"
        },
        "case_id": "kazan_center_+3_-3_e2386015"
      },
      "geometry": {
        "type": "Polygon",
        "coordinates": [
          [
            [
              49.0675024,
              55.8180952
            ],
            [
              49.0674969,
              55.8180011
            ],
            [
              49.0676944,
              55.8179975
            ],
            [
              49.0676999,
              55.8180916
            ],
            [
              49.0675024,
              55.8180952
            ]
          ]
        ]
      }
    },
    {
      "type": "Feature",
      "properties": {
        "id": "kazan_center_+3_-3_e2386015_osm_way_201369578_23",
        "object_type": "restriction",
        "restriction_type": "oks",
        "name": "",
        "osm_kind": "building",
        "osm_id": 201369578,
        "osm_type": "way",
        "osm_tags": {
          "building": "detached"
        },
        "case_id": "kazan_center_+3_-3_e2386015"
      },
      "geometry": {
        "type": "Polygon",
        "coordinates": [
          [
            [
              49.0681221,
              55.8197519
            ],
            [
              49.0681915,
              55.8198245
            ],
            [
              49.0680699,
              55.8198612
            ],
            [
              49.0680005,
              55.8197886
            ],
            [
              49.0681221,
              55.8197519
            ]
          ]
        ]
      }
    },
    {
      "type": "Feature",
      "properties": {
        "id": "kazan_center_+3_-3_e2386015_osm_way_201369585_24",
        "object_type": "restriction",
        "restriction_type": "oks",
        "name": "",
        "osm_kind": "building",
        "osm_id": 201369585,
        "osm_type": "way",
        "osm_tags": {
          "building": "detached"
        },
        "case_id": "kazan_center_+3_-3_e2386015"
      },
      "geometry": {
        "type": "Polygon",
        "coordinates": [
          [
            [
              49.0681009,
              55.8194427
            ],
            [
              49.0681703,
              55.8195153
            ],
            [
              49.0680487,
              55.819552
            ],
            [
              49.0679793,
              55.8194795
            ],
            [
              49.0681009,
              55.8194427
            ]
          ]
        ]
      }
    },
    {
      "type": "Feature",
      "properties": {
        "id": "kazan_center_+3_-3_e2386015_osm_way_201369652_25",
        "object_type": "restriction",
        "restriction_type": "oks",
        "name": "",
        "osm_kind": "building",
        "osm_id": 201369652,
        "osm_type": "way",
        "osm_tags": {
          "building": "civic"
        },
        "case_id": "kazan_center_+3_-3_e2386015"
      },
      "geometry": {
        "type": "Polygon",
        "coordinates": [
          [
            [
              49.0649497,
              55.8189964
            ],
            [
              49.0649125,
              55.8189572
            ],
            [
              49.0649181,
              55.8189555
            ],
            [
              49.0648783,
              55.8189134
            ],
            [
              49.0648726,
              55.8189151
            ],
            [
              49.0648033,
              55.8188419
            ],
            [
              49.064809,
              55.8188402
            ],
            [
              49.0647691,
              55.8187982
            ],
            [
              49.0647635,
              55.8187999
            ],
            [
              49.0647253,
              55.8187595
            ],
            [
              49.064825,
              55.8187306
            ],
            [
              49.0649952,
              55.8186811
            ],
            [
              49.0652165,
              55.8189167
            ],
            [
              49.0649497,
              55.8189964
            ]
          ]
        ]
      }
    },
    {
      "type": "Feature",
      "properties": {
        "id": "kazan_center_+3_-3_e2386015_osm_way_201369659_26",
        "object_type": "restriction",
        "restriction_type": "oks",
        "name": "",
        "osm_kind": "building",
        "osm_id": 201369659,
        "osm_type": "way",
        "osm_tags": {
          "building": "detached"
        },
        "case_id": "kazan_center_+3_-3_e2386015"
      },
      "geometry": {
        "type": "Polygon",
        "coordinates": [
          [
            [
              49.0653917,
              55.818761
            ],
            [
              49.0654611,
              55.8188335
            ],
            [
              49.0653395,
              55.8188703
            ],
            [
              49.0652701,
              55.8187977
            ],
            [
              49.0653917,
              55.818761
            ]
          ]
        ]
      }
    },
    {
      "type": "Feature",
      "properties": {
        "id": "kazan_center_+3_-3_e2386015_osm_way_201369663_27",
        "object_type": "restriction",
        "restriction_type": "oks",
        "name": "",
        "osm_kind": "building",
        "osm_id": 201369663,
        "osm_type": "way",
        "osm_tags": {
          "building": "detached"
        },
        "case_id": "kazan_center_+3_-3_e2386015"
      },
      "geometry": {
        "type": "Polygon",
        "coordinates": [
          [
            [
              49.0656527,
              55.8186976
            ],
            [
              49.0657221,
              55.8187701
            ],
            [
              49.0656006,
              55.8188068
            ],
            [
              49.0655311,
              55.8187343
            ],
            [
              49.0656527,
              55.8186976
            ]
          ]
        ]
      }
    },
    {
      "type": "Feature",
      "properties": {
        "id": "kazan_center_+3_-3_e2386015_osm_way_201369670_28",
        "object_type": "restriction",
        "restriction_type": "oks",
        "name": "",
        "osm_kind": "building",
        "osm_id": 201369670,
        "osm_type": "way",
        "osm_tags": {
          "building": "detached"
        },
        "case_id": "kazan_center_+3_-3_e2386015"
      },
      "geometry": {
        "type": "Polygon",
        "coordinates": [
          [
            [
              49.0660266,
              55.8185866
            ],
            [
              49.0660961,
              55.8186591
            ],
            [
              49.0659745,
              55.8186959
            ],
            [
              49.0659051,
              55.8186233
            ],
            [
              49.0660266,
              55.8185866
            ]
          ]
        ]
      }
    },
    {
      "type": "Feature",
      "properties": {
        "id": "kazan_center_+3_-3_e2386015_osm_way_201369676_29",
        "object_type": "restriction",
        "restriction_type": "oks",
        "name": "",
        "osm_kind": "building",
        "osm_id": 201369676,
        "osm_type": "way",
        "osm_tags": {
          "building": "detached"
        },
        "case_id": "kazan_center_+3_-3_e2386015"
      },
      "geometry": {
        "type": "Polygon",
        "coordinates": [
          [
            [
              49.0664083,
              55.8185363
            ],
            [
              49.0664028,
              55.8184422
            ],
            [
              49.0666003,
              55.8184386
            ],
            [
              49.0666058,
              55.8185327
            ],
            [
              49.0664083,
              55.8185363
            ]
          ]
        ]
      }
    },
    {
      "type": "Feature",
      "properties": {
        "id": "kazan_center_+3_-3_e2386015_osm_way_201369679_30",
        "object_type": "restriction",
        "restriction_type": "oks",
        "name": "",
        "osm_kind": "building",
        "osm_id": 201369679,
        "osm_type": "way",
        "osm_tags": {
          "building": "detached"
        },
        "case_id": "kazan_center_+3_-3_e2386015"
      },
      "geometry": {
        "type": "Polygon",
        "coordinates": [
          [
            [
              49.0661889,
              55.8188323
            ],
            [
              49.0662583,
              55.8189049
            ],
            [
              49.0661368,
              55.8189416
            ],
            [
              49.0660673,
              55.818869
            ],
            [
              49.0661889,
              55.8188323
            ]
          ]
        ]
      }
    },
    {
      "type": "Feature",
      "properties": {
        "id": "kazan_center_+3_-3_e2386015_osm_way_201369681_31",
        "object_type": "restriction",
        "restriction_type": "oks",
        "name": "",
        "osm_kind": "building",
        "osm_id": 201369681,
        "osm_type": "way",
        "osm_tags": {
          "building": "detached"
        },
        "case_id": "kazan_center_+3_-3_e2386015",
        "selected_as_heat_demand_proxy": true,
        "connection_point_id": "kazan_center_+3_-3_e2386015_cp_2"
      },
      "geometry": {
        "type": "Polygon",
        "coordinates": [
          [
            [
              49.0670367,
              55.8189427
            ],
            [
              49.0671061,
              55.8190153
            ],
            [
              49.0669845,
              55.819052
            ],
            [
              49.0669151,
              55.8189794
            ],
            [
              49.0670367,
              55.8189427
            ]
          ]
        ]
      }
    },
    {
      "type": "Feature",
      "properties": {
        "id": "kazan_center_+3_-3_e2386015_osm_way_201369690_32",
        "object_type": "restriction",
        "restriction_type": "oks",
        "name": "",
        "osm_kind": "building",
        "osm_id": 201369690,
        "osm_type": "way",
        "osm_tags": {
          "building": "detached"
        },
        "case_id": "kazan_center_+3_-3_e2386015",
        "selected_as_heat_demand_proxy": true,
        "connection_point_id": "kazan_center_+3_-3_e2386015_cp_1"
      },
      "geometry": {
        "type": "Polygon",
        "coordinates": [
          [
            [
              49.0667807,
              55.8188262
            ],
            [
              49.0667753,
              55.8187321
            ],
            [
              49.0669728,
              55.8187285
            ],
            [
              49.0669782,
              55.8188226
            ],
            [
              49.0667807,
              55.8188262
            ]
          ]
        ]
      }
    },
    {
      "type": "Feature",
      "properties": {
        "id": "kazan_center_+3_-3_e2386015_osm_way_201369693_33",
        "object_type": "restriction",
        "restriction_type": "oks",
        "name": "",
        "osm_kind": "building",
        "osm_id": 201369693,
        "osm_type": "way",
        "osm_tags": {
          "building": "detached"
        },
        "case_id": "kazan_center_+3_-3_e2386015",
        "selected_as_heat_demand_proxy": true,
        "connection_point_id": "kazan_center_+3_-3_e2386015_cp_6"
      },
      "geometry": {
        "type": "Polygon",
        "coordinates": [
          [
            [
              49.0674043,
              55.8188262
            ],
            [
              49.0673989,
              55.8187321
            ],
            [
              49.0675964,
              55.8187285
            ],
            [
              49.0676018,
              55.8188226
            ],
            [
              49.0674043,
              55.8188262
            ]
          ]
        ]
      }
    },
    {
      "type": "Feature",
      "properties": {
        "id": "kazan_center_+3_-3_e2386015_osm_way_201369695_34",
        "object_type": "restriction",
        "restriction_type": "oks",
        "name": "",
        "osm_kind": "building",
        "osm_id": 201369695,
        "osm_type": "way",
        "osm_tags": {
          "building": "detached"
        },
        "case_id": "kazan_center_+3_-3_e2386015"
      },
      "geometry": {
        "type": "Polygon",
        "coordinates": [
          [
            [
              49.0676737,
              55.8188262
            ],
            [
              49.0676683,
              55.8187321
            ],
            [
              49.0678658,
              55.8187285
            ],
            [
              49.0678712,
              55.8188226
            ],
            [
              49.0676737,
              55.8188262
            ]
          ]
        ]
      }
    },
    {
      "type": "Feature",
      "properties": {
        "id": "kazan_center_+3_-3_e2386015_osm_way_201369698_35",
        "object_type": "restriction",
        "restriction_type": "oks",
        "name": "",
        "osm_kind": "building",
        "osm_id": 201369698,
        "osm_type": "way",
        "osm_tags": {
          "building": "detached"
        },
        "case_id": "kazan_center_+3_-3_e2386015"
      },
      "geometry": {
        "type": "Polygon",
        "coordinates": [
          [
            [
              49.0676509,
              55.8184661
            ],
            [
              49.0676638,
              55.8184655
            ],
            [
              49.0676522,
              55.8183786
            ],
            [
              49.0677374,
              55.8183751
            ],
            [
              49.0677433,
              55.8184203
            ],
            [
              49.0677966,
              55.8184181
            ],
            [
              49.0678055,
              55.8184843
            ],
            [
              49.0678027,
              55.8184844
            ],
            [
              49.0678053,
              55.8185037
            ],
            [
              49.0676633,
              55.8185096
            ],
            [
              49.0676608,
              55.8184904
            ],
            [
              49.0676541,
              55.8184907
            ],
            [
              49.0676509,
              55.8184661
            ]
          ]
        ]
      }
    },
    {
      "type": "Feature",
      "properties": {
        "id": "kazan_center_+3_-3_e2386015_osm_way_201369700_36",
        "object_type": "restriction",
        "restriction_type": "oks",
        "name": "",
        "osm_kind": "building",
        "osm_id": 201369700,
        "osm_type": "way",
        "osm_tags": {
          "building": "detached"
        },
        "case_id": "kazan_center_+3_-3_e2386015"
      },
      "geometry": {
        "type": "Polygon",
        "coordinates": [
          [
            [
              49.0679681,
              55.818801
            ],
            [
              49.0679626,
              55.8187069
            ],
            [
              49.0681601,
              55.8187032
            ],
            [
              49.0681656,
              55.8187973
            ],
            [
              49.0679681,
              55.818801
            ]
          ]
        ]
      }
    },
    {
      "type": "Feature",
      "properties": {
        "id": "kazan_center_+3_-3_e2386015_osm_way_201369704_37",
        "object_type": "restriction",
        "restriction_type": "oks",
        "name": "",
        "osm_kind": "building",
        "osm_id": 201369704,
        "osm_type": "way",
        "osm_tags": {
          "building": "detached"
        },
        "case_id": "kazan_center_+3_-3_e2386015"
      },
      "geometry": {
        "type": "Polygon",
        "coordinates": [
          [
            [
              49.0679282,
              55.8185627
            ],
            [
              49.0679227,
              55.8184686
            ],
            [
              49.0681202,
              55.818465
            ],
            [
              49.0681257,
              55.8185591
            ],
            [
              49.0679282,
              55.8185627
            ]
          ]
        ]
      }
    },
    {
      "type": "Feature",
      "properties": {
        "id": "kazan_center_+3_-3_e2386015_osm_way_211225864_38",
        "object_type": "restriction",
        "restriction_type": "road",
        "name": "Низовая улица",
        "osm_kind": "road",
        "osm_id": 211225864,
        "osm_type": "way",
        "osm_tags": {
          "highway": "residential",
          "name": "Низовая улица"
        },
        "case_id": "kazan_center_+3_-3_e2386015"
      },
      "geometry": {
        "type": "LineString",
        "coordinates": [
          [
            49.0660351,
            55.8182853
          ],
          [
            49.0657751,
            55.818034
          ],
          [
            49.0657431,
            55.8180017
          ],
          [
            49.065724,
            55.8179825
          ],
          [
            49.0656663,
            55.8179243
          ],
          [
            49.0656339,
            55.8178898
          ],
          [
            49.0652304,
            55.8174612
          ],
          [
            49.0651008,
            55.8173555
          ],
          [
            49.0648438,
            55.8171303
          ],
          [
            49.0647248,
            55.8170688
          ],
          [
            49.0647033,
            55.8170577
          ],
          [
            49.0646211,
            55.8170153
          ],
          [
            49.0645461,
            55.816942
          ]
        ]
      }
    },
    {
      "type": "Feature",
      "properties": {
        "id": "kazan_center_+3_-3_e2386015_osm_way_225017625_39",
        "object_type": "restriction",
        "restriction_type": "road",
        "name": "",
        "osm_kind": "road",
        "osm_id": 225017625,
        "osm_type": "way",
        "osm_tags": {
          "highway": "footway"
        },
        "case_id": "kazan_center_+3_-3_e2386015"
      },
      "geometry": {
        "type": "LineString",
        "coordinates": [
          [
            49.0714647,
            55.8274236
          ],
          [
            49.07102,
            55.8269599
          ],
          [
            49.0708337,
            55.8268199
          ],
          [
            49.0701148,
            55.8259483
          ],
          [
            49.0698503,
            55.8256269
          ],
          [
            49.0698161,
            55.8255853
          ],
          [
            49.0698056,
            55.8255778
          ],
          [
            49.0696837,
            55.8254735
          ],
          [
            49.0693967,
            55.8250913
          ],
          [
            49.0693382,
            55.825064
          ],
          [
            49.0692839,
            55.825061
          ],
          [
            49.069228,
            55.824996
          ],
          [
            49.0691417,
            55.824898
          ],
          [
            49.0691004,
            55.8247476
          ],
          [
            49.0675987,
            55.8230747
          ],
          [
            49.0673385,
            55.8227508
          ],
          [
            49.0673161,
            55.8227248
          ],
          [
            49.0663823,
            55.8216975
          ],
          [
            49.0660208,
            55.8217712
          ],
          [
            49.0659515,
            55.82171
          ],
          [
            49.0659879,
            55.8214013
          ],
          [
            49.0659681,
            55.821361
          ],
          [
            49.0659476,
            55.8213284
          ],
          [
            49.0660122,
            55.821204
          ],
          [
            49.064875,
            55.8199625
          ],
          [
            49.0648182,
            55.8198739
          ],
          [
            49.0636676,
            55.8185174
          ],
          [
            49.063648,
            55.8184953
          ],
          [
            49.0635503,
            55.8183851
          ],
          [
            49.0630745,
            55.8178486
          ],
          [
            49.0630018,
            55.8177791
          ],
          [
            49.0629014,
            55.8176831
          ],
          [
            49.0628546,
            55.8176642
          ],
          [
            49.0627688,
            55.8176295
          ],
          [
            49.0626165,
            55.8176394
          ]
        ]
      }
    },
    {
      "type": "Feature",
      "properties": {
        "id": "kazan_center_+3_-3_e2386015_osm_way_295741189_40",
        "object_type": "restriction",
        "restriction_type": "oks",
        "name": "Московский",
        "osm_kind": "building",
        "osm_id": 295741189,
        "osm_type": "way",
        "osm_tags": {
          "building": "retail",
          "name": "Московский"
        },
        "case_id": "kazan_center_+3_-3_e2386015"
      },
      "geometry": {
        "type": "Polygon",
        "coordinates": [
          [
            [
              49.0658867,
              55.8201975
            ],
            [
              49.0654352,
              55.8197029
            ],
            [
              49.0657707,
              55.8196178
            ],
            [
              49.0658766,
              55.819738
            ],
            [
              49.0665441,
              55.8198022
            ],
            [
              49.0670097,
              55.819673
            ],
            [
              49.0671723,
              55.8198424
            ],
            [
              49.0658867,
              55.8201975
            ]
          ]
        ]
      }
    },
    {
      "type": "Feature",
      "properties": {
        "id": "kazan_center_+3_-3_e2386015_osm_way_304713226_41",
        "object_type": "restriction",
        "restriction_type": "road",
        "name": "",
        "osm_kind": "road",
        "osm_id": 304713226,
        "osm_type": "way",
        "osm_tags": {
          "highway": "service"
        },
        "case_id": "kazan_center_+3_-3_e2386015"
      },
      "geometry": {
        "type": "LineString",
        "coordinates": [
          [
            49.0633232,
            55.8186196
          ],
          [
            49.0633039,
            55.8185991
          ],
          [
            49.063202,
            55.8184908
          ],
          [
            49.062878,
            55.8181464
          ],
          [
            49.0627459,
            55.8180059
          ]
        ]
      }
    },
    {
      "type": "Feature",
      "properties": {
        "id": "kazan_center_+3_-3_e2386015_osm_way_370329392_42",
        "object_type": "restriction",
        "restriction_type": "oks",
        "name": "",
        "osm_kind": "building",
        "osm_id": 370329392,
        "osm_type": "way",
        "osm_tags": {
          "building": "apartments"
        },
        "case_id": "kazan_center_+3_-3_e2386015"
      },
      "geometry": {
        "type": "Polygon",
        "coordinates": [
          [
            [
              49.0647552,
              55.8176332
            ],
            [
              49.0650089,
              55.8175552
            ],
            [
              49.065477,
              55.818036
            ],
            [
              49.0652233,
              55.8181139
            ],
            [
              49.0651523,
              55.818041
            ],
            [
              49.0648776,
              55.8177589
            ],
            [
              49.0647552,
              55.8176332
            ]
          ]
        ]
      }
    },
    {
      "type": "Feature",
      "properties": {
        "id": "kazan_center_+3_-3_e2386015_osm_way_396039906_43",
        "object_type": "restriction",
        "restriction_type": "road",
        "name": "",
        "osm_kind": "road",
        "osm_id": 396039906,
        "osm_type": "way",
        "osm_tags": {
          "highway": "service"
        },
        "case_id": "kazan_center_+3_-3_e2386015"
      },
      "geometry": {
        "type": "LineString",
        "coordinates": [
          [
            49.0652341,
            55.819677
          ],
          [
            49.0658131,
            55.8195168
          ],
          [
            49.0666358,
            55.8192564
          ],
          [
            49.0669514,
            55.8196023
          ]
        ]
      }
    },
    {
      "type": "Feature",
      "properties": {
        "id": "kazan_center_+3_-3_e2386015_osm_way_396039908_44",
        "object_type": "restriction",
        "restriction_type": "road",
        "name": "",
        "osm_kind": "road",
        "osm_id": 396039908,
        "osm_type": "way",
        "osm_tags": {
          "highway": "service"
        },
        "case_id": "kazan_center_+3_-3_e2386015"
      },
      "geometry": {
        "type": "LineString",
        "coordinates": [
          [
            49.0658131,
            55.8195168
          ],
          [
            49.0659845,
            55.8196502
          ],
          [
            49.0665813,
            55.8196955
          ],
          [
            49.0669514,
            55.8196023
          ]
        ]
      }
    },
    {
      "type": "Feature",
      "properties": {
        "id": "kazan_center_+3_-3_e2386015_osm_way_396039910_45",
        "object_type": "restriction",
        "restriction_type": "road",
        "name": "",
        "osm_kind": "road",
        "osm_id": 396039910,
        "osm_type": "way",
        "osm_tags": {
          "highway": "service"
        },
        "case_id": "kazan_center_+3_-3_e2386015"
      },
      "geometry": {
        "type": "LineString",
        "coordinates": [
          [
            49.0652341,
            55.819677
          ],
          [
            49.0657251,
            55.8202262
          ],
          [
            49.0656925,
            55.8202397
          ],
          [
            49.065505,
            55.8203174
          ]
        ]
      }
    },
    {
      "type": "Feature",
      "properties": {
        "id": "kazan_center_+3_-3_e2386015_osm_way_399676715_46",
        "object_type": "restriction",
        "restriction_type": "road",
        "name": "улица Галимджана Баруди",
        "osm_kind": "road",
        "osm_id": 399676715,
        "osm_type": "way",
        "osm_tags": {
          "highway": "tertiary",
          "name": "улица Галимджана Баруди"
        },
        "case_id": "kazan_center_+3_-3_e2386015"
      },
      "geometry": {
        "type": "LineString",
        "coordinates": [
          [
            49.065505,
            55.8203174
          ],
          [
            49.0655911,
            55.8204118
          ],
          [
            49.0658074,
            55.8206491
          ],
          [
            49.0659257,
            55.8207789
          ]
        ]
      }
    },
    {
      "type": "Feature",
      "properties": {
        "id": "kazan_center_+3_-3_e2386015_osm_way_402132672_47",
        "object_type": "restriction",
        "restriction_type": "road",
        "name": "",
        "osm_kind": "road",
        "osm_id": 402132672,
        "osm_type": "way",
        "osm_tags": {
          "highway": "service"
        },
        "case_id": "kazan_center_+3_-3_e2386015"
      },
      "geometry": {
        "type": "LineString",
        "coordinates": [
          [
            49.0647033,
            55.8170577
          ],
          [
            49.0651981,
            55.8168902
          ],
          [
            49.0652433,
            55.8168742
          ],
          [
            49.0657018,
            55.8167117
          ],
          [
            49.0667251,
            55.816388
          ],
          [
            49.0671299,
            55.8167596
          ],
          [
            49.0672794,
            55.816913
          ],
          [
            49.0675014,
            55.817141
          ],
          [
            49.0671884,
            55.8172735
          ],
          [
            49.0671415,
            55.8175936
          ],
          [
            49.0670815,
            55.8177266
          ],
          [
            49.0667566,
            55.8177184
          ]
        ]
      }
    },
    {
      "type": "Feature",
      "properties": {
        "id": "kazan_center_+3_-3_e2386015_osm_way_482291215_48",
        "object_type": "restriction",
        "restriction_type": "oks",
        "name": "",
        "osm_kind": "building",
        "osm_id": 482291215,
        "osm_type": "way",
        "osm_tags": {
          "building": "retail"
        },
        "case_id": "kazan_center_+3_-3_e2386015"
      },
      "geometry": {
        "type": "Polygon",
        "coordinates": [
          [
            [
              49.0636071,
              55.8177789
            ],
            [
              49.0638413,
              55.8177012
            ],
            [
              49.0637658,
              55.8176295
            ],
            [
              49.0635317,
              55.8177073
            ],
            [
              49.0636071,
              55.8177789
            ]
          ]
        ]
      }
    },
    {
      "type": "Feature",
      "properties": {
        "id": "kazan_center_+3_-3_e2386015_osm_way_764343869_49",
        "object_type": "restriction",
        "restriction_type": "road",
        "name": "",
        "osm_kind": "road",
        "osm_id": 764343869,
        "osm_type": "way",
        "osm_tags": {
          "highway": "service"
        },
        "case_id": "kazan_center_+3_-3_e2386015"
      },
      "geometry": {
        "type": "LineString",
        "coordinates": [
          [
            49.0660351,
            55.8182853
          ],
          [
            49.0658097,
            55.8183512
          ],
          [
            49.0647632,
            55.8186626
          ],
          [
            49.0646818,
            55.8186867
          ]
        ]
      }
    },
    {
      "type": "Feature",
      "properties": {
        "id": "kazan_center_+3_-3_e2386015_osm_way_764343870_50",
        "object_type": "restriction",
        "restriction_type": "road",
        "name": "",
        "osm_kind": "road",
        "osm_id": 764343870,
        "osm_type": "way",
        "osm_tags": {
          "highway": "service"
        },
        "case_id": "kazan_center_+3_-3_e2386015"
      },
      "geometry": {
        "type": "LineString",
        "coordinates": [
          [
            49.0646818,
            55.8186867
          ],
          [
            49.0644066,
            55.8183855
          ],
          [
            49.0643592,
            55.8183336
          ]
        ]
      }
    },
    {
      "type": "Feature",
      "properties": {
        "id": "kazan_center_+3_-3_e2386015_osm_way_764343871_51",
        "object_type": "restriction",
        "restriction_type": "road",
        "name": "",
        "osm_kind": "road",
        "osm_id": 764343871,
        "osm_type": "way",
        "osm_tags": {
          "highway": "service"
        },
        "case_id": "kazan_center_+3_-3_e2386015"
      },
      "geometry": {
        "type": "LineString",
        "coordinates": [
          [
            49.0643592,
            55.8183336
          ],
          [
            49.0644544,
            55.8183047
          ],
          [
            49.0650106,
            55.8181394
          ],
          [
            49.0651134,
            55.8181473
          ],
          [
            49.0651764,
            55.818163
          ],
          [
            49.0651962,
            55.8181602
          ],
          [
            49.0652768,
            55.8181486
          ],
          [
            49.0655217,
            55.8180745
          ],
          [
            49.0655312,
            55.818071
          ]
        ]
      }
    },
    {
      "type": "Feature",
      "properties": {
        "id": "kazan_center_+3_-3_e2386015_osm_way_764343872_52",
        "object_type": "restriction",
        "restriction_type": "road",
        "name": "",
        "osm_kind": "road",
        "osm_id": 764343872,
        "osm_type": "way",
        "osm_tags": {
          "highway": "service"
        },
        "case_id": "kazan_center_+3_-3_e2386015"
      },
      "geometry": {
        "type": "LineString",
        "coordinates": [
          [
            49.0651962,
            55.8181602
          ],
          [
            49.0651664,
            55.8181288
          ],
          [
            49.0647092,
            55.8176475
          ],
          [
            49.0646719,
            55.8176073
          ],
          [
            49.0646285,
            55.8175626
          ]
        ]
      }
    },
    {
      "type": "Feature",
      "properties": {
        "id": "kazan_center_+3_-3_e2386015_osm_way_764343875_53",
        "object_type": "restriction",
        "restriction_type": "road",
        "name": "",
        "osm_kind": "road",
        "osm_id": 764343875,
        "osm_type": "way",
        "osm_tags": {
          "highway": "footway"
        },
        "case_id": "kazan_center_+3_-3_e2386015"
      },
      "geometry": {
        "type": "LineString",
        "coordinates": [
          [
            49.0651664,
            55.8181288
          ],
          [
            49.065246,
            55.8181291
          ],
          [
            49.0654957,
            55.8180521
          ],
          [
            49.0655731,
            55.8180288
          ],
          [
            49.065724,
            55.8179825
          ]
        ]
      }
    },
    {
      "type": "Feature",
      "properties": {
        "id": "kazan_center_+3_-3_e2386015_osm_way_764343876_54",
        "object_type": "restriction",
        "restriction_type": "road",
        "name": "",
        "osm_kind": "road",
        "osm_id": 764343876,
        "osm_type": "way",
        "osm_tags": {
          "highway": "footway"
        },
        "case_id": "kazan_center_+3_-3_e2386015"
      },
      "geometry": {
        "type": "LineString",
        "coordinates": [
          [
            49.0655312,
            55.818071
          ],
          [
            49.0656591,
            55.8180659
          ],
          [
            49.0657751,
            55.818034
          ]
        ]
      }
    },
    {
      "type": "Feature",
      "properties": {
        "id": "kazan_center_+3_-3_e2386015_osm_way_966204623_55",
        "object_type": "restriction",
        "restriction_type": "road",
        "name": "",
        "osm_kind": "road",
        "osm_id": 966204623,
        "osm_type": "way",
        "osm_tags": {
          "highway": "footway"
        },
        "case_id": "kazan_center_+3_-3_e2386015"
      },
      "geometry": {
        "type": "LineString",
        "coordinates": [
          [
            49.0652956,
            55.8198405
          ],
          [
            49.0656925,
            55.8202397
          ],
          [
            49.0658424,
            55.8203287
          ],
          [
            49.0660617,
            55.8205825
          ],
          [
            49.0661684,
            55.8207179
          ],
          [
            49.0664269,
            55.8209832
          ],
          [
            49.0665678,
            55.8211341
          ],
          [
            49.0666744,
            55.8212531
          ],
          [
            49.0667688,
            55.8215258
          ],
          [
            49.0668845,
            55.8216261
          ],
          [
            49.0677846,
            55.8226228
          ],
          [
            49.0678524,
            55.8226979
          ]
        ]
      }
    },
    {
      "type": "Feature",
      "properties": {
        "id": "kazan_center_+3_-3_e2386015_osm_way_988202515_56",
        "object_type": "restriction",
        "restriction_type": "road",
        "name": "Низовая улица",
        "osm_kind": "road",
        "osm_id": 988202515,
        "osm_type": "way",
        "osm_tags": {
          "highway": "residential",
          "name": "Низовая улица"
        },
        "case_id": "kazan_center_+3_-3_e2386015"
      },
      "geometry": {
        "type": "LineString",
        "coordinates": [
          [
            49.0686507,
            55.821059
          ],
          [
            49.0685269,
            55.8209214
          ],
          [
            49.0681238,
            55.8204734
          ],
          [
            49.0674679,
            55.8197446
          ],
          [
            49.0669359,
            55.8192084
          ],
          [
            49.0663794,
            55.8186429
          ],
          [
            49.0660351,
            55.8182853
          ]
        ]
      }
    },
    {
      "type": "Feature",
      "properties": {
        "id": "kazan_center_+3_-3_e2386015_osm_way_1159590321_57",
        "object_type": "restriction",
        "restriction_type": "road",
        "name": "",
        "osm_kind": "road",
        "osm_id": 1159590321,
        "osm_type": "way",
        "osm_tags": {
          "highway": "footway"
        },
        "case_id": "kazan_center_+3_-3_e2386015"
      },
      "geometry": {
        "type": "LineString",
        "coordinates": [
          [
            49.0646132,
            55.8175221
          ],
          [
            49.0644064,
            55.8175914
          ],
          [
            49.0640893,
            55.8176549
          ],
          [
            49.0635815,
            55.8178196
          ],
          [
            49.063425,
            55.8178167
          ]
        ]
      }
    },
    {
      "type": "Feature",
      "properties": {
        "id": "kazan_center_+3_-3_e2386015_osm_way_1159590322_58",
        "object_type": "restriction",
        "restriction_type": "road",
        "name": "",
        "osm_kind": "road",
        "osm_id": 1159590322,
        "osm_type": "way",
        "osm_tags": {
          "highway": "service"
        },
        "case_id": "kazan_center_+3_-3_e2386015"
      },
      "geometry": {
        "type": "LineString",
        "coordinates": [
          [
            49.0637492,
            55.818415
          ],
          [
            49.0639312,
            55.8183615
          ],
          [
            49.0640416,
            55.8183291
          ],
          [
            49.0635815,
            55.8178196
          ],
          [
            49.0633536,
            55.8176664
          ]
        ]
      }
    },
    {
      "type": "Feature",
      "properties": {
        "id": "kazan_center_+3_-3_e2386015_osm_way_1159590323_59",
        "object_type": "restriction",
        "restriction_type": "road",
        "name": "",
        "osm_kind": "road",
        "osm_id": 1159590323,
        "osm_type": "way",
        "osm_tags": {
          "highway": "service"
        },
        "case_id": "kazan_center_+3_-3_e2386015"
      },
      "geometry": {
        "type": "LineString",
        "coordinates": [
          [
            49.0644066,
            55.8183855
          ],
          [
            49.0641676,
            55.818449
          ],
          [
            49.0638567,
            55.8185316
          ]
        ]
      }
    },
    {
      "type": "Feature",
      "properties": {
        "id": "kazan_center_+3_-3_e2386015_osm_way_1159590324_60",
        "object_type": "restriction",
        "restriction_type": "road",
        "name": "",
        "osm_kind": "road",
        "osm_id": 1159590324,
        "osm_type": "way",
        "osm_tags": {
          "highway": "footway"
        },
        "case_id": "kazan_center_+3_-3_e2386015"
      },
      "geometry": {
        "type": "LineString",
        "coordinates": [
          [
            49.064875,
            55.8199625
          ],
          [
            49.0651075,
            55.8198937
          ],
          [
            49.0652956,
            55.8198405
          ],
          [
            49.0652048,
            55.8196845
          ],
          [
            49.0651215,
            55.8195058
          ],
          [
            49.0647722,
            55.8191378
          ],
          [
            49.0641676,
            55.818449
          ],
          [
            49.0639312,
            55.8183615
          ],
          [
            49.0638722,
            55.818298
          ],
          [
            49.063425,
            55.8178167
          ],
          [
            49.0633094,
            55.8176817
          ],
          [
            49.063281,
            55.8175601
          ],
          [
            49.0632702,
            55.8175137
          ],
          [
            49.0632633,
            55.8174843
          ],
          [
            49.0632878,
            55.8174507
          ],
          [
            49.0633545,
            55.8173841
          ]
        ]
      }
    },
    {
      "type": "Feature",
      "properties": {
        "id": "kazan_center_+3_-3_e2386015_osm_way_1159597600_61",
        "object_type": "restriction",
        "restriction_type": "road",
        "name": "",
        "osm_kind": "road",
        "osm_id": 1159597600,
        "osm_type": "way",
        "osm_tags": {
          "highway": "service"
        },
        "case_id": "kazan_center_+3_-3_e2386015"
      },
      "geometry": {
        "type": "LineString",
        "coordinates": [
          [
            49.0649712,
            55.8197446
          ],
          [
            49.0652048,
            55.8196845
          ],
          [
            49.0652341,
            55.819677
          ]
        ]
      }
    },
    {
      "type": "Feature",
      "properties": {
        "id": "kazan_center_+3_-3_e2386015_osm_way_1159597601_62",
        "object_type": "restriction",
        "restriction_type": "road",
        "name": "",
        "osm_kind": "road",
        "osm_id": 1159597601,
        "osm_type": "way",
        "osm_tags": {
          "highway": "service"
        },
        "case_id": "kazan_center_+3_-3_e2386015"
      },
      "geometry": {
        "type": "LineString",
        "coordinates": [
          [
            49.0665508,
            55.8200933
          ],
          [
            49.0659997,
            55.8202423
          ],
          [
            49.0659426,
            55.8203024
          ],
          [
            49.0658424,
            55.8203287
          ],
          [
            49.0655911,
            55.8204118
          ]
        ]
      }
    },
    {
      "type": "Feature",
      "properties": {
        "id": "kazan_center_+3_-3_e2386015_osm_way_1159597602_63",
        "object_type": "restriction",
        "restriction_type": "oks",
        "name": "",
        "osm_kind": "building",
        "osm_id": 1159597602,
        "osm_type": "way",
        "osm_tags": {
          "building": "yes"
        },
        "case_id": "kazan_center_+3_-3_e2386015"
      },
      "geometry": {
        "type": "Polygon",
        "coordinates": [
          [
            [
              49.0664922,
              55.8202061
            ],
            [
              49.0660818,
              55.8203238
            ],
            [
              49.0660364,
              55.8202678
            ],
            [
              49.0664467,
              55.8201534
            ],
            [
              49.0664922,
              55.8202061
            ]
          ]
        ]
      }
    },
    {
      "type": "Feature",
      "properties": {
        "id": "kazan_center_+3_-3_e2386015_osm_way_1159597608_64",
        "object_type": "restriction",
        "restriction_type": "road",
        "name": "",
        "osm_kind": "road",
        "osm_id": 1159597608,
        "osm_type": "way",
        "osm_tags": {
          "highway": "footway"
        },
        "case_id": "kazan_center_+3_-3_e2386015"
      },
      "geometry": {
        "type": "LineString",
        "coordinates": [
          [
            49.0647722,
            55.8191378
          ],
          [
            49.0649177,
            55.8191015
          ]
        ]
      }
    },
    {
      "type": "Feature",
      "properties": {
        "id": "kazan_center_+3_-3_e2386015_osm_way_1159597609_65",
        "object_type": "restriction",
        "restriction_type": "road",
        "name": "",
        "osm_kind": "road",
        "osm_id": 1159597609,
        "osm_type": "way",
        "osm_tags": {
          "highway": "footway"
        },
        "case_id": "kazan_center_+3_-3_e2386015"
      },
      "geometry": {
        "type": "LineString",
        "coordinates": [
          [
            49.0638722,
            55.818298
          ],
          [
            49.0636882,
            55.8183467
          ],
          [
            49.0635503,
            55.8183851
          ]
        ]
      }
    },
    {
      "type": "Feature",
      "properties": {
        "id": "kazan_center_+3_-3_e2386015_osm_way_1204837631_66",
        "object_type": "restriction",
        "restriction_type": "road",
        "name": "",
        "osm_kind": "road",
        "osm_id": 1204837631,
        "osm_type": "way",
        "osm_tags": {
          "highway": "service"
        },
        "case_id": "kazan_center_+3_-3_e2386015"
      },
      "geometry": {
        "type": "LineString",
        "coordinates": [
          [
            49.0641259,
            55.8200356
          ],
          [
            49.0644026,
            55.8199801
          ]
        ]
      }
    },
    {
      "type": "Feature",
      "properties": {
        "id": "kazan_center_+3_-3_e2386015_osm_way_1305644468_67",
        "object_type": "restriction",
        "restriction_type": "road",
        "name": "",
        "osm_kind": "road",
        "osm_id": 1305644468,
        "osm_type": "way",
        "osm_tags": {
          "highway": "footway"
        },
        "case_id": "kazan_center_+3_-3_e2386015"
      },
      "geometry": {
        "type": "LineString",
        "coordinates": [
          [
            49.0655731,
            55.8180288
          ],
          [
            49.0654834,
            55.8179374
          ],
          [
            49.065047,
            55.8174928
          ],
          [
            49.0646719,
            55.8176073
          ]
        ]
      }
    },
    {
      "type": "Feature",
      "properties": {
        "id": "kazan_center_+3_-3_e2386015_osm_way_1305644472_68",
        "object_type": "restriction",
        "restriction_type": "road",
        "name": "",
        "osm_kind": "road",
        "osm_id": 1305644472,
        "osm_type": "way",
        "osm_tags": {
          "highway": "footway"
        },
        "case_id": "kazan_center_+3_-3_e2386015"
      },
      "geometry": {
        "type": "LineString",
        "coordinates": [
          [
            49.059757,
            55.8196682
          ],
          [
            49.0601224,
            55.8195581
          ],
          [
            49.0602599,
            55.8195166
          ],
          [
            49.0606305,
            55.8194049
          ],
          [
            49.0608086,
            55.8193512
          ],
          [
            49.0624947,
            55.818843
          ],
          [
            49.0633039,
            55.8185991
          ],
          [
            49.063648,
            55.8184953
          ]
        ]
      }
    },
    {
      "type": "Feature",
      "properties": {
        "id": "kazan_center_+3_-3_e2386015_osm_way_1308084232_69",
        "object_type": "restriction",
        "restriction_type": "road",
        "name": "",
        "osm_kind": "road",
        "osm_id": 1308084232,
        "osm_type": "way",
        "osm_tags": {
          "highway": "service"
        },
        "case_id": "kazan_center_+3_-3_e2386015"
      },
      "geometry": {
        "type": "LineString",
        "coordinates": [
          [
            49.0671415,
            55.8175936
          ],
          [
            49.066772,
            55.8175775
          ],
          [
            49.0667566,
            55.8177184
          ]
        ]
      }
    },
    {
      "type": "Feature",
      "properties": {
        "id": "kazan_center_+3_-3_e2386015_osm_way_1355505696_70",
        "object_type": "restriction",
        "restriction_type": "road",
        "name": "",
        "osm_kind": "road",
        "osm_id": 1355505696,
        "osm_type": "way",
        "osm_tags": {
          "highway": "service"
        },
        "case_id": "kazan_center_+3_-3_e2386015"
      },
      "geometry": {
        "type": "LineString",
        "coordinates": [
          [
            49.0656339,
            55.8178898
          ],
          [
            49.0654834,
            55.8179374
          ],
          [
            49.0654265,
            55.8179554
          ]
        ]
      }
    },
    {
      "type": "Feature",
      "properties": {
        "id": "kazan_center_+3_-3_e2386015_source",
        "object_type": "source",
        "case_id": "kazan_center_+3_-3_e2386015"
      },
      "geometry": {
        "type": "Point",
        "coordinates": [
          49.06357179333333,
          55.819096779999995
        ]
      }
    },
    {
      "type": "Feature",
      "properties": {
        "id": "kazan_center_+3_-3_e2386015_existing_network",
        "object_type": "heat_network",
        "diameter": 500,
        "flow_tph": 180.0,
        "upstream_object_id": "kazan_center_+3_-3_e2386015_source",
        "case_id": "kazan_center_+3_-3_e2386015"
      },
      "geometry": {
        "type": "LineString",
        "coordinates": [
          [
            49.06357179333333,
            55.819096779999995
          ],
          [
            49.06469107,
            55.81900695
          ]
        ]
      }
    },
    {
      "type": "Feature",
      "properties": {
        "id": "kazan_center_+3_-3_e2386015_existing_chamber",
        "object_type": "heat_chamber",
        "diameter": 500,
        "upstream_object_id": "kazan_center_+3_-3_e2386015_source",
        "case_id": "kazan_center_+3_-3_e2386015"
      },
      "geometry": {
        "type": "Point",
        "coordinates": [
          49.06469107,
          55.81900695
        ]
      }
    },
    {
      "type": "Feature",
      "properties": {
        "id": "kazan_center_+3_-3_e2386015_cp_1",
        "object_type": "oks_connection_point",
        "flow_tph": 5.0,
        "case_id": "kazan_center_+3_-3_e2386015",
        "consumer_role": "osm_building_heat_demand_proxy",
        "source_building_osm_id": 201369690,
        "source_building_osm_type": "way",
        "source_building_name": "",
        "source_building_tags": {
          "building": "detached"
        },
        "footprint_area_m2": 129.52,
        "flow_basis": "synthetic_proxy_from_osm_footprint_area",
        "stress_bucket": ""
      },
      "geometry": {
        "type": "Point",
        "coordinates": [
          49.066876750000006,
          55.81877735
        ]
      }
    },
    {
      "type": "Feature",
      "properties": {
        "id": "kazan_center_+3_-3_e2386015_cp_2",
        "object_type": "oks_connection_point",
        "flow_tph": 5.0,
        "case_id": "kazan_center_+3_-3_e2386015",
        "consumer_role": "osm_building_heat_demand_proxy",
        "source_building_osm_id": 201369681,
        "source_building_osm_type": "way",
        "source_building_name": "",
        "source_building_tags": {
          "building": "detached"
        },
        "footprint_area_m2": 79.2,
        "flow_basis": "synthetic_proxy_from_osm_footprint_area",
        "stress_bucket": ""
      },
      "geometry": {
        "type": "Point",
        "coordinates": [
          49.0670106,
          55.818997350000004
        ]
      }
    },
    {
      "type": "Feature",
      "properties": {
        "id": "kazan_center_+3_-3_e2386015_cp_3",
        "object_type": "oks_connection_point",
        "flow_tph": 5.0,
        "case_id": "kazan_center_+3_-3_e2386015",
        "consumer_role": "osm_building_heat_demand_proxy",
        "source_building_osm_id": 201369346,
        "source_building_osm_type": "way",
        "source_building_name": "",
        "source_building_tags": {
          "building": "detached"
        },
        "footprint_area_m2": 79.11,
        "flow_basis": "synthetic_proxy_from_osm_footprint_area",
        "stress_bucket": ""
      },
      "geometry": {
        "type": "Point",
        "coordinates": [
          49.067134524465175,
          55.819128401236526
        ]
      }
    },
    {
      "type": "Feature",
      "properties": {
        "id": "kazan_center_+3_-3_e2386015_cp_4",
        "object_type": "oks_connection_point",
        "flow_tph": 5.0,
        "case_id": "kazan_center_+3_-3_e2386015",
        "consumer_role": "osm_building_heat_demand_proxy",
        "source_building_osm_id": 201369365,
        "source_building_osm_type": "way",
        "source_building_name": "",
        "source_building_tags": {
          "building": "detached"
        },
        "footprint_area_m2": 79.1,
        "flow_basis": "synthetic_proxy_from_osm_footprint_area",
        "stress_bucket": ""
      },
      "geometry": {
        "type": "Point",
        "coordinates": [
          49.0672646,
          55.8192867
        ]
      }
    },
    {
      "type": "Feature",
      "properties": {
        "id": "kazan_center_+3_-3_e2386015_cp_5",
        "object_type": "oks_connection_point",
        "flow_tph": 5.0,
        "case_id": "kazan_center_+3_-3_e2386015",
        "consumer_role": "osm_building_heat_demand_proxy",
        "source_building_osm_id": 201369384,
        "source_building_osm_type": "way",
        "source_building_name": "",
        "source_building_tags": {
          "building": "detached"
        },
        "footprint_area_m2": 79.18,
        "flow_basis": "synthetic_proxy_from_osm_footprint_area",
        "stress_bucket": ""
      },
      "geometry": {
        "type": "Point",
        "coordinates": [
          49.0674409,
          55.81943735
        ]
      }
    },
    {
      "type": "Feature",
      "properties": {
        "id": "kazan_center_+3_-3_e2386015_cp_6",
        "object_type": "oks_connection_point",
        "flow_tph": 5.0,
        "case_id": "kazan_center_+3_-3_e2386015",
        "consumer_role": "osm_building_heat_demand_proxy",
        "source_building_osm_id": 201369693,
        "source_building_osm_type": "way",
        "source_building_name": "",
        "source_building_tags": {
          "building": "detached"
        },
        "footprint_area_m2": 129.52,
        "flow_basis": "synthetic_proxy_from_osm_footprint_area",
        "stress_bucket": ""
      },
      "geometry": {
        "type": "Point",
        "coordinates": [
          49.06750035,
          55.81877735
        ]
      }
    }
  ]
}