{
  "type": "FeatureCollection",
  "name": "nizhny_novgorod_-2_-2_6e4eae01",
  "crs": {
    "type": "name",
    "properties": {
      "name": "EPSG:4326"
    }
  },
  "metadata": {
    "dataset_version": "osm_building_anchored_routing_scenes_v3",
    "parent_scene_id": "nizhny_novgorod_-2_-2_6e4eae01",
    "split": "train",
    "city": "Нижний Новгород",
    "seed": "nizhny_novgorod",
    "research_bucket": "shared_pipe",
    "source_research_bucket": "shared_pipe",
    "research_bucket_is_ground_truth": false,
    "bbox_south_west_north_east": [
      56.3102812,
      43.9759278,
      56.3129762,
      43.9807863
    ],
    "real_data_source": "OpenStreetMap via Overpass API",
    "source_file": "data/real_geojson_places/shared_pipe/085_nizhny_novgorod_-2_-2_6e4eae01.geojson",
    "real_layers": [
      "restrictions",
      "consumer_building_footprints"
    ],
    "synthetic_layers": [
      "source",
      "heat_network",
      "heat_chamber",
      "heat_demand"
    ],
    "consumer_selection": "deterministic points inside real OSM building footprints",
    "flow_model": "synthetic proxy derived from building footprint area; not metered demand",
    "note": "OSM buildings anchor consumers; heat demand and seed network are synthetic proxies."
  },
  "features": [
    {
      "type": "Feature",
      "properties": {
        "id": "nizhny_novgorod_-2_-2_6e4eae01_osm_way_41407264_1",
        "object_type": "restriction",
        "restriction_type": "road",
        "name": "улица Максима Горького",
        "osm_kind": "major_road",
        "osm_id": 41407264,
        "osm_type": "way",
        "osm_tags": {
          "highway": "secondary",
          "name": "улица Максима Горького"
        },
        "case_id": "nizhny_novgorod_-2_-2_6e4eae01"
      },
      "geometry": {
        "type": "LineString",
        "coordinates": [
          [
            43.9815341,
            56.3117311
          ],
          [
            43.9814463,
            56.3117153
          ],
          [
            43.9813815,
            56.3117036
          ],
          [
            43.979657,
            56.3113495
          ],
          [
            43.9796053,
            56.3113389
          ],
          [
            43.9793394,
            56.3112876
          ],
          [
            43.9789095,
            56.3112317
          ]
        ]
      }
    },
    {
      "type": "Feature",
      "properties": {
        "id": "nizhny_novgorod_-2_-2_6e4eae01_osm_way_42871757_2",
        "object_type": "restriction",
        "restriction_type": "road",
        "name": "Большая Перекрёстная улица",
        "osm_kind": "road",
        "osm_id": 42871757,
        "osm_type": "way",
        "osm_tags": {
          "highway": "residential",
          "name": "Большая Перекрёстная улица"
        },
        "case_id": "nizhny_novgorod_-2_-2_6e4eae01"
      },
      "geometry": {
        "type": "LineString",
        "coordinates": [
          [
            43.9793423,
            56.3120803
          ],
          [
            43.9792461,
            56.312096
          ],
          [
            43.9789552,
            56.3121431
          ],
          [
            43.977837,
            56.3123241
          ],
          [
            43.9774265,
            56.3123906
          ],
          [
            43.9772933,
            56.3124122
          ],
          [
            43.9772481,
            56.3124195
          ]
        ]
      }
    },
    {
      "type": "Feature",
      "properties": {
        "id": "nizhny_novgorod_-2_-2_6e4eae01_osm_way_42992667_3",
        "object_type": "restriction",
        "restriction_type": "road",
        "name": "3-я Ямская улица",
        "osm_kind": "road",
        "osm_id": 42992667,
        "osm_type": "way",
        "osm_tags": {
          "highway": "residential",
          "name": "3-я Ямская улица"
        },
        "case_id": "nizhny_novgorod_-2_-2_6e4eae01"
      },
      "geometry": {
        "type": "LineString",
        "coordinates": [
          [
            43.9789095,
            56.3112317
          ],
          [
            43.978967,
            56.3113831
          ],
          [
            43.9793423,
            56.3120803
          ]
        ]
      }
    },
    {
      "type": "Feature",
      "properties": {
        "id": "nizhny_novgorod_-2_-2_6e4eae01_osm_way_43712866_4",
        "object_type": "restriction",
        "restriction_type": "road",
        "name": "улица Максима Горького",
        "osm_kind": "major_road",
        "osm_id": 43712866,
        "osm_type": "way",
        "osm_tags": {
          "highway": "secondary",
          "name": "улица Максима Горького"
        },
        "case_id": "nizhny_novgorod_-2_-2_6e4eae01"
      },
      "geometry": {
        "type": "LineString",
        "coordinates": [
          [
            43.9769987,
            56.3114916
          ],
          [
            43.9781766,
            56.3112859
          ]
        ]
      }
    },
    {
      "type": "Feature",
      "properties": {
        "id": "nizhny_novgorod_-2_-2_6e4eae01_osm_way_43712867_5",
        "object_type": "restriction",
        "restriction_type": "road",
        "name": "улица Максима Горького",
        "osm_kind": "road",
        "osm_id": 43712867,
        "osm_type": "way",
        "osm_tags": {
          "highway": "residential",
          "name": "улица Максима Горького"
        },
        "case_id": "nizhny_novgorod_-2_-2_6e4eae01"
      },
      "geometry": {
        "type": "LineString",
        "coordinates": [
          [
            43.9734606,
            56.3122388
          ],
          [
            43.9736981,
            56.3119826
          ],
          [
            43.9743264,
            56.3118372
          ],
          [
            43.9748464,
            56.3117119
          ],
          [
            43.9753676,
            56.311597
          ],
          [
            43.9758249,
            56.3115066
          ],
          [
            43.9760292,
            56.3114961
          ]
        ]
      }
    },
    {
      "type": "Feature",
      "properties": {
        "id": "nizhny_novgorod_-2_-2_6e4eae01_osm_way_43712870_6",
        "object_type": "restriction",
        "restriction_type": "road",
        "name": "Одесская улица",
        "osm_kind": "major_road",
        "osm_id": 43712870,
        "osm_type": "way",
        "osm_tags": {
          "highway": "secondary",
          "name": "Одесская улица"
        },
        "case_id": "nizhny_novgorod_-2_-2_6e4eae01"
      },
      "geometry": {
        "type": "LineString",
        "coordinates": [
          [
            43.9765285,
            56.3116126
          ],
          [
            43.9766151,
            56.3117613
          ]
        ]
      }
    },
    {
      "type": "Feature",
      "properties": {
        "id": "nizhny_novgorod_-2_-2_6e4eae01_osm_way_83634708_7",
        "object_type": "restriction",
        "restriction_type": "road",
        "name": "",
        "osm_kind": "road",
        "osm_id": 83634708,
        "osm_type": "way",
        "osm_tags": {
          "highway": "footway"
        },
        "case_id": "nizhny_novgorod_-2_-2_6e4eae01"
      },
      "geometry": {
        "type": "LineString",
        "coordinates": [
          [
            43.9759886,
            56.3114004
          ],
          [
            43.9757908,
            56.3110699
          ]
        ]
      }
    },
    {
      "type": "Feature",
      "properties": {
        "id": "nizhny_novgorod_-2_-2_6e4eae01_osm_way_83905815_8",
        "object_type": "restriction",
        "restriction_type": "road",
        "name": "",
        "osm_kind": "road",
        "osm_id": 83905815,
        "osm_type": "way",
        "osm_tags": {
          "highway": "footway"
        },
        "case_id": "nizhny_novgorod_-2_-2_6e4eae01"
      },
      "geometry": {
        "type": "LineString",
        "coordinates": [
          [
            43.9760292,
            56.3114961
          ],
          [
            43.9759886,
            56.3114004
          ]
        ]
      }
    },
    {
      "type": "Feature",
      "properties": {
        "id": "nizhny_novgorod_-2_-2_6e4eae01_osm_way_114002053_9",
        "object_type": "restriction",
        "restriction_type": "road",
        "name": "3-я Ямская улица",
        "osm_kind": "road",
        "osm_id": 114002053,
        "osm_type": "way",
        "osm_tags": {
          "highway": "residential",
          "name": "3-я Ямская улица"
        },
        "case_id": "nizhny_novgorod_-2_-2_6e4eae01"
      },
      "geometry": {
        "type": "LineString",
        "coordinates": [
          [
            43.9793423,
            56.3120803
          ],
          [
            43.9796031,
            56.3125511
          ],
          [
            43.9796334,
            56.3125937
          ],
          [
            43.979672,
            56.312648
          ],
          [
            43.979738,
            56.3127408
          ],
          [
            43.9798073,
            56.3128902
          ],
          [
            43.9797953,
            56.3129219
          ],
          [
            43.9798008,
            56.3130728
          ],
          [
            43.9797731,
            56.3132199
          ]
        ]
      }
    },
    {
      "type": "Feature",
      "properties": {
        "id": "nizhny_novgorod_-2_-2_6e4eae01_osm_way_129241088_10",
        "object_type": "restriction",
        "restriction_type": "road",
        "name": "",
        "osm_kind": "road",
        "osm_id": 129241088,
        "osm_type": "way",
        "osm_tags": {
          "highway": "residential"
        },
        "case_id": "nizhny_novgorod_-2_-2_6e4eae01"
      },
      "geometry": {
        "type": "LineString",
        "coordinates": [
          [
            43.9760292,
            56.3114961
          ],
          [
            43.9761255,
            56.3117436
          ],
          [
            43.9765732,
            56.3125518
          ],
          [
            43.9769064,
            56.3131554
          ],
          [
            43.9771771,
            56.3136695
          ]
        ]
      }
    },
    {
      "type": "Feature",
      "properties": {
        "id": "nizhny_novgorod_-2_-2_6e4eae01_osm_way_148138636_11",
        "object_type": "restriction",
        "restriction_type": "oks",
        "name": "",
        "osm_kind": "building",
        "osm_id": 148138636,
        "osm_type": "way",
        "osm_tags": {
          "building": "yes"
        },
        "case_id": "nizhny_novgorod_-2_-2_6e4eae01"
      },
      "geometry": {
        "type": "Polygon",
        "coordinates": [
          [
            [
              43.97603,
              56.3122017
            ],
            [
              43.9761756,
              56.3121748
            ],
            [
              43.9761402,
              56.312116
            ],
            [
              43.9759947,
              56.312143
            ],
            [
              43.97603,
              56.3122017
            ]
          ]
        ]
      }
    },
    {
      "type": "Feature",
      "properties": {
        "id": "nizhny_novgorod_-2_-2_6e4eae01_osm_way_148139281_12",
        "object_type": "restriction",
        "restriction_type": "oks",
        "name": "",
        "osm_kind": "building",
        "osm_id": 148139281,
        "osm_type": "way",
        "osm_tags": {
          "building": "yes"
        },
        "case_id": "nizhny_novgorod_-2_-2_6e4eae01"
      },
      "geometry": {
        "type": "Polygon",
        "coordinates": [
          [
            [
              43.9759276,
              56.3120193
            ],
            [
              43.9761028,
              56.3119849
            ],
            [
              43.9760384,
              56.3118841
            ],
            [
              43.9758632,
              56.3119184
            ],
            [
              43.9759276,
              56.3120193
            ]
          ]
        ]
      }
    },
    {
      "type": "Feature",
      "properties": {
        "id": "nizhny_novgorod_-2_-2_6e4eae01_osm_way_149270676_13",
        "object_type": "restriction",
        "restriction_type": "oks",
        "name": "",
        "osm_kind": "building",
        "osm_id": 149270676,
        "osm_type": "way",
        "osm_tags": {
          "building": "yes"
        },
        "case_id": "nizhny_novgorod_-2_-2_6e4eae01",
        "selected_as_heat_demand_proxy": true,
        "connection_point_id": "nizhny_novgorod_-2_-2_6e4eae01_cp_2"
      },
      "geometry": {
        "type": "Polygon",
        "coordinates": [
          [
            [
              43.9790859,
              56.3122312
            ],
            [
              43.9791251,
              56.3123037
            ],
            [
              43.9792842,
              56.3122773
            ],
            [
              43.979245,
              56.3122048
            ],
            [
              43.9790859,
              56.3122312
            ]
          ]
        ]
      }
    },
    {
      "type": "Feature",
      "properties": {
        "id": "nizhny_novgorod_-2_-2_6e4eae01_osm_way_149270745_14",
        "object_type": "restriction",
        "restriction_type": "oks",
        "name": "",
        "osm_kind": "building",
        "osm_id": 149270745,
        "osm_type": "way",
        "osm_tags": {
          "building": "yes"
        },
        "case_id": "nizhny_novgorod_-2_-2_6e4eae01",
        "selected_as_heat_demand_proxy": true,
        "connection_point_id": "nizhny_novgorod_-2_-2_6e4eae01_cp_5"
      },
      "geometry": {
        "type": "Polygon",
        "coordinates": [
          [
            [
              43.9806122,
              56.3128669
            ],
            [
              43.9805651,
              56.3127846
            ],
            [
              43.9804796,
              56.3127996
            ],
            [
              43.9805267,
              56.3128819
            ],
            [
              43.9806122,
              56.3128669
            ]
          ]
        ]
      }
    },
    {
      "type": "Feature",
      "properties": {
        "id": "nizhny_novgorod_-2_-2_6e4eae01_osm_way_149270755_15",
        "object_type": "restriction",
        "restriction_type": "oks",
        "name": "",
        "osm_kind": "building",
        "osm_id": 149270755,
        "osm_type": "way",
        "osm_tags": {
          "building": "apartments"
        },
        "case_id": "nizhny_novgorod_-2_-2_6e4eae01",
        "selected_as_heat_demand_proxy": true,
        "connection_point_id": "nizhny_novgorod_-2_-2_6e4eae01_cp_3"
      },
      "geometry": {
        "type": "Polygon",
        "coordinates": [
          [
            [
              43.9810606,
              56.3123953
            ],
            [
              43.980523,
              56.31249
            ],
            [
              43.9804966,
              56.3124439
            ],
            [
              43.9801998,
              56.3124962
            ],
            [
              43.9802594,
              56.3126003
            ],
            [
              43.9802262,
              56.3126062
            ],
            [
              43.9802608,
              56.3126666
            ],
            [
              43.9804864,
              56.3126269
            ],
            [
              43.980495,
              56.3126419
            ],
            [
              43.9806009,
              56.3126233
            ],
            [
              43.9808972,
              56.3125711
            ],
            [
              43.9809737,
              56.3125576
            ],
            [
              43.980995,
              56.312595
            ],
            [
              43.9811584,
              56.3125662
            ],
            [
              43.9810606,
              56.3123953
            ]
          ]
        ]
      }
    },
    {
      "type": "Feature",
      "properties": {
        "id": "nizhny_novgorod_-2_-2_6e4eae01_osm_way_149270810_16",
        "object_type": "restriction",
        "restriction_type": "oks",
        "name": "",
        "osm_kind": "building",
        "osm_id": 149270810,
        "osm_type": "way",
        "osm_tags": {
          "building": "yes"
        },
        "case_id": "nizhny_novgorod_-2_-2_6e4eae01"
      },
      "geometry": {
        "type": "Polygon",
        "coordinates": [
          [
            [
              43.9782224,
              56.3126831
            ],
            [
              43.9783442,
              56.3126696
            ],
            [
              43.9783106,
              56.3125762
            ],
            [
              43.9781888,
              56.3125897
            ],
            [
              43.9782224,
              56.3126831
            ]
          ]
        ]
      }
    },
    {
      "type": "Feature",
      "properties": {
        "id": "nizhny_novgorod_-2_-2_6e4eae01_osm_way_149270811_17",
        "object_type": "restriction",
        "restriction_type": "oks",
        "name": "",
        "osm_kind": "building",
        "osm_id": 149270811,
        "osm_type": "way",
        "osm_tags": {
          "building": "yes"
        },
        "case_id": "nizhny_novgorod_-2_-2_6e4eae01"
      },
      "geometry": {
        "type": "Polygon",
        "coordinates": [
          [
            [
              43.9778768,
              56.3129584
            ],
            [
              43.9786689,
              56.3128268
            ],
            [
              43.9786127,
              56.3127227
            ],
            [
              43.9779783,
              56.3128281
            ],
            [
              43.9779691,
              56.312811
            ],
            [
              43.9778113,
              56.3128372
            ],
            [
              43.9778768,
              56.3129584
            ]
          ]
        ]
      }
    },
    {
      "type": "Feature",
      "properties": {
        "id": "nizhny_novgorod_-2_-2_6e4eae01_osm_way_149270812_18",
        "object_type": "restriction",
        "restriction_type": "oks",
        "name": "",
        "osm_kind": "building",
        "osm_id": 149270812,
        "osm_type": "way",
        "osm_tags": {
          "building": "yes"
        },
        "case_id": "nizhny_novgorod_-2_-2_6e4eae01"
      },
      "geometry": {
        "type": "Polygon",
        "coordinates": [
          [
            [
              43.9780454,
              56.3126392
            ],
            [
              43.9781268,
              56.3126295
            ],
            [
              43.9781054,
              56.3125741
            ],
            [
              43.9780239,
              56.3125837
            ],
            [
              43.9780454,
              56.3126392
            ]
          ]
        ]
      }
    },
    {
      "type": "Feature",
      "properties": {
        "id": "nizhny_novgorod_-2_-2_6e4eae01_osm_way_149270816_19",
        "object_type": "restriction",
        "restriction_type": "road",
        "name": "",
        "osm_kind": "road",
        "osm_id": 149270816,
        "osm_type": "way",
        "osm_tags": {
          "highway": "service"
        },
        "case_id": "nizhny_novgorod_-2_-2_6e4eae01"
      },
      "geometry": {
        "type": "LineString",
        "coordinates": [
          [
            43.977837,
            56.3123241
          ],
          [
            43.9778826,
            56.3124133
          ],
          [
            43.977888,
            56.3124241
          ],
          [
            43.9780567,
            56.3127837
          ]
        ]
      }
    },
    {
      "type": "Feature",
      "properties": {
        "id": "nizhny_novgorod_-2_-2_6e4eae01_osm_way_149270817_20",
        "object_type": "restriction",
        "restriction_type": "road",
        "name": "",
        "osm_kind": "road",
        "osm_id": 149270817,
        "osm_type": "way",
        "osm_tags": {
          "highway": "service"
        },
        "case_id": "nizhny_novgorod_-2_-2_6e4eae01"
      },
      "geometry": {
        "type": "LineString",
        "coordinates": [
          [
            43.9791317,
            56.3130321
          ],
          [
            43.9789526,
            56.3126887
          ],
          [
            43.9789403,
            56.3126651
          ],
          [
            43.9794571,
            56.3125762
          ],
          [
            43.9796031,
            56.3125511
          ]
        ]
      }
    },
    {
      "type": "Feature",
      "properties": {
        "id": "nizhny_novgorod_-2_-2_6e4eae01_osm_way_149270818_21",
        "object_type": "restriction",
        "restriction_type": "road",
        "name": "",
        "osm_kind": "road",
        "osm_id": 149270818,
        "osm_type": "way",
        "osm_tags": {
          "highway": "service"
        },
        "case_id": "nizhny_novgorod_-2_-2_6e4eae01"
      },
      "geometry": {
        "type": "LineString",
        "coordinates": [
          [
            43.9797953,
            56.3129219
          ],
          [
            43.9795708,
            56.3129582
          ],
          [
            43.9791317,
            56.3130321
          ],
          [
            43.9783881,
            56.3131708
          ],
          [
            43.9783079,
            56.3132201
          ],
          [
            43.9783844,
            56.3133944
          ],
          [
            43.9784103,
            56.313449
          ]
        ]
      }
    },
    {
      "type": "Feature",
      "properties": {
        "id": "nizhny_novgorod_-2_-2_6e4eae01_osm_way_149270819_22",
        "object_type": "restriction",
        "restriction_type": "road",
        "name": "",
        "osm_kind": "road",
        "osm_id": 149270819,
        "osm_type": "way",
        "osm_tags": {
          "highway": "service"
        },
        "case_id": "nizhny_novgorod_-2_-2_6e4eae01"
      },
      "geometry": {
        "type": "LineString",
        "coordinates": [
          [
            43.979738,
            56.3127408
          ],
          [
            43.9802805,
            56.3127131
          ],
          [
            43.9811559,
            56.312598
          ],
          [
            43.9812065,
            56.3125587
          ],
          [
            43.9813371,
            56.3124367
          ],
          [
            43.9817467,
            56.3123703
          ],
          [
            43.9818439,
            56.3123513
          ]
        ]
      }
    },
    {
      "type": "Feature",
      "properties": {
        "id": "nizhny_novgorod_-2_-2_6e4eae01_osm_way_149417041_23",
        "object_type": "restriction",
        "restriction_type": "oks",
        "name": "",
        "osm_kind": "building",
        "osm_id": 149417041,
        "osm_type": "way",
        "osm_tags": {
          "building": "yes"
        },
        "case_id": "nizhny_novgorod_-2_-2_6e4eae01"
      },
      "geometry": {
        "type": "Polygon",
        "coordinates": [
          [
            [
              43.9782642,
              56.3109199
            ],
            [
              43.9784505,
              56.3107228
            ],
            [
              43.9783597,
              56.3106964
            ],
            [
              43.9782524,
              56.31081
            ],
            [
              43.978153,
              56.3107811
            ],
            [
              43.978074,
              56.3108646
            ],
            [
              43.9782642,
              56.3109199
            ]
          ]
        ]
      }
    },
    {
      "type": "Feature",
      "properties": {
        "id": "nizhny_novgorod_-2_-2_6e4eae01_osm_way_149417042_24",
        "object_type": "restriction",
        "restriction_type": "oks",
        "name": "",
        "osm_kind": "building",
        "osm_id": 149417042,
        "osm_type": "way",
        "osm_tags": {
          "building": "yes"
        },
        "case_id": "nizhny_novgorod_-2_-2_6e4eae01"
      },
      "geometry": {
        "type": "Polygon",
        "coordinates": [
          [
            [
              43.9781659,
              56.3105917
            ],
            [
              43.9787471,
              56.3102887
            ],
            [
              43.9785375,
              56.310165
            ],
            [
              43.9779564,
              56.310468
            ],
            [
              43.9781659,
              56.3105917
            ]
          ]
        ]
      }
    },
    {
      "type": "Feature",
      "properties": {
        "id": "nizhny_novgorod_-2_-2_6e4eae01_osm_way_149417043_25",
        "object_type": "restriction",
        "restriction_type": "oks",
        "name": "",
        "osm_kind": "building",
        "osm_id": 149417043,
        "osm_type": "way",
        "osm_tags": {
          "building": "yes"
        },
        "case_id": "nizhny_novgorod_-2_-2_6e4eae01"
      },
      "geometry": {
        "type": "Polygon",
        "coordinates": [
          [
            [
              43.9785143,
              56.3106485
            ],
            [
              43.978638,
              56.3105697
            ],
            [
              43.97849,
              56.3104983
            ],
            [
              43.9783664,
              56.3105771
            ],
            [
              43.9785143,
              56.3106485
            ]
          ]
        ]
      }
    },
    {
      "type": "Feature",
      "properties": {
        "id": "nizhny_novgorod_-2_-2_6e4eae01_osm_way_149417046_26",
        "object_type": "restriction",
        "restriction_type": "oks",
        "name": "",
        "osm_kind": "building",
        "osm_id": 149417046,
        "osm_type": "way",
        "osm_tags": {
          "building": "yes"
        },
        "case_id": "nizhny_novgorod_-2_-2_6e4eae01",
        "selected_as_heat_demand_proxy": true,
        "connection_point_id": "nizhny_novgorod_-2_-2_6e4eae01_cp_1"
      },
      "geometry": {
        "type": "Polygon",
        "coordinates": [
          [
            [
              43.9785993,
              56.3107564
            ],
            [
              43.9787444,
              56.3107959
            ],
            [
              43.9788076,
              56.3107245
            ],
            [
              43.9786624,
              56.310685
            ],
            [
              43.9785993,
              56.3107564
            ]
          ]
        ]
      }
    },
    {
      "type": "Feature",
      "properties": {
        "id": "nizhny_novgorod_-2_-2_6e4eae01_osm_way_149417083_27",
        "object_type": "restriction",
        "restriction_type": "road",
        "name": "",
        "osm_kind": "road",
        "osm_id": 149417083,
        "osm_type": "way",
        "osm_tags": {
          "highway": "service"
        },
        "case_id": "nizhny_novgorod_-2_-2_6e4eae01"
      },
      "geometry": {
        "type": "LineString",
        "coordinates": [
          [
            43.977821,
            56.3108381
          ],
          [
            43.978052,
            56.3106858
          ],
          [
            43.9782781,
            56.3105844
          ],
          [
            43.9790535,
            56.3101892
          ],
          [
            43.9790046,
            56.3101078
          ],
          [
            43.9787496,
            56.3099548
          ],
          [
            43.9780721,
            56.3102531
          ],
          [
            43.9776215,
            56.3102938
          ],
          [
            43.9776495,
            56.3104313
          ],
          [
            43.9777682,
            56.3105088
          ],
          [
            43.978052,
            56.3106858
          ]
        ]
      }
    },
    {
      "type": "Feature",
      "properties": {
        "id": "nizhny_novgorod_-2_-2_6e4eae01_osm_way_149417114_28",
        "object_type": "restriction",
        "restriction_type": "oks",
        "name": "",
        "osm_kind": "building",
        "osm_id": 149417114,
        "osm_type": "way",
        "osm_tags": {
          "building": "garages"
        },
        "case_id": "nizhny_novgorod_-2_-2_6e4eae01"
      },
      "geometry": {
        "type": "Polygon",
        "coordinates": [
          [
            [
              43.9778173,
              56.310769
            ],
            [
              43.9774105,
              56.3105272
            ],
            [
              43.9773775,
              56.3105434
            ],
            [
              43.9773233,
              56.3104821
            ],
            [
              43.977331,
              56.310466
            ],
            [
              43.9773136,
              56.3103543
            ],
            [
              43.9773301,
              56.3103537
            ],
            [
              43.9773204,
              56.310278
            ],
            [
              43.9773495,
              56.310278
            ],
            [
              43.9773385,
              56.3101724
            ],
            [
              43.9773166,
              56.3101298
            ],
            [
              43.9772864,
              56.30987
            ],
            [
              43.9772205,
              56.3095977
            ],
            [
              43.9773467,
              56.3095888
            ],
            [
              43.977487,
              56.3100065
            ],
            [
              43.9774948,
              56.3102063
            ],
            [
              43.9775664,
              56.3102042
            ],
            [
              43.9775675,
              56.3102676
            ],
            [
              43.9775703,
              56.3104438
            ],
            [
              43.9779771,
              56.3106898
            ],
            [
              43.9778173,
              56.310769
            ]
          ]
        ]
      }
    },
    {
      "type": "Feature",
      "properties": {
        "id": "nizhny_novgorod_-2_-2_6e4eae01_osm_way_149417152_29",
        "object_type": "restriction",
        "restriction_type": "oks",
        "name": "",
        "osm_kind": "building",
        "osm_id": 149417152,
        "osm_type": "way",
        "osm_tags": {
          "building": "yes"
        },
        "case_id": "nizhny_novgorod_-2_-2_6e4eae01"
      },
      "geometry": {
        "type": "Polygon",
        "coordinates": [
          [
            [
              43.9787471,
              56.3102887
            ],
            [
              43.9789596,
              56.3101779
            ],
            [
              43.9786812,
              56.3100136
            ],
            [
              43.9784687,
              56.3101244
            ],
            [
              43.9785375,
              56.310165
            ],
            [
              43.9787471,
              56.3102887
            ]
          ]
        ]
      }
    },
    {
      "type": "Feature",
      "properties": {
        "id": "nizhny_novgorod_-2_-2_6e4eae01_osm_way_149417154_30",
        "object_type": "restriction",
        "restriction_type": "oks",
        "name": "",
        "osm_kind": "building",
        "osm_id": 149417154,
        "osm_type": "way",
        "osm_tags": {
          "building": "yes"
        },
        "case_id": "nizhny_novgorod_-2_-2_6e4eae01"
      },
      "geometry": {
        "type": "Polygon",
        "coordinates": [
          [
            [
              43.9776745,
              56.3103119
            ],
            [
              43.9777113,
              56.3104172
            ],
            [
              43.9777674,
              56.3104602
            ],
            [
              43.9778527,
              56.3104548
            ],
            [
              43.9779379,
              56.3103968
            ],
            [
              43.9779089,
              56.3102883
            ],
            [
              43.9776745,
              56.3103119
            ]
          ]
        ]
      }
    },
    {
      "type": "Feature",
      "properties": {
        "id": "nizhny_novgorod_-2_-2_6e4eae01_osm_way_189229953_31",
        "object_type": "restriction",
        "restriction_type": "road",
        "name": "Одесская улица",
        "osm_kind": "major_road",
        "osm_id": 189229953,
        "osm_type": "way",
        "osm_tags": {
          "highway": "secondary",
          "name": "Одесская улица"
        },
        "case_id": "nizhny_novgorod_-2_-2_6e4eae01"
      },
      "geometry": {
        "type": "LineString",
        "coordinates": [
          [
            43.9773293,
            56.3136462
          ],
          [
            43.9772847,
            56.3135204
          ],
          [
            43.976876,
            56.3126682
          ],
          [
            43.9768308,
            56.3125769
          ],
          [
            43.9768006,
            56.3125072
          ]
        ]
      }
    },
    {
      "type": "Feature",
      "properties": {
        "id": "nizhny_novgorod_-2_-2_6e4eae01_osm_way_189229954_32",
        "object_type": "restriction",
        "restriction_type": "road",
        "name": "улица Максима Горького",
        "osm_kind": "major_road",
        "osm_id": 189229954,
        "osm_type": "way",
        "osm_tags": {
          "highway": "secondary",
          "name": "улица Максима Горького"
        },
        "case_id": "nizhny_novgorod_-2_-2_6e4eae01"
      },
      "geometry": {
        "type": "LineString",
        "coordinates": [
          [
            43.9764133,
            56.3117794
          ],
          [
            43.97643,
            56.3117105
          ],
          [
            43.9764757,
            56.3116504
          ],
          [
            43.9765285,
            56.3116126
          ]
        ]
      }
    },
    {
      "type": "Feature",
      "properties": {
        "id": "nizhny_novgorod_-2_-2_6e4eae01_osm_way_189247376_33",
        "object_type": "restriction",
        "restriction_type": "road",
        "name": "Большая Перекрёстная улица",
        "osm_kind": "road",
        "osm_id": 189247376,
        "osm_type": "way",
        "osm_tags": {
          "highway": "residential",
          "name": "Большая Перекрёстная улица"
        },
        "case_id": "nizhny_novgorod_-2_-2_6e4eae01"
      },
      "geometry": {
        "type": "LineString",
        "coordinates": [
          [
            43.9765732,
            56.3125518
          ],
          [
            43.9764334,
            56.3125754
          ],
          [
            43.9749031,
            56.3128267
          ],
          [
            43.9744229,
            56.3129211
          ],
          [
            43.9733957,
            56.313087
          ]
        ]
      }
    },
    {
      "type": "Feature",
      "properties": {
        "id": "nizhny_novgorod_-2_-2_6e4eae01_osm_way_189247377_34",
        "object_type": "restriction",
        "restriction_type": "road",
        "name": "Одесская улица",
        "osm_kind": "major_road",
        "osm_id": 189247377,
        "osm_type": "way",
        "osm_tags": {
          "highway": "secondary",
          "name": "Одесская улица"
        },
        "case_id": "nizhny_novgorod_-2_-2_6e4eae01"
      },
      "geometry": {
        "type": "LineString",
        "coordinates": [
          [
            43.9768006,
            56.3125072
          ],
          [
            43.9767502,
            56.312401
          ],
          [
            43.9764612,
            56.3118681
          ],
          [
            43.9764133,
            56.3117794
          ]
        ]
      }
    },
    {
      "type": "Feature",
      "properties": {
        "id": "nizhny_novgorod_-2_-2_6e4eae01_osm_way_189326512_35",
        "object_type": "restriction",
        "restriction_type": "road",
        "name": "Одесская улица",
        "osm_kind": "major_road",
        "osm_id": 189326512,
        "osm_type": "way",
        "osm_tags": {
          "highway": "secondary",
          "name": "Одесская улица"
        },
        "case_id": "nizhny_novgorod_-2_-2_6e4eae01"
      },
      "geometry": {
        "type": "LineString",
        "coordinates": [
          [
            43.9764133,
            56.3117794
          ],
          [
            43.9761654,
            56.3113007
          ],
          [
            43.9759848,
            56.3109339
          ],
          [
            43.9757789,
            56.3104768
          ],
          [
            43.9756907,
            56.3102041
          ],
          [
            43.9756523,
            56.3099876
          ],
          [
            43.9756184,
            56.309683
          ],
          [
            43.9756133,
            56.3095635
          ]
        ]
      }
    },
    {
      "type": "Feature",
      "properties": {
        "id": "nizhny_novgorod_-2_-2_6e4eae01_osm_way_189784253_36",
        "object_type": "restriction",
        "restriction_type": "road",
        "name": "Большая Перекрёстная улица",
        "osm_kind": "major_road",
        "osm_id": 189784253,
        "osm_type": "way",
        "osm_tags": {
          "highway": "secondary",
          "name": "Большая Перекрёстная улица"
        },
        "case_id": "nizhny_novgorod_-2_-2_6e4eae01"
      },
      "geometry": {
        "type": "LineString",
        "coordinates": [
          [
            43.9769938,
            56.3124686
          ],
          [
            43.9768006,
            56.3125072
          ]
        ]
      }
    },
    {
      "type": "Feature",
      "properties": {
        "id": "nizhny_novgorod_-2_-2_6e4eae01_osm_way_210554847_37",
        "object_type": "restriction",
        "restriction_type": "road",
        "name": "",
        "osm_kind": "road",
        "osm_id": 210554847,
        "osm_type": "way",
        "osm_tags": {
          "highway": "footway"
        },
        "case_id": "nizhny_novgorod_-2_-2_6e4eae01"
      },
      "geometry": {
        "type": "LineString",
        "coordinates": [
          [
            43.978806,
            56.3113224
          ],
          [
            43.9787648,
            56.3113097
          ],
          [
            43.9786971,
            56.3113048
          ],
          [
            43.9786159,
            56.3113073
          ],
          [
            43.9771118,
            56.311591
          ],
          [
            43.9770637,
            56.3116066
          ],
          [
            43.9769019,
            56.3116786
          ],
          [
            43.9768514,
            56.3117309
          ],
          [
            43.9768228,
            56.3117857
          ],
          [
            43.9768207,
            56.3118502
          ],
          [
            43.9769734,
            56.3121575
          ],
          [
            43.9770384,
            56.3122893
          ]
        ]
      }
    },
    {
      "type": "Feature",
      "properties": {
        "id": "nizhny_novgorod_-2_-2_6e4eae01_osm_way_268675076_38",
        "object_type": "restriction",
        "restriction_type": "oks",
        "name": "",
        "osm_kind": "building",
        "osm_id": 268675076,
        "osm_type": "way",
        "osm_tags": {
          "building": "yes"
        },
        "case_id": "nizhny_novgorod_-2_-2_6e4eae01"
      },
      "geometry": {
        "type": "Polygon",
        "coordinates": [
          [
            [
              43.9774069,
              56.3125949
            ],
            [
              43.9775056,
              56.3125824
            ],
            [
              43.9774709,
              56.312498
            ],
            [
              43.9773722,
              56.3125104
            ],
            [
              43.9774069,
              56.3125949
            ]
          ]
        ]
      }
    },
    {
      "type": "Feature",
      "properties": {
        "id": "nizhny_novgorod_-2_-2_6e4eae01_osm_way_356689098_39",
        "object_type": "restriction",
        "restriction_type": "road",
        "name": "",
        "osm_kind": "road",
        "osm_id": 356689098,
        "osm_type": "way",
        "osm_tags": {
          "highway": "footway"
        },
        "case_id": "nizhny_novgorod_-2_-2_6e4eae01"
      },
      "geometry": {
        "type": "LineString",
        "coordinates": [
          [
            43.9778401,
            56.3135125
          ],
          [
            43.9777787,
            56.3135246
          ],
          [
            43.9777423,
            56.3135251
          ],
          [
            43.9776813,
            56.3135177
          ],
          [
            43.9776066,
            56.3134847
          ],
          [
            43.9775615,
            56.3134376
          ],
          [
            43.9771148,
            56.3125821
          ],
          [
            43.9771177,
            56.3125343
          ],
          [
            43.9771306,
            56.312515
          ],
          [
            43.9771767,
            56.3124846
          ],
          [
            43.9772173,
            56.3124691
          ],
          [
            43.9772623,
            56.3124578
          ]
        ]
      }
    },
    {
      "type": "Feature",
      "properties": {
        "id": "nizhny_novgorod_-2_-2_6e4eae01_osm_way_356689100_40",
        "object_type": "restriction",
        "restriction_type": "road",
        "name": "",
        "osm_kind": "road",
        "osm_id": 356689100,
        "osm_type": "way",
        "osm_tags": {
          "highway": "footway"
        },
        "case_id": "nizhny_novgorod_-2_-2_6e4eae01"
      },
      "geometry": {
        "type": "LineString",
        "coordinates": [
          [
            43.9772325,
            56.3123841
          ],
          [
            43.9772481,
            56.3124195
          ],
          [
            43.9772623,
            56.3124578
          ]
        ]
      }
    },
    {
      "type": "Feature",
      "properties": {
        "id": "nizhny_novgorod_-2_-2_6e4eae01_osm_way_356689104_41",
        "object_type": "restriction",
        "restriction_type": "road",
        "name": "",
        "osm_kind": "road",
        "osm_id": 356689104,
        "osm_type": "way",
        "osm_tags": {
          "highway": "footway"
        },
        "case_id": "nizhny_novgorod_-2_-2_6e4eae01"
      },
      "geometry": {
        "type": "LineString",
        "coordinates": [
          [
            43.9770384,
            56.3122893
          ],
          [
            43.9770668,
            56.3123171
          ],
          [
            43.9771067,
            56.3123455
          ],
          [
            43.9771277,
            56.3123796
          ],
          [
            43.977171,
            56.3123911
          ],
          [
            43.9772325,
            56.3123841
          ]
        ]
      }
    },
    {
      "type": "Feature",
      "properties": {
        "id": "nizhny_novgorod_-2_-2_6e4eae01_osm_way_356689105_42",
        "object_type": "restriction",
        "restriction_type": "road",
        "name": "",
        "osm_kind": "road",
        "osm_id": 356689105,
        "osm_type": "way",
        "osm_tags": {
          "highway": "footway"
        },
        "case_id": "nizhny_novgorod_-2_-2_6e4eae01"
      },
      "geometry": {
        "type": "LineString",
        "coordinates": [
          [
            43.9796301,
            56.3131943
          ],
          [
            43.9795708,
            56.3129582
          ],
          [
            43.9794571,
            56.3125762
          ],
          [
            43.9792822,
            56.3121835
          ],
          [
            43.9792461,
            56.312096
          ],
          [
            43.9788529,
            56.3114023
          ],
          [
            43.978806,
            56.3113224
          ]
        ]
      }
    },
    {
      "type": "Feature",
      "properties": {
        "id": "nizhny_novgorod_-2_-2_6e4eae01_osm_way_356689106_43",
        "object_type": "restriction",
        "restriction_type": "road",
        "name": "",
        "osm_kind": "road",
        "osm_id": 356689106,
        "osm_type": "way",
        "osm_tags": {
          "highway": "footway"
        },
        "case_id": "nizhny_novgorod_-2_-2_6e4eae01"
      },
      "geometry": {
        "type": "LineString",
        "coordinates": [
          [
            43.9792822,
            56.3121835
          ],
          [
            43.9784298,
            56.3123119
          ],
          [
            43.978215,
            56.3123442
          ],
          [
            43.9781938,
            56.3123474
          ],
          [
            43.9780314,
            56.3123851
          ],
          [
            43.9778826,
            56.3124133
          ],
          [
            43.9773595,
            56.3124914
          ],
          [
            43.9772778,
            56.3124777
          ],
          [
            43.9772623,
            56.3124578
          ]
        ]
      }
    },
    {
      "type": "Feature",
      "properties": {
        "id": "nizhny_novgorod_-2_-2_6e4eae01_osm_way_356689110_44",
        "object_type": "restriction",
        "restriction_type": "park",
        "name": "",
        "osm_kind": "green",
        "osm_id": 356689110,
        "osm_type": "way",
        "osm_tags": {
          "landuse": "grass"
        },
        "case_id": "nizhny_novgorod_-2_-2_6e4eae01"
      },
      "geometry": {
        "type": "Polygon",
        "coordinates": [
          [
            [
              43.9773653,
              56.3134283
            ],
            [
              43.9773445,
              56.3134268
            ],
            [
              43.9773316,
              56.3134188
            ],
            [
              43.9768929,
              56.3125624
            ],
            [
              43.9768929,
              56.3125525
            ],
            [
              43.97691,
              56.3125452
            ],
            [
              43.9769286,
              56.3125447
            ],
            [
              43.9769453,
              56.3125536
            ],
            [
              43.9773834,
              56.3134118
            ],
            [
              43.9773803,
              56.3134218
            ],
            [
              43.9773653,
              56.3134283
            ]
          ]
        ]
      }
    },
    {
      "type": "Feature",
      "properties": {
        "id": "nizhny_novgorod_-2_-2_6e4eae01_osm_way_357243130_45",
        "object_type": "restriction",
        "restriction_type": "road",
        "name": "",
        "osm_kind": "road",
        "osm_id": 357243130,
        "osm_type": "way",
        "osm_tags": {
          "highway": "footway"
        },
        "case_id": "nizhny_novgorod_-2_-2_6e4eae01"
      },
      "geometry": {
        "type": "LineString",
        "coordinates": [
          [
            43.9796299,
            56.31129
          ],
          [
            43.9795344,
            56.3112631
          ],
          [
            43.9795016,
            56.3112252
          ],
          [
            43.9795048,
            56.3111942
          ],
          [
            43.9795963,
            56.3111543
          ],
          [
            43.9807841,
            56.3109426
          ],
          [
            43.9808633,
            56.3109365
          ],
          [
            43.9809316,
            56.3109517
          ],
          [
            43.9809807,
            56.3109744
          ]
        ]
      }
    },
    {
      "type": "Feature",
      "properties": {
        "id": "nizhny_novgorod_-2_-2_6e4eae01_osm_way_357243132_46",
        "object_type": "restriction",
        "restriction_type": "road",
        "name": "",
        "osm_kind": "road",
        "osm_id": 357243132,
        "osm_type": "way",
        "osm_tags": {
          "highway": "footway"
        },
        "case_id": "nizhny_novgorod_-2_-2_6e4eae01"
      },
      "geometry": {
        "type": "LineString",
        "coordinates": [
          [
            43.9773079,
            56.3139544
          ],
          [
            43.9773024,
            56.3139079
          ],
          [
            43.9772991,
            56.3138795
          ],
          [
            43.9773045,
            56.3138325
          ],
          [
            43.97728,
            56.3137735
          ],
          [
            43.9771771,
            56.3136695
          ],
          [
            43.9772226,
            56.31356
          ],
          [
            43.9772254,
            56.3135145
          ],
          [
            43.9767967,
            56.3126437
          ],
          [
            43.9767175,
            56.3125937
          ],
          [
            43.9766738,
            56.3125756
          ],
          [
            43.9766554,
            56.3125357
          ],
          [
            43.9766219,
            56.3124711
          ],
          [
            43.9766602,
            56.312415
          ],
          [
            43.9766691,
            56.312378
          ],
          [
            43.9761759,
            56.311477
          ],
          [
            43.9761303,
            56.3113755
          ]
        ]
      }
    },
    {
      "type": "Feature",
      "properties": {
        "id": "nizhny_novgorod_-2_-2_6e4eae01_osm_way_357243139_47",
        "object_type": "restriction",
        "restriction_type": "road",
        "name": "",
        "osm_kind": "road",
        "osm_id": 357243139,
        "osm_type": "way",
        "osm_tags": {
          "highway": "steps"
        },
        "case_id": "nizhny_novgorod_-2_-2_6e4eae01"
      },
      "geometry": {
        "type": "LineString",
        "coordinates": [
          [
            43.9760292,
            56.3114961
          ],
          [
            43.9761759,
            56.311477
          ]
        ]
      }
    },
    {
      "type": "Feature",
      "properties": {
        "id": "nizhny_novgorod_-2_-2_6e4eae01_osm_way_357243143_48",
        "object_type": "restriction",
        "restriction_type": "road",
        "name": "",
        "osm_kind": "road",
        "osm_id": 357243143,
        "osm_type": "way",
        "osm_tags": {
          "highway": "footway"
        },
        "case_id": "nizhny_novgorod_-2_-2_6e4eae01"
      },
      "geometry": {
        "type": "LineString",
        "coordinates": [
          [
            43.9808606,
            56.310673
          ],
          [
            43.9808524,
            56.3107063
          ],
          [
            43.9808251,
            56.3107442
          ],
          [
            43.9807923,
            56.3107699
          ],
          [
            43.980716,
            56.3107985
          ],
          [
            43.9793828,
            56.3110269
          ],
          [
            43.9786535,
            56.3111493
          ],
          [
            43.9781518,
            56.3112375
          ],
          [
            43.9770917,
            56.3114238
          ],
          [
            43.9769711,
            56.3114311
          ],
          [
            43.9768913,
            56.3114316
          ],
          [
            43.9767711,
            56.3114181
          ],
          [
            43.9766448,
            56.3113735
          ],
          [
            43.9765517,
            56.3113167
          ],
          [
            43.9764606,
            56.311222
          ],
          [
            43.976084,
            56.3105008
          ],
          [
            43.9759563,
            56.310178
          ],
          [
            43.9759371,
            56.3100422
          ],
          [
            43.9759206,
            56.3099156
          ],
          [
            43.9759256,
            56.309806
          ],
          [
            43.9760941,
            56.3097126
          ],
          [
            43.9762498,
            56.3096446
          ],
          [
            43.9763413,
            56.3096338
          ],
          [
            43.9764738,
            56.309612
          ],
          [
            43.9770992,
            56.3094933
          ]
        ]
      }
    },
    {
      "type": "Feature",
      "properties": {
        "id": "nizhny_novgorod_-2_-2_6e4eae01_osm_way_357243145_49",
        "object_type": "restriction",
        "restriction_type": "road",
        "name": "",
        "osm_kind": "road",
        "osm_id": 357243145,
        "osm_type": "way",
        "osm_tags": {
          "highway": "footway"
        },
        "case_id": "nizhny_novgorod_-2_-2_6e4eae01"
      },
      "geometry": {
        "type": "LineString",
        "coordinates": [
          [
            43.9814307,
            56.3117939
          ],
          [
            43.9803093,
            56.3115526
          ],
          [
            43.980038,
            56.3114988
          ],
          [
            43.9795722,
            56.3113945
          ],
          [
            43.9793338,
            56.3113433
          ]
        ]
      }
    },
    {
      "type": "Feature",
      "properties": {
        "id": "nizhny_novgorod_-2_-2_6e4eae01_osm_way_357243148_50",
        "object_type": "restriction",
        "restriction_type": "road",
        "name": "",
        "osm_kind": "road",
        "osm_id": 357243148,
        "osm_type": "way",
        "osm_tags": {
          "highway": "footway"
        },
        "case_id": "nizhny_novgorod_-2_-2_6e4eae01"
      },
      "geometry": {
        "type": "LineString",
        "coordinates": [
          [
            43.9795722,
            56.3113945
          ],
          [
            43.9796053,
            56.3113389
          ],
          [
            43.9796299,
            56.31129
          ]
        ]
      }
    },
    {
      "type": "Feature",
      "properties": {
        "id": "nizhny_novgorod_-2_-2_6e4eae01_osm_way_357243154_51",
        "object_type": "restriction",
        "restriction_type": "road",
        "name": "",
        "osm_kind": "road",
        "osm_id": 357243154,
        "osm_type": "way",
        "osm_tags": {
          "highway": "footway"
        },
        "case_id": "nizhny_novgorod_-2_-2_6e4eae01"
      },
      "geometry": {
        "type": "LineString",
        "coordinates": [
          [
            43.9793338,
            56.3113433
          ],
          [
            43.9792286,
            56.311337
          ],
          [
            43.9791494,
            56.3113779
          ]
        ]
      }
    },
    {
      "type": "Feature",
      "properties": {
        "id": "nizhny_novgorod_-2_-2_6e4eae01_osm_way_357243155_52",
        "object_type": "restriction",
        "restriction_type": "road",
        "name": "",
        "osm_kind": "road",
        "osm_id": 357243155,
        "osm_type": "way",
        "osm_tags": {
          "highway": "footway"
        },
        "case_id": "nizhny_novgorod_-2_-2_6e4eae01"
      },
      "geometry": {
        "type": "LineString",
        "coordinates": [
          [
            43.9769711,
            56.3114311
          ],
          [
            43.9769948,
            56.31148
          ],
          [
            43.9769987,
            56.3114916
          ],
          [
            43.9770368,
            56.3115591
          ],
          [
            43.9770637,
            56.3116066
          ]
        ]
      }
    },
    {
      "type": "Feature",
      "properties": {
        "id": "nizhny_novgorod_-2_-2_6e4eae01_osm_way_357243159_53",
        "object_type": "restriction",
        "restriction_type": "road",
        "name": "",
        "osm_kind": "road",
        "osm_id": 357243159,
        "osm_type": "way",
        "osm_tags": {
          "highway": "footway"
        },
        "case_id": "nizhny_novgorod_-2_-2_6e4eae01"
      },
      "geometry": {
        "type": "LineString",
        "coordinates": [
          [
            43.9795048,
            56.3111942
          ],
          [
            43.9794618,
            56.3111705
          ],
          [
            43.9794438,
            56.3111415
          ],
          [
            43.9794074,
            56.3110758
          ],
          [
            43.9793828,
            56.3110269
          ]
        ]
      }
    },
    {
      "type": "Feature",
      "properties": {
        "id": "nizhny_novgorod_-2_-2_6e4eae01_osm_way_357243161_54",
        "object_type": "restriction",
        "restriction_type": "road",
        "name": "",
        "osm_kind": "road",
        "osm_id": 357243161,
        "osm_type": "way",
        "osm_tags": {
          "highway": "footway"
        },
        "case_id": "nizhny_novgorod_-2_-2_6e4eae01"
      },
      "geometry": {
        "type": "LineString",
        "coordinates": [
          [
            43.9766602,
            56.312415
          ],
          [
            43.9767502,
            56.312401
          ],
          [
            43.9769438,
            56.3123713
          ],
          [
            43.9771067,
            56.3123455
          ]
        ]
      }
    },
    {
      "type": "Feature",
      "properties": {
        "id": "nizhny_novgorod_-2_-2_6e4eae01_osm_way_357243162_55",
        "object_type": "restriction",
        "restriction_type": "road",
        "name": "",
        "osm_kind": "road",
        "osm_id": 357243162,
        "osm_type": "way",
        "osm_tags": {
          "highway": "footway"
        },
        "case_id": "nizhny_novgorod_-2_-2_6e4eae01"
      },
      "geometry": {
        "type": "LineString",
        "coordinates": [
          [
            43.9791494,
            56.3113779
          ],
          [
            43.979097,
            56.3113694
          ],
          [
            43.978967,
            56.3113831
          ],
          [
            43.9788529,
            56.3114023
          ]
        ]
      }
    },
    {
      "type": "Feature",
      "properties": {
        "id": "nizhny_novgorod_-2_-2_6e4eae01_osm_way_357243166_56",
        "object_type": "restriction",
        "restriction_type": "road",
        "name": "",
        "osm_kind": "road",
        "osm_id": 357243166,
        "osm_type": "way",
        "osm_tags": {
          "highway": "footway"
        },
        "case_id": "nizhny_novgorod_-2_-2_6e4eae01"
      },
      "geometry": {
        "type": "LineString",
        "coordinates": [
          [
            43.9771177,
            56.3125343
          ],
          [
            43.9770326,
            56.3125469
          ],
          [
            43.9768308,
            56.3125769
          ],
          [
            43.9767175,
            56.3125937
          ]
        ]
      }
    },
    {
      "type": "Feature",
      "properties": {
        "id": "nizhny_novgorod_-2_-2_6e4eae01_osm_way_364707210_57",
        "object_type": "restriction",
        "restriction_type": "road",
        "name": "",
        "osm_kind": "road",
        "osm_id": 364707210,
        "osm_type": "way",
        "osm_tags": {
          "highway": "service"
        },
        "case_id": "nizhny_novgorod_-2_-2_6e4eae01"
      },
      "geometry": {
        "type": "LineString",
        "coordinates": [
          [
            43.9772723,
            56.3105535
          ],
          [
            43.9772292,
            56.3104719
          ],
          [
            43.9772374,
            56.3099441
          ],
          [
            43.9771262,
            56.3096319
          ],
          [
            43.9770992,
            56.3094933
          ],
          [
            43.9770955,
            56.3094204
          ]
        ]
      }
    },
    {
      "type": "Feature",
      "properties": {
        "id": "nizhny_novgorod_-2_-2_6e4eae01_osm_way_364707211_58",
        "object_type": "restriction",
        "restriction_type": "road",
        "name": "",
        "osm_kind": "road",
        "osm_id": 364707211,
        "osm_type": "way",
        "osm_tags": {
          "highway": "service"
        },
        "case_id": "nizhny_novgorod_-2_-2_6e4eae01"
      },
      "geometry": {
        "type": "LineString",
        "coordinates": [
          [
            43.9784366,
            56.3111127
          ],
          [
            43.9783721,
            56.3110591
          ],
          [
            43.9780278,
            56.31096
          ],
          [
            43.977821,
            56.3108381
          ],
          [
            43.977444,
            56.3106154
          ],
          [
            43.9772723,
            56.3105535
          ]
        ]
      }
    },
    {
      "type": "Feature",
      "properties": {
        "id": "nizhny_novgorod_-2_-2_6e4eae01_osm_way_401954075_59",
        "object_type": "restriction",
        "restriction_type": "road",
        "name": "",
        "osm_kind": "road",
        "osm_id": 401954075,
        "osm_type": "way",
        "osm_tags": {
          "highway": "service"
        },
        "case_id": "nizhny_novgorod_-2_-2_6e4eae01"
      },
      "geometry": {
        "type": "LineString",
        "coordinates": [
          [
            43.9806204,
            56.3107456
          ],
          [
            43.9789103,
            56.3110293
          ],
          [
            43.9788052,
            56.3108092
          ],
          [
            43.9789447,
            56.3106686
          ],
          [
            43.9792409,
            56.3106201
          ],
          [
            43.9800654,
            56.310486
          ],
          [
            43.9800023,
            56.3103425
          ],
          [
            43.980469,
            56.3102571
          ],
          [
            43.9806608,
            56.310221
          ]
        ]
      }
    },
    {
      "type": "Feature",
      "properties": {
        "id": "nizhny_novgorod_-2_-2_6e4eae01_osm_way_498066452_60",
        "object_type": "restriction",
        "restriction_type": "road",
        "name": "дублёр улицы Красносельской",
        "osm_kind": "major_road",
        "osm_id": 498066452,
        "osm_type": "way",
        "osm_tags": {
          "highway": "secondary",
          "name": "дублёр улицы Красносельской"
        },
        "case_id": "nizhny_novgorod_-2_-2_6e4eae01"
      },
      "geometry": {
        "type": "LineString",
        "coordinates": [
          [
            43.9798491,
            56.3109994
          ],
          [
            43.9806903,
            56.310854
          ],
          [
            43.9808205,
            56.3108314
          ],
          [
            43.9808974,
            56.3108182
          ],
          [
            43.9810058,
            56.3107994
          ]
        ]
      }
    },
    {
      "type": "Feature",
      "properties": {
        "id": "nizhny_novgorod_-2_-2_6e4eae01_osm_way_619865987_61",
        "object_type": "restriction",
        "restriction_type": "road",
        "name": "",
        "osm_kind": "road",
        "osm_id": 619865987,
        "osm_type": "way",
        "osm_tags": {
          "highway": "service"
        },
        "case_id": "nizhny_novgorod_-2_-2_6e4eae01"
      },
      "geometry": {
        "type": "LineString",
        "coordinates": [
          [
            43.9798801,
            56.3126471
          ],
          [
            43.979672,
            56.312648
          ]
        ]
      }
    },
    {
      "type": "Feature",
      "properties": {
        "id": "nizhny_novgorod_-2_-2_6e4eae01_osm_way_619865988_62",
        "object_type": "restriction",
        "restriction_type": "oks",
        "name": "",
        "osm_kind": "building",
        "osm_id": 619865988,
        "osm_type": "way",
        "osm_tags": {
          "building": "yes"
        },
        "case_id": "nizhny_novgorod_-2_-2_6e4eae01",
        "selected_as_heat_demand_proxy": true,
        "connection_point_id": "nizhny_novgorod_-2_-2_6e4eae01_cp_4"
      },
      "geometry": {
        "type": "Polygon",
        "coordinates": [
          [
            [
              43.9798798,
              56.3126765
            ],
            [
              43.9798801,
              56.3126471
            ],
            [
              43.9798805,
              56.3126177
            ],
            [
              43.9801501,
              56.3126188
            ],
            [
              43.9801493,
              56.3126776
            ],
            [
              43.9798798,
              56.3126765
            ]
          ]
        ]
      }
    },
    {
      "type": "Feature",
      "properties": {
        "id": "nizhny_novgorod_-2_-2_6e4eae01_osm_way_619865990_63",
        "object_type": "restriction",
        "restriction_type": "road",
        "name": "",
        "osm_kind": "road",
        "osm_id": 619865990,
        "osm_type": "way",
        "osm_tags": {
          "highway": "service"
        },
        "case_id": "nizhny_novgorod_-2_-2_6e4eae01"
      },
      "geometry": {
        "type": "LineString",
        "coordinates": [
          [
            43.9796334,
            56.3125937
          ],
          [
            43.9797599,
            56.3125802
          ],
          [
            43.9799613,
            56.3125588
          ],
          [
            43.9802134,
            56.3124234
          ],
          [
            43.9803243,
            56.3124036
          ],
          [
            43.9809403,
            56.312294
          ]
        ]
      }
    },
    {
      "type": "Feature",
      "properties": {
        "id": "nizhny_novgorod_-2_-2_6e4eae01_osm_way_619869650_64",
        "object_type": "restriction",
        "restriction_type": "road",
        "name": "",
        "osm_kind": "road",
        "osm_id": 619869650,
        "osm_type": "way",
        "osm_tags": {
          "highway": "path"
        },
        "case_id": "nizhny_novgorod_-2_-2_6e4eae01"
      },
      "geometry": {
        "type": "LineString",
        "coordinates": [
          [
            43.9789044,
            56.3126987
          ],
          [
            43.9789526,
            56.3126887
          ]
        ]
      }
    },
    {
      "type": "Feature",
      "properties": {
        "id": "nizhny_novgorod_-2_-2_6e4eae01_osm_way_674037894_65",
        "object_type": "restriction",
        "restriction_type": "oks",
        "name": "",
        "osm_kind": "building",
        "osm_id": 674037894,
        "osm_type": "way",
        "osm_tags": {
          "building": "yes"
        },
        "case_id": "nizhny_novgorod_-2_-2_6e4eae01"
      },
      "geometry": {
        "type": "Polygon",
        "coordinates": [
          [
            [
              43.9803627,
              56.3127432
            ],
            [
              43.9803818,
              56.3127398
            ],
            [
              43.9803753,
              56.3127284
            ],
            [
              43.9803561,
              56.3127318
            ],
            [
              43.9803627,
              56.3127432
            ]
          ]
        ]
      }
    },
    {
      "type": "Feature",
      "properties": {
        "id": "nizhny_novgorod_-2_-2_6e4eae01_osm_way_841280199_66",
        "object_type": "restriction",
        "restriction_type": "oks",
        "name": "",
        "osm_kind": "building",
        "osm_id": 841280199,
        "osm_type": "way",
        "osm_tags": {
          "building": "yes"
        },
        "case_id": "nizhny_novgorod_-2_-2_6e4eae01"
      },
      "geometry": {
        "type": "Polygon",
        "coordinates": [
          [
            [
              43.9779356,
              56.3108156
            ],
            [
              43.9780335,
              56.3107399
            ],
            [
              43.978129,
              56.3107779
            ],
            [
              43.978031,
              56.3108536
            ],
            [
              43.9779356,
              56.3108156
            ]
          ]
        ]
      }
    },
    {
      "type": "Feature",
      "properties": {
        "id": "nizhny_novgorod_-2_-2_6e4eae01_osm_way_841280202_67",
        "object_type": "restriction",
        "restriction_type": "road",
        "name": "",
        "osm_kind": "road",
        "osm_id": 841280202,
        "osm_type": "way",
        "osm_tags": {
          "highway": "service"
        },
        "case_id": "nizhny_novgorod_-2_-2_6e4eae01"
      },
      "geometry": {
        "type": "LineString",
        "coordinates": [
          [
            43.9792386,
            56.3096172
          ],
          [
            43.979591,
            56.3096564
          ],
          [
            43.9797557,
            56.3099787
          ],
          [
            43.9795869,
            56.3100761
          ],
          [
            43.9797319,
            56.3103241
          ],
          [
            43.9800023,
            56.3103425
          ]
        ]
      }
    },
    {
      "type": "Feature",
      "properties": {
        "id": "nizhny_novgorod_-2_-2_6e4eae01_osm_way_1052298843_68",
        "object_type": "restriction",
        "restriction_type": "road",
        "name": "",
        "osm_kind": "road",
        "osm_id": 1052298843,
        "osm_type": "way",
        "osm_tags": {
          "highway": "service"
        },
        "case_id": "nizhny_novgorod_-2_-2_6e4eae01"
      },
      "geometry": {
        "type": "LineString",
        "coordinates": [
          [
            43.9774265,
            56.3123906
          ],
          [
            43.9773778,
            56.312298
          ],
          [
            43.9773447,
            56.3122351
          ]
        ]
      }
    },
    {
      "type": "Feature",
      "properties": {
        "id": "nizhny_novgorod_-2_-2_6e4eae01_osm_way_1177890121_69",
        "object_type": "restriction",
        "restriction_type": "road",
        "name": "",
        "osm_kind": "road",
        "osm_id": 1177890121,
        "osm_type": "way",
        "osm_tags": {
          "highway": "service"
        },
        "case_id": "nizhny_novgorod_-2_-2_6e4eae01"
      },
      "geometry": {
        "type": "LineString",
        "coordinates": [
          [
            43.9773447,
            56.3122351
          ],
          [
            43.9771039,
            56.3117706
          ]
        ]
      }
    },
    {
      "type": "Feature",
      "properties": {
        "id": "nizhny_novgorod_-2_-2_6e4eae01_osm_way_1178127631_70",
        "object_type": "restriction",
        "restriction_type": "road",
        "name": "",
        "osm_kind": "road",
        "osm_id": 1178127631,
        "osm_type": "way",
        "osm_tags": {
          "highway": "service"
        },
        "case_id": "nizhny_novgorod_-2_-2_6e4eae01"
      },
      "geometry": {
        "type": "LineString",
        "coordinates": [
          [
            43.9792409,
            56.3106201
          ],
          [
            43.9790761,
            56.3103018
          ]
        ]
      }
    },
    {
      "type": "Feature",
      "properties": {
        "id": "nizhny_novgorod_-2_-2_6e4eae01_osm_way_1178127632_71",
        "object_type": "restriction",
        "restriction_type": "road",
        "name": "",
        "osm_kind": "road",
        "osm_id": 1178127632,
        "osm_type": "way",
        "osm_tags": {
          "highway": "service"
        },
        "case_id": "nizhny_novgorod_-2_-2_6e4eae01"
      },
      "geometry": {
        "type": "LineString",
        "coordinates": [
          [
            43.9789447,
            56.3106686
          ],
          [
            43.9788294,
            56.3104283
          ]
        ]
      }
    },
    {
      "type": "Feature",
      "properties": {
        "id": "nizhny_novgorod_-2_-2_6e4eae01_osm_way_1178127633_72",
        "object_type": "restriction",
        "restriction_type": "road",
        "name": "",
        "osm_kind": "road",
        "osm_id": 1178127633,
        "osm_type": "way",
        "osm_tags": {
          "highway": "service"
        },
        "case_id": "nizhny_novgorod_-2_-2_6e4eae01"
      },
      "geometry": {
        "type": "LineString",
        "coordinates": [
          [
            43.9789103,
            56.3110293
          ],
          [
            43.9784366,
            56.3111127
          ],
          [
            43.9781506,
            56.311163
          ],
          [
            43.9781264,
            56.3111744
          ],
          [
            43.9781252,
            56.3111909
          ],
          [
            43.9781518,
            56.3112375
          ],
          [
            43.9781766,
            56.3112859
          ]
        ]
      }
    },
    {
      "type": "Feature",
      "properties": {
        "id": "nizhny_novgorod_-2_-2_6e4eae01_osm_way_1194274687_73",
        "object_type": "restriction",
        "restriction_type": "road",
        "name": "",
        "osm_kind": "road",
        "osm_id": 1194274687,
        "osm_type": "way",
        "osm_tags": {
          "highway": "footway"
        },
        "case_id": "nizhny_novgorod_-2_-2_6e4eae01"
      },
      "geometry": {
        "type": "LineString",
        "coordinates": [
          [
            43.9808524,
            56.3107063
          ],
          [
            43.9806204,
            56.3107456
          ]
        ]
      }
    },
    {
      "type": "Feature",
      "properties": {
        "id": "nizhny_novgorod_-2_-2_6e4eae01_osm_way_1301720485_74",
        "object_type": "restriction",
        "restriction_type": "oks",
        "name": "",
        "osm_kind": "building",
        "osm_id": 1301720485,
        "osm_type": "way",
        "osm_tags": {
          "building": "yes"
        },
        "case_id": "nizhny_novgorod_-2_-2_6e4eae01"
      },
      "geometry": {
        "type": "Polygon",
        "coordinates": [
          [
            [
              43.9758601,
              56.3125759
            ],
            [
              43.9759961,
              56.3125503
            ],
            [
              43.9759445,
              56.3124659
            ],
            [
              43.9758084,
              56.3124915
            ],
            [
              43.9758601,
              56.3125759
            ]
          ]
        ]
      }
    },
    {
      "type": "Feature",
      "properties": {
        "id": "nizhny_novgorod_-2_-2_6e4eae01_osm_way_1301903880_75",
        "object_type": "restriction",
        "restriction_type": "oks",
        "name": "",
        "osm_kind": "building",
        "osm_id": 1301903880,
        "osm_type": "way",
        "osm_tags": {
          "building": "yes"
        },
        "case_id": "nizhny_novgorod_-2_-2_6e4eae01",
        "selected_as_heat_demand_proxy": true,
        "connection_point_id": "nizhny_novgorod_-2_-2_6e4eae01_cp_6"
      },
      "geometry": {
        "type": "Polygon",
        "coordinates": [
          [
            [
              43.9782861,
              56.3125027
            ],
            [
              43.9785007,
              56.3124685
            ],
            [
              43.9784298,
              56.3123119
            ],
            [
              43.978215,
              56.3123442
            ],
            [
              43.9782861,
              56.3125027
            ]
          ]
        ]
      }
    },
    {
      "type": "Feature",
      "properties": {
        "id": "nizhny_novgorod_-2_-2_6e4eae01_osm_way_1306075412_76",
        "object_type": "restriction",
        "restriction_type": "oks",
        "name": "",
        "osm_kind": "building",
        "osm_id": 1306075412,
        "osm_type": "way",
        "osm_tags": {
          "building": "yes"
        },
        "case_id": "nizhny_novgorod_-2_-2_6e4eae01"
      },
      "geometry": {
        "type": "Polygon",
        "coordinates": [
          [
            [
              43.977305,
              56.3116166
            ],
            [
              43.9772186,
              56.3116333
            ],
            [
              43.9772724,
              56.3117192
            ],
            [
              43.9773589,
              56.3117025
            ],
            [
              43.977305,
              56.3116166
            ]
          ]
        ]
      }
    },
    {
      "type": "Feature",
      "properties": {
        "id": "nizhny_novgorod_-2_-2_6e4eae01_osm_way_1536192787_77",
        "object_type": "restriction",
        "restriction_type": "road",
        "name": "",
        "osm_kind": "road",
        "osm_id": 1536192787,
        "osm_type": "way",
        "osm_tags": {
          "highway": "service"
        },
        "case_id": "nizhny_novgorod_-2_-2_6e4eae01"
      },
      "geometry": {
        "type": "LineString",
        "coordinates": [
          [
            43.9764811,
            56.3126719
          ],
          [
            43.9751413,
            56.3128905
          ],
          [
            43.9752862,
            56.3132186
          ],
          [
            43.9752915,
            56.3132513
          ],
          [
            43.9752822,
            56.3132907
          ],
          [
            43.9752616,
            56.313365
          ]
        ]
      }
    },
    {
      "type": "Feature",
      "properties": {
        "id": "nizhny_novgorod_-2_-2_6e4eae01_osm_way_1536192788_78",
        "object_type": "restriction",
        "restriction_type": "road",
        "name": "",
        "osm_kind": "road",
        "osm_id": 1536192788,
        "osm_type": "way",
        "osm_tags": {
          "highway": "service"
        },
        "case_id": "nizhny_novgorod_-2_-2_6e4eae01"
      },
      "geometry": {
        "type": "LineString",
        "coordinates": [
          [
            43.976448,
            56.3126065
          ],
          [
            43.9764811,
            56.3126719
          ],
          [
            43.9767565,
            56.3131563
          ]
        ]
      }
    },
    {
      "type": "Feature",
      "properties": {
        "id": "nizhny_novgorod_-2_-2_6e4eae01_osm_way_1536192789_79",
        "object_type": "restriction",
        "restriction_type": "road",
        "name": "",
        "osm_kind": "road",
        "osm_id": 1536192789,
        "osm_type": "way",
        "osm_tags": {
          "highway": "residential"
        },
        "case_id": "nizhny_novgorod_-2_-2_6e4eae01"
      },
      "geometry": {
        "type": "LineString",
        "coordinates": [
          [
            43.9764334,
            56.3125754
          ],
          [
            43.976448,
            56.3126065
          ]
        ]
      }
    },
    {
      "type": "Feature",
      "properties": {
        "id": "nizhny_novgorod_-2_-2_6e4eae01_osm_way_1550842398_80",
        "object_type": "restriction",
        "restriction_type": "road",
        "name": "",
        "osm_kind": "major_road",
        "osm_id": 1550842398,
        "osm_type": "way",
        "osm_tags": {
          "highway": "secondary"
        },
        "case_id": "nizhny_novgorod_-2_-2_6e4eae01"
      },
      "geometry": {
        "type": "LineString",
        "coordinates": [
          [
            43.9762592,
            56.311059
          ],
          [
            43.9763426,
            56.3111141
          ],
          [
            43.9763829,
            56.3111554
          ],
          [
            43.9764366,
            56.3112499
          ],
          [
            43.9764935,
            56.3113269
          ],
          [
            43.9765773,
            56.3113877
          ],
          [
            43.9766855,
            56.31143
          ],
          [
            43.9769987,
            56.3114916
          ]
        ]
      }
    },
    {
      "type": "Feature",
      "properties": {
        "id": "nizhny_novgorod_-2_-2_6e4eae01_osm_way_1550842399_81",
        "object_type": "restriction",
        "restriction_type": "road",
        "name": "Большая Перекрёстная улица",
        "osm_kind": "road",
        "osm_id": 1550842399,
        "osm_type": "way",
        "osm_tags": {
          "highway": "residential",
          "name": "Большая Перекрёстная улица"
        },
        "case_id": "nizhny_novgorod_-2_-2_6e4eae01"
      },
      "geometry": {
        "type": "LineString",
        "coordinates": [
          [
            43.9768006,
            56.3125072
          ],
          [
            43.9766554,
            56.3125357
          ],
          [
            43.9765732,
            56.3125518
          ]
        ]
      }
    },
    {
      "type": "Feature",
      "properties": {
        "id": "nizhny_novgorod_-2_-2_6e4eae01_osm_way_1550842400_82",
        "object_type": "restriction",
        "restriction_type": "road",
        "name": "Большая Перекрёстная улица",
        "osm_kind": "road",
        "osm_id": 1550842400,
        "osm_type": "way",
        "osm_tags": {
          "highway": "residential",
          "name": "Большая Перекрёстная улица"
        },
        "case_id": "nizhny_novgorod_-2_-2_6e4eae01"
      },
      "geometry": {
        "type": "LineString",
        "coordinates": [
          [
            43.9772481,
            56.3124195
          ],
          [
            43.9769938,
            56.3124686
          ]
        ]
      }
    },
    {
      "type": "Feature",
      "properties": {
        "id": "nizhny_novgorod_-2_-2_6e4eae01_osm_way_1550846099_83",
        "object_type": "restriction",
        "restriction_type": "road",
        "name": "",
        "osm_kind": "major_road",
        "osm_id": 1550846099,
        "osm_type": "way",
        "osm_tags": {
          "highway": "secondary"
        },
        "case_id": "nizhny_novgorod_-2_-2_6e4eae01"
      },
      "geometry": {
        "type": "LineString",
        "coordinates": [
          [
            43.9789095,
            56.3112317
          ],
          [
            43.9788731,
            56.3111681
          ]
        ]
      }
    },
    {
      "type": "Feature",
      "properties": {
        "id": "nizhny_novgorod_-2_-2_6e4eae01_osm_way_1550846100_84",
        "object_type": "restriction",
        "restriction_type": "road",
        "name": "",
        "osm_kind": "major_road",
        "osm_id": 1550846100,
        "osm_type": "way",
        "osm_tags": {
          "highway": "secondary"
        },
        "case_id": "nizhny_novgorod_-2_-2_6e4eae01"
      },
      "geometry": {
        "type": "LineString",
        "coordinates": [
          [
            43.977819,
            56.3114221
          ],
          [
            43.9771296,
            56.3115415
          ],
          [
            43.9770368,
            56.3115591
          ],
          [
            43.9768582,
            56.3116021
          ],
          [
            43.9767572,
            56.3116384
          ],
          [
            43.9766906,
            56.3116741
          ],
          [
            43.9766446,
            56.311711
          ],
          [
            43.9766151,
            56.3117613
          ]
        ]
      }
    },
    {
      "type": "Feature",
      "properties": {
        "id": "nizhny_novgorod_-2_-2_6e4eae01_osm_way_1550846103_85",
        "object_type": "restriction",
        "restriction_type": "road",
        "name": "",
        "osm_kind": "major_road",
        "osm_id": 1550846103,
        "osm_type": "way",
        "osm_tags": {
          "highway": "secondary"
        },
        "case_id": "nizhny_novgorod_-2_-2_6e4eae01"
      },
      "geometry": {
        "type": "LineString",
        "coordinates": [
          [
            43.9802571,
            56.3110019
          ],
          [
            43.9796146,
            56.3111122
          ],
          [
            43.9794438,
            56.3111415
          ],
          [
            43.9789095,
            56.3112317
          ]
        ]
      }
    },
    {
      "type": "Feature",
      "properties": {
        "id": "nizhny_novgorod_-2_-2_6e4eae01_osm_way_1550846104_86",
        "object_type": "restriction",
        "restriction_type": "road",
        "name": "улица Максима Горького",
        "osm_kind": "major_road",
        "osm_id": 1550846104,
        "osm_type": "way",
        "osm_tags": {
          "highway": "secondary",
          "name": "улица Максима Горького"
        },
        "case_id": "nizhny_novgorod_-2_-2_6e4eae01"
      },
      "geometry": {
        "type": "LineString",
        "coordinates": [
          [
            43.9765285,
            56.3116126
          ],
          [
            43.9766134,
            56.3115754
          ],
          [
            43.9767597,
            56.3115373
          ],
          [
            43.9769987,
            56.3114916
          ]
        ]
      }
    },
    {
      "type": "Feature",
      "properties": {
        "id": "nizhny_novgorod_-2_-2_6e4eae01_osm_way_1550849172_87",
        "object_type": "restriction",
        "restriction_type": "road",
        "name": "дублёр улицы Красносельской",
        "osm_kind": "major_road",
        "osm_id": 1550849172,
        "osm_type": "way",
        "osm_tags": {
          "highway": "secondary",
          "name": "дублёр улицы Красносельской"
        },
        "case_id": "nizhny_novgorod_-2_-2_6e4eae01"
      },
      "geometry": {
        "type": "LineString",
        "coordinates": [
          [
            43.9788731,
            56.3111681
          ],
          [
            43.9794074,
            56.3110758
          ],
          [
            43.9798491,
            56.3109994
          ]
        ]
      }
    },
    {
      "type": "Feature",
      "properties": {
        "id": "nizhny_novgorod_-2_-2_6e4eae01_osm_way_1550849173_88",
        "object_type": "restriction",
        "restriction_type": "road",
        "name": "",
        "osm_kind": "major_road",
        "osm_id": 1550849173,
        "osm_type": "way",
        "osm_tags": {
          "highway": "secondary"
        },
        "case_id": "nizhny_novgorod_-2_-2_6e4eae01"
      },
      "geometry": {
        "type": "LineString",
        "coordinates": [
          [
            43.9810521,
            56.3108654
          ],
          [
            43.9808486,
            56.3109004
          ],
          [
            43.9802571,
            56.3110019
          ]
        ]
      }
    },
    {
      "type": "Feature",
      "properties": {
        "id": "nizhny_novgorod_-2_-2_6e4eae01_osm_way_1550849174_89",
        "object_type": "restriction",
        "restriction_type": "road",
        "name": "улица Максима Горького",
        "osm_kind": "major_road",
        "osm_id": 1550849174,
        "osm_type": "way",
        "osm_tags": {
          "highway": "secondary",
          "name": "улица Максима Горького"
        },
        "case_id": "nizhny_novgorod_-2_-2_6e4eae01"
      },
      "geometry": {
        "type": "LineString",
        "coordinates": [
          [
            43.9781766,
            56.3112859
          ],
          [
            43.9786108,
            56.3112119
          ],
          [
            43.9788731,
            56.3111681
          ]
        ]
      }
    },
    {
      "type": "Feature",
      "properties": {
        "id": "nizhny_novgorod_-2_-2_6e4eae01_osm_way_1550849175_90",
        "object_type": "restriction",
        "restriction_type": "road",
        "name": "",
        "osm_kind": "major_road",
        "osm_id": 1550849175,
        "osm_type": "way",
        "osm_tags": {
          "highway": "secondary"
        },
        "case_id": "nizhny_novgorod_-2_-2_6e4eae01"
      },
      "geometry": {
        "type": "LineString",
        "coordinates": [
          [
            43.9789095,
            56.3112317
          ],
          [
            43.977819,
            56.3114221
          ]
        ]
      }
    },
    {
      "type": "Feature",
      "properties": {
        "id": "nizhny_novgorod_-2_-2_6e4eae01_osm_way_1550849237_91",
        "object_type": "restriction",
        "restriction_type": "road",
        "name": "Одесская улица",
        "osm_kind": "major_road",
        "osm_id": 1550849237,
        "osm_type": "way",
        "osm_tags": {
          "highway": "secondary",
          "name": "Одесская улица"
        },
        "case_id": "nizhny_novgorod_-2_-2_6e4eae01"
      },
      "geometry": {
        "type": "LineString",
        "coordinates": [
          [
            43.9766151,
            56.3117613
          ],
          [
            43.9766568,
            56.3118329
          ],
          [
            43.9768329,
            56.312163
          ],
          [
            43.9769233,
            56.3123294
          ],
          [
            43.9769438,
            56.3123713
          ],
          [
            43.9769938,
            56.3124686
          ],
          [
            43.9770326,
            56.3125469
          ],
          [
            43.9774665,
            56.3134733
          ]
        ]
      }
    },
    {
      "type": "Feature",
      "properties": {
        "id": "nizhny_novgorod_-2_-2_6e4eae01_osm_way_1550850354_92",
        "object_type": "restriction",
        "restriction_type": "road",
        "name": "",
        "osm_kind": "major_road",
        "osm_id": 1550850354,
        "osm_type": "way",
        "osm_tags": {
          "highway": "secondary"
        },
        "case_id": "nizhny_novgorod_-2_-2_6e4eae01"
      },
      "geometry": {
        "type": "LineString",
        "coordinates": [
          [
            43.9762592,
            56.311059
          ],
          [
            43.9762802,
            56.3111297
          ],
          [
            43.9763429,
            56.3112661
          ],
          [
            43.9765285,
            56.3116126
          ]
        ]
      }
    },
    {
      "type": "Feature",
      "properties": {
        "id": "nizhny_novgorod_-2_-2_6e4eae01_osm_way_1550850355_93",
        "object_type": "restriction",
        "restriction_type": "road",
        "name": "",
        "osm_kind": "major_road",
        "osm_id": 1550850355,
        "osm_type": "way",
        "osm_tags": {
          "highway": "secondary"
        },
        "case_id": "nizhny_novgorod_-2_-2_6e4eae01"
      },
      "geometry": {
        "type": "LineString",
        "coordinates": [
          [
            43.9758833,
            56.3102398
          ],
          [
            43.97593,
            56.3103856
          ],
          [
            43.9760599,
            56.3106834
          ],
          [
            43.9762592,
            56.311059
          ]
        ]
      }
    },
    {
      "type": "Feature",
      "properties": {
        "id": "nizhny_novgorod_-2_-2_6e4eae01_osm_way_1551314368_94",
        "object_type": "restriction",
        "restriction_type": "road",
        "name": "",
        "osm_kind": "road",
        "osm_id": 1551314368,
        "osm_type": "way",
        "osm_tags": {
          "highway": "service"
        },
        "case_id": "nizhny_novgorod_-2_-2_6e4eae01"
      },
      "geometry": {
        "type": "LineString",
        "coordinates": [
          [
            43.9729078,
            56.3107769
          ],
          [
            43.9752614,
            56.3107683
          ],
          [
            43.9755028,
            56.3107674
          ],
          [
            43.9755557,
            56.3108686
          ],
          [
            43.9756192,
            56.3109163
          ],
          [
            43.975684,
            56.3109376
          ],
          [
            43.9757607,
            56.3109442
          ],
          [
            43.9759848,
            56.3109339
          ]
        ]
      }
    },
    {
      "type": "Feature",
      "properties": {
        "id": "nizhny_novgorod_-2_-2_6e4eae01_source",
        "object_type": "source",
        "case_id": "nizhny_novgorod_-2_-2_6e4eae01"
      },
      "geometry": {
        "type": "Point",
        "coordinates": [
          43.9762517,
          56.3116287
        ]
      }
    },
    {
      "type": "Feature",
      "properties": {
        "id": "nizhny_novgorod_-2_-2_6e4eae01_existing_network",
        "object_type": "heat_network",
        "diameter": 500,
        "flow_tph": 180.0,
        "upstream_object_id": "nizhny_novgorod_-2_-2_6e4eae01_source",
        "case_id": "nizhny_novgorod_-2_-2_6e4eae01"
      },
      "geometry": {
        "type": "LineString",
        "coordinates": [
          [
            43.9762517,
            56.3116287
          ],
          [
            43.9775473,
            56.3116287
          ]
        ]
      }
    },
    {
      "type": "Feature",
      "properties": {
        "id": "nizhny_novgorod_-2_-2_6e4eae01_existing_chamber",
        "object_type": "heat_chamber",
        "diameter": 500,
        "upstream_object_id": "nizhny_novgorod_-2_-2_6e4eae01_source",
        "case_id": "nizhny_novgorod_-2_-2_6e4eae01"
      },
      "geometry": {
        "type": "Point",
        "coordinates": [
          43.9775473,
          56.3116287
        ]
      }
    },
    {
      "type": "Feature",
      "properties": {
        "id": "nizhny_novgorod_-2_-2_6e4eae01_cp_1",
        "object_type": "oks_connection_point",
        "flow_tph": 5.0,
        "case_id": "nizhny_novgorod_-2_-2_6e4eae01",
        "consumer_role": "osm_building_heat_demand_proxy",
        "source_building_osm_id": 149417046,
        "source_building_osm_type": "way",
        "source_building_name": "",
        "source_building_tags": {
          "building": "yes"
        },
        "footprint_area_m2": 88.38,
        "flow_basis": "synthetic_proxy_from_osm_footprint_area",
        "stress_bucket": ""
      },
      "geometry": {
        "type": "Point",
        "coordinates": [
          43.978716625133934,
          56.31075733986193
        ]
      }
    },
    {
      "type": "Feature",
      "properties": {
        "id": "nizhny_novgorod_-2_-2_6e4eae01_cp_2",
        "object_type": "oks_connection_point",
        "flow_tph": 5.0,
        "case_id": "nizhny_novgorod_-2_-2_6e4eae01",
        "consumer_role": "osm_building_heat_demand_proxy",
        "source_building_osm_id": 149270676,
        "source_building_osm_type": "way",
        "source_building_name": "",
        "source_building_tags": {
          "building": "yes"
        },
        "footprint_area_m2": 86.4,
        "flow_basis": "synthetic_proxy_from_osm_footprint_area",
        "stress_bucket": ""
      },
      "geometry": {
        "type": "Point",
        "coordinates": [
          43.97918505,
          56.31225425
        ]
      }
    },
    {
      "type": "Feature",
      "properties": {
        "id": "nizhny_novgorod_-2_-2_6e4eae01_cp_3",
        "object_type": "oks_connection_point",
        "flow_tph": 9.861,
        "case_id": "nizhny_novgorod_-2_-2_6e4eae01",
        "consumer_role": "osm_building_heat_demand_proxy",
        "source_building_osm_id": 149270755,
        "source_building_osm_type": "way",
        "source_building_name": "",
        "source_building_tags": {
          "building": "apartments"
        },
        "footprint_area_m2": 986.13,
        "flow_basis": "synthetic_proxy_from_osm_footprint_area",
        "stress_bucket": ""
      },
      "geometry": {
        "type": "Point",
        "coordinates": [
          43.98067504425552,
          56.31254299303186
        ]
      }
    },
    {
      "type": "Feature",
      "properties": {
        "id": "nizhny_novgorod_-2_-2_6e4eae01_cp_4",
        "object_type": "oks_connection_point",
        "flow_tph": 5.0,
        "case_id": "nizhny_novgorod_-2_-2_6e4eae01",
        "consumer_role": "osm_building_heat_demand_proxy",
        "source_building_osm_id": 619865988,
        "source_building_osm_type": "way",
        "source_building_name": "",
        "source_building_tags": {
          "building": "yes"
        },
        "footprint_area_m2": 108.96,
        "flow_basis": "synthetic_proxy_from_osm_footprint_area",
        "stress_bucket": ""
      },
      "geometry": {
        "type": "Point",
        "coordinates": [
          43.98001495,
          56.31264765
        ]
      }
    },
    {
      "type": "Feature",
      "properties": {
        "id": "nizhny_novgorod_-2_-2_6e4eae01_cp_5",
        "object_type": "oks_connection_point",
        "flow_tph": 5.0,
        "case_id": "nizhny_novgorod_-2_-2_6e4eae01",
        "consumer_role": "osm_building_heat_demand_proxy",
        "source_building_osm_id": 149270745,
        "source_building_osm_type": "way",
        "source_building_name": "",
        "source_building_tags": {
          "building": "yes"
        },
        "footprint_area_m2": 53.22,
        "flow_basis": "synthetic_proxy_from_osm_footprint_area",
        "stress_bucket": ""
      },
      "geometry": {
        "type": "Point",
        "coordinates": [
          43.9805459,
          56.31283325
        ]
      }
    },
    {
      "type": "Feature",
      "properties": {
        "id": "nizhny_novgorod_-2_-2_6e4eae01_cp_6",
        "object_type": "oks_connection_point",
        "flow_tph": 5.0,
        "case_id": "nizhny_novgorod_-2_-2_6e4eae01",
        "consumer_role": "osm_building_heat_demand_proxy",
        "source_building_osm_id": 1301903880,
        "source_building_osm_type": "way",
        "source_building_name": "",
        "source_building_tags": {
          "building": "yes"
        },
        "footprint_area_m2": 248.73,
        "flow_basis": "synthetic_proxy_from_osm_footprint_area",
        "stress_bucket": ""
      },
      "geometry": {
        "type": "Point",
        "coordinates": [
          43.978324625460026,
          56.31236452471678
        ]
      }
    }
  ]
}