{
  "type": "FeatureCollection",
  "name": "moscow_nekrasovka_+1_-1_ed2104ce",
  "crs": {
    "type": "name",
    "properties": {
      "name": "EPSG:4326"
    }
  },
  "metadata": {
    "dataset_version": "osm_building_anchored_routing_scenes_v3",
    "parent_scene_id": "moscow_nekrasovka_+1_-1_ed2104ce",
    "split": "train",
    "city": "Москва Некрасовка",
    "seed": "moscow_nekrasovka",
    "research_bucket": "fifty_fifty",
    "source_research_bucket": "fifty_fifty",
    "research_bucket_is_ground_truth": false,
    "bbox_south_west_north_east": [
      55.7112882,
      37.9140566,
      55.7139831,
      37.9188404
    ],
    "real_data_source": "OpenStreetMap via Overpass API",
    "source_file": "data/real_geojson_places/fifty_fifty/010_moscow_nekrasovka_+1_-1_ed2104ce.geojson",
    "real_layers": [
      "restrictions",
      "consumer_building_footprints"
    ],
    "synthetic_layers": [
      "source",
      "heat_network",
      "heat_chamber",
      "heat_demand"
    ],
    "consumer_selection": "deterministic points inside real OSM building footprints",
    "flow_model": "synthetic proxy derived from building footprint area; not metered demand",
    "note": "OSM buildings anchor consumers; heat demand and seed network are synthetic proxies."
  },
  "features": [
    {
      "type": "Feature",
      "properties": {
        "id": "moscow_nekrasovka_+1_-1_ed2104ce_osm_way_414127317_1",
        "object_type": "restriction",
        "restriction_type": "road",
        "name": "",
        "osm_kind": "road",
        "osm_id": 414127317,
        "osm_type": "way",
        "osm_tags": {
          "highway": "path"
        },
        "case_id": "moscow_nekrasovka_+1_-1_ed2104ce"
      },
      "geometry": {
        "type": "LineString",
        "coordinates": [
          [
            37.9128692,
            55.7160028
          ],
          [
            37.9128876,
            55.7159554
          ],
          [
            37.9129067,
            55.7159258
          ],
          [
            37.9129251,
            55.715898
          ],
          [
            37.9129278,
            55.7158738
          ],
          [
            37.9129067,
            55.7158608
          ],
          [
            37.9128178,
            55.7158194
          ],
          [
            37.9126971,
            55.7157605
          ],
          [
            37.9126117,
            55.7157188
          ],
          [
            37.9125312,
            55.715684
          ],
          [
            37.9124669,
            55.7156508
          ],
          [
            37.9123511,
            55.7155656
          ],
          [
            37.9122442,
            55.7154755
          ],
          [
            37.91215,
            55.7153964
          ],
          [
            37.9120913,
            55.7153229
          ],
          [
            37.9120397,
            55.7152952
          ],
          [
            37.9121396,
            55.7152761
          ],
          [
            37.9122251,
            55.7152194
          ],
          [
            37.9122968,
            55.7151254
          ],
          [
            37.9125697,
            55.714989
          ],
          [
            37.9128283,
            55.7148403
          ],
          [
            37.9130363,
            55.7147029
          ],
          [
            37.9131708,
            55.7145746
          ],
          [
            37.9133042,
            55.7144745
          ],
          [
            37.9134616,
            55.7144161
          ],
          [
            37.9135797,
            55.7143691
          ],
          [
            37.9138589,
            55.7142216
          ],
          [
            37.9140173,
            55.7141265
          ],
          [
            37.9142237,
            55.7139888
          ],
          [
            37.9143766,
            55.713874
          ],
          [
            37.9145562,
            55.7137336
          ],
          [
            37.9146776,
            55.7136302
          ],
          [
            37.9148238,
            55.7135494
          ],
          [
            37.9150459,
            55.7135586
          ]
        ]
      }
    },
    {
      "type": "Feature",
      "properties": {
        "id": "moscow_nekrasovka_+1_-1_ed2104ce_osm_way_548467728_2",
        "object_type": "restriction",
        "restriction_type": "railway",
        "name": "",
        "osm_kind": "railway",
        "osm_id": 548467728,
        "osm_type": "way",
        "osm_tags": {
          "railway": "subway"
        },
        "case_id": "moscow_nekrasovka_+1_-1_ed2104ce"
      },
      "geometry": {
        "type": "LineString",
        "coordinates": [
          [
            37.9045586,
            55.7086325
          ],
          [
            37.90693,
            55.7087322
          ],
          [
            37.9072908,
            55.7087586
          ],
          [
            37.9076478,
            55.7088071
          ],
          [
            37.9080001,
            55.7088786
          ],
          [
            37.9083414,
            55.7089731
          ],
          [
            37.9133137,
            55.7105765
          ],
          [
            37.9139108,
            55.7108086
          ],
          [
            37.9144614,
            55.7110677
          ],
          [
            37.9150104,
            55.7113805
          ],
          [
            37.9154954,
            55.7117175
          ],
          [
            37.9161349,
            55.712252
          ],
          [
            37.9166762,
            55.7127665
          ],
          [
            37.9169322,
            55.713026
          ]
        ]
      }
    },
    {
      "type": "Feature",
      "properties": {
        "id": "moscow_nekrasovka_+1_-1_ed2104ce_osm_way_699998893_3",
        "object_type": "restriction",
        "restriction_type": "railway",
        "name": "",
        "osm_kind": "railway",
        "osm_id": 699998893,
        "osm_type": "way",
        "osm_tags": {
          "railway": "subway"
        },
        "case_id": "moscow_nekrasovka_+1_-1_ed2104ce"
      },
      "geometry": {
        "type": "LineString",
        "coordinates": [
          [
            37.9168794,
            55.7130436
          ],
          [
            37.9166168,
            55.7127852
          ],
          [
            37.9160778,
            55.7122729
          ],
          [
            37.9154413,
            55.7117408
          ],
          [
            37.9149667,
            55.7114105
          ],
          [
            37.9144187,
            55.7110976
          ],
          [
            37.913871,
            55.7108398
          ],
          [
            37.9132774,
            55.7106089
          ],
          [
            37.9083131,
            55.7090082
          ],
          [
            37.9079753,
            55.7089142
          ],
          [
            37.9076291,
            55.7088439
          ],
          [
            37.9072908,
            55.7087976
          ],
          [
            37.9069221,
            55.7087706
          ],
          [
            37.9045538,
            55.708671
          ]
        ]
      }
    },
    {
      "type": "Feature",
      "properties": {
        "id": "moscow_nekrasovka_+1_-1_ed2104ce_osm_way_699998894_4",
        "object_type": "restriction",
        "restriction_type": "railway",
        "name": "",
        "osm_kind": "railway",
        "osm_id": 699998894,
        "osm_type": "way",
        "osm_tags": {
          "railway": "subway"
        },
        "case_id": "moscow_nekrasovka_+1_-1_ed2104ce"
      },
      "geometry": {
        "type": "LineString",
        "coordinates": [
          [
            37.9169322,
            55.713026
          ],
          [
            37.917252,
            55.7133368
          ],
          [
            37.917504,
            55.7135947
          ],
          [
            37.9176604,
            55.7137601
          ],
          [
            37.9178163,
            55.7139143
          ],
          [
            37.9179364,
            55.7140372
          ],
          [
            37.918311,
            55.7144233
          ],
          [
            37.9183526,
            55.7144637
          ],
          [
            37.9186591,
            55.7147783
          ],
          [
            37.9188017,
            55.7149247
          ],
          [
            37.9189288,
            55.7150551
          ],
          [
            37.9189665,
            55.7150922
          ],
          [
            37.9192963,
            55.715417
          ],
          [
            37.9194736,
            55.7155915
          ],
          [
            37.9195479,
            55.7156646
          ],
          [
            37.9197627,
            55.7158888
          ],
          [
            37.9198343,
            55.7159636
          ],
          [
            37.9200825,
            55.7162034
          ],
          [
            37.9202855,
            55.7163996
          ]
        ]
      }
    },
    {
      "type": "Feature",
      "properties": {
        "id": "moscow_nekrasovka_+1_-1_ed2104ce_osm_way_699998895_5",
        "object_type": "restriction",
        "restriction_type": "railway",
        "name": "Обкаточный путь",
        "osm_kind": "railway",
        "osm_id": 699998895,
        "osm_type": "way",
        "osm_tags": {
          "name": "Обкаточный путь",
          "railway": "subway"
        },
        "case_id": "moscow_nekrasovka_+1_-1_ed2104ce"
      },
      "geometry": {
        "type": "LineString",
        "coordinates": [
          [
            37.9173817,
            55.7128089
          ],
          [
            37.918015,
            55.713342
          ],
          [
            37.9184256,
            55.7136317
          ],
          [
            37.918819,
            55.7139083
          ],
          [
            37.9192072,
            55.7141797
          ],
          [
            37.9195499,
            55.7143869
          ],
          [
            37.9199218,
            55.714561
          ],
          [
            37.9205338,
            55.714831
          ],
          [
            37.921225,
            55.7151378
          ],
          [
            37.9218758,
            55.7154366
          ],
          [
            37.9222703,
            55.7156032
          ],
          [
            37.9241067,
            55.7161025
          ],
          [
            37.9252639,
            55.7164132
          ],
          [
            37.9254728,
            55.7164825
          ],
          [
            37.9256552,
            55.7165853
          ],
          [
            37.9257893,
            55.716691
          ],
          [
            37.925902,
            55.7168059
          ],
          [
            37.9259395,
            55.7169569
          ],
          [
            37.9259395,
            55.7171745
          ],
          [
            37.9259066,
            55.7174414
          ]
        ]
      }
    },
    {
      "type": "Feature",
      "properties": {
        "id": "moscow_nekrasovka_+1_-1_ed2104ce_osm_way_699998898_6",
        "object_type": "restriction",
        "restriction_type": "oks",
        "name": "",
        "osm_kind": "building",
        "osm_id": 699998898,
        "osm_type": "way",
        "osm_tags": {
          "building": "yes"
        },
        "case_id": "moscow_nekrasovka_+1_-1_ed2104ce",
        "selected_as_heat_demand_proxy": true,
        "connection_point_id": "moscow_nekrasovka_+1_-1_ed2104ce_cp_5"
      },
      "geometry": {
        "type": "Polygon",
        "coordinates": [
          [
            [
              37.9185369,
              55.7140709
            ],
            [
              37.9186977,
              55.7139989
            ],
            [
              37.918229,
              55.7136667
            ],
            [
              37.9180681,
              55.7137388
            ],
            [
              37.9185369,
              55.7140709
            ]
          ]
        ]
      }
    },
    {
      "type": "Feature",
      "properties": {
        "id": "moscow_nekrasovka_+1_-1_ed2104ce_osm_way_699998902_7",
        "object_type": "restriction",
        "restriction_type": "railway",
        "name": "",
        "osm_kind": "railway",
        "osm_id": 699998902,
        "osm_type": "way",
        "osm_tags": {
          "railway": "subway"
        },
        "case_id": "moscow_nekrasovka_+1_-1_ed2104ce"
      },
      "geometry": {
        "type": "LineString",
        "coordinates": [
          [
            37.9188058,
            55.7150842
          ],
          [
            37.9180887,
            55.7143561
          ],
          [
            37.917986,
            55.7142518
          ],
          [
            37.9177658,
            55.7140264
          ],
          [
            37.9175043,
            55.7137594
          ],
          [
            37.9174204,
            55.7136797
          ]
        ]
      }
    },
    {
      "type": "Feature",
      "properties": {
        "id": "moscow_nekrasovka_+1_-1_ed2104ce_osm_way_699998907_8",
        "object_type": "restriction",
        "restriction_type": "railway",
        "name": "",
        "osm_kind": "railway",
        "osm_id": 699998907,
        "osm_type": "way",
        "osm_tags": {
          "railway": "subway"
        },
        "case_id": "moscow_nekrasovka_+1_-1_ed2104ce"
      },
      "geometry": {
        "type": "LineString",
        "coordinates": [
          [
            37.9178163,
            55.7139143
          ],
          [
            37.9180912,
            55.7140877
          ]
        ]
      }
    },
    {
      "type": "Feature",
      "properties": {
        "id": "moscow_nekrasovka_+1_-1_ed2104ce_osm_way_699998908_9",
        "object_type": "restriction",
        "restriction_type": "railway",
        "name": "",
        "osm_kind": "railway",
        "osm_id": 699998908,
        "osm_type": "way",
        "osm_tags": {
          "railway": "subway"
        },
        "case_id": "moscow_nekrasovka_+1_-1_ed2104ce"
      },
      "geometry": {
        "type": "LineString",
        "coordinates": [
          [
            37.9176604,
            55.7137601
          ],
          [
            37.9174845,
            55.7134716
          ]
        ]
      }
    },
    {
      "type": "Feature",
      "properties": {
        "id": "moscow_nekrasovka_+1_-1_ed2104ce_osm_way_699998909_10",
        "object_type": "restriction",
        "restriction_type": "railway",
        "name": "",
        "osm_kind": "railway",
        "osm_id": 699998909,
        "osm_type": "way",
        "osm_tags": {
          "railway": "subway"
        },
        "case_id": "moscow_nekrasovka_+1_-1_ed2104ce"
      },
      "geometry": {
        "type": "LineString",
        "coordinates": [
          [
            37.9157644,
            55.7123162
          ],
          [
            37.9164979,
            55.7130438
          ],
          [
            37.9166803,
            55.7131934
          ],
          [
            37.916868,
            55.7133233
          ],
          [
            37.9174204,
            55.7136797
          ]
        ]
      }
    },
    {
      "type": "Feature",
      "properties": {
        "id": "moscow_nekrasovka_+1_-1_ed2104ce_osm_way_699998910_11",
        "object_type": "restriction",
        "restriction_type": "railway",
        "name": "",
        "osm_kind": "railway",
        "osm_id": 699998910,
        "osm_type": "way",
        "osm_tags": {
          "railway": "subway"
        },
        "case_id": "moscow_nekrasovka_+1_-1_ed2104ce"
      },
      "geometry": {
        "type": "LineString",
        "coordinates": [
          [
            37.9174204,
            55.7136797
          ],
          [
            37.91765,
            55.7138232
          ]
        ]
      }
    },
    {
      "type": "Feature",
      "properties": {
        "id": "moscow_nekrasovka_+1_-1_ed2104ce_osm_way_699998911_12",
        "object_type": "restriction",
        "restriction_type": "railway",
        "name": "",
        "osm_kind": "railway",
        "osm_id": 699998911,
        "osm_type": "way",
        "osm_tags": {
          "railway": "subway"
        },
        "case_id": "moscow_nekrasovka_+1_-1_ed2104ce"
      },
      "geometry": {
        "type": "LineString",
        "coordinates": [
          [
            37.9166136,
            55.7123255
          ],
          [
            37.9173754,
            55.7132442
          ],
          [
            37.9177402,
            55.713628
          ],
          [
            37.9178207,
            55.7137277
          ],
          [
            37.9179081,
            55.7139025
          ]
        ]
      }
    },
    {
      "type": "Feature",
      "properties": {
        "id": "moscow_nekrasovka_+1_-1_ed2104ce_osm_way_699998961_13",
        "object_type": "restriction",
        "restriction_type": "railway",
        "name": "",
        "osm_kind": "railway",
        "osm_id": 699998961,
        "osm_type": "way",
        "osm_tags": {
          "railway": "subway"
        },
        "case_id": "moscow_nekrasovka_+1_-1_ed2104ce"
      },
      "geometry": {
        "type": "LineString",
        "coordinates": [
          [
            37.9204072,
            55.7166501
          ],
          [
            37.9201087,
            55.7164462
          ],
          [
            37.9198943,
            55.7162347
          ],
          [
            37.9197661,
            55.716005
          ],
          [
            37.9196929,
            55.7158905
          ],
          [
            37.9196175,
            55.7158143
          ],
          [
            37.9195256,
            55.7157223
          ],
          [
            37.9194104,
            55.715607
          ],
          [
            37.9192363,
            55.7154326
          ],
          [
            37.9190809,
            55.715277
          ],
          [
            37.9190431,
            55.7152391
          ],
          [
            37.9189257,
            55.715122
          ],
          [
            37.9184686,
            55.7146638
          ],
          [
            37.9184235,
            55.7146175
          ],
          [
            37.9178591,
            55.7140376
          ],
          [
            37.91765,
            55.7138232
          ],
          [
            37.9172242,
            55.7133867
          ],
          [
            37.917207,
            55.713369
          ],
          [
            37.9168794,
            55.7130436
          ]
        ]
      }
    },
    {
      "type": "Feature",
      "properties": {
        "id": "moscow_nekrasovka_+1_-1_ed2104ce_osm_way_699998980_14",
        "object_type": "restriction",
        "restriction_type": "oks",
        "name": "",
        "osm_kind": "building",
        "osm_id": 699998980,
        "osm_type": "way",
        "osm_tags": {
          "building": "garage"
        },
        "case_id": "moscow_nekrasovka_+1_-1_ed2104ce",
        "selected_as_heat_demand_proxy": true,
        "connection_point_id": "moscow_nekrasovka_+1_-1_ed2104ce_cp_4"
      },
      "geometry": {
        "type": "Polygon",
        "coordinates": [
          [
            [
              37.9166161,
              55.7134012
            ],
            [
              37.9167234,
              55.7133507
            ],
            [
              37.9167735,
              55.713327
            ],
            [
              37.9173144,
              55.7136912
            ],
            [
              37.9172738,
              55.7137103
            ],
            [
              37.9171571,
              55.7137654
            ],
            [
              37.9166161,
              55.7134012
            ]
          ]
        ]
      }
    },
    {
      "type": "Feature",
      "properties": {
        "id": "moscow_nekrasovka_+1_-1_ed2104ce_osm_way_699998981_15",
        "object_type": "restriction",
        "restriction_type": "oks",
        "name": "",
        "osm_kind": "building",
        "osm_id": 699998981,
        "osm_type": "way",
        "osm_tags": {
          "building": "ramp"
        },
        "case_id": "moscow_nekrasovka_+1_-1_ed2104ce",
        "selected_as_heat_demand_proxy": true,
        "connection_point_id": "moscow_nekrasovka_+1_-1_ed2104ce_cp_1"
      },
      "geometry": {
        "type": "Polygon",
        "coordinates": [
          [
            [
              37.9169902,
              55.7130067
            ],
            [
              37.9169322,
              55.713026
            ],
            [
              37.9168794,
              55.7130436
            ],
            [
              37.916825,
              55.7130617
            ],
            [
              37.915819,
              55.7120954
            ],
            [
              37.9159655,
              55.7120455
            ],
            [
              37.9169902,
              55.7130067
            ]
          ]
        ]
      }
    },
    {
      "type": "Feature",
      "properties": {
        "id": "moscow_nekrasovka_+1_-1_ed2104ce_osm_way_820872480_16",
        "object_type": "restriction",
        "restriction_type": "oks",
        "name": "",
        "osm_kind": "building",
        "osm_id": 820872480,
        "osm_type": "way",
        "osm_tags": {
          "building": "yes"
        },
        "case_id": "moscow_nekrasovka_+1_-1_ed2104ce"
      },
      "geometry": {
        "type": "Polygon",
        "coordinates": [
          [
            [
              37.9163835,
              55.713498
            ],
            [
              37.9159237,
              55.7136097
            ],
            [
              37.9163636,
              55.7141846
            ],
            [
              37.9168236,
              55.7140729
            ],
            [
              37.9163835,
              55.713498
            ]
          ]
        ]
      }
    },
    {
      "type": "Feature",
      "properties": {
        "id": "moscow_nekrasovka_+1_-1_ed2104ce_osm_way_857090696_17",
        "object_type": "restriction",
        "restriction_type": "road",
        "name": "Северо-восточная хорда",
        "osm_kind": "major_road",
        "osm_id": 857090696,
        "osm_type": "way",
        "osm_tags": {
          "highway": "trunk",
          "name": "Северо-восточная хорда"
        },
        "case_id": "moscow_nekrasovka_+1_-1_ed2104ce"
      },
      "geometry": {
        "type": "LineString",
        "coordinates": [
          [
            37.9196285,
            55.7138067
          ],
          [
            37.9191051,
            55.713435
          ],
          [
            37.918768,
            55.7131771
          ],
          [
            37.9183637,
            55.7128633
          ],
          [
            37.9182952,
            55.7128101
          ],
          [
            37.9167327,
            55.7115077
          ],
          [
            37.9163786,
            55.7112395
          ]
        ]
      }
    },
    {
      "type": "Feature",
      "properties": {
        "id": "moscow_nekrasovka_+1_-1_ed2104ce_osm_way_857090731_18",
        "object_type": "restriction",
        "restriction_type": "road",
        "name": "",
        "osm_kind": "major_road",
        "osm_id": 857090731,
        "osm_type": "way",
        "osm_tags": {
          "highway": "secondary"
        },
        "case_id": "moscow_nekrasovka_+1_-1_ed2104ce"
      },
      "geometry": {
        "type": "LineString",
        "coordinates": [
          [
            37.9187286,
            55.7126503
          ],
          [
            37.9191211,
            55.7129718
          ],
          [
            37.9194993,
            55.7132704
          ],
          [
            37.9198026,
            55.7134817
          ]
        ]
      }
    },
    {
      "type": "Feature",
      "properties": {
        "id": "moscow_nekrasovka_+1_-1_ed2104ce_osm_way_857090732_19",
        "object_type": "restriction",
        "restriction_type": "road",
        "name": "",
        "osm_kind": "major_road",
        "osm_id": 857090732,
        "osm_type": "way",
        "osm_tags": {
          "highway": "secondary"
        },
        "case_id": "moscow_nekrasovka_+1_-1_ed2104ce"
      },
      "geometry": {
        "type": "LineString",
        "coordinates": [
          [
            37.9163318,
            55.7107793
          ],
          [
            37.9165276,
            55.7109145
          ],
          [
            37.9169103,
            55.7111956
          ],
          [
            37.9172199,
            55.7114118
          ],
          [
            37.9175862,
            55.7117229
          ],
          [
            37.9185045,
            55.712469
          ],
          [
            37.9187286,
            55.7126503
          ]
        ]
      }
    },
    {
      "type": "Feature",
      "properties": {
        "id": "moscow_nekrasovka_+1_-1_ed2104ce_osm_way_857090733_20",
        "object_type": "restriction",
        "restriction_type": "road",
        "name": "Северо-восточная хорда",
        "osm_kind": "major_road",
        "osm_id": 857090733,
        "osm_type": "way",
        "osm_tags": {
          "highway": "trunk",
          "name": "Северо-восточная хорда"
        },
        "case_id": "moscow_nekrasovka_+1_-1_ed2104ce"
      },
      "geometry": {
        "type": "LineString",
        "coordinates": [
          [
            37.9182222,
            55.7124725
          ],
          [
            37.9185224,
            55.712727
          ],
          [
            37.9188492,
            55.7129859
          ]
        ]
      }
    },
    {
      "type": "Feature",
      "properties": {
        "id": "moscow_nekrasovka_+1_-1_ed2104ce_osm_way_857090734_21",
        "object_type": "restriction",
        "restriction_type": "road",
        "name": "Северо-восточная хорда",
        "osm_kind": "major_road",
        "osm_id": 857090734,
        "osm_type": "way",
        "osm_tags": {
          "highway": "trunk",
          "name": "Северо-восточная хорда"
        },
        "case_id": "moscow_nekrasovka_+1_-1_ed2104ce"
      },
      "geometry": {
        "type": "LineString",
        "coordinates": [
          [
            37.9165274,
            55.7110931
          ],
          [
            37.91697,
            55.7114089
          ],
          [
            37.9182222,
            55.7124725
          ]
        ]
      }
    },
    {
      "type": "Feature",
      "properties": {
        "id": "moscow_nekrasovka_+1_-1_ed2104ce_osm_way_857090736_22",
        "object_type": "restriction",
        "restriction_type": "road",
        "name": "",
        "osm_kind": "major_road",
        "osm_id": 857090736,
        "osm_type": "way",
        "osm_tags": {
          "highway": "secondary"
        },
        "case_id": "moscow_nekrasovka_+1_-1_ed2104ce"
      },
      "geometry": {
        "type": "LineString",
        "coordinates": [
          [
            37.9164206,
            55.7115318
          ],
          [
            37.9161132,
            55.711297
          ],
          [
            37.9157656,
            55.7110882
          ]
        ]
      }
    },
    {
      "type": "Feature",
      "properties": {
        "id": "moscow_nekrasovka_+1_-1_ed2104ce_osm_way_857090753_23",
        "object_type": "restriction",
        "restriction_type": "road",
        "name": "",
        "osm_kind": "road",
        "osm_id": 857090753,
        "osm_type": "way",
        "osm_tags": {
          "highway": "residential"
        },
        "case_id": "moscow_nekrasovka_+1_-1_ed2104ce"
      },
      "geometry": {
        "type": "LineString",
        "coordinates": [
          [
            37.915024,
            55.711504
          ],
          [
            37.9149794,
            55.7113561
          ],
          [
            37.9149389,
            55.7111891
          ],
          [
            37.9149254,
            55.7110969
          ]
        ]
      }
    },
    {
      "type": "Feature",
      "properties": {
        "id": "moscow_nekrasovka_+1_-1_ed2104ce_osm_way_857090755_24",
        "object_type": "restriction",
        "restriction_type": "road",
        "name": "",
        "osm_kind": "road",
        "osm_id": 857090755,
        "osm_type": "way",
        "osm_tags": {
          "highway": "residential"
        },
        "case_id": "moscow_nekrasovka_+1_-1_ed2104ce"
      },
      "geometry": {
        "type": "LineString",
        "coordinates": [
          [
            37.915024,
            55.711504
          ],
          [
            37.9150365,
            55.7116402
          ],
          [
            37.9150445,
            55.7117766
          ]
        ]
      }
    },
    {
      "type": "Feature",
      "properties": {
        "id": "moscow_nekrasovka_+1_-1_ed2104ce_osm_way_857090756_25",
        "object_type": "restriction",
        "restriction_type": "road",
        "name": "",
        "osm_kind": "major_road",
        "osm_id": 857090756,
        "osm_type": "way",
        "osm_tags": {
          "highway": "secondary"
        },
        "case_id": "moscow_nekrasovka_+1_-1_ed2104ce"
      },
      "geometry": {
        "type": "LineString",
        "coordinates": [
          [
            37.9196285,
            55.7138067
          ],
          [
            37.9191541,
            55.713575
          ],
          [
            37.9188735,
            55.7134199
          ],
          [
            37.9185465,
            55.7132038
          ],
          [
            37.9180127,
            55.712802
          ],
          [
            37.9176452,
            55.7124924
          ],
          [
            37.9167595,
            55.7117742
          ],
          [
            37.9164206,
            55.7115318
          ]
        ]
      }
    },
    {
      "type": "Feature",
      "properties": {
        "id": "moscow_nekrasovka_+1_-1_ed2104ce_osm_way_857090764_26",
        "object_type": "restriction",
        "restriction_type": "road",
        "name": "",
        "osm_kind": "road",
        "osm_id": 857090764,
        "osm_type": "way",
        "osm_tags": {
          "highway": "residential"
        },
        "case_id": "moscow_nekrasovka_+1_-1_ed2104ce"
      },
      "geometry": {
        "type": "LineString",
        "coordinates": [
          [
            37.9152448,
            55.7107905
          ],
          [
            37.9152183,
            55.7108679
          ],
          [
            37.9151608,
            55.7110326
          ],
          [
            37.9151281,
            55.7111349
          ],
          [
            37.9151134,
            55.711207
          ],
          [
            37.9150976,
            55.7112847
          ],
          [
            37.915024,
            55.711504
          ]
        ]
      }
    },
    {
      "type": "Feature",
      "properties": {
        "id": "moscow_nekrasovka_+1_-1_ed2104ce_osm_way_884635529_27",
        "object_type": "restriction",
        "restriction_type": "oks",
        "name": "",
        "osm_kind": "building",
        "osm_id": 884635529,
        "osm_type": "way",
        "osm_tags": {
          "building": "yes"
        },
        "case_id": "moscow_nekrasovka_+1_-1_ed2104ce",
        "selected_as_heat_demand_proxy": true,
        "connection_point_id": "moscow_nekrasovka_+1_-1_ed2104ce_cp_2"
      },
      "geometry": {
        "type": "Polygon",
        "coordinates": [
          [
            [
              37.9168439,
              55.7131632
            ],
            [
              37.916911,
              55.7131408
            ],
            [
              37.9168519,
              55.7130846
            ],
            [
              37.9167849,
              55.7131069
            ],
            [
              37.9168439,
              55.7131632
            ]
          ]
        ]
      }
    },
    {
      "type": "Feature",
      "properties": {
        "id": "moscow_nekrasovka_+1_-1_ed2104ce_osm_way_884635530_28",
        "object_type": "restriction",
        "restriction_type": "oks",
        "name": "",
        "osm_kind": "building",
        "osm_id": 884635530,
        "osm_type": "way",
        "osm_tags": {
          "building": "yes"
        },
        "case_id": "moscow_nekrasovka_+1_-1_ed2104ce",
        "selected_as_heat_demand_proxy": true,
        "connection_point_id": "moscow_nekrasovka_+1_-1_ed2104ce_cp_6"
      },
      "geometry": {
        "type": "Polygon",
        "coordinates": [
          [
            [
              37.9172382,
              55.7139413
            ],
            [
              37.9173226,
              55.7139015
            ],
            [
              37.9172516,
              55.7138537
            ],
            [
              37.9171671,
              55.7138935
            ],
            [
              37.9172382,
              55.7139413
            ]
          ]
        ]
      }
    },
    {
      "type": "Feature",
      "properties": {
        "id": "moscow_nekrasovka_+1_-1_ed2104ce_osm_way_884635531_29",
        "object_type": "restriction",
        "restriction_type": "railway",
        "name": "",
        "osm_kind": "railway",
        "osm_id": 884635531,
        "osm_type": "way",
        "osm_tags": {
          "railway": "subway"
        },
        "case_id": "moscow_nekrasovka_+1_-1_ed2104ce"
      },
      "geometry": {
        "type": "LineString",
        "coordinates": [
          [
            37.9167234,
            55.7133507
          ],
          [
            37.9165971,
            55.7132553
          ],
          [
            37.9164872,
            55.7131586
          ],
          [
            37.9161726,
            55.7128612
          ]
        ]
      }
    },
    {
      "type": "Feature",
      "properties": {
        "id": "moscow_nekrasovka_+1_-1_ed2104ce_osm_way_884635532_30",
        "object_type": "restriction",
        "restriction_type": "railway",
        "name": "",
        "osm_kind": "railway",
        "osm_id": 884635532,
        "osm_type": "way",
        "osm_tags": {
          "railway": "subway"
        },
        "case_id": "moscow_nekrasovka_+1_-1_ed2104ce"
      },
      "geometry": {
        "type": "LineString",
        "coordinates": [
          [
            37.9172738,
            55.7137103
          ],
          [
            37.9167234,
            55.7133507
          ]
        ]
      }
    },
    {
      "type": "Feature",
      "properties": {
        "id": "moscow_nekrasovka_+1_-1_ed2104ce_osm_way_887310349_31",
        "object_type": "restriction",
        "restriction_type": "road",
        "name": "",
        "osm_kind": "road",
        "osm_id": 887310349,
        "osm_type": "way",
        "osm_tags": {
          "highway": "service"
        },
        "case_id": "moscow_nekrasovka_+1_-1_ed2104ce"
      },
      "geometry": {
        "type": "LineString",
        "coordinates": [
          [
            37.9155758,
            55.713201
          ],
          [
            37.9156975,
            55.7132065
          ],
          [
            37.9158344,
            55.7132127
          ],
          [
            37.9161304,
            55.7132654
          ],
          [
            37.9163901,
            55.7133506
          ],
          [
            37.9165476,
            55.7134297
          ],
          [
            37.9166575,
            55.7135223
          ],
          [
            37.9171892,
            55.7140325
          ],
          [
            37.9174673,
            55.7143172
          ],
          [
            37.9177773,
            55.7146907
          ],
          [
            37.9181046,
            55.7151168
          ],
          [
            37.9184283,
            55.7155383
          ],
          [
            37.9187401,
            55.7161154
          ],
          [
            37.9189348,
            55.716476
          ],
          [
            37.9192596,
            55.7170602
          ],
          [
            37.919388,
            55.7172096
          ],
          [
            37.9195266,
            55.7173058
          ],
          [
            37.9196845,
            55.7173919
          ],
          [
            37.9198995,
            55.7174722
          ],
          [
            37.9203707,
            55.7176072
          ],
          [
            37.9217989,
            55.7180166
          ],
          [
            37.9224131,
            55.7181927
          ],
          [
            37.922732,
            55.7182841
          ],
          [
            37.9233965,
            55.7184724
          ],
          [
            37.9236084,
            55.7185245
          ],
          [
            37.9237586,
            55.7185502
          ],
          [
            37.9239129,
            55.718563
          ],
          [
            37.9245901,
            55.7185895
          ],
          [
            37.9248315,
            55.7185857
          ],
          [
            37.9250836,
            55.71856
          ],
          [
            37.9252674,
            55.7185215
          ],
          [
            37.9255316,
            55.7184233
          ],
          [
            37.925671,
            55.7183447
          ],
          [
            37.9258347,
            55.7182103
          ],
          [
            37.9259245,
            55.718106
          ],
          [
            37.9259835,
            55.7180078
          ],
          [
            37.9260157,
            55.7179225
          ],
          [
            37.9260764,
            55.717465
          ],
          [
            37.9261116,
            55.7171515
          ],
          [
            37.9261158,
            55.717022
          ],
          [
            37.9260839,
            55.716902
          ],
          [
            37.9260126,
            55.7167558
          ],
          [
            37.9258604,
            55.7166172
          ],
          [
            37.9257603,
            55.7165399
          ],
          [
            37.9256251,
            55.7164751
          ],
          [
            37.9253095,
            55.7163613
          ],
          [
            37.9241926,
            55.7160718
          ],
          [
            37.9241504,
            55.7160704
          ],
          [
            37.9241233,
            55.7160846
          ],
          [
            37.9241067,
            55.7161025
          ],
          [
            37.924047,
            55.7161714
          ],
          [
            37.9221774,
            55.7156249
          ],
          [
            37.9220125,
            55.715558
          ],
          [
            37.9214855,
            55.7153231
          ],
          [
            37.9209421,
            55.7150819
          ],
          [
            37.9198986,
            55.7146188
          ],
          [
            37.9194503,
            55.7144198
          ],
          [
            37.9194242,
            55.7144082
          ],
          [
            37.9182725,
            55.7136014
          ],
          [
            37.9180463,
            55.7134429
          ],
          [
            37.9173857,
            55.7128965
          ]
        ]
      }
    },
    {
      "type": "Feature",
      "properties": {
        "id": "moscow_nekrasovka_+1_-1_ed2104ce_osm_way_977798841_32",
        "object_type": "restriction",
        "restriction_type": "road",
        "name": "Проектируемый проезд № 287",
        "osm_kind": "road",
        "osm_id": 977798841,
        "osm_type": "way",
        "osm_tags": {
          "highway": "residential",
          "name": "Проектируемый проезд № 287"
        },
        "case_id": "moscow_nekrasovka_+1_-1_ed2104ce"
      },
      "geometry": {
        "type": "LineString",
        "coordinates": [
          [
            37.9150445,
            55.7117766
          ],
          [
            37.9150695,
            55.7130284
          ]
        ]
      }
    },
    {
      "type": "Feature",
      "properties": {
        "id": "moscow_nekrasovka_+1_-1_ed2104ce_osm_way_1127644917_33",
        "object_type": "restriction",
        "restriction_type": "road",
        "name": "",
        "osm_kind": "road",
        "osm_id": 1127644917,
        "osm_type": "way",
        "osm_tags": {
          "highway": "footway"
        },
        "case_id": "moscow_nekrasovka_+1_-1_ed2104ce"
      },
      "geometry": {
        "type": "LineString",
        "coordinates": [
          [
            37.9153213,
            55.7132158
          ],
          [
            37.9152664,
            55.7132158
          ],
          [
            37.9152298,
            55.7132216
          ],
          [
            37.9152166,
            55.7132493
          ],
          [
            37.9152664,
            55.7134442
          ],
          [
            37.9153157,
            55.713555
          ],
          [
            37.9154302,
            55.713798
          ],
          [
            37.915575,
            55.7140294
          ],
          [
            37.9156457,
            55.7141203
          ],
          [
            37.9158477,
            55.7143423
          ],
          [
            37.9169383,
            55.7153529
          ],
          [
            37.9172305,
            55.7156633
          ],
          [
            37.9174728,
            55.7158891
          ],
          [
            37.9177061,
            55.7162136
          ],
          [
            37.9177599,
            55.7164028
          ],
          [
            37.9179375,
            55.7167013
          ],
          [
            37.9182498,
            55.717433
          ],
          [
            37.9186093,
            55.7183291
          ],
          [
            37.9186455,
            55.718383
          ],
          [
            37.9186939,
            55.7184283
          ],
          [
            37.9187599,
            55.7184456
          ],
          [
            37.9188266,
            55.7184565
          ]
        ]
      }
    },
    {
      "type": "Feature",
      "properties": {
        "id": "moscow_nekrasovka_+1_-1_ed2104ce_osm_way_1127644918_34",
        "object_type": "restriction",
        "restriction_type": "road",
        "name": "",
        "osm_kind": "road",
        "osm_id": 1127644918,
        "osm_type": "way",
        "osm_tags": {
          "highway": "footway"
        },
        "case_id": "moscow_nekrasovka_+1_-1_ed2104ce"
      },
      "geometry": {
        "type": "LineString",
        "coordinates": [
          [
            37.9166051,
            55.7117808
          ],
          [
            37.9171083,
            55.7121926
          ],
          [
            37.9177962,
            55.7127505
          ],
          [
            37.9181391,
            55.7130262
          ],
          [
            37.9184375,
            55.7132391
          ],
          [
            37.9189322,
            55.7135786
          ],
          [
            37.919303,
            55.7138244
          ],
          [
            37.9196982,
            55.7140665
          ],
          [
            37.9200937,
            55.7142923
          ],
          [
            37.9203702,
            55.7144241
          ],
          [
            37.9207424,
            55.7146152
          ],
          [
            37.9214598,
            55.7149312
          ],
          [
            37.9221726,
            55.715205
          ],
          [
            37.9227409,
            55.7154221
          ],
          [
            37.9234686,
            55.715645
          ],
          [
            37.923991,
            55.7157865
          ],
          [
            37.9246912,
            55.7159351
          ],
          [
            37.9249765,
            55.7159724
          ],
          [
            37.9252268,
            55.7160067
          ],
          [
            37.9255879,
            55.7160564
          ],
          [
            37.9265781,
            55.7161917
          ],
          [
            37.9268283,
            55.7162202
          ]
        ]
      }
    },
    {
      "type": "Feature",
      "properties": {
        "id": "moscow_nekrasovka_+1_-1_ed2104ce_osm_way_1127644919_35",
        "object_type": "restriction",
        "restriction_type": "park",
        "name": "",
        "osm_kind": "green",
        "osm_id": 1127644919,
        "osm_type": "way",
        "osm_tags": {
          "landuse": "grass"
        },
        "case_id": "moscow_nekrasovka_+1_-1_ed2104ce"
      },
      "geometry": {
        "type": "Polygon",
        "coordinates": [
          [
            [
              37.9182286,
              55.7134205
            ],
            [
              37.9165144,
              55.7119718
            ],
            [
              37.9154363,
              55.7120586
            ],
            [
              37.9156242,
              55.7111713
            ],
            [
              37.9166716,
              55.7118693
            ],
            [
              37.9184318,
              55.7133566
            ],
            [
              37.9194602,
              55.7139783
            ],
            [
              37.9203531,
              55.7144633
            ],
            [
              37.9224643,
              55.7153901
            ],
            [
              37.9253069,
              55.7161769
            ],
            [
              37.9252572,
              55.7162387
            ],
            [
              37.9233509,
              55.7157937
            ],
            [
              37.9224351,
              55.7155279
            ],
            [
              37.9217335,
              55.7152682
            ],
            [
              37.9200124,
              55.7145274
            ],
            [
              37.9189588,
              55.7139298
            ],
            [
              37.9182286,
              55.7134205
            ]
          ]
        ]
      }
    },
    {
      "type": "Feature",
      "properties": {
        "id": "moscow_nekrasovka_+1_-1_ed2104ce_osm_way_1134114559_36",
        "object_type": "restriction",
        "restriction_type": "road",
        "name": "",
        "osm_kind": "road",
        "osm_id": 1134114559,
        "osm_type": "way",
        "osm_tags": {
          "highway": "service"
        },
        "case_id": "moscow_nekrasovka_+1_-1_ed2104ce"
      },
      "geometry": {
        "type": "LineString",
        "coordinates": [
          [
            37.9155758,
            55.713201
          ],
          [
            37.915399,
            55.7131861
          ],
          [
            37.9153172,
            55.7131814
          ],
          [
            37.9151975,
            55.7131747
          ],
          [
            37.9150829,
            55.7131694
          ]
        ]
      }
    },
    {
      "type": "Feature",
      "properties": {
        "id": "moscow_nekrasovka_+1_-1_ed2104ce_osm_way_1134114560_37",
        "object_type": "restriction",
        "restriction_type": "road",
        "name": "Проектируемый проезд № 287",
        "osm_kind": "road",
        "osm_id": 1134114560,
        "osm_type": "way",
        "osm_tags": {
          "highway": "residential",
          "name": "Проектируемый проезд № 287"
        },
        "case_id": "moscow_nekrasovka_+1_-1_ed2104ce"
      },
      "geometry": {
        "type": "LineString",
        "coordinates": [
          [
            37.9150829,
            55.7131694
          ],
          [
            37.9151083,
            55.7133445
          ],
          [
            37.915215,
            55.7136318
          ],
          [
            37.9153791,
            55.7139464
          ],
          [
            37.9154502,
            55.7140583
          ],
          [
            37.9155568,
            55.7141715
          ],
          [
            37.9157436,
            55.714372
          ],
          [
            37.9157876,
            55.714419
          ],
          [
            37.916381,
            55.7149635
          ],
          [
            37.916688,
            55.7152652
          ],
          [
            37.9171102,
            55.7156969
          ],
          [
            37.9174817,
            55.7161702
          ],
          [
            37.9176593,
            55.7164449
          ],
          [
            37.9181061,
            55.7174702
          ],
          [
            37.91813,
            55.717525
          ],
          [
            37.9185615,
            55.7185153
          ]
        ]
      }
    },
    {
      "type": "Feature",
      "properties": {
        "id": "moscow_nekrasovka_+1_-1_ed2104ce_osm_way_1134114561_38",
        "object_type": "restriction",
        "restriction_type": "road",
        "name": "Проектируемый проезд № 287",
        "osm_kind": "road",
        "osm_id": 1134114561,
        "osm_type": "way",
        "osm_tags": {
          "highway": "residential",
          "name": "Проектируемый проезд № 287"
        },
        "case_id": "moscow_nekrasovka_+1_-1_ed2104ce"
      },
      "geometry": {
        "type": "LineString",
        "coordinates": [
          [
            37.9150695,
            55.7130284
          ],
          [
            37.9150829,
            55.7131694
          ]
        ]
      }
    },
    {
      "type": "Feature",
      "properties": {
        "id": "moscow_nekrasovka_+1_-1_ed2104ce_osm_way_1134339819_39",
        "object_type": "restriction",
        "restriction_type": "railway",
        "name": "",
        "osm_kind": "railway",
        "osm_id": 1134339819,
        "osm_type": "way",
        "osm_tags": {
          "railway": "subway"
        },
        "case_id": "moscow_nekrasovka_+1_-1_ed2104ce"
      },
      "geometry": {
        "type": "LineString",
        "coordinates": [
          [
            37.9174845,
            55.7134716
          ],
          [
            37.9179081,
            55.7139025
          ],
          [
            37.9180912,
            55.7140877
          ],
          [
            37.9182145,
            55.7142195
          ],
          [
            37.9183869,
            55.7143862
          ],
          [
            37.9185669,
            55.714572
          ],
          [
            37.9192984,
            55.7153071
          ],
          [
            37.9194218,
            55.7153796
          ],
          [
            37.9196564,
            55.7154852
          ],
          [
            37.9199035,
            55.7155404
          ],
          [
            37.9201961,
            55.7155752
          ]
        ]
      }
    },
    {
      "type": "Feature",
      "properties": {
        "id": "moscow_nekrasovka_+1_-1_ed2104ce_osm_way_1134340270_40",
        "object_type": "restriction",
        "restriction_type": "road",
        "name": "",
        "osm_kind": "road",
        "osm_id": 1134340270,
        "osm_type": "way",
        "osm_tags": {
          "highway": "service"
        },
        "case_id": "moscow_nekrasovka_+1_-1_ed2104ce"
      },
      "geometry": {
        "type": "LineString",
        "coordinates": [
          [
            37.9194503,
            55.7144198
          ],
          [
            37.9191961,
            55.7145241
          ],
          [
            37.9191076,
            55.7145321
          ],
          [
            37.919005,
            55.7145201
          ],
          [
            37.9188811,
            55.7144663
          ],
          [
            37.9180105,
            55.7138203
          ],
          [
            37.9180211,
            55.7137585
          ],
          [
            37.918053,
            55.7136887
          ],
          [
            37.9182725,
            55.7136014
          ]
        ]
      }
    },
    {
      "type": "Feature",
      "properties": {
        "id": "moscow_nekrasovka_+1_-1_ed2104ce_osm_way_1149712458_41",
        "object_type": "restriction",
        "restriction_type": "road",
        "name": "",
        "osm_kind": "road",
        "osm_id": 1149712458,
        "osm_type": "way",
        "osm_tags": {
          "highway": "footway"
        },
        "case_id": "moscow_nekrasovka_+1_-1_ed2104ce"
      },
      "geometry": {
        "type": "LineString",
        "coordinates": [
          [
            37.925931,
            55.7155366
          ],
          [
            37.9251295,
            55.7153681
          ],
          [
            37.9245733,
            55.7152534
          ],
          [
            37.9232704,
            55.7149171
          ],
          [
            37.9225016,
            55.7146716
          ],
          [
            37.9215856,
            55.71428
          ],
          [
            37.9211167,
            55.7140256
          ],
          [
            37.920665,
            55.7137805
          ],
          [
            37.9198317,
            55.7132736
          ],
          [
            37.9193362,
            55.7128789
          ],
          [
            37.9184978,
            55.7122489
          ],
          [
            37.9176862,
            55.7115969
          ],
          [
            37.917477,
            55.7114289
          ],
          [
            37.9160252,
            55.7104978
          ]
        ]
      }
    },
    {
      "type": "Feature",
      "properties": {
        "id": "moscow_nekrasovka_+1_-1_ed2104ce_osm_way_1282354281_42",
        "object_type": "restriction",
        "restriction_type": "oks",
        "name": "",
        "osm_kind": "building",
        "osm_id": 1282354281,
        "osm_type": "way",
        "osm_tags": {
          "building": "yes"
        },
        "case_id": "moscow_nekrasovka_+1_-1_ed2104ce",
        "selected_as_heat_demand_proxy": true,
        "connection_point_id": "moscow_nekrasovka_+1_-1_ed2104ce_cp_3"
      },
      "geometry": {
        "type": "Polygon",
        "coordinates": [
          [
            [
              37.9156083,
              55.7131445
            ],
            [
              37.9156181,
              55.7130557
            ],
            [
              37.9157395,
              55.71306
            ],
            [
              37.9157297,
              55.7131487
            ],
            [
              37.9156083,
              55.7131445
            ]
          ]
        ]
      }
    },
    {
      "type": "Feature",
      "properties": {
        "id": "moscow_nekrasovka_+1_-1_ed2104ce_osm_way_1282744346_43",
        "object_type": "restriction",
        "restriction_type": "railway",
        "name": "",
        "osm_kind": "railway",
        "osm_id": 1282744346,
        "osm_type": "way",
        "osm_tags": {
          "railway": "subway"
        },
        "case_id": "moscow_nekrasovka_+1_-1_ed2104ce"
      },
      "geometry": {
        "type": "LineString",
        "coordinates": [
          [
            37.917504,
            55.7135947
          ],
          [
            37.9172242,
            55.7133867
          ]
        ]
      }
    },
    {
      "type": "Feature",
      "properties": {
        "id": "moscow_nekrasovka_+1_-1_ed2104ce_osm_way_1282744347_44",
        "object_type": "restriction",
        "restriction_type": "railway",
        "name": "",
        "osm_kind": "railway",
        "osm_id": 1282744347,
        "osm_type": "way",
        "osm_tags": {
          "railway": "subway"
        },
        "case_id": "moscow_nekrasovka_+1_-1_ed2104ce"
      },
      "geometry": {
        "type": "LineString",
        "coordinates": [
          [
            37.9177658,
            55.7140264
          ],
          [
            37.9176508,
            55.7139531
          ],
          [
            37.9172738,
            55.7137103
          ]
        ]
      }
    },
    {
      "type": "Feature",
      "properties": {
        "id": "moscow_nekrasovka_+1_-1_ed2104ce_osm_way_1282806516_45",
        "object_type": "restriction",
        "restriction_type": "railway",
        "name": "",
        "osm_kind": "railway",
        "osm_id": 1282806516,
        "osm_type": "way",
        "osm_tags": {
          "railway": "subway"
        },
        "case_id": "moscow_nekrasovka_+1_-1_ed2104ce"
      },
      "geometry": {
        "type": "LineString",
        "coordinates": [
          [
            37.9162738,
            55.7120503
          ],
          [
            37.9170611,
            55.7129943
          ],
          [
            37.9173243,
            55.7133126
          ],
          [
            37.9174845,
            55.7134716
          ]
        ]
      }
    },
    {
      "type": "Feature",
      "properties": {
        "id": "moscow_nekrasovka_+1_-1_ed2104ce_osm_way_1306316377_46",
        "object_type": "restriction",
        "restriction_type": "road",
        "name": "",
        "osm_kind": "road",
        "osm_id": 1306316377,
        "osm_type": "way",
        "osm_tags": {
          "highway": "service"
        },
        "case_id": "moscow_nekrasovka_+1_-1_ed2104ce"
      },
      "geometry": {
        "type": "LineString",
        "coordinates": [
          [
            37.9156975,
            55.7132065
          ],
          [
            37.9157799,
            55.7136215
          ],
          [
            37.9162395,
            55.714203
          ],
          [
            37.9164052,
            55.7142199
          ],
          [
            37.9167312,
            55.714142
          ],
          [
            37.9171892,
            55.7140325
          ]
        ]
      }
    },
    {
      "type": "Feature",
      "properties": {
        "id": "moscow_nekrasovka_+1_-1_ed2104ce_osm_way_1393303973_47",
        "object_type": "restriction",
        "restriction_type": "road",
        "name": "",
        "osm_kind": "road",
        "osm_id": 1393303973,
        "osm_type": "way",
        "osm_tags": {
          "highway": "footway"
        },
        "case_id": "moscow_nekrasovka_+1_-1_ed2104ce"
      },
      "geometry": {
        "type": "LineString",
        "coordinates": [
          [
            37.9155417,
            55.7110461
          ],
          [
            37.9157483,
            55.7111723
          ],
          [
            37.9159683,
            55.7113131
          ],
          [
            37.9161339,
            55.7114292
          ],
          [
            37.9166051,
            55.7117808
          ]
        ]
      }
    },
    {
      "type": "Feature",
      "properties": {
        "id": "moscow_nekrasovka_+1_-1_ed2104ce_osm_way_1393521389_48",
        "object_type": "restriction",
        "restriction_type": "road",
        "name": "",
        "osm_kind": "road",
        "osm_id": 1393521389,
        "osm_type": "way",
        "osm_tags": {
          "highway": "path"
        },
        "case_id": "moscow_nekrasovka_+1_-1_ed2104ce"
      },
      "geometry": {
        "type": "LineString",
        "coordinates": [
          [
            37.9176862,
            55.7115969
          ],
          [
            37.9180113,
            55.7116266
          ],
          [
            37.9183662,
            55.711666
          ],
          [
            37.9186838,
            55.7117397
          ],
          [
            37.9187958,
            55.7117581
          ],
          [
            37.9189499,
            55.7117581
          ],
          [
            37.9193376,
            55.711745
          ],
          [
            37.9196504,
            55.7117923
          ],
          [
            37.9199587,
            55.7118949
          ],
          [
            37.9202949,
            55.7120291
          ],
          [
            37.920463,
            55.7121738
          ],
          [
            37.9208273,
            55.7122685
          ],
          [
            37.9214093,
            55.7123875
          ],
          [
            37.9215401,
            55.7124506
          ],
          [
            37.9216054,
            55.7125453
          ],
          [
            37.9219677,
            55.7128532
          ]
        ]
      }
    },
    {
      "type": "Feature",
      "properties": {
        "id": "moscow_nekrasovka_+1_-1_ed2104ce_osm_way_1510417705_49",
        "object_type": "restriction",
        "restriction_type": "road",
        "name": "",
        "osm_kind": "road",
        "osm_id": 1510417705,
        "osm_type": "way",
        "osm_tags": {
          "highway": "footway"
        },
        "case_id": "moscow_nekrasovka_+1_-1_ed2104ce"
      },
      "geometry": {
        "type": "LineString",
        "coordinates": [
          [
            37.9147701,
            55.7106696
          ],
          [
            37.9148023,
            55.7107156
          ],
          [
            37.9148384,
            55.7107978
          ],
          [
            37.9148393,
            55.7108574
          ],
          [
            37.9148367,
            55.7109173
          ],
          [
            37.9148502,
            55.7111617
          ],
          [
            37.9148657,
            55.7113567
          ],
          [
            37.9149002,
            55.7116237
          ],
          [
            37.9149138,
            55.7117739
          ],
          [
            37.91492,
            55.712032
          ],
          [
            37.9149147,
            55.7123367
          ],
          [
            37.9149352,
            55.7127393
          ],
          [
            37.9149342,
            55.7130444
          ],
          [
            37.9149535,
            55.7132403
          ],
          [
            37.9149677,
            55.7132944
          ],
          [
            37.9149788,
            55.7133541
          ],
          [
            37.9150459,
            55.7135586
          ],
          [
            37.9151311,
            55.7137655
          ],
          [
            37.9153212,
            55.7140834
          ]
        ]
      }
    },
    {
      "type": "Feature",
      "properties": {
        "id": "moscow_nekrasovka_+1_-1_ed2104ce_osm_way_1514058823_50",
        "object_type": "restriction",
        "restriction_type": "road",
        "name": "",
        "osm_kind": "road",
        "osm_id": 1514058823,
        "osm_type": "way",
        "osm_tags": {
          "highway": "footway"
        },
        "case_id": "moscow_nekrasovka_+1_-1_ed2104ce"
      },
      "geometry": {
        "type": "LineString",
        "coordinates": [
          [
            37.9155417,
            55.7110461
          ],
          [
            37.9154398,
            55.7110267
          ],
          [
            37.915366,
            55.7110341
          ],
          [
            37.9152882,
            55.7110591
          ],
          [
            37.9152198,
            55.7111067
          ],
          [
            37.9151952,
            55.711194
          ],
          [
            37.9151702,
            55.7114655
          ],
          [
            37.9151809,
            55.711773
          ],
          [
            37.9151763,
            55.7123305
          ],
          [
            37.9151978,
            55.7130868
          ],
          [
            37.9152156,
            55.7131105
          ],
          [
            37.9152624,
            55.713138
          ],
          [
            37.9153152,
            55.7131449
          ]
        ]
      }
    },
    {
      "type": "Feature",
      "properties": {
        "id": "moscow_nekrasovka_+1_-1_ed2104ce_osm_way_1514058824_51",
        "object_type": "restriction",
        "restriction_type": "road",
        "name": "",
        "osm_kind": "road",
        "osm_id": 1514058824,
        "osm_type": "way",
        "osm_tags": {
          "highway": "footway"
        },
        "case_id": "moscow_nekrasovka_+1_-1_ed2104ce"
      },
      "geometry": {
        "type": "LineString",
        "coordinates": [
          [
            37.9153152,
            55.7131449
          ],
          [
            37.9153172,
            55.7131814
          ],
          [
            37.9153213,
            55.7132158
          ]
        ]
      }
    },
    {
      "type": "Feature",
      "properties": {
        "id": "moscow_nekrasovka_+1_-1_ed2104ce_source",
        "object_type": "source",
        "case_id": "moscow_nekrasovka_+1_-1_ed2104ce"
      },
      "geometry": {
        "type": "Point",
        "coordinates": [
          37.91437552,
          55.712635649999996
        ]
      }
    },
    {
      "type": "Feature",
      "properties": {
        "id": "moscow_nekrasovka_+1_-1_ed2104ce_existing_network",
        "object_type": "heat_network",
        "diameter": 500,
        "flow_tph": 180.0,
        "upstream_object_id": "moscow_nekrasovka_+1_-1_ed2104ce_source",
        "case_id": "moscow_nekrasovka_+1_-1_ed2104ce"
      },
      "geometry": {
        "type": "LineString",
        "coordinates": [
          [
            37.91437552,
            55.712635649999996
          ],
          [
            37.91549174,
            55.712635649999996
          ]
        ]
      }
    },
    {
      "type": "Feature",
      "properties": {
        "id": "moscow_nekrasovka_+1_-1_ed2104ce_existing_chamber",
        "object_type": "heat_chamber",
        "diameter": 500,
        "upstream_object_id": "moscow_nekrasovka_+1_-1_ed2104ce_source",
        "case_id": "moscow_nekrasovka_+1_-1_ed2104ce"
      },
      "geometry": {
        "type": "Point",
        "coordinates": [
          37.91549174,
          55.712635649999996
        ]
      }
    },
    {
      "type": "Feature",
      "properties": {
        "id": "moscow_nekrasovka_+1_-1_ed2104ce_cp_1",
        "object_type": "oks_connection_point",
        "flow_tph": 14.203,
        "case_id": "moscow_nekrasovka_+1_-1_ed2104ce",
        "consumer_role": "osm_building_heat_demand_proxy",
        "source_building_osm_id": 699998981,
        "source_building_osm_type": "way",
        "source_building_name": "",
        "source_building_tags": {
          "building": "ramp"
        },
        "footprint_area_m2": 1420.33,
        "flow_basis": "synthetic_proxy_from_osm_footprint_area",
        "stress_bucket": ""
      },
      "geometry": {
        "type": "Point",
        "coordinates": [
          37.91641917539841,
          55.71257557016556
        ]
      }
    },
    {
      "type": "Feature",
      "properties": {
        "id": "moscow_nekrasovka_+1_-1_ed2104ce_cp_2",
        "object_type": "oks_connection_point",
        "flow_tph": 5.0,
        "case_id": "moscow_nekrasovka_+1_-1_ed2104ce",
        "consumer_role": "osm_building_heat_demand_proxy",
        "source_building_osm_id": 884635529,
        "source_building_osm_type": "way",
        "source_building_name": "",
        "source_building_tags": {
          "building": "yes"
        },
        "footprint_area_m2": 35.54,
        "flow_basis": "synthetic_proxy_from_osm_footprint_area",
        "stress_bucket": ""
      },
      "geometry": {
        "type": "Point",
        "coordinates": [
          37.916847950000005,
          55.7131239
        ]
      }
    },
    {
      "type": "Feature",
      "properties": {
        "id": "moscow_nekrasovka_+1_-1_ed2104ce_cp_3",
        "object_type": "oks_connection_point",
        "flow_tph": 5.0,
        "case_id": "moscow_nekrasovka_+1_-1_ed2104ce",
        "consumer_role": "osm_building_heat_demand_proxy",
        "source_building_osm_id": 1282354281,
        "source_building_osm_type": "way",
        "source_building_name": "",
        "source_building_tags": {
          "building": "yes"
        },
        "footprint_area_m2": 75.51,
        "flow_basis": "synthetic_proxy_from_osm_footprint_area",
        "stress_bucket": ""
      },
      "geometry": {
        "type": "Point",
        "coordinates": [
          37.9156739,
          55.713102199999994
        ]
      }
    },
    {
      "type": "Feature",
      "properties": {
        "id": "moscow_nekrasovka_+1_-1_ed2104ce_cp_4",
        "object_type": "oks_connection_point",
        "flow_tph": 6.802,
        "case_id": "moscow_nekrasovka_+1_-1_ed2104ce",
        "consumer_role": "osm_building_heat_demand_proxy",
        "source_building_osm_id": 699998980,
        "source_building_osm_type": "way",
        "source_building_name": "",
        "source_building_tags": {
          "building": "garage"
        },
        "footprint_area_m2": 680.2,
        "flow_basis": "synthetic_proxy_from_osm_footprint_area",
        "stress_bucket": ""
      },
      "geometry": {
        "type": "Point",
        "coordinates": [
          37.916963829647315,
          55.71354408867025
        ]
      }
    },
    {
      "type": "Feature",
      "properties": {
        "id": "moscow_nekrasovka_+1_-1_ed2104ce_cp_5",
        "object_type": "oks_connection_point",
        "flow_tph": 6.087,
        "case_id": "moscow_nekrasovka_+1_-1_ed2104ce",
        "consumer_role": "osm_building_heat_demand_proxy",
        "source_building_osm_id": 699998898,
        "source_building_osm_type": "way",
        "source_building_name": "",
        "source_building_tags": {
          "building": "yes"
        },
        "footprint_area_m2": 608.74,
        "flow_basis": "synthetic_proxy_from_osm_footprint_area",
        "stress_bucket": ""
      },
      "geometry": {
        "type": "Point",
        "coordinates": [
          37.91839672794435,
          55.713889129163945
        ]
      }
    },
    {
      "type": "Feature",
      "properties": {
        "id": "moscow_nekrasovka_+1_-1_ed2104ce_cp_6",
        "object_type": "oks_connection_point",
        "flow_tph": 5.0,
        "case_id": "moscow_nekrasovka_+1_-1_ed2104ce",
        "consumer_role": "osm_building_heat_demand_proxy",
        "source_building_osm_id": 884635530,
        "source_building_osm_type": "way",
        "source_building_name": "",
        "source_building_tags": {
          "building": "yes"
        },
        "footprint_area_m2": 47.92,
        "flow_basis": "synthetic_proxy_from_osm_footprint_area",
        "stress_bucket": ""
      },
      "geometry": {
        "type": "Point",
        "coordinates": [
          37.91724485,
          55.7138975
        ]
      }
    }
  ]
}