{
  "type": "FeatureCollection",
  "name": "moscow_center_+3_+3_ee18983c",
  "metadata": {
    "category": "refusal",
    "rank": 42,
    "city": "Москва",
    "seed": "moscow_center",
    "center": [
      37.6580074,
      55.7787069
    ],
    "bbox_south_west_north_east": [
      55.7773595,
      37.6556115,
      55.7800544,
      37.6604034
    ],
    "source": "OpenStreetMap via Overpass API",
    "note": "Real OSM geometry only. Category is a heuristic research bucket, not heat-network ground truth.",
    "metrics": {
      "counts": {
        "building": 16,
        "road": 49,
        "major_road": 0,
        "railway": 32,
        "water": 0,
        "green": 0
      },
      "lengths_m": {
        "road": 3019.89,
        "major_road": 0.0,
        "railway": 7619.77,
        "water": 0.0
      },
      "building_centers": 16,
      "building_spread": 0.2179,
      "barrier_score": 37.0297,
      "road_score": 5.4299,
      "category_scores": {
        "shared_pipe": -23.8566,
        "separate_pipes": -11.7168,
        "fifty_fifty": -6.8215,
        "refusal": 92.8741
      }
    }
  },
  "features": [
    {
      "type": "Feature",
      "properties": {
        "osm_kind": "railway",
        "name": "Транссибирская магистраль",
        "source": "OpenStreetMap",
        "download_window_id": "moscow_center_+3_+3_ee18983c",
        "download_city": "Москва",
        "osm_tags": {
          "name": "Транссибирская магистраль",
          "railway": "rail"
        },
        "osm_id": 30795409,
        "osm_type": "way"
      },
      "geometry": {
        "type": "LineString",
        "coordinates": [
          [
            37.6567706,
            55.7787912
          ],
          [
            37.6559865,
            55.7804008
          ],
          [
            37.6554654,
            55.7812127
          ],
          [
            37.6549981,
            55.7819058
          ]
        ]
      }
    },
    {
      "type": "Feature",
      "properties": {
        "osm_kind": "railway",
        "name": "",
        "source": "OpenStreetMap",
        "download_window_id": "moscow_center_+3_+3_ee18983c",
        "download_city": "Москва",
        "osm_tags": {
          "railway": "rail"
        },
        "osm_id": 30795410,
        "osm_type": "way"
      },
      "geometry": {
        "type": "LineString",
        "coordinates": [
          [
            37.6572949,
            55.7788658
          ],
          [
            37.6567425,
            55.7800297
          ],
          [
            37.656482,
            55.7805515
          ],
          [
            37.6558044,
            55.7815827
          ],
          [
            37.6550509,
            55.7826489
          ],
          [
            37.654771,
            55.7830465
          ]
        ]
      }
    },
    {
      "type": "Feature",
      "properties": {
        "osm_kind": "railway",
        "name": "",
        "source": "OpenStreetMap",
        "download_window_id": "moscow_center_+3_+3_ee18983c",
        "download_city": "Москва",
        "osm_tags": {
          "railway": "rail"
        },
        "osm_id": 30795413,
        "osm_type": "way"
      },
      "geometry": {
        "type": "LineString",
        "coordinates": [
          [
            37.6577446,
            55.7789298
          ],
          [
            37.6570229,
            55.780439
          ],
          [
            37.6567361,
            55.7809283
          ],
          [
            37.6565554,
            55.7811918
          ],
          [
            37.6563057,
            55.7815549
          ],
          [
            37.6560389,
            55.781928
          ],
          [
            37.6557925,
            55.7822676
          ],
          [
            37.6555575,
            55.7825663
          ],
          [
            37.6553828,
            55.7827661
          ],
          [
            37.6551394,
            55.7830016
          ]
        ]
      }
    },
    {
      "type": "Feature",
      "properties": {
        "osm_kind": "building",
        "name": "",
        "source": "OpenStreetMap",
        "download_window_id": "moscow_center_+3_+3_ee18983c",
        "download_city": "Москва",
        "osm_tags": {
          "building": "apartments"
        },
        "osm_id": 37908835,
        "osm_type": "way"
      },
      "geometry": {
        "type": "Polygon",
        "coordinates": [
          [
            [
              37.6593059,
              55.7769633
            ],
            [
              37.6594737,
              55.777037
            ],
            [
              37.659561,
              55.7770754
            ],
            [
              37.6598963,
              55.7772307
            ],
            [
              37.6600189,
              55.7772867
            ],
            [
              37.6601706,
              55.777182
            ],
            [
              37.6600301,
              55.7771181
            ],
            [
              37.6593617,
              55.7768144
            ],
            [
              37.6593295,
              55.7768198
            ],
            [
              37.6591933,
              55.7768425
            ],
            [
              37.6591739,
              55.7768457
            ],
            [
              37.6588278,
              55.7769046
            ],
            [
              37.6587629,
              55.7770476
            ],
            [
              37.6587414,
              55.7770949
            ],
            [
              37.6585641,
              55.7774478
            ],
            [
              37.6587905,
              55.7774847
            ],
            [
              37.6588311,
              55.7774039
            ],
            [
              37.6589678,
              55.7771318
            ],
            [
              37.6589915,
              55.777084
            ],
            [
              37.6590247,
              55.7770161
            ],
            [
              37.6593059,
              55.7769633
            ]
          ]
        ]
      }
    },
    {
      "type": "Feature",
      "properties": {
        "osm_kind": "railway",
        "name": "",
        "source": "OpenStreetMap",
        "download_window_id": "moscow_center_+3_+3_ee18983c",
        "download_city": "Москва",
        "osm_tags": {
          "railway": "rail"
        },
        "osm_id": 39545189,
        "osm_type": "way"
      },
      "geometry": {
        "type": "LineString",
        "coordinates": [
          [
            37.6574952,
            55.7788943
          ],
          [
            37.6569495,
            55.7800403
          ],
          [
            37.6568253,
            55.7803027
          ],
          [
            37.6566791,
            55.7805748
          ],
          [
            37.6563455,
            55.7811183
          ],
          [
            37.6559892,
            55.7816179
          ],
          [
            37.6553267,
            55.7825575
          ],
          [
            37.6548823,
            55.7830702
          ]
        ]
      }
    },
    {
      "type": "Feature",
      "properties": {
        "osm_kind": "railway",
        "name": "",
        "source": "OpenStreetMap",
        "download_window_id": "moscow_center_+3_+3_ee18983c",
        "download_city": "Москва",
        "osm_tags": {
          "railway": "rail"
        },
        "osm_id": 39545194,
        "osm_type": "way"
      },
      "geometry": {
        "type": "LineString",
        "coordinates": [
          [
            37.6575397,
            55.7776485
          ],
          [
            37.6569741,
            55.7788202
          ]
        ]
      }
    },
    {
      "type": "Feature",
      "properties": {
        "osm_kind": "railway",
        "name": "",
        "source": "OpenStreetMap",
        "download_window_id": "moscow_center_+3_+3_ee18983c",
        "download_city": "Москва",
        "osm_tags": {
          "railway": "rail"
        },
        "osm_id": 39545201,
        "osm_type": "way"
      },
      "geometry": {
        "type": "LineString",
        "coordinates": [
          [
            37.6570257,
            55.7775727
          ],
          [
            37.6564584,
            55.7787468
          ],
          [
            37.6557965,
            55.7801162
          ]
        ]
      }
    },
    {
      "type": "Feature",
      "properties": {
        "osm_kind": "railway",
        "name": "",
        "source": "OpenStreetMap",
        "download_window_id": "moscow_center_+3_+3_ee18983c",
        "download_city": "Москва",
        "osm_tags": {
          "railway": "rail"
        },
        "osm_id": 39545204,
        "osm_type": "way"
      },
      "geometry": {
        "type": "LineString",
        "coordinates": [
          [
            37.6562004,
            55.7774511
          ],
          [
            37.6558321,
            55.7782165
          ],
          [
            37.6556458,
            55.7786311
          ],
          [
            37.6554837,
            55.7789917
          ],
          [
            37.655333,
            55.7797201
          ]
        ]
      }
    },
    {
      "type": "Feature",
      "properties": {
        "osm_kind": "railway",
        "name": "",
        "source": "OpenStreetMap",
        "download_window_id": "moscow_center_+3_+3_ee18983c",
        "download_city": "Москва",
        "osm_tags": {
          "railway": "rail"
        },
        "osm_id": 39545205,
        "osm_type": "way"
      },
      "geometry": {
        "type": "LineString",
        "coordinates": [
          [
            37.6564001,
            55.7774805
          ],
          [
            37.6560311,
            55.7782601
          ],
          [
            37.6558481,
            55.7786599
          ],
          [
            37.6556907,
            55.7790034
          ],
          [
            37.6554805,
            55.7797445
          ]
        ]
      }
    },
    {
      "type": "Feature",
      "properties": {
        "osm_kind": "railway",
        "name": "",
        "source": "OpenStreetMap",
        "download_window_id": "moscow_center_+3_+3_ee18983c",
        "download_city": "Москва",
        "osm_tags": {
          "railway": "rail"
        },
        "osm_id": 39545206,
        "osm_type": "way"
      },
      "geometry": {
        "type": "LineString",
        "coordinates": [
          [
            37.6565746,
            55.7775062
          ],
          [
            37.6561966,
            55.7783067
          ],
          [
            37.656021,
            55.7786845
          ],
          [
            37.6558631,
            55.7790235
          ],
          [
            37.6556178,
            55.779766
          ]
        ]
      }
    },
    {
      "type": "Feature",
      "properties": {
        "osm_kind": "railway",
        "name": "",
        "source": "OpenStreetMap",
        "download_window_id": "moscow_center_+3_+3_ee18983c",
        "download_city": "Москва",
        "osm_tags": {
          "railway": "rail"
        },
        "osm_id": 39545217,
        "osm_type": "way"
      },
      "geometry": {
        "type": "LineString",
        "coordinates": [
          [
            37.6578899,
            55.778217
          ],
          [
            37.6575645,
            55.7789042
          ],
          [
            37.6570209,
            55.7800509
          ],
          [
            37.6568978,
            55.7803091
          ],
          [
            37.656747,
            55.7805861
          ],
          [
            37.6564162,
            55.7811325
          ],
          [
            37.6560648,
            55.781641
          ],
          [
            37.6553158,
            55.7826885
          ],
          [
            37.6550653,
            55.7829762
          ]
        ]
      }
    },
    {
      "type": "Feature",
      "properties": {
        "osm_kind": "railway",
        "name": "",
        "source": "OpenStreetMap",
        "download_window_id": "moscow_center_+3_+3_ee18983c",
        "download_city": "Москва",
        "osm_tags": {
          "railway": "rail"
        },
        "osm_id": 39550573,
        "osm_type": "way"
      },
      "geometry": {
        "type": "LineString",
        "coordinates": [
          [
            37.6572276,
            55.7788562
          ],
          [
            37.6566799,
            55.7800165
          ],
          [
            37.656418,
            55.7805461
          ],
          [
            37.6557359,
            55.7815701
          ],
          [
            37.6549834,
            55.7826278
          ]
        ]
      }
    },
    {
      "type": "Feature",
      "properties": {
        "osm_kind": "railway",
        "name": "",
        "source": "OpenStreetMap",
        "download_window_id": "moscow_center_+3_+3_ee18983c",
        "download_city": "Москва",
        "osm_tags": {
          "railway": "rail"
        },
        "osm_id": 39550575,
        "osm_type": "way"
      },
      "geometry": {
        "type": "LineString",
        "coordinates": [
          [
            37.6575934,
            55.7776564
          ],
          [
            37.6570358,
            55.7788289
          ],
          [
            37.6564899,
            55.7799756
          ],
          [
            37.6563209,
            55.7803119
          ]
        ]
      }
    },
    {
      "type": "Feature",
      "properties": {
        "osm_kind": "railway",
        "name": "",
        "source": "OpenStreetMap",
        "download_window_id": "moscow_center_+3_+3_ee18983c",
        "download_city": "Москва",
        "osm_tags": {
          "railway": "rail"
        },
        "osm_id": 39550580,
        "osm_type": "way"
      },
      "geometry": {
        "type": "LineString",
        "coordinates": [
          [
            37.6572847,
            55.7776109
          ],
          [
            37.6567105,
            55.7787826
          ],
          [
            37.6560373,
            55.7801551
          ]
        ]
      }
    },
    {
      "type": "Feature",
      "properties": {
        "osm_kind": "road",
        "name": "",
        "source": "OpenStreetMap",
        "download_window_id": "moscow_center_+3_+3_ee18983c",
        "download_city": "Москва",
        "osm_tags": {
          "highway": "footway"
        },
        "osm_id": 39550581,
        "osm_type": "way"
      },
      "geometry": {
        "type": "LineString",
        "coordinates": [
          [
            37.6579386,
            55.7774642
          ],
          [
            37.6580061,
            55.7773212
          ],
          [
            37.6580274,
            55.7772681
          ]
        ]
      }
    },
    {
      "type": "Feature",
      "properties": {
        "osm_kind": "railway",
        "name": "",
        "source": "OpenStreetMap",
        "download_window_id": "moscow_center_+3_+3_ee18983c",
        "download_city": "Москва",
        "osm_tags": {
          "railway": "rail"
        },
        "osm_id": 39550582,
        "osm_type": "way"
      },
      "geometry": {
        "type": "LineString",
        "coordinates": [
          [
            37.6569525,
            55.7775619
          ],
          [
            37.6563903,
            55.778733
          ],
          [
            37.6558519,
            55.7798546
          ]
        ]
      }
    },
    {
      "type": "Feature",
      "properties": {
        "osm_kind": "railway",
        "name": "",
        "source": "OpenStreetMap",
        "download_window_id": "moscow_center_+3_+3_ee18983c",
        "download_city": "Москва",
        "osm_tags": {
          "railway": "rail"
        },
        "osm_id": 39550583,
        "osm_type": "way"
      },
      "geometry": {
        "type": "LineString",
        "coordinates": [
          [
            37.6567906,
            55.7775381
          ],
          [
            37.6563702,
            55.7784172
          ],
          [
            37.6562281,
            55.778714
          ]
        ]
      }
    },
    {
      "type": "Feature",
      "properties": {
        "osm_kind": "road",
        "name": "",
        "source": "OpenStreetMap",
        "download_window_id": "moscow_center_+3_+3_ee18983c",
        "download_city": "Москва",
        "osm_tags": {
          "highway": "unclassified"
        },
        "osm_id": 42922719,
        "osm_type": "way"
      },
      "geometry": {
        "type": "LineString",
        "coordinates": [
          [
            37.659338,
            55.7782619
          ],
          [
            37.6593492,
            55.778346
          ],
          [
            37.6592848,
            55.7784239
          ],
          [
            37.6591974,
            55.7784777
          ],
          [
            37.6587456,
            55.7787558
          ],
          [
            37.6586937,
            55.7788421
          ],
          [
            37.6587725,
            55.7789368
          ],
          [
            37.6590246,
            55.7790349
          ],
          [
            37.6592568,
            55.7791521
          ],
          [
            37.659367,
            55.7792466
          ],
          [
            37.6594175,
            55.7793531
          ],
          [
            37.6594309,
            55.7794458
          ],
          [
            37.6594055,
            55.7796051
          ],
          [
            37.6593465,
            55.7797363
          ],
          [
            37.6592543,
            55.779865
          ],
          [
            37.6590325,
            55.7801078
          ],
          [
            37.6586016,
            55.780549
          ],
          [
            37.6581375,
            55.7807484
          ],
          [
            37.6575956,
            55.78112
          ],
          [
            37.6561099,
            55.7822951
          ],
          [
            37.6561059,
            55.7823371
          ]
        ]
      }
    },
    {
      "type": "Feature",
      "properties": {
        "osm_kind": "road",
        "name": "",
        "source": "OpenStreetMap",
        "download_window_id": "moscow_center_+3_+3_ee18983c",
        "download_city": "Москва",
        "osm_tags": {
          "highway": "service"
        },
        "osm_id": 42922720,
        "osm_type": "way"
      },
      "geometry": {
        "type": "LineString",
        "coordinates": [
          [
            37.659338,
            55.7782619
          ],
          [
            37.6591807,
            55.7781347
          ],
          [
            37.6588485,
            55.7778663
          ],
          [
            37.658504,
            55.7777333
          ],
          [
            37.6584278,
            55.777681
          ],
          [
            37.6584117,
            55.7776026
          ],
          [
            37.6584572,
            55.7775014
          ]
        ]
      }
    },
    {
      "type": "Feature",
      "properties": {
        "osm_kind": "road",
        "name": "",
        "source": "OpenStreetMap",
        "download_window_id": "moscow_center_+3_+3_ee18983c",
        "download_city": "Москва",
        "osm_tags": {
          "highway": "service"
        },
        "osm_id": 48211685,
        "osm_type": "way"
      },
      "geometry": {
        "type": "LineString",
        "coordinates": [
          [
            37.6585358,
            55.7789482
          ],
          [
            37.6583747,
            55.7790797
          ],
          [
            37.6581669,
            55.7794789
          ]
        ]
      }
    },
    {
      "type": "Feature",
      "properties": {
        "osm_kind": "road",
        "name": "",
        "source": "OpenStreetMap",
        "download_window_id": "moscow_center_+3_+3_ee18983c",
        "download_city": "Москва",
        "osm_tags": {
          "highway": "service"
        },
        "osm_id": 48211689,
        "osm_type": "way"
      },
      "geometry": {
        "type": "LineString",
        "coordinates": [
          [
            37.6572704,
            55.7802733
          ],
          [
            37.6578122,
            55.779243
          ],
          [
            37.6580979,
            55.7789413
          ],
          [
            37.6584065,
            55.7788693
          ]
        ]
      }
    },
    {
      "type": "Feature",
      "properties": {
        "osm_kind": "building",
        "name": "",
        "source": "OpenStreetMap",
        "download_window_id": "moscow_center_+3_+3_ee18983c",
        "download_city": "Москва",
        "osm_tags": {
          "building": "industrial"
        },
        "osm_id": 48211927,
        "osm_type": "way"
      },
      "geometry": {
        "type": "Polygon",
        "coordinates": [
          [
            [
              37.6598504,
              55.7792393
            ],
            [
              37.6606249,
              55.7793493
            ],
            [
              37.6610226,
              55.7784637
            ],
            [
              37.6602481,
              55.7783537
            ],
            [
              37.6598504,
              55.7792393
            ]
          ]
        ]
      }
    },
    {
      "type": "Feature",
      "properties": {
        "osm_kind": "road",
        "name": "",
        "source": "OpenStreetMap",
        "download_window_id": "moscow_center_+3_+3_ee18983c",
        "download_city": "Москва",
        "osm_tags": {
          "highway": "footway"
        },
        "osm_id": 86985793,
        "osm_type": "way"
      },
      "geometry": {
        "type": "LineString",
        "coordinates": [
          [
            37.657994,
            55.7776409
          ],
          [
            37.657778,
            55.7780912
          ],
          [
            37.6580904,
            55.7781386
          ],
          [
            37.6581479,
            55.7782069
          ],
          [
            37.6580488,
            55.7784026
          ]
        ]
      }
    },
    {
      "type": "Feature",
      "properties": {
        "osm_kind": "building",
        "name": "",
        "source": "OpenStreetMap",
        "download_window_id": "moscow_center_+3_+3_ee18983c",
        "download_city": "Москва",
        "osm_tags": {
          "building": "industrial"
        },
        "osm_id": 86985802,
        "osm_type": "way"
      },
      "geometry": {
        "type": "Polygon",
        "coordinates": [
          [
            [
              37.660298,
              55.7797471
            ],
            [
              37.6605884,
              55.7795213
            ],
            [
              37.660411,
              55.7794491
            ],
            [
              37.6601206,
              55.7796749
            ],
            [
              37.660298,
              55.7797471
            ]
          ]
        ]
      }
    },
    {
      "type": "Feature",
      "properties": {
        "osm_kind": "building",
        "name": "",
        "source": "OpenStreetMap",
        "download_window_id": "moscow_center_+3_+3_ee18983c",
        "download_city": "Москва",
        "osm_tags": {
          "building": "yes"
        },
        "osm_id": 86985809,
        "osm_type": "way"
      },
      "geometry": {
        "type": "Polygon",
        "coordinates": [
          [
            [
              37.6596255,
              55.7802923
            ],
            [
              37.6598038,
              55.7803637
            ],
            [
              37.660187,
              55.7800616
            ],
            [
              37.6600088,
              55.7799901
            ],
            [
              37.6596255,
              55.7802923
            ]
          ]
        ]
      }
    },
    {
      "type": "Feature",
      "properties": {
        "osm_kind": "road",
        "name": "",
        "source": "OpenStreetMap",
        "download_window_id": "moscow_center_+3_+3_ee18983c",
        "download_city": "Москва",
        "osm_tags": {
          "highway": "service"
        },
        "osm_id": 87349408,
        "osm_type": "way"
      },
      "geometry": {
        "type": "LineString",
        "coordinates": [
          [
            37.6602437,
            55.7778575
          ],
          [
            37.6603134,
            55.7778198
          ],
          [
            37.6603751,
            55.7777723
          ],
          [
            37.6604864,
            55.7776833
          ],
          [
            37.6606293,
            55.7776459
          ],
          [
            37.6607146,
            55.7775878
          ]
        ]
      }
    },
    {
      "type": "Feature",
      "properties": {
        "osm_kind": "road",
        "name": "",
        "source": "OpenStreetMap",
        "download_window_id": "moscow_center_+3_+3_ee18983c",
        "download_city": "Москва",
        "osm_tags": {
          "highway": "service"
        },
        "osm_id": 87349416,
        "osm_type": "way"
      },
      "geometry": {
        "type": "LineString",
        "coordinates": [
          [
            37.6597622,
            55.7792868
          ],
          [
            37.660701,
            55.7794316
          ],
          [
            37.6610175,
            55.7788946
          ],
          [
            37.6610456,
            55.7787128
          ],
          [
            37.6610765,
            55.7784308
          ],
          [
            37.6611447,
            55.7783603
          ],
          [
            37.6611829,
            55.77832
          ],
          [
            37.6613231,
            55.7781725
          ],
          [
            37.6615118,
            55.7780459
          ],
          [
            37.6616035,
            55.7779846
          ]
        ]
      }
    },
    {
      "type": "Feature",
      "properties": {
        "osm_kind": "railway",
        "name": "",
        "source": "OpenStreetMap",
        "download_window_id": "moscow_center_+3_+3_ee18983c",
        "download_city": "Москва",
        "osm_tags": {
          "railway": "rail"
        },
        "osm_id": 97149406,
        "osm_type": "way"
      },
      "geometry": {
        "type": "LineString",
        "coordinates": [
          [
            37.6556938,
            55.7798273
          ],
          [
            37.6554162,
            55.7803537
          ],
          [
            37.6552436,
            55.7808676
          ]
        ]
      }
    },
    {
      "type": "Feature",
      "properties": {
        "osm_kind": "railway",
        "name": "",
        "source": "OpenStreetMap",
        "download_window_id": "moscow_center_+3_+3_ee18983c",
        "download_city": "Москва",
        "osm_tags": {
          "railway": "rail"
        },
        "osm_id": 97167740,
        "osm_type": "way"
      },
      "geometry": {
        "type": "LineString",
        "coordinates": [
          [
            37.6563209,
            55.7803119
          ],
          [
            37.6564253,
            55.7799554
          ]
        ]
      }
    },
    {
      "type": "Feature",
      "properties": {
        "osm_kind": "road",
        "name": "",
        "source": "OpenStreetMap",
        "download_window_id": "moscow_center_+3_+3_ee18983c",
        "download_city": "Москва",
        "osm_tags": {
          "highway": "footway"
        },
        "osm_id": 97174947,
        "osm_type": "way"
      },
      "geometry": {
        "type": "LineString",
        "coordinates": [
          [
            37.6576122,
            55.7774128
          ],
          [
            37.6576277,
            55.7773817
          ]
        ]
      }
    },
    {
      "type": "Feature",
      "properties": {
        "osm_kind": "road",
        "name": "",
        "source": "OpenStreetMap",
        "download_window_id": "moscow_center_+3_+3_ee18983c",
        "download_city": "Москва",
        "osm_tags": {
          "highway": "steps"
        },
        "osm_id": 97174948,
        "osm_type": "way"
      },
      "geometry": {
        "type": "LineString",
        "coordinates": [
          [
            37.6576122,
            55.7774128
          ],
          [
            37.6575947,
            55.7774474
          ]
        ]
      }
    },
    {
      "type": "Feature",
      "properties": {
        "osm_kind": "road",
        "name": "",
        "source": "OpenStreetMap",
        "download_window_id": "moscow_center_+3_+3_ee18983c",
        "download_city": "Москва",
        "osm_tags": {
          "highway": "footway"
        },
        "osm_id": 97174954,
        "osm_type": "way"
      },
      "geometry": {
        "type": "LineString",
        "coordinates": [
          [
            37.6578732,
            55.7774192
          ],
          [
            37.6576277,
            55.7773817
          ],
          [
            37.6572565,
            55.777325
          ],
          [
            37.6568024,
            55.7772557
          ],
          [
            37.6564216,
            55.7771975
          ],
          [
            37.6560388,
            55.7771391
          ],
          [
            37.6559313,
            55.7771166
          ],
          [
            37.6557584,
            55.7770804
          ]
        ]
      }
    },
    {
      "type": "Feature",
      "properties": {
        "osm_kind": "road",
        "name": "",
        "source": "OpenStreetMap",
        "download_window_id": "moscow_center_+3_+3_ee18983c",
        "download_city": "Москва",
        "osm_tags": {
          "highway": "footway"
        },
        "osm_id": 97178016,
        "osm_type": "way"
      },
      "geometry": {
        "type": "LineString",
        "coordinates": [
          [
            37.6552646,
            55.7797423
          ],
          [
            37.6553272,
            55.7797497
          ],
          [
            37.6554733,
            55.779767
          ],
          [
            37.65561,
            55.7797832
          ],
          [
            37.6556543,
            55.7797884
          ]
        ]
      }
    },
    {
      "type": "Feature",
      "properties": {
        "osm_kind": "railway",
        "name": "6 путь",
        "source": "OpenStreetMap",
        "download_window_id": "moscow_center_+3_+3_ee18983c",
        "download_city": "Москва",
        "osm_tags": {
          "name": "6 путь",
          "railway": "rail"
        },
        "osm_id": 97753563,
        "osm_type": "way"
      },
      "geometry": {
        "type": "LineString",
        "coordinates": [
          [
            37.6564253,
            55.7799554
          ],
          [
            37.6561325,
            55.7805742
          ],
          [
            37.6556526,
            55.7812962
          ],
          [
            37.6551858,
            55.7819587
          ]
        ]
      }
    },
    {
      "type": "Feature",
      "properties": {
        "osm_kind": "road",
        "name": "",
        "source": "OpenStreetMap",
        "download_window_id": "moscow_center_+3_+3_ee18983c",
        "download_city": "Москва",
        "osm_tags": {
          "highway": "footway"
        },
        "osm_id": 98385705,
        "osm_type": "way"
      },
      "geometry": {
        "type": "LineString",
        "coordinates": [
          [
            37.657437,
            55.7773719
          ],
          [
            37.657403,
            55.7774424
          ],
          [
            37.6573937,
            55.7774615
          ]
        ]
      }
    },
    {
      "type": "Feature",
      "properties": {
        "osm_kind": "road",
        "name": "",
        "source": "OpenStreetMap",
        "download_window_id": "moscow_center_+3_+3_ee18983c",
        "download_city": "Москва",
        "osm_tags": {
          "highway": "footway"
        },
        "osm_id": 98385707,
        "osm_type": "way"
      },
      "geometry": {
        "type": "LineString",
        "coordinates": [
          [
            37.6570202,
            55.7773083
          ],
          [
            37.6569862,
            55.7773787
          ],
          [
            37.656977,
            55.7773978
          ]
        ]
      }
    },
    {
      "type": "Feature",
      "properties": {
        "osm_kind": "railway",
        "name": "",
        "source": "OpenStreetMap",
        "download_window_id": "moscow_center_+3_+3_ee18983c",
        "download_city": "Москва",
        "osm_tags": {
          "railway": "rail"
        },
        "osm_id": 98390294,
        "osm_type": "way"
      },
      "geometry": {
        "type": "LineString",
        "coordinates": [
          [
            37.657998,
            55.7799315
          ],
          [
            37.6569955,
            55.7809499
          ],
          [
            37.6566971,
            55.7813112
          ],
          [
            37.6564504,
            55.7816127
          ]
        ]
      }
    },
    {
      "type": "Feature",
      "properties": {
        "osm_kind": "railway",
        "name": "",
        "source": "OpenStreetMap",
        "download_window_id": "moscow_center_+3_+3_ee18983c",
        "download_city": "Москва",
        "osm_tags": {
          "railway": "rail"
        },
        "osm_id": 98390296,
        "osm_type": "way"
      },
      "geometry": {
        "type": "LineString",
        "coordinates": [
          [
            37.6578061,
            55.7790254
          ],
          [
            37.6576191,
            55.7793786
          ],
          [
            37.6570535,
            55.7805239
          ],
          [
            37.6569101,
            55.7807829
          ],
          [
            37.6567918,
            55.7809794
          ],
          [
            37.6565203,
            55.7814072
          ],
          [
            37.6560657,
            55.7820621
          ]
        ]
      }
    },
    {
      "type": "Feature",
      "properties": {
        "osm_kind": "building",
        "name": "",
        "source": "OpenStreetMap",
        "download_window_id": "moscow_center_+3_+3_ee18983c",
        "download_city": "Москва",
        "osm_tags": {
          "building": "yes"
        },
        "osm_id": 108561340,
        "osm_type": "way"
      },
      "geometry": {
        "type": "Polygon",
        "coordinates": [
          [
            [
              37.6582785,
              55.7788181
            ],
            [
              37.6582669,
              55.7788426
            ],
            [
              37.6583381,
              55.7788533
            ],
            [
              37.6583497,
              55.7788287
            ],
            [
              37.6582785,
              55.7788181
            ]
          ]
        ]
      }
    },
    {
      "type": "Feature",
      "properties": {
        "osm_kind": "building",
        "name": "",
        "source": "OpenStreetMap",
        "download_window_id": "moscow_center_+3_+3_ee18983c",
        "download_city": "Москва",
        "osm_tags": {
          "building": "office"
        },
        "osm_id": 109081780,
        "osm_type": "way"
      },
      "geometry": {
        "type": "Polygon",
        "coordinates": [
          [
            [
              37.6592838,
              55.7788259
            ],
            [
              37.6594269,
              55.7788648
            ],
            [
              37.6595277,
              55.7787475
            ],
            [
              37.6595302,
              55.7786592
            ],
            [
              37.6595245,
              55.7786456
            ],
            [
              37.6595121,
              55.7786368
            ],
            [
              37.6594873,
              55.7786313
            ],
            [
              37.6594648,
              55.7786311
            ],
            [
              37.6594449,
              55.7786385
            ],
            [
              37.6592838,
              55.7788259
            ]
          ]
        ]
      }
    },
    {
      "type": "Feature",
      "properties": {
        "osm_kind": "building",
        "name": "",
        "source": "OpenStreetMap",
        "download_window_id": "moscow_center_+3_+3_ee18983c",
        "download_city": "Москва",
        "osm_tags": {
          "building": "yes"
        },
        "osm_id": 109096960,
        "osm_type": "way"
      },
      "geometry": {
        "type": "Polygon",
        "coordinates": [
          [
            [
              37.65983,
              55.779443
            ],
            [
              37.6599722,
              55.7794995
            ],
            [
              37.6600535,
              55.7794348
            ],
            [
              37.6599113,
              55.7793783
            ],
            [
              37.65983,
              55.779443
            ]
          ]
        ]
      }
    },
    {
      "type": "Feature",
      "properties": {
        "osm_kind": "railway",
        "name": "",
        "source": "OpenStreetMap",
        "download_window_id": "moscow_center_+3_+3_ee18983c",
        "download_city": "Москва",
        "osm_tags": {
          "railway": "subway"
        },
        "osm_id": 133414789,
        "osm_type": "way"
      },
      "geometry": {
        "type": "LineString",
        "coordinates": [
          [
            37.6588603,
            55.7806747
          ],
          [
            37.6594791,
            55.7805301
          ],
          [
            37.6596577,
            55.7804754
          ],
          [
            37.659813,
            55.780402
          ],
          [
            37.6598971,
            55.7803495
          ],
          [
            37.6601815,
            55.7801154
          ],
          [
            37.6602919,
            55.779998
          ],
          [
            37.6606185,
            55.7797323
          ]
        ]
      }
    },
    {
      "type": "Feature",
      "properties": {
        "osm_kind": "road",
        "name": "",
        "source": "OpenStreetMap",
        "download_window_id": "moscow_center_+3_+3_ee18983c",
        "download_city": "Москва",
        "osm_tags": {
          "highway": "service"
        },
        "osm_id": 258872766,
        "osm_type": "way"
      },
      "geometry": {
        "type": "LineString",
        "coordinates": [
          [
            37.6601981,
            55.7774517
          ],
          [
            37.6606293,
            55.7776459
          ],
          [
            37.6610925,
            55.7778557
          ],
          [
            37.6614414,
            55.778014
          ],
          [
            37.6615118,
            55.7780459
          ],
          [
            37.6621735,
            55.7783515
          ],
          [
            37.6621829,
            55.7784368
          ],
          [
            37.6625758,
            55.778611
          ],
          [
            37.6627287,
            55.778602
          ],
          [
            37.6636588,
            55.7790196
          ]
        ]
      }
    },
    {
      "type": "Feature",
      "properties": {
        "osm_kind": "building",
        "name": "",
        "source": "OpenStreetMap",
        "download_window_id": "moscow_center_+3_+3_ee18983c",
        "download_city": "Москва",
        "osm_tags": {
          "building": "parking"
        },
        "osm_id": 319712246,
        "osm_type": "way"
      },
      "geometry": {
        "type": "Polygon",
        "coordinates": [
          [
            [
              37.6600998,
              55.7780031
            ],
            [
              37.6600953,
              55.7780144
            ],
            [
              37.6600943,
              55.778026
            ],
            [
              37.6600969,
              55.7780374
            ],
            [
              37.6601031,
              55.7780485
            ],
            [
              37.6601125,
              55.7780588
            ],
            [
              37.660125,
              55.7780679
            ],
            [
              37.6601401,
              55.7780758
            ],
            [
              37.6601574,
              55.778082
            ],
            [
              37.6601764,
              55.7780865
            ],
            [
              37.6601965,
              55.778089
            ],
            [
              37.660217,
              55.7780895
            ],
            [
              37.6602374,
              55.7780881
            ],
            [
              37.660257,
              55.7780846
            ],
            [
              37.6602753,
              55.7780793
            ],
            [
              37.6602916,
              55.7780722
            ],
            [
              37.6603056,
              55.7780638
            ],
            [
              37.6603166,
              55.778054
            ],
            [
              37.6603246,
              55.7780434
            ],
            [
              37.6603291,
              55.7780321
            ],
            [
              37.6603301,
              55.7780205
            ],
            [
              37.6603274,
              55.7780091
            ],
            [
              37.6603213,
              55.777998
            ],
            [
              37.6603118,
              55.7779878
            ],
            [
              37.6602993,
              55.7779786
            ],
            [
              37.6602842,
              55.7779707
            ],
            [
              37.6602669,
              55.7779645
            ],
            [
              37.6602479,
              55.7779601
            ],
            [
              37.6602279,
              55.7779575
            ],
            [
              37.6602073,
              55.7779569
            ],
            [
              37.660187,
              55.7779584
            ],
            [
              37.6601673,
              55.7779619
            ],
            [
              37.6601557,
              55.7779653
            ],
            [
              37.6602243,
              55.7779189
            ],
            [
              37.6601791,
              55.7778978
            ],
            [
              37.6598306,
              55.7777347
            ],
            [
              37.6596482,
              55.777858
            ],
            [
              37.6600417,
              55.7780422
            ],
            [
              37.6600998,
              55.7780031
            ]
          ]
        ]
      }
    },
    {
      "type": "Feature",
      "properties": {
        "osm_kind": "road",
        "name": "",
        "source": "OpenStreetMap",
        "download_window_id": "moscow_center_+3_+3_ee18983c",
        "download_city": "Москва",
        "osm_tags": {
          "highway": "service"
        },
        "osm_id": 481125623,
        "osm_type": "way"
      },
      "geometry": {
        "type": "LineString",
        "coordinates": [
          [
            37.6599968,
            55.7773588
          ],
          [
            37.659811,
            55.7772744
          ],
          [
            37.6593546,
            55.777067
          ],
          [
            37.6590723,
            55.7771198
          ],
          [
            37.6590055,
            55.7772508
          ],
          [
            37.658967,
            55.7773263
          ],
          [
            37.658857,
            55.7775419
          ],
          [
            37.6590474,
            55.7775905
          ]
        ]
      }
    },
    {
      "type": "Feature",
      "properties": {
        "osm_kind": "road",
        "name": "",
        "source": "OpenStreetMap",
        "download_window_id": "moscow_center_+3_+3_ee18983c",
        "download_city": "Москва",
        "osm_tags": {
          "highway": "service"
        },
        "osm_id": 615789244,
        "osm_type": "way"
      },
      "geometry": {
        "type": "LineString",
        "coordinates": [
          [
            37.6601156,
            55.779784
          ],
          [
            37.659529,
            55.7802734
          ],
          [
            37.6591226,
            55.7801374
          ],
          [
            37.6591161,
            55.7801354
          ],
          [
            37.6590325,
            55.7801078
          ]
        ]
      }
    },
    {
      "type": "Feature",
      "properties": {
        "osm_kind": "road",
        "name": "",
        "source": "OpenStreetMap",
        "download_window_id": "moscow_center_+3_+3_ee18983c",
        "download_city": "Москва",
        "osm_tags": {
          "highway": "footway"
        },
        "osm_id": 641958865,
        "osm_type": "way"
      },
      "geometry": {
        "type": "LineString",
        "coordinates": [
          [
            37.657437,
            55.7773719
          ],
          [
            37.6574479,
            55.7773505
          ],
          [
            37.6571416,
            55.7773027
          ],
          [
            37.6571719,
            55.7772402
          ],
          [
            37.6570613,
            55.7772233
          ],
          [
            37.6569808,
            55.7772102
          ],
          [
            37.6566437,
            55.77716
          ],
          [
            37.6563554,
            55.7771135
          ],
          [
            37.6561841,
            55.7770859
          ],
          [
            37.6560876,
            55.7770674
          ],
          [
            37.655697,
            55.7769926
          ],
          [
            37.6555856,
            55.7769713
          ],
          [
            37.6554731,
            55.7769479
          ]
        ]
      }
    },
    {
      "type": "Feature",
      "properties": {
        "osm_kind": "road",
        "name": "",
        "source": "OpenStreetMap",
        "download_window_id": "moscow_center_+3_+3_ee18983c",
        "download_city": "Москва",
        "osm_tags": {
          "highway": "footway"
        },
        "osm_id": 656254946,
        "osm_type": "way"
      },
      "geometry": {
        "type": "LineString",
        "coordinates": [
          [
            37.657994,
            55.7776409
          ],
          [
            37.6579386,
            55.7774642
          ],
          [
            37.6577972,
            55.7773715
          ],
          [
            37.657767,
            55.7773671
          ],
          [
            37.6572553,
            55.7772927
          ]
        ]
      }
    },
    {
      "type": "Feature",
      "properties": {
        "osm_kind": "road",
        "name": "",
        "source": "OpenStreetMap",
        "download_window_id": "moscow_center_+3_+3_ee18983c",
        "download_city": "Москва",
        "osm_tags": {
          "highway": "footway"
        },
        "osm_id": 656254948,
        "osm_type": "way"
      },
      "geometry": {
        "type": "LineString",
        "coordinates": [
          [
            37.6584572,
            55.7775014
          ],
          [
            37.6585377,
            55.7773461
          ]
        ]
      }
    },
    {
      "type": "Feature",
      "properties": {
        "osm_kind": "building",
        "name": "",
        "source": "OpenStreetMap",
        "download_window_id": "moscow_center_+3_+3_ee18983c",
        "download_city": "Москва",
        "osm_tags": {
          "building": "service"
        },
        "osm_id": 656254951,
        "osm_type": "way"
      },
      "geometry": {
        "type": "Polygon",
        "coordinates": [
          [
            [
              37.6587042,
              55.7783043
            ],
            [
              37.6585384,
              55.778192
            ],
            [
              37.6586108,
              55.7781513
            ],
            [
              37.658689,
              55.7781808
            ],
            [
              37.6587591,
              55.7781335
            ],
            [
              37.6588875,
              55.7782202
            ],
            [
              37.6587042,
              55.7783043
            ]
          ]
        ]
      }
    },
    {
      "type": "Feature",
      "properties": {
        "osm_kind": "building",
        "name": "",
        "source": "OpenStreetMap",
        "download_window_id": "moscow_center_+3_+3_ee18983c",
        "download_city": "Москва",
        "osm_tags": {
          "building": "service"
        },
        "osm_id": 656254952,
        "osm_type": "way"
      },
      "geometry": {
        "type": "Polygon",
        "coordinates": [
          [
            [
              37.6586108,
              55.7781513
            ],
            [
              37.6584544,
              55.7780856
            ],
            [
              37.6585419,
              55.7780173
            ],
            [
              37.6587859,
              55.7781106
            ],
            [
              37.6587591,
              55.7781335
            ],
            [
              37.658689,
              55.7781808
            ],
            [
              37.6586108,
              55.7781513
            ]
          ]
        ]
      }
    },
    {
      "type": "Feature",
      "properties": {
        "osm_kind": "road",
        "name": "",
        "source": "OpenStreetMap",
        "download_window_id": "moscow_center_+3_+3_ee18983c",
        "download_city": "Москва",
        "osm_tags": {
          "highway": "service"
        },
        "osm_id": 656254954,
        "osm_type": "way"
      },
      "geometry": {
        "type": "LineString",
        "coordinates": [
          [
            37.6584144,
            55.7781532
          ],
          [
            37.6587359,
            55.7783384
          ],
          [
            37.65904,
            55.7781939
          ],
          [
            37.6591807,
            55.7781347
          ]
        ]
      }
    },
    {
      "type": "Feature",
      "properties": {
        "osm_kind": "building",
        "name": "",
        "source": "OpenStreetMap",
        "download_window_id": "moscow_center_+3_+3_ee18983c",
        "download_city": "Москва",
        "osm_tags": {
          "building": "yes"
        },
        "osm_id": 673049246,
        "osm_type": "way"
      },
      "geometry": {
        "type": "Polygon",
        "coordinates": [
          [
            [
              37.6594015,
              55.7782286
            ],
            [
              37.6593988,
              55.7782196
            ],
            [
              37.6594093,
              55.7782141
            ],
            [
              37.6594236,
              55.7782169
            ],
            [
              37.6594284,
              55.7782249
            ],
            [
              37.6594172,
              55.7782312
            ],
            [
              37.6594015,
              55.7782286
            ]
          ]
        ]
      }
    },
    {
      "type": "Feature",
      "properties": {
        "osm_kind": "building",
        "name": "",
        "source": "OpenStreetMap",
        "download_window_id": "moscow_center_+3_+3_ee18983c",
        "download_city": "Москва",
        "osm_tags": {
          "building": "service"
        },
        "osm_id": 816452566,
        "osm_type": "way"
      },
      "geometry": {
        "type": "Polygon",
        "coordinates": [
          [
            [
              37.6600908,
              55.7775754
            ],
            [
              37.6601994,
              55.7776252
            ],
            [
              37.6602595,
              55.7775837
            ],
            [
              37.6601509,
              55.7775339
            ],
            [
              37.6600908,
              55.7775754
            ]
          ]
        ]
      }
    },
    {
      "type": "Feature",
      "properties": {
        "osm_kind": "road",
        "name": "",
        "source": "OpenStreetMap",
        "download_window_id": "moscow_center_+3_+3_ee18983c",
        "download_city": "Москва",
        "osm_tags": {
          "highway": "service"
        },
        "osm_id": 816452570,
        "osm_type": "way"
      },
      "geometry": {
        "type": "LineString",
        "coordinates": [
          [
            37.6600347,
            55.777376
          ],
          [
            37.6600068,
            55.777483
          ],
          [
            37.6599862,
            55.7775713
          ],
          [
            37.6598408,
            55.7776723
          ],
          [
            37.6595823,
            55.7778519
          ]
        ]
      }
    },
    {
      "type": "Feature",
      "properties": {
        "osm_kind": "road",
        "name": "",
        "source": "OpenStreetMap",
        "download_window_id": "moscow_center_+3_+3_ee18983c",
        "download_city": "Москва",
        "osm_tags": {
          "highway": "footway"
        },
        "osm_id": 832692441,
        "osm_type": "way"
      },
      "geometry": {
        "type": "LineString",
        "coordinates": [
          [
            37.657767,
            55.7773671
          ],
          [
            37.6577729,
            55.7773541
          ]
        ]
      }
    },
    {
      "type": "Feature",
      "properties": {
        "osm_kind": "building",
        "name": "",
        "source": "OpenStreetMap",
        "download_window_id": "moscow_center_+3_+3_ee18983c",
        "download_city": "Москва",
        "osm_tags": {
          "building": "yes"
        },
        "osm_id": 832692442,
        "osm_type": "way"
      },
      "geometry": {
        "type": "Polygon",
        "coordinates": [
          [
            [
              37.6581834,
              55.7780991
            ],
            [
              37.658266,
              55.7781115
            ],
            [
              37.6583519,
              55.7779307
            ],
            [
              37.6582693,
              55.7779183
            ],
            [
              37.6581834,
              55.7780991
            ]
          ]
        ]
      }
    },
    {
      "type": "Feature",
      "properties": {
        "osm_kind": "road",
        "name": "",
        "source": "OpenStreetMap",
        "download_window_id": "moscow_center_+3_+3_ee18983c",
        "download_city": "Москва",
        "osm_tags": {
          "highway": "service"
        },
        "osm_id": 832692481,
        "osm_type": "way"
      },
      "geometry": {
        "type": "LineString",
        "coordinates": [
          [
            37.6602437,
            55.7778575
          ],
          [
            37.6603053,
            55.7779322
          ],
          [
            37.6602842,
            55.7779707
          ]
        ]
      }
    },
    {
      "type": "Feature",
      "properties": {
        "osm_kind": "road",
        "name": "",
        "source": "OpenStreetMap",
        "download_window_id": "moscow_center_+3_+3_ee18983c",
        "download_city": "Москва",
        "osm_tags": {
          "highway": "service"
        },
        "osm_id": 832692482,
        "osm_type": "way"
      },
      "geometry": {
        "type": "LineString",
        "coordinates": [
          [
            37.6598408,
            55.7776723
          ],
          [
            37.6602437,
            55.7778575
          ],
          [
            37.6601791,
            55.7778978
          ]
        ]
      }
    },
    {
      "type": "Feature",
      "properties": {
        "osm_kind": "road",
        "name": "",
        "source": "OpenStreetMap",
        "download_window_id": "moscow_center_+3_+3_ee18983c",
        "download_city": "Москва",
        "osm_tags": {
          "highway": "service"
        },
        "osm_id": 832692485,
        "osm_type": "way"
      },
      "geometry": {
        "type": "LineString",
        "coordinates": [
          [
            37.6599968,
            55.7773588
          ],
          [
            37.6600347,
            55.777376
          ]
        ]
      }
    },
    {
      "type": "Feature",
      "properties": {
        "osm_kind": "building",
        "name": "",
        "source": "OpenStreetMap",
        "download_window_id": "moscow_center_+3_+3_ee18983c",
        "download_city": "Москва",
        "osm_tags": {
          "building": "yes"
        },
        "osm_id": 832692486,
        "osm_type": "way"
      },
      "geometry": {
        "type": "Polygon",
        "coordinates": [
          [
            [
              37.6598789,
              55.7773899
            ],
            [
              37.6599674,
              55.7774291
            ],
            [
              37.6600062,
              55.7774014
            ],
            [
              37.6599177,
              55.7773622
            ],
            [
              37.6598789,
              55.7773899
            ]
          ]
        ]
      }
    },
    {
      "type": "Feature",
      "properties": {
        "osm_kind": "road",
        "name": "",
        "source": "OpenStreetMap",
        "download_window_id": "moscow_center_+3_+3_ee18983c",
        "download_city": "Москва",
        "osm_tags": {
          "highway": "service"
        },
        "osm_id": 832692495,
        "osm_type": "way"
      },
      "geometry": {
        "type": "LineString",
        "coordinates": [
          [
            37.6584065,
            55.7788693
          ],
          [
            37.6586937,
            55.7788421
          ],
          [
            37.6585358,
            55.7789482
          ]
        ]
      }
    },
    {
      "type": "Feature",
      "properties": {
        "osm_kind": "road",
        "name": "",
        "source": "OpenStreetMap",
        "download_window_id": "moscow_center_+3_+3_ee18983c",
        "download_city": "Москва",
        "osm_tags": {
          "highway": "footway"
        },
        "osm_id": 838168963,
        "osm_type": "way"
      },
      "geometry": {
        "type": "LineString",
        "coordinates": [
          [
            37.6603751,
            55.7777723
          ],
          [
            37.6608941,
            55.7779986
          ],
          [
            37.6610925,
            55.7778557
          ]
        ]
      }
    },
    {
      "type": "Feature",
      "properties": {
        "osm_kind": "building",
        "name": "",
        "source": "OpenStreetMap",
        "download_window_id": "moscow_center_+3_+3_ee18983c",
        "download_city": "Москва",
        "osm_tags": {
          "building": "service"
        },
        "osm_id": 930486774,
        "osm_type": "way"
      },
      "geometry": {
        "type": "Polygon",
        "coordinates": [
          [
            [
              37.6596777,
              55.7774472
            ],
            [
              37.6596944,
              55.7774612
            ],
            [
              37.6596963,
              55.7774781
            ],
            [
              37.6596831,
              55.7774932
            ],
            [
              37.6596581,
              55.7775026
            ],
            [
              37.6596282,
              55.7775037
            ],
            [
              37.6596013,
              55.7774962
            ],
            [
              37.6595846,
              55.7774822
            ],
            [
              37.6595826,
              55.7774654
            ],
            [
              37.6595959,
              55.7774502
            ],
            [
              37.6596209,
              55.7774408
            ],
            [
              37.6596508,
              55.7774397
            ],
            [
              37.6596777,
              55.7774472
            ]
          ]
        ]
      }
    },
    {
      "type": "Feature",
      "properties": {
        "osm_kind": "road",
        "name": "",
        "source": "OpenStreetMap",
        "download_window_id": "moscow_center_+3_+3_ee18983c",
        "download_city": "Москва",
        "osm_tags": {
          "highway": "service"
        },
        "osm_id": 1071240090,
        "osm_type": "way"
      },
      "geometry": {
        "type": "LineString",
        "coordinates": [
          [
            37.6594175,
            55.7793531
          ],
          [
            37.6595452,
            55.779268
          ]
        ]
      }
    },
    {
      "type": "Feature",
      "properties": {
        "osm_kind": "road",
        "name": "",
        "source": "OpenStreetMap",
        "download_window_id": "moscow_center_+3_+3_ee18983c",
        "download_city": "Москва",
        "osm_tags": {
          "highway": "service"
        },
        "osm_id": 1071240091,
        "osm_type": "way"
      },
      "geometry": {
        "type": "LineString",
        "coordinates": [
          [
            37.6595452,
            55.779268
          ],
          [
            37.6596375,
            55.7791224
          ],
          [
            37.659738,
            55.7786743
          ],
          [
            37.6593996,
            55.77855
          ]
        ]
      }
    },
    {
      "type": "Feature",
      "properties": {
        "osm_kind": "road",
        "name": "",
        "source": "OpenStreetMap",
        "download_window_id": "moscow_center_+3_+3_ee18983c",
        "download_city": "Москва",
        "osm_tags": {
          "highway": "service"
        },
        "osm_id": 1071254426,
        "osm_type": "way"
      },
      "geometry": {
        "type": "LineString",
        "coordinates": [
          [
            37.6591974,
            55.7784777
          ],
          [
            37.6593996,
            55.77855
          ]
        ]
      }
    },
    {
      "type": "Feature",
      "properties": {
        "osm_kind": "railway",
        "name": "",
        "source": "OpenStreetMap",
        "download_window_id": "moscow_center_+3_+3_ee18983c",
        "download_city": "Москва",
        "osm_tags": {
          "railway": "rail"
        },
        "osm_id": 1113007691,
        "osm_type": "way"
      },
      "geometry": {
        "type": "LineString",
        "coordinates": [
          [
            37.6548793,
            55.7808299
          ],
          [
            37.6549351,
            55.780654
          ],
          [
            37.6550264,
            55.7803944
          ],
          [
            37.655096,
            55.7802005
          ],
          [
            37.6551157,
            55.7801193
          ],
          [
            37.6551381,
            55.7798894
          ],
          [
            37.6551716,
            55.7796608
          ],
          [
            37.6552185,
            55.7794485
          ],
          [
            37.655319,
            55.7789699
          ],
          [
            37.6554636,
            55.7786057
          ],
          [
            37.655491,
            55.7785365
          ],
          [
            37.6557479,
            55.7779851
          ],
          [
            37.6560785,
            55.7773117
          ]
        ]
      }
    },
    {
      "type": "Feature",
      "properties": {
        "osm_kind": "railway",
        "name": "",
        "source": "OpenStreetMap",
        "download_window_id": "moscow_center_+3_+3_ee18983c",
        "download_city": "Москва",
        "osm_tags": {
          "railway": "rail"
        },
        "osm_id": 1113007695,
        "osm_type": "way"
      },
      "geometry": {
        "type": "LineString",
        "coordinates": [
          [
            37.6556178,
            55.779766
          ],
          [
            37.65561,
            55.7797832
          ],
          [
            37.6555223,
            55.779975
          ],
          [
            37.6553743,
            55.7802741
          ],
          [
            37.6553461,
            55.7803315
          ]
        ]
      }
    },
    {
      "type": "Feature",
      "properties": {
        "osm_kind": "railway",
        "name": "",
        "source": "OpenStreetMap",
        "download_window_id": "moscow_center_+3_+3_ee18983c",
        "download_city": "Москва",
        "osm_tags": {
          "railway": "rail"
        },
        "osm_id": 1113007696,
        "osm_type": "way"
      },
      "geometry": {
        "type": "LineString",
        "coordinates": [
          [
            37.6558519,
            55.7798546
          ],
          [
            37.6557179,
            55.7801121
          ]
        ]
      }
    },
    {
      "type": "Feature",
      "properties": {
        "osm_kind": "road",
        "name": "",
        "source": "OpenStreetMap",
        "download_window_id": "moscow_center_+3_+3_ee18983c",
        "download_city": "Москва",
        "osm_tags": {
          "highway": "footway"
        },
        "osm_id": 1125235592,
        "osm_type": "way"
      },
      "geometry": {
        "type": "LineString",
        "coordinates": [
          [
            37.6590055,
            55.7772508
          ],
          [
            37.6593384,
            55.7771847
          ],
          [
            37.6597038,
            55.7773475
          ],
          [
            37.659971,
            55.777467
          ],
          [
            37.6600068,
            55.777483
          ]
        ]
      }
    },
    {
      "type": "Feature",
      "properties": {
        "osm_kind": "road",
        "name": "",
        "source": "OpenStreetMap",
        "download_window_id": "moscow_center_+3_+3_ee18983c",
        "download_city": "Москва",
        "osm_tags": {
          "highway": "footway"
        },
        "osm_id": 1125235593,
        "osm_type": "way"
      },
      "geometry": {
        "type": "LineString",
        "coordinates": [
          [
            37.6592331,
            55.7775898
          ],
          [
            37.6594358,
            55.7775865
          ],
          [
            37.65938,
            55.7774781
          ],
          [
            37.658967,
            55.7773263
          ]
        ]
      }
    },
    {
      "type": "Feature",
      "properties": {
        "osm_kind": "road",
        "name": "",
        "source": "OpenStreetMap",
        "download_window_id": "moscow_center_+3_+3_ee18983c",
        "download_city": "Москва",
        "osm_tags": {
          "highway": "footway"
        },
        "osm_id": 1125235595,
        "osm_type": "way"
      },
      "geometry": {
        "type": "LineString",
        "coordinates": [
          [
            37.659811,
            55.7772744
          ],
          [
            37.6597321,
            55.7773274
          ],
          [
            37.6597038,
            55.7773475
          ],
          [
            37.6595215,
            55.7774762
          ],
          [
            37.65938,
            55.7774781
          ],
          [
            37.6592331,
            55.7775898
          ],
          [
            37.6590474,
            55.7775905
          ]
        ]
      }
    },
    {
      "type": "Feature",
      "properties": {
        "osm_kind": "building",
        "name": "",
        "source": "OpenStreetMap",
        "download_window_id": "moscow_center_+3_+3_ee18983c",
        "download_city": "Москва",
        "osm_tags": {
          "building": "service"
        },
        "osm_id": 1125235596,
        "osm_type": "way"
      },
      "geometry": {
        "type": "Polygon",
        "coordinates": [
          [
            [
              37.6590917,
              55.7776795
            ],
            [
              37.6592418,
              55.7776834
            ],
            [
              37.6592471,
              55.7776178
            ],
            [
              37.659097,
              55.7776139
            ],
            [
              37.6590917,
              55.7776795
            ]
          ]
        ]
      }
    },
    {
      "type": "Feature",
      "properties": {
        "osm_kind": "railway",
        "name": "",
        "source": "OpenStreetMap",
        "download_window_id": "moscow_center_+3_+3_ee18983c",
        "download_city": "Москва",
        "osm_tags": {
          "railway": "rail"
        },
        "osm_id": 1134920610,
        "osm_type": "way"
      },
      "geometry": {
        "type": "LineString",
        "coordinates": [
          [
            37.6562281,
            55.778714
          ],
          [
            37.6556938,
            55.7798273
          ]
        ]
      }
    },
    {
      "type": "Feature",
      "properties": {
        "osm_kind": "railway",
        "name": "",
        "source": "OpenStreetMap",
        "download_window_id": "moscow_center_+3_+3_ee18983c",
        "download_city": "Москва",
        "osm_tags": {
          "railway": "rail"
        },
        "osm_id": 1134920621,
        "osm_type": "way"
      },
      "geometry": {
        "type": "LineString",
        "coordinates": [
          [
            37.6578504,
            55.7776943
          ],
          [
            37.6572949,
            55.7788658
          ]
        ]
      }
    },
    {
      "type": "Feature",
      "properties": {
        "osm_kind": "railway",
        "name": "Транссибирская магистраль",
        "source": "OpenStreetMap",
        "download_window_id": "moscow_center_+3_+3_ee18983c",
        "download_city": "Москва",
        "osm_tags": {
          "name": "Транссибирская магистраль",
          "railway": "rail"
        },
        "osm_id": 1134981364,
        "osm_type": "way"
      },
      "geometry": {
        "type": "LineString",
        "coordinates": [
          [
            37.6573411,
            55.7776192
          ],
          [
            37.6567706,
            55.7787912
          ]
        ]
      }
    },
    {
      "type": "Feature",
      "properties": {
        "osm_kind": "railway",
        "name": "",
        "source": "OpenStreetMap",
        "download_window_id": "moscow_center_+3_+3_ee18983c",
        "download_city": "Москва",
        "osm_tags": {
          "railway": "rail"
        },
        "osm_id": 1210700680,
        "osm_type": "way"
      },
      "geometry": {
        "type": "LineString",
        "coordinates": [
          [
            37.6580698,
            55.7782406
          ],
          [
            37.6577446,
            55.7789298
          ]
        ]
      }
    },
    {
      "type": "Feature",
      "properties": {
        "osm_kind": "railway",
        "name": "",
        "source": "OpenStreetMap",
        "download_window_id": "moscow_center_+3_+3_ee18983c",
        "download_city": "Москва",
        "osm_tags": {
          "railway": "rail"
        },
        "osm_id": 1213932747,
        "osm_type": "way"
      },
      "geometry": {
        "type": "LineString",
        "coordinates": [
          [
            37.6578223,
            55.7782068
          ],
          [
            37.6574952,
            55.7788943
          ]
        ]
      }
    },
    {
      "type": "Feature",
      "properties": {
        "osm_kind": "railway",
        "name": "",
        "source": "OpenStreetMap",
        "download_window_id": "moscow_center_+3_+3_ee18983c",
        "download_city": "Москва",
        "osm_tags": {
          "railway": "rail"
        },
        "osm_id": 1213932752,
        "osm_type": "way"
      },
      "geometry": {
        "type": "LineString",
        "coordinates": [
          [
            37.6577805,
            55.777684
          ],
          [
            37.6572276,
            55.7788562
          ]
        ]
      }
    },
    {
      "type": "Feature",
      "properties": {
        "osm_kind": "railway",
        "name": "",
        "source": "OpenStreetMap",
        "download_window_id": "moscow_center_+3_+3_ee18983c",
        "download_city": "Москва",
        "osm_tags": {
          "railway": "rail"
        },
        "osm_id": 1213932753,
        "osm_type": "way"
      },
      "geometry": {
        "type": "LineString",
        "coordinates": [
          [
            37.6569741,
            55.7788202
          ],
          [
            37.6564253,
            55.7799554
          ]
        ]
      }
    },
    {
      "type": "Feature",
      "properties": {
        "osm_kind": "railway",
        "name": "",
        "source": "OpenStreetMap",
        "download_window_id": "moscow_center_+3_+3_ee18983c",
        "download_city": "Москва",
        "osm_tags": {
          "railway": "rail"
        },
        "osm_id": 1213932766,
        "osm_type": "way"
      },
      "geometry": {
        "type": "LineString",
        "coordinates": [
          [
            37.6555046,
            55.7786125
          ],
          [
            37.6555321,
            55.7785382
          ],
          [
            37.6557019,
            55.7781651
          ],
          [
            37.6561193,
            55.7773193
          ]
        ]
      }
    },
    {
      "type": "Feature",
      "properties": {
        "osm_kind": "road",
        "name": "",
        "source": "OpenStreetMap",
        "download_window_id": "moscow_center_+3_+3_ee18983c",
        "download_city": "Москва",
        "osm_tags": {
          "highway": "steps"
        },
        "osm_id": 1456242742,
        "osm_type": "way"
      },
      "geometry": {
        "type": "LineString",
        "coordinates": [
          [
            37.6575878,
            55.7774613
          ],
          [
            37.6575664,
            55.7775042
          ]
        ]
      }
    },
    {
      "type": "Feature",
      "properties": {
        "osm_kind": "road",
        "name": "",
        "source": "OpenStreetMap",
        "download_window_id": "moscow_center_+3_+3_ee18983c",
        "download_city": "Москва",
        "osm_tags": {
          "highway": "footway"
        },
        "osm_id": 1456242743,
        "osm_type": "way"
      },
      "geometry": {
        "type": "LineString",
        "coordinates": [
          [
            37.6575947,
            55.7774474
          ],
          [
            37.6575878,
            55.7774613
          ]
        ]
      }
    },
    {
      "type": "Feature",
      "properties": {
        "osm_kind": "road",
        "name": "",
        "source": "OpenStreetMap",
        "download_window_id": "moscow_center_+3_+3_ee18983c",
        "download_city": "Москва",
        "osm_tags": {
          "highway": "steps"
        },
        "osm_id": 1456242744,
        "osm_type": "way"
      },
      "geometry": {
        "type": "LineString",
        "coordinates": [
          [
            37.657218,
            55.7774048
          ],
          [
            37.6571982,
            55.7774458
          ]
        ]
      }
    },
    {
      "type": "Feature",
      "properties": {
        "osm_kind": "road",
        "name": "",
        "source": "OpenStreetMap",
        "download_window_id": "moscow_center_+3_+3_ee18983c",
        "download_city": "Москва",
        "osm_tags": {
          "highway": "footway"
        },
        "osm_id": 1456242745,
        "osm_type": "way"
      },
      "geometry": {
        "type": "LineString",
        "coordinates": [
          [
            37.6572247,
            55.7773909
          ],
          [
            37.657218,
            55.7774048
          ]
        ]
      }
    },
    {
      "type": "Feature",
      "properties": {
        "osm_kind": "road",
        "name": "",
        "source": "OpenStreetMap",
        "download_window_id": "moscow_center_+3_+3_ee18983c",
        "download_city": "Москва",
        "osm_tags": {
          "highway": "steps"
        },
        "osm_id": 1456242746,
        "osm_type": "way"
      },
      "geometry": {
        "type": "LineString",
        "coordinates": [
          [
            37.6567639,
            55.7773355
          ],
          [
            37.6567452,
            55.7773741
          ]
        ]
      }
    },
    {
      "type": "Feature",
      "properties": {
        "osm_kind": "road",
        "name": "",
        "source": "OpenStreetMap",
        "download_window_id": "moscow_center_+3_+3_ee18983c",
        "download_city": "Москва",
        "osm_tags": {
          "highway": "footway"
        },
        "osm_id": 1456242750,
        "osm_type": "way"
      },
      "geometry": {
        "type": "LineString",
        "coordinates": [
          [
            37.6573937,
            55.7774615
          ],
          [
            37.6573555,
            55.7775408
          ]
        ]
      }
    },
    {
      "type": "Feature",
      "properties": {
        "osm_kind": "road",
        "name": "",
        "source": "OpenStreetMap",
        "download_window_id": "moscow_center_+3_+3_ee18983c",
        "download_city": "Москва",
        "osm_tags": {
          "highway": "footway"
        },
        "osm_id": 1456242751,
        "osm_type": "way"
      },
      "geometry": {
        "type": "LineString",
        "coordinates": [
          [
            37.656977,
            55.7773978
          ],
          [
            37.6569387,
            55.7774771
          ]
        ]
      }
    },
    {
      "type": "Feature",
      "properties": {
        "osm_kind": "road",
        "name": "",
        "source": "OpenStreetMap",
        "download_window_id": "moscow_center_+3_+3_ee18983c",
        "download_city": "Москва",
        "osm_tags": {
          "highway": "footway"
        },
        "osm_id": 1456242752,
        "osm_type": "way"
      },
      "geometry": {
        "type": "LineString",
        "coordinates": [
          [
            37.6565597,
            55.7773341
          ],
          [
            37.6565214,
            55.7774134
          ]
        ]
      }
    },
    {
      "type": "Feature",
      "properties": {
        "osm_kind": "road",
        "name": "",
        "source": "OpenStreetMap",
        "download_window_id": "moscow_center_+3_+3_ee18983c",
        "download_city": "Москва",
        "osm_tags": {
          "highway": "footway"
        },
        "osm_id": 1456242753,
        "osm_type": "way"
      },
      "geometry": {
        "type": "LineString",
        "coordinates": [
          [
            37.6577948,
            55.7776079
          ],
          [
            37.6576692,
            55.7775887
          ],
          [
            37.6575344,
            55.7775681
          ],
          [
            37.6573555,
            55.7775408
          ],
          [
            37.6572737,
            55.7775283
          ],
          [
            37.6571663,
            55.7775119
          ],
          [
            37.6569387,
            55.7774771
          ],
          [
            37.6567122,
            55.7774425
          ],
          [
            37.6565214,
            55.7774134
          ],
          [
            37.6563314,
            55.7773844
          ]
        ]
      }
    },
    {
      "type": "Feature",
      "properties": {
        "osm_kind": "road",
        "name": "",
        "source": "OpenStreetMap",
        "download_window_id": "moscow_center_+3_+3_ee18983c",
        "download_city": "Москва",
        "osm_tags": {
          "highway": "steps"
        },
        "osm_id": 1456242754,
        "osm_type": "way"
      },
      "geometry": {
        "type": "LineString",
        "coordinates": [
          [
            37.6572415,
            55.7773562
          ],
          [
            37.6572247,
            55.7773909
          ]
        ]
      }
    },
    {
      "type": "Feature",
      "properties": {
        "osm_kind": "road",
        "name": "",
        "source": "OpenStreetMap",
        "download_window_id": "moscow_center_+3_+3_ee18983c",
        "download_city": "Москва",
        "osm_tags": {
          "highway": "footway"
        },
        "osm_id": 1456242903,
        "osm_type": "way"
      },
      "geometry": {
        "type": "LineString",
        "coordinates": [
          [
            37.6579024,
            55.7773577
          ],
          [
            37.6578954,
            55.7773725
          ],
          [
            37.6578732,
            55.7774192
          ]
        ]
      }
    },
    {
      "type": "Feature",
      "properties": {
        "osm_kind": "road",
        "name": "",
        "source": "OpenStreetMap",
        "download_window_id": "moscow_center_+3_+3_ee18983c",
        "download_city": "Москва",
        "osm_tags": {
          "highway": "footway"
        },
        "osm_id": 1456242906,
        "osm_type": "way"
      },
      "geometry": {
        "type": "LineString",
        "coordinates": [
          [
            37.6563654,
            55.7773139
          ],
          [
            37.6563575,
            55.7773304
          ],
          [
            37.6563314,
            55.7773844
          ]
        ]
      }
    },
    {
      "type": "Feature",
      "properties": {
        "osm_kind": "road",
        "name": "",
        "source": "OpenStreetMap",
        "download_window_id": "moscow_center_+3_+3_ee18983c",
        "download_city": "Москва",
        "osm_tags": {
          "highway": "footway"
        },
        "osm_id": 1456242907,
        "osm_type": "way"
      },
      "geometry": {
        "type": "LineString",
        "coordinates": [
          [
            37.6567452,
            55.7773741
          ],
          [
            37.6567373,
            55.7773905
          ],
          [
            37.6567122,
            55.7774425
          ]
        ]
      }
    },
    {
      "type": "Feature",
      "properties": {
        "osm_kind": "road",
        "name": "",
        "source": "OpenStreetMap",
        "download_window_id": "moscow_center_+3_+3_ee18983c",
        "download_city": "Москва",
        "osm_tags": {
          "highway": "footway"
        },
        "osm_id": 1456242908,
        "osm_type": "way"
      },
      "geometry": {
        "type": "LineString",
        "coordinates": [
          [
            37.6571982,
            55.7774458
          ],
          [
            37.6571902,
            55.7774623
          ],
          [
            37.6571663,
            55.7775119
          ]
        ]
      }
    },
    {
      "type": "Feature",
      "properties": {
        "osm_kind": "road",
        "name": "",
        "source": "OpenStreetMap",
        "download_window_id": "moscow_center_+3_+3_ee18983c",
        "download_city": "Москва",
        "osm_tags": {
          "highway": "footway"
        },
        "osm_id": 1456242909,
        "osm_type": "way"
      },
      "geometry": {
        "type": "LineString",
        "coordinates": [
          [
            37.6575664,
            55.7775042
          ],
          [
            37.6575581,
            55.7775206
          ],
          [
            37.6575344,
            55.7775681
          ]
        ]
      }
    }
  ]
}