{
  "type": "FeatureCollection",
  "name": "moscow_mitino_-1_+0_e49ae920",
  "metadata": {
    "category": "refusal",
    "rank": 100,
    "city": "Москва Митино",
    "seed": "moscow_mitino",
    "center": [
      37.361,
      55.8383644
    ],
    "bbox_south_west_north_east": [
      55.8370169,
      37.3586004,
      55.8397118,
      37.3633996
    ],
    "source": "OpenStreetMap via Overpass API",
    "note": "Real OSM geometry only. Category is a heuristic research bucket, not heat-network ground truth.",
    "metrics": {
      "counts": {
        "building": 2,
        "road": 55,
        "major_road": 1,
        "railway": 0,
        "water": 2,
        "green": 1
      },
      "lengths_m": {
        "road": 11657.51,
        "major_road": 451.0,
        "railway": 0.0,
        "water": 1155.1
      },
      "building_centers": 2,
      "building_spread": 0.1252,
      "barrier_score": 5.7612,
      "road_score": 10.5343,
      "category_scores": {
        "shared_pipe": -2.2208,
        "separate_pipes": 2.2597,
        "fifty_fifty": 0.4601,
        "refusal": 15.2405
      }
    }
  },
  "features": [
    {
      "type": "Feature",
      "properties": {
        "osm_kind": "road",
        "name": "Пенягинская улица",
        "source": "OpenStreetMap",
        "download_window_id": "moscow_mitino_-1_+0_e49ae920",
        "download_city": "Москва Митино",
        "osm_tags": {
          "highway": "residential",
          "name": "Пенягинская улица"
        },
        "osm_id": 23265594,
        "osm_type": "way"
      },
      "geometry": {
        "type": "LineString",
        "coordinates": [
          [
            37.3601474,
            55.8334227
          ],
          [
            37.3602922,
            55.8337007
          ],
          [
            37.3603995,
            55.8339251
          ],
          [
            37.3604813,
            55.8341564
          ],
          [
            37.3605206,
            55.8342763
          ],
          [
            37.3605417,
            55.8343409
          ],
          [
            37.3606543,
            55.834798
          ],
          [
            37.3606744,
            55.8349773
          ],
          [
            37.3606731,
            55.8352499
          ],
          [
            37.3606749,
            55.8356018
          ],
          [
            37.3606713,
            55.835751
          ],
          [
            37.3606651,
            55.8358871
          ],
          [
            37.3606423,
            55.8359804
          ],
          [
            37.3605712,
            55.8361168
          ],
          [
            37.3604746,
            55.8362418
          ],
          [
            37.3603368,
            55.8363679
          ],
          [
            37.3602558,
            55.8364202
          ],
          [
            37.3601599,
            55.8364821
          ],
          [
            37.3600945,
            55.8365135
          ],
          [
            37.3599409,
            55.836583
          ],
          [
            37.3593854,
            55.8367954
          ],
          [
            37.3592552,
            55.8368412
          ],
          [
            37.3587302,
            55.8370261
          ],
          [
            37.3584489,
            55.8371405
          ],
          [
            37.3580787,
            55.8373002
          ],
          [
            37.3576724,
            55.8375065
          ],
          [
            37.357613,
            55.8375417
          ],
          [
            37.357375,
            55.8376826
          ],
          [
            37.3570997,
            55.8378665
          ],
          [
            37.3568761,
            55.8380237
          ]
        ]
      }
    },
    {
      "type": "Feature",
      "properties": {
        "osm_kind": "road",
        "name": "",
        "source": "OpenStreetMap",
        "download_window_id": "moscow_mitino_-1_+0_e49ae920",
        "download_city": "Москва Митино",
        "osm_tags": {
          "highway": "footway"
        },
        "osm_id": 28042519,
        "osm_type": "way"
      },
      "geometry": {
        "type": "LineString",
        "coordinates": [
          [
            37.363079,
            55.8381954
          ],
          [
            37.3630834,
            55.8381763
          ],
          [
            37.3629583,
            55.8381366
          ],
          [
            37.3626436,
            55.8379829
          ],
          [
            37.3625891,
            55.8379562
          ],
          [
            37.3624931,
            55.8378974
          ]
        ]
      }
    },
    {
      "type": "Feature",
      "properties": {
        "osm_kind": "road",
        "name": "",
        "source": "OpenStreetMap",
        "download_window_id": "moscow_mitino_-1_+0_e49ae920",
        "download_city": "Москва Митино",
        "osm_tags": {
          "highway": "path"
        },
        "osm_id": 28042525,
        "osm_type": "way"
      },
      "geometry": {
        "type": "LineString",
        "coordinates": [
          [
            37.3633845,
            55.8372559
          ],
          [
            37.3638538,
            55.8371011
          ],
          [
            37.3643169,
            55.8369583
          ],
          [
            37.3645594,
            55.8368435
          ],
          [
            37.3645824,
            55.8368276
          ]
        ]
      }
    },
    {
      "type": "Feature",
      "properties": {
        "osm_kind": "road",
        "name": "",
        "source": "OpenStreetMap",
        "download_window_id": "moscow_mitino_-1_+0_e49ae920",
        "download_city": "Москва Митино",
        "osm_tags": {
          "highway": "footway"
        },
        "osm_id": 28042543,
        "osm_type": "way"
      },
      "geometry": {
        "type": "LineString",
        "coordinates": [
          [
            37.3564003,
            55.8406156
          ],
          [
            37.3565036,
            55.8406129
          ],
          [
            37.3565685,
            55.8405947
          ],
          [
            37.3568496,
            55.8404477
          ],
          [
            37.3569998,
            55.8403603
          ],
          [
            37.3572814,
            55.8401751
          ],
          [
            37.3574129,
            55.8400877
          ],
          [
            37.3575845,
            55.8400184
          ],
          [
            37.3577884,
            55.8399446
          ],
          [
            37.3579279,
            55.8398558
          ],
          [
            37.3581344,
            55.8397534
          ],
          [
            37.3583087,
            55.8396856
          ],
          [
            37.3585609,
            55.8396329
          ],
          [
            37.3591885,
            55.8395019
          ],
          [
            37.3597571,
            55.8393784
          ],
          [
            37.3605591,
            55.839178
          ],
          [
            37.3610955,
            55.839041
          ],
          [
            37.3615059,
            55.8389461
          ],
          [
            37.3618283,
            55.8389258
          ],
          [
            37.3621493,
            55.8389376
          ],
          [
            37.362573,
            55.8389677
          ],
          [
            37.3628711,
            55.8389973
          ],
          [
            37.3630938,
            55.8389966
          ],
          [
            37.3631821,
            55.8390015
          ]
        ]
      }
    },
    {
      "type": "Feature",
      "properties": {
        "osm_kind": "road",
        "name": "",
        "source": "OpenStreetMap",
        "download_window_id": "moscow_mitino_-1_+0_e49ae920",
        "download_city": "Москва Митино",
        "osm_tags": {
          "highway": "footway"
        },
        "osm_id": 28042571,
        "osm_type": "way"
      },
      "geometry": {
        "type": "LineString",
        "coordinates": [
          [
            37.3630872,
            55.838284
          ],
          [
            37.3626485,
            55.8381388
          ],
          [
            37.3624125,
            55.8380891
          ],
          [
            37.3623079,
            55.8380846
          ],
          [
            37.3621577,
            55.8381072
          ],
          [
            37.3619914,
            55.8381569
          ],
          [
            37.3616559,
            55.8383029
          ],
          [
            37.3615468,
            55.8383743
          ],
          [
            37.3612213,
            55.8385527
          ],
          [
            37.3606957,
            55.8387097
          ],
          [
            37.3602531,
            55.8388348
          ],
          [
            37.359919,
            55.8390015
          ],
          [
            37.3597542,
            55.8391031
          ],
          [
            37.3596891,
            55.8391723
          ],
          [
            37.359659,
            55.8391905
          ],
          [
            37.3594702,
            55.8392457
          ],
          [
            37.3592343,
            55.8392877
          ],
          [
            37.3592051,
            55.8392929
          ],
          [
            37.3584993,
            55.8394734
          ],
          [
            37.3581532,
            55.8395756
          ],
          [
            37.3579804,
            55.839642
          ],
          [
            37.3577377,
            55.8397554
          ],
          [
            37.3574851,
            55.8398867
          ],
          [
            37.3570905,
            55.8400217
          ],
          [
            37.3565161,
            55.8401739
          ],
          [
            37.3564838,
            55.8401835
          ],
          [
            37.3560338,
            55.8403149
          ]
        ]
      }
    },
    {
      "type": "Feature",
      "properties": {
        "osm_kind": "road",
        "name": "",
        "source": "OpenStreetMap",
        "download_window_id": "moscow_mitino_-1_+0_e49ae920",
        "download_city": "Москва Митино",
        "osm_tags": {
          "highway": "footway"
        },
        "osm_id": 28042574,
        "osm_type": "way"
      },
      "geometry": {
        "type": "LineString",
        "coordinates": [
          [
            37.3588622,
            55.8374324
          ],
          [
            37.359013,
            55.8375374
          ],
          [
            37.3591066,
            55.8374993
          ],
          [
            37.3592525,
            55.8374763
          ],
          [
            37.3594247,
            55.8374825
          ],
          [
            37.3596173,
            55.8375213
          ],
          [
            37.3598946,
            55.8375292
          ],
          [
            37.3599974,
            55.8375446
          ],
          [
            37.3600872,
            55.8375739
          ],
          [
            37.3601617,
            55.8376386
          ],
          [
            37.3601688,
            55.8376812
          ],
          [
            37.3603697,
            55.837748
          ],
          [
            37.3605938,
            55.8378174
          ]
        ]
      }
    },
    {
      "type": "Feature",
      "properties": {
        "osm_kind": "road",
        "name": "",
        "source": "OpenStreetMap",
        "download_window_id": "moscow_mitino_-1_+0_e49ae920",
        "download_city": "Москва Митино",
        "osm_tags": {
          "highway": "footway"
        },
        "osm_id": 28042619,
        "osm_type": "way"
      },
      "geometry": {
        "type": "LineString",
        "coordinates": [
          [
            37.3630834,
            55.8381763
          ],
          [
            37.3631822,
            55.8381964
          ],
          [
            37.3632545,
            55.8382106
          ],
          [
            37.3632786,
            55.8382116
          ],
          [
            37.3633392,
            55.8382141
          ],
          [
            37.3634137,
            55.8382112
          ],
          [
            37.3635112,
            55.8381926
          ],
          [
            37.3637898,
            55.8381109
          ],
          [
            37.3639156,
            55.8381078
          ],
          [
            37.3640065,
            55.8381103
          ],
          [
            37.3641478,
            55.8381259
          ],
          [
            37.364454,
            55.8381921
          ],
          [
            37.3646186,
            55.8382525
          ],
          [
            37.3647585,
            55.8383171
          ],
          [
            37.3649219,
            55.8384382
          ],
          [
            37.3651269,
            55.8386381
          ],
          [
            37.3653824,
            55.8389214
          ],
          [
            37.3654952,
            55.8390536
          ],
          [
            37.3655667,
            55.8391339
          ]
        ]
      }
    },
    {
      "type": "Feature",
      "properties": {
        "osm_kind": "road",
        "name": "",
        "source": "OpenStreetMap",
        "download_window_id": "moscow_mitino_-1_+0_e49ae920",
        "download_city": "Москва Митино",
        "osm_tags": {
          "highway": "footway"
        },
        "osm_id": 28042635,
        "osm_type": "way"
      },
      "geometry": {
        "type": "LineString",
        "coordinates": [
          [
            37.3711516,
            55.834007
          ],
          [
            37.3713072,
            55.834128
          ],
          [
            37.3713569,
            55.8341529
          ],
          [
            37.3715105,
            55.8342957
          ],
          [
            37.3717781,
            55.8345375
          ],
          [
            37.372165,
            55.834909
          ],
          [
            37.3722943,
            55.8350633
          ],
          [
            37.3723411,
            55.8351103
          ],
          [
            37.3724325,
            55.83523
          ],
          [
            37.3724968,
            55.8353201
          ],
          [
            37.3730393,
            55.8360806
          ],
          [
            37.3732757,
            55.8364072
          ],
          [
            37.3732415,
            55.8364228
          ],
          [
            37.3732156,
            55.8364328
          ],
          [
            37.3731346,
            55.8364813
          ],
          [
            37.3729898,
            55.8365649
          ],
          [
            37.3729078,
            55.8366031
          ],
          [
            37.3727819,
            55.8366613
          ],
          [
            37.3726317,
            55.8367102
          ],
          [
            37.3722831,
            55.8368134
          ],
          [
            37.3719625,
            55.8368939
          ],
          [
            37.3711404,
            55.8370634
          ],
          [
            37.3709944,
            55.8371043
          ],
          [
            37.3709199,
            55.8371408
          ],
          [
            37.3708555,
            55.8372051
          ],
          [
            37.3704844,
            55.8376486
          ],
          [
            37.3701316,
            55.8380154
          ],
          [
            37.3697373,
            55.8383609
          ],
          [
            37.3692603,
            55.8387099
          ],
          [
            37.3689873,
            55.8389217
          ],
          [
            37.3689192,
            55.8389745
          ],
          [
            37.3687369,
            55.839092
          ],
          [
            37.3687237,
            55.8391005
          ],
          [
            37.3684678,
            55.83919
          ],
          [
            37.3682986,
            55.8392491
          ],
          [
            37.3678467,
            55.8394032
          ],
          [
            37.3677289,
            55.8394406
          ],
          [
            37.3674612,
            55.8394592
          ],
          [
            37.3671598,
            55.8394621
          ],
          [
            37.366986,
            55.8394632
          ],
          [
            37.3668482,
            55.8394548
          ],
          [
            37.3667049,
            55.8394375
          ],
          [
            37.3664431,
            55.8393869
          ],
          [
            37.3655667,
            55.8391339
          ],
          [
            37.3653823,
            55.8391098
          ],
          [
            37.3652159,
            55.8390894
          ],
          [
            37.364987,
            55.8390721
          ],
          [
            37.3642872,
            55.8390511
          ],
          [
            37.3639454,
            55.8390456
          ],
          [
            37.3634277,
            55.8390372
          ],
          [
            37.3632829,
            55.8390199
          ],
          [
            37.3631821,
            55.8390015
          ]
        ]
      }
    },
    {
      "type": "Feature",
      "properties": {
        "osm_kind": "major_road",
        "name": "улица Барышиха",
        "source": "OpenStreetMap",
        "download_window_id": "moscow_mitino_-1_+0_e49ae920",
        "download_city": "Москва Митино",
        "osm_tags": {
          "highway": "secondary",
          "name": "улица Барышиха"
        },
        "osm_id": 49182258,
        "osm_type": "way"
      },
      "geometry": {
        "type": "LineString",
        "coordinates": [
          [
            37.3640871,
            55.8394124
          ],
          [
            37.3640192,
            55.8394082
          ],
          [
            37.3638639,
            55.8393991
          ],
          [
            37.3637091,
            55.8393938
          ],
          [
            37.3633608,
            55.8393878
          ],
          [
            37.3632675,
            55.8393885
          ],
          [
            37.3626796,
            55.8394058
          ],
          [
            37.3622595,
            55.8394334
          ],
          [
            37.3616567,
            55.8394843
          ],
          [
            37.3613432,
            55.8395143
          ],
          [
            37.3609525,
            55.8395631
          ],
          [
            37.3605382,
            55.8396325
          ],
          [
            37.3601246,
            55.8397167
          ],
          [
            37.3596232,
            55.8398347
          ],
          [
            37.3593308,
            55.8399221
          ],
          [
            37.3591164,
            55.8399931
          ],
          [
            37.359049,
            55.8400171
          ],
          [
            37.3587129,
            55.8401368
          ],
          [
            37.3582898,
            55.8403014
          ],
          [
            37.3580654,
            55.8403911
          ],
          [
            37.3580208,
            55.8404113
          ],
          [
            37.3576355,
            55.8405855
          ],
          [
            37.3575538,
            55.8406254
          ],
          [
            37.3574516,
            55.8406776
          ]
        ]
      }
    },
    {
      "type": "Feature",
      "properties": {
        "osm_kind": "building",
        "name": "",
        "source": "OpenStreetMap",
        "download_window_id": "moscow_mitino_-1_+0_e49ae920",
        "download_city": "Москва Митино",
        "osm_tags": {
          "building": "apartments"
        },
        "osm_id": 78004661,
        "osm_type": "way"
      },
      "geometry": {
        "type": "Polygon",
        "coordinates": [
          [
            [
              37.362705,
              55.8398811
            ],
            [
              37.362826,
              55.8398214
            ],
            [
              37.3630046,
              55.8397332
            ],
            [
              37.363052,
              55.8397098
            ],
            [
              37.3632809,
              55.839856
            ],
            [
              37.3633583,
              55.8399054
            ],
            [
              37.3635055,
              55.8398327
            ],
            [
              37.3632117,
              55.8396451
            ],
            [
              37.3631428,
              55.8396791
            ],
            [
              37.3630637,
              55.8396286
            ],
            [
              37.3629788,
              55.8396705
            ],
            [
              37.3629161,
              55.8396305
            ],
            [
              37.3625757,
              55.8397985
            ],
            [
              37.362705,
              55.8398811
            ]
          ]
        ]
      }
    },
    {
      "type": "Feature",
      "properties": {
        "osm_kind": "road",
        "name": "",
        "source": "OpenStreetMap",
        "download_window_id": "moscow_mitino_-1_+0_e49ae920",
        "download_city": "Москва Митино",
        "osm_tags": {
          "highway": "service"
        },
        "osm_id": 84354036,
        "osm_type": "way"
      },
      "geometry": {
        "type": "LineString",
        "coordinates": [
          [
            37.3614542,
            55.840159
          ],
          [
            37.3616686,
            55.8396019
          ],
          [
            37.3616567,
            55.8394843
          ]
        ]
      }
    },
    {
      "type": "Feature",
      "properties": {
        "osm_kind": "road",
        "name": "",
        "source": "OpenStreetMap",
        "download_window_id": "moscow_mitino_-1_+0_e49ae920",
        "download_city": "Москва Митино",
        "osm_tags": {
          "highway": "footway"
        },
        "osm_id": 173915008,
        "osm_type": "way"
      },
      "geometry": {
        "type": "LineString",
        "coordinates": [
          [
            37.3631821,
            55.8390015
          ],
          [
            37.3631832,
            55.8390249
          ],
          [
            37.363186,
            55.8390864
          ],
          [
            37.3631875,
            55.8391183
          ],
          [
            37.3631942,
            55.8392642
          ]
        ]
      }
    },
    {
      "type": "Feature",
      "properties": {
        "osm_kind": "road",
        "name": "",
        "source": "OpenStreetMap",
        "download_window_id": "moscow_mitino_-1_+0_e49ae920",
        "download_city": "Москва Митино",
        "osm_tags": {
          "highway": "footway"
        },
        "osm_id": 173915009,
        "osm_type": "way"
      },
      "geometry": {
        "type": "LineString",
        "coordinates": [
          [
            37.356751,
            55.8408675
          ],
          [
            37.3568985,
            55.8407919
          ],
          [
            37.3575217,
            55.8404633
          ],
          [
            37.3577882,
            55.8403331
          ],
          [
            37.358034,
            55.8402329
          ],
          [
            37.3583183,
            55.8401199
          ],
          [
            37.35859,
            55.8400258
          ],
          [
            37.3589042,
            55.8399098
          ],
          [
            37.3595618,
            55.8397034
          ],
          [
            37.3596526,
            55.8396749
          ],
          [
            37.3599112,
            55.8396168
          ],
          [
            37.3599744,
            55.8396026
          ],
          [
            37.3603285,
            55.8395257
          ],
          [
            37.3608056,
            55.8394469
          ],
          [
            37.3609111,
            55.8394295
          ],
          [
            37.3615484,
            55.8393632
          ],
          [
            37.361891,
            55.8393321
          ],
          [
            37.3620292,
            55.8393195
          ],
          [
            37.3625372,
            55.8392844
          ],
          [
            37.3629893,
            55.8392706
          ],
          [
            37.3631942,
            55.8392642
          ],
          [
            37.3637294,
            55.8392765
          ],
          [
            37.3642164,
            55.839301
          ],
          [
            37.3647497,
            55.8393451
          ],
          [
            37.3659499,
            55.8395186
          ],
          [
            37.366273,
            55.8395818
          ],
          [
            37.3665676,
            55.8396512
          ],
          [
            37.3667336,
            55.839694
          ],
          [
            37.3672278,
            55.8398277
          ],
          [
            37.3674392,
            55.8398962
          ],
          [
            37.3677608,
            55.8400049
          ],
          [
            37.3683111,
            55.8402188
          ],
          [
            37.3687609,
            55.8404069
          ],
          [
            37.3696707,
            55.840771
          ],
          [
            37.3709095,
            55.8412773
          ],
          [
            37.3710464,
            55.8413223
          ],
          [
            37.3711828,
            55.8413482
          ],
          [
            37.3721802,
            55.8414606
          ],
          [
            37.3723152,
            55.8414754
          ],
          [
            37.3724274,
            55.8414737
          ],
          [
            37.3725397,
            55.8414573
          ],
          [
            37.3726062,
            55.8414414
          ]
        ]
      }
    },
    {
      "type": "Feature",
      "properties": {
        "osm_kind": "road",
        "name": "",
        "source": "OpenStreetMap",
        "download_window_id": "moscow_mitino_-1_+0_e49ae920",
        "download_city": "Москва Митино",
        "osm_tags": {
          "highway": "footway"
        },
        "osm_id": 280783363,
        "osm_type": "way"
      },
      "geometry": {
        "type": "LineString",
        "coordinates": [
          [
            37.3586617,
            55.8379933
          ],
          [
            37.3586,
            55.8380234
          ],
          [
            37.3585675,
            55.8380505
          ],
          [
            37.3585759,
            55.8380807
          ],
          [
            37.3586107,
            55.8381138
          ],
          [
            37.3586724,
            55.8381319
          ],
          [
            37.3587088,
            55.838136
          ],
          [
            37.3587529,
            55.8381409
          ],
          [
            37.3588414,
            55.8381545
          ],
          [
            37.3589084,
            55.8381816
          ],
          [
            37.3589621,
            55.8382208
          ],
          [
            37.3590238,
            55.8382961
          ],
          [
            37.3590801,
            55.8383699
          ],
          [
            37.3591445,
            55.8384361
          ],
          [
            37.3592142,
            55.8384888
          ],
          [
            37.3593081,
            55.838525
          ],
          [
            37.3594315,
            55.8385551
          ],
          [
            37.3595468,
            55.8385611
          ],
          [
            37.3596943,
            55.838525
          ],
          [
            37.3598043,
            55.8384813
          ],
          [
            37.359866,
            55.8384406
          ],
          [
            37.359917,
            55.8383774
          ],
          [
            37.3599116,
            55.8383111
          ],
          [
            37.3599116,
            55.8382238
          ],
          [
            37.3599062,
            55.8381485
          ],
          [
            37.3598982,
            55.8380626
          ],
          [
            37.3598982,
            55.8380099
          ],
          [
            37.3599183,
            55.8379534
          ],
          [
            37.3599706,
            55.8379075
          ],
          [
            37.3600591,
            55.8378352
          ],
          [
            37.3601154,
            55.8377779
          ],
          [
            37.3601476,
            55.8377343
          ],
          [
            37.360161,
            55.8376921
          ],
          [
            37.3601617,
            55.8376386
          ]
        ]
      }
    },
    {
      "type": "Feature",
      "properties": {
        "osm_kind": "road",
        "name": "",
        "source": "OpenStreetMap",
        "download_window_id": "moscow_mitino_-1_+0_e49ae920",
        "download_city": "Москва Митино",
        "osm_tags": {
          "highway": "path"
        },
        "osm_id": 280783373,
        "osm_type": "way"
      },
      "geometry": {
        "type": "LineString",
        "coordinates": [
          [
            37.3599183,
            55.8379534
          ],
          [
            37.3601219,
            55.8380078
          ],
          [
            37.3604357,
            55.8380138
          ],
          [
            37.3611315,
            55.8380279
          ]
        ]
      }
    },
    {
      "type": "Feature",
      "properties": {
        "osm_kind": "road",
        "name": "",
        "source": "OpenStreetMap",
        "download_window_id": "moscow_mitino_-1_+0_e49ae920",
        "download_city": "Москва Митино",
        "osm_tags": {
          "highway": "footway"
        },
        "osm_id": 280783376,
        "osm_type": "way"
      },
      "geometry": {
        "type": "LineString",
        "coordinates": [
          [
            37.3590275,
            55.8376794
          ],
          [
            37.3590377,
            55.8376996
          ],
          [
            37.3590599,
            55.8377165
          ],
          [
            37.3590912,
            55.837728
          ],
          [
            37.3591277,
            55.8377326
          ],
          [
            37.3591647,
            55.8377298
          ],
          [
            37.3591977,
            55.8377198
          ],
          [
            37.3592223,
            55.8377039
          ],
          [
            37.3592353,
            55.8376847
          ],
          [
            37.3592358,
            55.8376641
          ],
          [
            37.3592236,
            55.8376447
          ],
          [
            37.3592004,
            55.8376288
          ],
          [
            37.3591688,
            55.8376184
          ],
          [
            37.3591327,
            55.8376147
          ],
          [
            37.3590966,
            55.8376182
          ],
          [
            37.3590664,
            55.8376276
          ],
          [
            37.3590434,
            55.8376421
          ],
          [
            37.3590299,
            55.83766
          ],
          [
            37.3590275,
            55.8376794
          ]
        ]
      }
    },
    {
      "type": "Feature",
      "properties": {
        "osm_kind": "road",
        "name": "",
        "source": "OpenStreetMap",
        "download_window_id": "moscow_mitino_-1_+0_e49ae920",
        "download_city": "Москва Митино",
        "osm_tags": {
          "highway": "footway"
        },
        "osm_id": 280783378,
        "osm_type": "way"
      },
      "geometry": {
        "type": "LineString",
        "coordinates": [
          [
            37.3590275,
            55.8376794
          ],
          [
            37.3589138,
            55.8376845
          ],
          [
            37.3588333,
            55.8376906
          ],
          [
            37.3586804,
            55.8377147
          ],
          [
            37.35849,
            55.8377538
          ],
          [
            37.3583746,
            55.8377794
          ],
          [
            37.358211,
            55.8378231
          ],
          [
            37.3579589,
            55.8378879
          ],
          [
            37.3577658,
            55.8379376
          ],
          [
            37.3575926,
            55.8380002
          ]
        ]
      }
    },
    {
      "type": "Feature",
      "properties": {
        "osm_kind": "green",
        "name": "",
        "source": "OpenStreetMap",
        "download_window_id": "moscow_mitino_-1_+0_e49ae920",
        "download_city": "Москва Митино",
        "osm_tags": {
          "landuse": "grass"
        },
        "osm_id": 280783380,
        "osm_type": "way"
      },
      "geometry": {
        "type": "Polygon",
        "coordinates": [
          [
            [
              37.3591316,
              55.8377036
            ],
            [
              37.3591103,
              55.8377012
            ],
            [
              37.3590921,
              55.8376946
            ],
            [
              37.3590793,
              55.8376847
            ],
            [
              37.3590737,
              55.8376729
            ],
            [
              37.3590761,
              55.8376608
            ],
            [
              37.3590861,
              55.83765
            ],
            [
              37.3591024,
              55.8376419
            ],
            [
              37.3591228,
              55.8376377
            ],
            [
              37.3591445,
              55.8376379
            ],
            [
              37.3591646,
              55.8376425
            ],
            [
              37.3591804,
              55.8376509
            ],
            [
              37.3591898,
              55.8376619
            ],
            [
              37.3591914,
              55.8376741
            ],
            [
              37.3591851,
              55.8376858
            ],
            [
              37.3591717,
              55.8376954
            ],
            [
              37.359153,
              55.8377016
            ],
            [
              37.3591316,
              55.8377036
            ]
          ]
        ]
      }
    },
    {
      "type": "Feature",
      "properties": {
        "osm_kind": "road",
        "name": "",
        "source": "OpenStreetMap",
        "download_window_id": "moscow_mitino_-1_+0_e49ae920",
        "download_city": "Москва Митино",
        "osm_tags": {
          "highway": "footway"
        },
        "osm_id": 280791902,
        "osm_type": "way"
      },
      "geometry": {
        "type": "LineString",
        "coordinates": [
          [
            37.3585899,
            55.8372366
          ],
          [
            37.3585598,
            55.8372491
          ],
          [
            37.3588209,
            55.8374485
          ]
        ]
      }
    },
    {
      "type": "Feature",
      "properties": {
        "osm_kind": "road",
        "name": "",
        "source": "OpenStreetMap",
        "download_window_id": "moscow_mitino_-1_+0_e49ae920",
        "download_city": "Москва Митино",
        "osm_tags": {
          "highway": "footway"
        },
        "osm_id": 280791903,
        "osm_type": "way"
      },
      "geometry": {
        "type": "LineString",
        "coordinates": [
          [
            37.3585899,
            55.8372366
          ],
          [
            37.3586248,
            55.8372216
          ],
          [
            37.3588997,
            55.8374186
          ]
        ]
      }
    },
    {
      "type": "Feature",
      "properties": {
        "osm_kind": "road",
        "name": "",
        "source": "OpenStreetMap",
        "download_window_id": "moscow_mitino_-1_+0_e49ae920",
        "download_city": "Москва Митино",
        "osm_tags": {
          "highway": "footway"
        },
        "osm_id": 338159737,
        "osm_type": "way"
      },
      "geometry": {
        "type": "LineString",
        "coordinates": [
          [
            37.3624491,
            55.8378365
          ],
          [
            37.3623897,
            55.8378391
          ],
          [
            37.3623025,
            55.8378564
          ],
          [
            37.3621456,
            55.8378557
          ],
          [
            37.3620799,
            55.8378926
          ],
          [
            37.3619727,
            55.837925
          ],
          [
            37.3617768,
            55.8379822
          ],
          [
            37.3615864,
            55.8380515
          ],
          [
            37.3613638,
            55.838059
          ],
          [
            37.3612649,
            55.8380862
          ],
          [
            37.3609051,
            55.8382277
          ],
          [
            37.3606476,
            55.8383542
          ],
          [
            37.3604116,
            55.8384551
          ],
          [
            37.3601916,
            55.8385666
          ],
          [
            37.359792,
            55.8388
          ],
          [
            37.35945,
            55.8388979
          ],
          [
            37.3590812,
            55.8389431
          ],
          [
            37.3589135,
            55.8390033
          ],
          [
            37.3588559,
            55.8390711
          ],
          [
            37.3586789,
            55.8391736
          ],
          [
            37.3584992,
            55.8392104
          ],
          [
            37.3582698,
            55.8392707
          ],
          [
            37.3581438,
            55.8393302
          ],
          [
            37.3581002,
            55.8393851
          ],
          [
            37.3580995,
            55.8394304
          ]
        ]
      }
    },
    {
      "type": "Feature",
      "properties": {
        "osm_kind": "road",
        "name": "",
        "source": "OpenStreetMap",
        "download_window_id": "moscow_mitino_-1_+0_e49ae920",
        "download_city": "Москва Митино",
        "osm_tags": {
          "highway": "footway"
        },
        "osm_id": 338159738,
        "osm_type": "way"
      },
      "geometry": {
        "type": "LineString",
        "coordinates": [
          [
            37.3624931,
            55.8378974
          ],
          [
            37.3624662,
            55.8378644
          ]
        ]
      }
    },
    {
      "type": "Feature",
      "properties": {
        "osm_kind": "road",
        "name": "",
        "source": "OpenStreetMap",
        "download_window_id": "moscow_mitino_-1_+0_e49ae920",
        "download_city": "Москва Митино",
        "osm_tags": {
          "highway": "footway"
        },
        "osm_id": 338159742,
        "osm_type": "way"
      },
      "geometry": {
        "type": "LineString",
        "coordinates": [
          [
            37.3632786,
            55.8382116
          ],
          [
            37.3633326,
            55.8381929
          ],
          [
            37.3634398,
            55.8381539
          ],
          [
            37.3636363,
            55.8380775
          ],
          [
            37.3639862,
            55.8379861
          ],
          [
            37.3641667,
            55.8379543
          ],
          [
            37.3642847,
            55.8379317
          ],
          [
            37.3645006,
            55.8379106
          ],
          [
            37.3646776,
            55.8379084
          ],
          [
            37.3648399,
            55.8379174
          ],
          [
            37.3650008,
            55.8379618
          ],
          [
            37.3651618,
            55.8379995
          ],
          [
            37.3652919,
            55.8380033
          ],
          [
            37.3654112,
            55.837992
          ],
          [
            37.3655158,
            55.8379905
          ],
          [
            37.3656057,
            55.8380078
          ],
          [
            37.3663902,
            55.8382593
          ],
          [
            37.366468,
            55.8382864
          ],
          [
            37.3665069,
            55.8383226
          ],
          [
            37.3665347,
            55.838362
          ],
          [
            37.3665324,
            55.8384385
          ],
          [
            37.3664734,
            55.8385319
          ],
          [
            37.3663741,
            55.8386373
          ],
          [
            37.3663339,
            55.8387548
          ],
          [
            37.3663098,
            55.8388663
          ],
          [
            37.3662803,
            55.838919
          ],
          [
            37.3661835,
            55.839005
          ],
          [
            37.3661529,
            55.8390726
          ],
          [
            37.3661582,
            55.8391027
          ],
          [
            37.3663173,
            55.8391418
          ],
          [
            37.3665071,
            55.8391768
          ],
          [
            37.3667791,
            55.8392082
          ],
          [
            37.3668689,
            55.8392058
          ],
          [
            37.3669306,
            55.8391864
          ],
          [
            37.367003,
            55.839139
          ],
          [
            37.3671442,
            55.83903
          ],
          [
            37.3672694,
            55.8389614
          ],
          [
            37.3674334,
            55.8389129
          ],
          [
            37.3676864,
            55.8388331
          ]
        ]
      }
    },
    {
      "type": "Feature",
      "properties": {
        "osm_kind": "water",
        "name": "Уваров овраг",
        "source": "OpenStreetMap",
        "download_window_id": "moscow_mitino_-1_+0_e49ae920",
        "download_city": "Москва Митино",
        "osm_tags": {
          "name": "Уваров овраг",
          "waterway": "stream"
        },
        "osm_id": 338159754,
        "osm_type": "way"
      },
      "geometry": {
        "type": "LineString",
        "coordinates": [
          [
            37.3581453,
            55.8393901
          ],
          [
            37.3586689,
            55.8392757
          ],
          [
            37.3590661,
            55.8391173
          ],
          [
            37.3591784,
            55.8390332
          ],
          [
            37.3594403,
            55.8389767
          ],
          [
            37.3596274,
            55.838933
          ],
          [
            37.359967,
            55.838828
          ],
          [
            37.3604391,
            55.8385775
          ],
          [
            37.3608276,
            55.8383981
          ],
          [
            37.3612047,
            55.8382316
          ],
          [
            37.3613486,
            55.8381831
          ],
          [
            37.361394,
            55.8381793
          ],
          [
            37.3615242,
            55.8381479
          ],
          [
            37.3616191,
            55.8381233
          ]
        ]
      }
    },
    {
      "type": "Feature",
      "properties": {
        "osm_kind": "road",
        "name": "",
        "source": "OpenStreetMap",
        "download_window_id": "moscow_mitino_-1_+0_e49ae920",
        "download_city": "Москва Митино",
        "osm_tags": {
          "highway": "footway"
        },
        "osm_id": 365517546,
        "osm_type": "way"
      },
      "geometry": {
        "type": "LineString",
        "coordinates": [
          [
            37.3615368,
            55.8368388
          ],
          [
            37.3613376,
            55.8368714
          ],
          [
            37.3611964,
            55.8368961
          ],
          [
            37.3610321,
            55.8369302
          ],
          [
            37.3599389,
            55.8371035
          ],
          [
            37.3601427,
            55.8370015
          ],
          [
            37.3604039,
            55.836852
          ],
          [
            37.3606139,
            55.8366301
          ],
          [
            37.3607162,
            55.8364495
          ],
          [
            37.3608557,
            55.8362266
          ],
          [
            37.360971,
            55.8360202
          ],
          [
            37.3610139,
            55.8359404
          ],
          [
            37.3610246,
            55.8358606
          ],
          [
            37.3610325,
            55.8355434
          ],
          [
            37.361038,
            55.8354577
          ],
          [
            37.3610533,
            55.8353783
          ],
          [
            37.3610768,
            55.8353282
          ],
          [
            37.3611599,
            55.8352394
          ],
          [
            37.3612082,
            55.8351641
          ],
          [
            37.3612136,
            55.8350805
          ],
          [
            37.3611747,
            55.83485
          ],
          [
            37.361066,
            55.8343552
          ],
          [
            37.3609668,
            55.8340735
          ],
          [
            37.3608515,
            55.8336954
          ],
          [
            37.3606597,
            55.8333414
          ],
          [
            37.360425,
            55.833001
          ],
          [
            37.3601339,
            55.8326767
          ],
          [
            37.3598671,
            55.8325008
          ],
          [
            37.3595741,
            55.8323453
          ],
          [
            37.3592893,
            55.832233
          ],
          [
            37.3589073,
            55.8321061
          ],
          [
            37.3587163,
            55.8320375
          ],
          [
            37.3586775,
            55.8320076
          ],
          [
            37.3586778,
            55.8319883
          ],
          [
            37.3586788,
            55.8315564
          ]
        ]
      }
    },
    {
      "type": "Feature",
      "properties": {
        "osm_kind": "road",
        "name": "",
        "source": "OpenStreetMap",
        "download_window_id": "moscow_mitino_-1_+0_e49ae920",
        "download_city": "Москва Митино",
        "osm_tags": {
          "highway": "footway"
        },
        "osm_id": 376535216,
        "osm_type": "way"
      },
      "geometry": {
        "type": "LineString",
        "coordinates": [
          [
            37.3708646,
            55.8415351
          ],
          [
            37.3707671,
            55.8414808
          ],
          [
            37.3705508,
            55.8413949
          ],
          [
            37.3696524,
            55.8410366
          ],
          [
            37.3694713,
            55.8409644
          ],
          [
            37.3685226,
            55.8405866
          ],
          [
            37.3683698,
            55.8405243
          ],
          [
            37.3676457,
            55.8402404
          ],
          [
            37.3672099,
            55.8400952
          ],
          [
            37.367145,
            55.8400736
          ],
          [
            37.3663987,
            55.8398798
          ],
          [
            37.3663464,
            55.8398679
          ],
          [
            37.3659948,
            55.8397881
          ],
          [
            37.3658042,
            55.8397449
          ],
          [
            37.3653205,
            55.8396686
          ],
          [
            37.3648658,
            55.8396099
          ],
          [
            37.364298,
            55.8395471
          ],
          [
            37.3638497,
            55.8395117
          ],
          [
            37.3636899,
            55.839504
          ],
          [
            37.3633199,
            55.8394959
          ],
          [
            37.363041,
            55.8394995
          ],
          [
            37.3625337,
            55.8395292
          ],
          [
            37.3616686,
            55.8396019
          ],
          [
            37.3609758,
            55.8396782
          ],
          [
            37.3606361,
            55.8397385
          ],
          [
            37.3603808,
            55.8397882
          ],
          [
            37.3601284,
            55.8398425
          ],
          [
            37.3599199,
            55.8398988
          ],
          [
            37.3594428,
            55.8400443
          ],
          [
            37.3588569,
            55.8402692
          ],
          [
            37.358451,
            55.840426
          ],
          [
            37.3581243,
            55.8405704
          ],
          [
            37.3578689,
            55.8406814
          ],
          [
            37.3577785,
            55.8406973
          ],
          [
            37.3576867,
            55.8407126
          ],
          [
            37.3576155,
            55.8407245
          ],
          [
            37.3567819,
            55.8411615
          ],
          [
            37.3563024,
            55.8414129
          ],
          [
            37.3563131,
            55.8415001
          ]
        ]
      }
    },
    {
      "type": "Feature",
      "properties": {
        "osm_kind": "road",
        "name": "",
        "source": "OpenStreetMap",
        "download_window_id": "moscow_mitino_-1_+0_e49ae920",
        "download_city": "Москва Митино",
        "osm_tags": {
          "highway": "path"
        },
        "osm_id": 418516137,
        "osm_type": "way"
      },
      "geometry": {
        "type": "LineString",
        "coordinates": [
          [
            37.3599974,
            55.8375446
          ],
          [
            37.3600619,
            55.8374681
          ],
          [
            37.3600995,
            55.8374108
          ],
          [
            37.3601418,
            55.8373678
          ],
          [
            37.3601947,
            55.8373528
          ],
          [
            37.3603122,
            55.8373617
          ],
          [
            37.3606394,
            55.8374039
          ],
          [
            37.3608487,
            55.8373798
          ],
          [
            37.3610635,
            55.8373629
          ]
        ]
      }
    },
    {
      "type": "Feature",
      "properties": {
        "osm_kind": "road",
        "name": "",
        "source": "OpenStreetMap",
        "download_window_id": "moscow_mitino_-1_+0_e49ae920",
        "download_city": "Москва Митино",
        "osm_tags": {
          "highway": "footway"
        },
        "osm_id": 418520542,
        "osm_type": "way"
      },
      "geometry": {
        "type": "LineString",
        "coordinates": [
          [
            37.3631312,
            55.8386597
          ],
          [
            37.3633976,
            55.8386506
          ],
          [
            37.3636737,
            55.8386509
          ],
          [
            37.363948,
            55.8386513
          ],
          [
            37.3643323,
            55.8386518
          ],
          [
            37.3646782,
            55.8386522
          ]
        ]
      }
    },
    {
      "type": "Feature",
      "properties": {
        "osm_kind": "road",
        "name": "",
        "source": "OpenStreetMap",
        "download_window_id": "moscow_mitino_-1_+0_e49ae920",
        "download_city": "Москва Митино",
        "osm_tags": {
          "highway": "footway"
        },
        "osm_id": 418520552,
        "osm_type": "way"
      },
      "geometry": {
        "type": "LineString",
        "coordinates": [
          [
            37.3631203,
            55.8387568
          ],
          [
            37.362573,
            55.8389677
          ]
        ]
      }
    },
    {
      "type": "Feature",
      "properties": {
        "osm_kind": "road",
        "name": "",
        "source": "OpenStreetMap",
        "download_window_id": "moscow_mitino_-1_+0_e49ae920",
        "download_city": "Москва Митино",
        "osm_tags": {
          "highway": "path"
        },
        "osm_id": 418520554,
        "osm_type": "way"
      },
      "geometry": {
        "type": "LineString",
        "coordinates": [
          [
            37.3620509,
            55.8383985
          ],
          [
            37.3620249,
            55.8383888
          ],
          [
            37.3619927,
            55.8383926
          ],
          [
            37.3619445,
            55.8384107
          ],
          [
            37.3618184,
            55.8385221
          ],
          [
            37.3617835,
            55.8385447
          ],
          [
            37.3617473,
            55.8385492
          ],
          [
            37.3617406,
            55.8385327
          ],
          [
            37.3618613,
            55.838358
          ],
          [
            37.3618653,
            55.8383429
          ],
          [
            37.3618533,
            55.8383248
          ],
          [
            37.361813,
            55.8383248
          ],
          [
            37.3617366,
            55.8383564
          ],
          [
            37.3616172,
            55.8383828
          ],
          [
            37.3615468,
            55.8383743
          ]
        ]
      }
    },
    {
      "type": "Feature",
      "properties": {
        "osm_kind": "road",
        "name": "",
        "source": "OpenStreetMap",
        "download_window_id": "moscow_mitino_-1_+0_e49ae920",
        "download_city": "Москва Митино",
        "osm_tags": {
          "highway": "footway"
        },
        "osm_id": 454835831,
        "osm_type": "way"
      },
      "geometry": {
        "type": "LineString",
        "coordinates": [
          [
            37.3563162,
            55.8399107
          ],
          [
            37.3563065,
            55.839895
          ],
          [
            37.3566144,
            55.839833
          ],
          [
            37.3567262,
            55.8398091
          ],
          [
            37.3568925,
            55.8397564
          ],
          [
            37.3570347,
            55.8396871
          ],
          [
            37.3571178,
            55.8396058
          ],
          [
            37.3572868,
            55.8394235
          ],
          [
            37.3573565,
            55.8392744
          ],
          [
            37.357429,
            55.8390862
          ],
          [
            37.3574424,
            55.8389627
          ],
          [
            37.3574477,
            55.838922
          ],
          [
            37.3574638,
            55.8388753
          ],
          [
            37.3575027,
            55.8388324
          ],
          [
            37.3575671,
            55.838797
          ],
          [
            37.3579681,
            55.838611
          ],
          [
            37.3582886,
            55.8384378
          ],
          [
            37.3585555,
            55.8382721
          ],
          [
            37.3586655,
            55.838184
          ],
          [
            37.3587088,
            55.838136
          ]
        ]
      }
    },
    {
      "type": "Feature",
      "properties": {
        "osm_kind": "water",
        "name": "Уваров овраг",
        "source": "OpenStreetMap",
        "download_window_id": "moscow_mitino_-1_+0_e49ae920",
        "download_city": "Москва Митино",
        "osm_tags": {
          "name": "Уваров овраг",
          "waterway": "stream"
        },
        "osm_id": 486649000,
        "osm_type": "way"
      },
      "geometry": {
        "type": "LineString",
        "coordinates": [
          [
            37.3616191,
            55.8381233
          ],
          [
            37.3622092,
            55.8379423
          ],
          [
            37.362344,
            55.8379037
          ],
          [
            37.3624451,
            55.8378782
          ],
          [
            37.3625717,
            55.8378603
          ],
          [
            37.3626784,
            55.8377887
          ],
          [
            37.362828,
            55.8377306
          ],
          [
            37.363018,
            55.8377419
          ],
          [
            37.3632367,
            55.8377176
          ],
          [
            37.3634152,
            55.837737
          ],
          [
            37.3635677,
            55.8376902
          ],
          [
            37.3637721,
            55.8376772
          ],
          [
            37.3639304,
            55.8376093
          ],
          [
            37.3640513,
            55.8375916
          ],
          [
            37.3655856,
            55.8375604
          ],
          [
            37.3669705,
            55.8380071
          ],
          [
            37.3673934,
            55.8380605
          ],
          [
            37.3680425,
            55.8380337
          ],
          [
            37.3685304,
            55.8379364
          ],
          [
            37.3689437,
            55.837687
          ],
          [
            37.3693057,
            55.837358
          ],
          [
            37.3695822,
            55.836756
          ],
          [
            37.3697017,
            55.8363423
          ],
          [
            37.3698913,
            55.83612
          ],
          [
            37.3701311,
            55.8360154
          ],
          [
            37.3706837,
            55.835971
          ],
          [
            37.3719478,
            55.836003
          ],
          [
            37.3728978,
            55.8363546
          ]
        ]
      }
    },
    {
      "type": "Feature",
      "properties": {
        "osm_kind": "road",
        "name": "",
        "source": "OpenStreetMap",
        "download_window_id": "moscow_mitino_-1_+0_e49ae920",
        "download_city": "Москва Митино",
        "osm_tags": {
          "highway": "footway"
        },
        "osm_id": 663300772,
        "osm_type": "way"
      },
      "geometry": {
        "type": "LineString",
        "coordinates": [
          [
            37.3608673,
            55.8378733
          ],
          [
            37.3610097,
            55.8379746
          ],
          [
            37.3611315,
            55.8380279
          ],
          [
            37.3612649,
            55.8380862
          ]
        ]
      }
    },
    {
      "type": "Feature",
      "properties": {
        "osm_kind": "road",
        "name": "",
        "source": "OpenStreetMap",
        "download_window_id": "moscow_mitino_-1_+0_e49ae920",
        "download_city": "Москва Митино",
        "osm_tags": {
          "highway": "steps"
        },
        "osm_id": 663300773,
        "osm_type": "way"
      },
      "geometry": {
        "type": "LineString",
        "coordinates": [
          [
            37.3605938,
            55.8378174
          ],
          [
            37.3608673,
            55.8378733
          ]
        ]
      }
    },
    {
      "type": "Feature",
      "properties": {
        "osm_kind": "road",
        "name": "",
        "source": "OpenStreetMap",
        "download_window_id": "moscow_mitino_-1_+0_e49ae920",
        "download_city": "Москва Митино",
        "osm_tags": {
          "highway": "cycleway"
        },
        "osm_id": 702513448,
        "osm_type": "way"
      },
      "geometry": {
        "type": "LineString",
        "coordinates": [
          [
            37.3732299,
            55.8364069
          ],
          [
            37.3731453,
            55.8364391
          ],
          [
            37.372901,
            55.8365719
          ],
          [
            37.3728495,
            55.8365999
          ],
          [
            37.3727121,
            55.836662
          ],
          [
            37.3722535,
            55.8367963
          ],
          [
            37.3719503,
            55.8368708
          ],
          [
            37.3711377,
            55.8370416
          ],
          [
            37.3709849,
            55.8370815
          ],
          [
            37.3709238,
            55.8371114
          ],
          [
            37.3708124,
            55.8371905
          ],
          [
            37.3704457,
            55.8376335
          ],
          [
            37.370097,
            55.8379995
          ],
          [
            37.3697131,
            55.8383437
          ],
          [
            37.3691608,
            55.8387428
          ],
          [
            37.368896,
            55.8389574
          ],
          [
            37.3686985,
            55.8390814
          ],
          [
            37.368469,
            55.8391627
          ],
          [
            37.3682853,
            55.8392278
          ],
          [
            37.3678222,
            55.8393829
          ],
          [
            37.3676685,
            55.8394247
          ],
          [
            37.3674658,
            55.8394341
          ],
          [
            37.3669864,
            55.8394413
          ],
          [
            37.3668482,
            55.8394318
          ],
          [
            37.3667193,
            55.8394148
          ],
          [
            37.366464,
            55.8393626
          ],
          [
            37.3655945,
            55.8391252
          ],
          [
            37.3654265,
            55.8389289
          ],
          [
            37.3651665,
            55.8386285
          ],
          [
            37.3649667,
            55.8384244
          ],
          [
            37.3647894,
            55.8383029
          ],
          [
            37.3646441,
            55.838239
          ],
          [
            37.3644611,
            55.8381734
          ],
          [
            37.3641613,
            55.8381079
          ],
          [
            37.3640165,
            55.8380876
          ],
          [
            37.3639176,
            55.8380824
          ],
          [
            37.3637778,
            55.8380891
          ],
          [
            37.3634934,
            55.8381712
          ],
          [
            37.3634166,
            55.8381902
          ],
          [
            37.3633326,
            55.8381929
          ],
          [
            37.363256,
            55.8381878
          ],
          [
            37.3631619,
            55.8381719
          ],
          [
            37.3629775,
            55.8381206
          ],
          [
            37.3626896,
            55.837981
          ],
          [
            37.362643,
            55.8379584
          ],
          [
            37.3625464,
            55.8379087
          ],
          [
            37.3625186,
            55.8378944
          ]
        ]
      }
    },
    {
      "type": "Feature",
      "properties": {
        "osm_kind": "road",
        "name": "",
        "source": "OpenStreetMap",
        "download_window_id": "moscow_mitino_-1_+0_e49ae920",
        "download_city": "Москва Митино",
        "osm_tags": {
          "highway": "cycleway"
        },
        "osm_id": 702513450,
        "osm_type": "way"
      },
      "geometry": {
        "type": "LineString",
        "coordinates": [
          [
            37.3625186,
            55.8378944
          ],
          [
            37.3624904,
            55.8378552
          ]
        ]
      }
    },
    {
      "type": "Feature",
      "properties": {
        "osm_kind": "road",
        "name": "",
        "source": "OpenStreetMap",
        "download_window_id": "moscow_mitino_-1_+0_e49ae920",
        "download_city": "Москва Митино",
        "osm_tags": {
          "highway": "cycleway"
        },
        "osm_id": 702513451,
        "osm_type": "way"
      },
      "geometry": {
        "type": "LineString",
        "coordinates": [
          [
            37.3624904,
            55.8378552
          ],
          [
            37.3624891,
            55.8378376
          ],
          [
            37.362521,
            55.837791
          ],
          [
            37.3628086,
            55.8375669
          ],
          [
            37.3629758,
            55.8374678
          ],
          [
            37.3631456,
            55.8373806
          ],
          [
            37.3632176,
            55.8373494
          ],
          [
            37.3633164,
            55.8373067
          ],
          [
            37.3633845,
            55.8372559
          ],
          [
            37.3635095,
            55.8370288
          ],
          [
            37.3635411,
            55.836874
          ],
          [
            37.3635297,
            55.8368239
          ],
          [
            37.3634993,
            55.8367822
          ]
        ]
      }
    },
    {
      "type": "Feature",
      "properties": {
        "osm_kind": "road",
        "name": "",
        "source": "OpenStreetMap",
        "download_window_id": "moscow_mitino_-1_+0_e49ae920",
        "download_city": "Москва Митино",
        "osm_tags": {
          "highway": "footway"
        },
        "osm_id": 702517655,
        "osm_type": "way"
      },
      "geometry": {
        "type": "LineString",
        "coordinates": [
          [
            37.3629664,
            55.8349125
          ],
          [
            37.362946,
            55.835282
          ],
          [
            37.3629463,
            55.8353975
          ],
          [
            37.362945,
            55.8355108
          ],
          [
            37.3629445,
            55.835637
          ],
          [
            37.3629439,
            55.8357711
          ],
          [
            37.3629426,
            55.8360783
          ],
          [
            37.3629082,
            55.8366864
          ],
          [
            37.3629088,
            55.8367019
          ],
          [
            37.3629212,
            55.8369949
          ],
          [
            37.3631196,
            55.8371266
          ],
          [
            37.3632078,
            55.8372101
          ],
          [
            37.3632185,
            55.83726
          ],
          [
            37.3631957,
            55.8373074
          ],
          [
            37.3631576,
            55.8373388
          ]
        ]
      }
    },
    {
      "type": "Feature",
      "properties": {
        "osm_kind": "road",
        "name": "",
        "source": "OpenStreetMap",
        "download_window_id": "moscow_mitino_-1_+0_e49ae920",
        "download_city": "Москва Митино",
        "osm_tags": {
          "highway": "steps"
        },
        "osm_id": 702517656,
        "osm_type": "way"
      },
      "geometry": {
        "type": "LineString",
        "coordinates": [
          [
            37.3625061,
            55.8373936
          ],
          [
            37.3624219,
            55.8375371
          ],
          [
            37.3624729,
            55.8376696
          ]
        ]
      }
    },
    {
      "type": "Feature",
      "properties": {
        "osm_kind": "road",
        "name": "",
        "source": "OpenStreetMap",
        "download_window_id": "moscow_mitino_-1_+0_e49ae920",
        "download_city": "Москва Митино",
        "osm_tags": {
          "highway": "path"
        },
        "osm_id": 721744560,
        "osm_type": "way"
      },
      "geometry": {
        "type": "LineString",
        "coordinates": [
          [
            37.3615059,
            55.8389461
          ],
          [
            37.3617077,
            55.8388438
          ],
          [
            37.3618358,
            55.8387443
          ],
          [
            37.3618998,
            55.8386604
          ],
          [
            37.3620015,
            55.8385066
          ],
          [
            37.3620509,
            55.8383985
          ],
          [
            37.362251,
            55.8383768
          ],
          [
            37.3624897,
            55.8383788
          ],
          [
            37.3626083,
            55.8384054
          ],
          [
            37.3627257,
            55.8384314
          ],
          [
            37.362996,
            55.8385468
          ],
          [
            37.3631086,
            55.8385867
          ]
        ]
      }
    },
    {
      "type": "Feature",
      "properties": {
        "osm_kind": "road",
        "name": "",
        "source": "OpenStreetMap",
        "download_window_id": "moscow_mitino_-1_+0_e49ae920",
        "download_city": "Москва Митино",
        "osm_tags": {
          "highway": "footway"
        },
        "osm_id": 721744565,
        "osm_type": "way"
      },
      "geometry": {
        "type": "LineString",
        "coordinates": [
          [
            37.3592343,
            55.8392877
          ],
          [
            37.3592998,
            55.8392157
          ],
          [
            37.3594353,
            55.8391238
          ],
          [
            37.3595815,
            55.8390699
          ],
          [
            37.3597223,
            55.8390282
          ],
          [
            37.359843,
            55.8390086
          ],
          [
            37.359919,
            55.8390015
          ]
        ]
      }
    },
    {
      "type": "Feature",
      "properties": {
        "osm_kind": "road",
        "name": "",
        "source": "OpenStreetMap",
        "download_window_id": "moscow_mitino_-1_+0_e49ae920",
        "download_city": "Москва Митино",
        "osm_tags": {
          "highway": "footway"
        },
        "osm_id": 721744566,
        "osm_type": "way"
      },
      "geometry": {
        "type": "LineString",
        "coordinates": [
          [
            37.35945,
            55.8388979
          ],
          [
            37.3595506,
            55.8390139
          ],
          [
            37.3595815,
            55.8390699
          ],
          [
            37.3595855,
            55.8390771
          ],
          [
            37.3596891,
            55.8391723
          ]
        ]
      }
    },
    {
      "type": "Feature",
      "properties": {
        "osm_kind": "road",
        "name": "",
        "source": "OpenStreetMap",
        "download_window_id": "moscow_mitino_-1_+0_e49ae920",
        "download_city": "Москва Митино",
        "osm_tags": {
          "highway": "footway"
        },
        "osm_id": 721744571,
        "osm_type": "way"
      },
      "geometry": {
        "type": "LineString",
        "coordinates": [
          [
            37.3586617,
            55.8379933
          ],
          [
            37.3586885,
            55.8379798
          ],
          [
            37.3587663,
            55.8379526
          ],
          [
            37.3587958,
            55.837924
          ],
          [
            37.3588065,
            55.8378879
          ],
          [
            37.3588199,
            55.8377403
          ],
          [
            37.3588333,
            55.8376906
          ],
          [
            37.3588628,
            55.8376499
          ],
          [
            37.3589218,
            55.8375821
          ],
          [
            37.359013,
            55.8375374
          ],
          [
            37.3590966,
            55.8376182
          ]
        ]
      }
    },
    {
      "type": "Feature",
      "properties": {
        "osm_kind": "building",
        "name": "",
        "source": "OpenStreetMap",
        "download_window_id": "moscow_mitino_-1_+0_e49ae920",
        "download_city": "Москва Митино",
        "osm_tags": {
          "building": "yes"
        },
        "osm_id": 749264716,
        "osm_type": "way"
      },
      "geometry": {
        "type": "Polygon",
        "coordinates": [
          [
            [
              37.3624071,
              55.8389069
            ],
            [
              37.3624323,
              55.8389218
            ],
            [
              37.3624961,
              55.8389221
            ],
            [
              37.3624974,
              55.8388333
            ],
            [
              37.3623539,
              55.8388326
            ],
            [
              37.3623532,
              55.8388759
            ],
            [
              37.3624071,
              55.8389069
            ]
          ]
        ]
      }
    },
    {
      "type": "Feature",
      "properties": {
        "osm_kind": "road",
        "name": "",
        "source": "OpenStreetMap",
        "download_window_id": "moscow_mitino_-1_+0_e49ae920",
        "download_city": "Москва Митино",
        "osm_tags": {
          "highway": "footway"
        },
        "osm_id": 749264720,
        "osm_type": "way"
      },
      "geometry": {
        "type": "LineString",
        "coordinates": [
          [
            37.3633976,
            55.8386506
          ],
          [
            37.3633956,
            55.8389529
          ],
          [
            37.3636718,
            55.8389532
          ],
          [
            37.3639461,
            55.8389536
          ],
          [
            37.3643304,
            55.838954
          ],
          [
            37.3646763,
            55.8389545
          ],
          [
            37.3646782,
            55.8386522
          ]
        ]
      }
    },
    {
      "type": "Feature",
      "properties": {
        "osm_kind": "road",
        "name": "",
        "source": "OpenStreetMap",
        "download_window_id": "moscow_mitino_-1_+0_e49ae920",
        "download_city": "Москва Митино",
        "osm_tags": {
          "highway": "footway"
        },
        "osm_id": 814340555,
        "osm_type": "way"
      },
      "geometry": {
        "type": "LineString",
        "coordinates": [
          [
            37.3624662,
            55.8378644
          ],
          [
            37.3624491,
            55.8378365
          ],
          [
            37.3624722,
            55.8378041
          ],
          [
            37.3626061,
            55.8377035
          ],
          [
            37.3627891,
            55.8375576
          ],
          [
            37.3629556,
            55.8374544
          ],
          [
            37.3631141,
            55.83737
          ],
          [
            37.3631576,
            55.8373388
          ]
        ]
      }
    },
    {
      "type": "Feature",
      "properties": {
        "osm_kind": "road",
        "name": "",
        "source": "OpenStreetMap",
        "download_window_id": "moscow_mitino_-1_+0_e49ae920",
        "download_city": "Москва Митино",
        "osm_tags": {
          "highway": "footway"
        },
        "osm_id": 814340564,
        "osm_type": "way"
      },
      "geometry": {
        "type": "LineString",
        "coordinates": [
          [
            37.3624729,
            55.8376696
          ],
          [
            37.3624722,
            55.8378041
          ]
        ]
      }
    },
    {
      "type": "Feature",
      "properties": {
        "osm_kind": "road",
        "name": "",
        "source": "OpenStreetMap",
        "download_window_id": "moscow_mitino_-1_+0_e49ae920",
        "download_city": "Москва Митино",
        "osm_tags": {
          "highway": "footway"
        },
        "osm_id": 814340565,
        "osm_type": "way"
      },
      "geometry": {
        "type": "LineString",
        "coordinates": [
          [
            37.3625155,
            55.8373323
          ],
          [
            37.3625061,
            55.8373936
          ]
        ]
      }
    },
    {
      "type": "Feature",
      "properties": {
        "osm_kind": "road",
        "name": "",
        "source": "OpenStreetMap",
        "download_window_id": "moscow_mitino_-1_+0_e49ae920",
        "download_city": "Москва Митино",
        "osm_tags": {
          "highway": "footway"
        },
        "osm_id": 814340566,
        "osm_type": "way"
      },
      "geometry": {
        "type": "LineString",
        "coordinates": [
          [
            37.3629212,
            55.8369949
          ],
          [
            37.3625769,
            55.837316
          ]
        ]
      }
    },
    {
      "type": "Feature",
      "properties": {
        "osm_kind": "road",
        "name": "",
        "source": "OpenStreetMap",
        "download_window_id": "moscow_mitino_-1_+0_e49ae920",
        "download_city": "Москва Митино",
        "osm_tags": {
          "highway": "footway"
        },
        "osm_id": 825486934,
        "osm_type": "way"
      },
      "geometry": {
        "type": "LineString",
        "coordinates": [
          [
            37.3600389,
            55.8371017
          ],
          [
            37.3599389,
            55.8371035
          ],
          [
            37.359355,
            55.8372418
          ],
          [
            37.3592234,
            55.8372783
          ],
          [
            37.3588997,
            55.8374186
          ],
          [
            37.3588622,
            55.8374324
          ],
          [
            37.3588209,
            55.8374485
          ],
          [
            37.3584267,
            55.8375996
          ],
          [
            37.357901,
            55.837815
          ],
          [
            37.3575926,
            55.8380002
          ],
          [
            37.3569435,
            55.8384581
          ],
          [
            37.356737,
            55.8385756
          ],
          [
            37.3564097,
            55.8387187
          ],
          [
            37.3561281,
            55.8388196
          ],
          [
            37.3558545,
            55.8389084
          ],
          [
            37.3553725,
            55.8390168
          ],
          [
            37.3547682,
            55.8392006
          ],
          [
            37.3547789,
            55.8393964
          ],
          [
            37.3548637,
            55.8397401
          ]
        ]
      }
    },
    {
      "type": "Feature",
      "properties": {
        "osm_kind": "road",
        "name": "",
        "source": "OpenStreetMap",
        "download_window_id": "moscow_mitino_-1_+0_e49ae920",
        "download_city": "Москва Митино",
        "osm_tags": {
          "highway": "footway"
        },
        "osm_id": 829182888,
        "osm_type": "way"
      },
      "geometry": {
        "type": "LineString",
        "coordinates": [
          [
            37.3632176,
            55.8373494
          ],
          [
            37.3634371,
            55.8373729
          ],
          [
            37.3636338,
            55.8373805
          ],
          [
            37.3637522,
            55.8373799
          ],
          [
            37.3637858,
            55.8373797
          ],
          [
            37.3639561,
            55.8373692
          ],
          [
            37.3641075,
            55.8373466
          ],
          [
            37.3643142,
            55.8372841
          ],
          [
            37.3646817,
            55.8371952
          ],
          [
            37.3648625,
            55.8371347
          ]
        ]
      }
    },
    {
      "type": "Feature",
      "properties": {
        "osm_kind": "road",
        "name": "",
        "source": "OpenStreetMap",
        "download_window_id": "moscow_mitino_-1_+0_e49ae920",
        "download_city": "Москва Митино",
        "osm_tags": {
          "highway": "steps"
        },
        "osm_id": 829182891,
        "osm_type": "way"
      },
      "geometry": {
        "type": "LineString",
        "coordinates": [
          [
            37.363103,
            55.8385302
          ],
          [
            37.3630872,
            55.838284
          ],
          [
            37.363079,
            55.8381954
          ]
        ]
      }
    },
    {
      "type": "Feature",
      "properties": {
        "osm_kind": "road",
        "name": "",
        "source": "OpenStreetMap",
        "download_window_id": "moscow_mitino_-1_+0_e49ae920",
        "download_city": "Москва Митино",
        "osm_tags": {
          "highway": "footway"
        },
        "osm_id": 829182892,
        "osm_type": "way"
      },
      "geometry": {
        "type": "LineString",
        "coordinates": [
          [
            37.3631821,
            55.8390015
          ],
          [
            37.3631203,
            55.8387568
          ],
          [
            37.3631312,
            55.8386597
          ],
          [
            37.3631086,
            55.8385867
          ],
          [
            37.363103,
            55.8385302
          ]
        ]
      }
    },
    {
      "type": "Feature",
      "properties": {
        "osm_kind": "road",
        "name": "",
        "source": "OpenStreetMap",
        "download_window_id": "moscow_mitino_-1_+0_e49ae920",
        "download_city": "Москва Митино",
        "osm_tags": {
          "highway": "path"
        },
        "osm_id": 829182893,
        "osm_type": "way"
      },
      "geometry": {
        "type": "LineString",
        "coordinates": [
          [
            37.3631832,
            55.8390249
          ],
          [
            37.3630294,
            55.8390658
          ],
          [
            37.3628175,
            55.8390726
          ],
          [
            37.3622838,
            55.8390651
          ],
          [
            37.3618171,
            55.8390741
          ],
          [
            37.3613396,
            55.8391133
          ],
          [
            37.360999,
            55.8391615
          ],
          [
            37.360712,
            55.8392353
          ],
          [
            37.3599476,
            55.839419
          ],
          [
            37.3591992,
            55.8396088
          ],
          [
            37.3588076,
            55.8396916
          ],
          [
            37.3584938,
            55.8397699
          ],
          [
            37.3580861,
            55.8399115
          ],
          [
            37.3577991,
            55.8400546
          ],
          [
            37.3575121,
            55.840273
          ],
          [
            37.3573324,
            55.8403859
          ],
          [
            37.3567184,
            55.8406783
          ]
        ]
      }
    },
    {
      "type": "Feature",
      "properties": {
        "osm_kind": "road",
        "name": "",
        "source": "OpenStreetMap",
        "download_window_id": "moscow_mitino_-1_+0_e49ae920",
        "download_city": "Москва Митино",
        "osm_tags": {
          "highway": "steps"
        },
        "osm_id": 842867781,
        "osm_type": "way"
      },
      "geometry": {
        "type": "LineString",
        "coordinates": [
          [
            37.3625084,
            55.8396825
          ],
          [
            37.3625011,
            55.8397263
          ]
        ]
      }
    },
    {
      "type": "Feature",
      "properties": {
        "osm_kind": "road",
        "name": "",
        "source": "OpenStreetMap",
        "download_window_id": "moscow_mitino_-1_+0_e49ae920",
        "download_city": "Москва Митино",
        "osm_tags": {
          "highway": "footway"
        },
        "osm_id": 842867782,
        "osm_type": "way"
      },
      "geometry": {
        "type": "LineString",
        "coordinates": [
          [
            37.3625337,
            55.8395292
          ],
          [
            37.3625084,
            55.8396825
          ]
        ]
      }
    },
    {
      "type": "Feature",
      "properties": {
        "osm_kind": "road",
        "name": "",
        "source": "OpenStreetMap",
        "download_window_id": "moscow_mitino_-1_+0_e49ae920",
        "download_city": "Москва Митино",
        "osm_tags": {
          "highway": "path"
        },
        "osm_id": 1060266315,
        "osm_type": "way"
      },
      "geometry": {
        "type": "LineString",
        "coordinates": [
          [
            37.3626436,
            55.8379829
          ],
          [
            37.3626896,
            55.837981
          ],
          [
            37.3627558,
            55.8379701
          ],
          [
            37.362839,
            55.8379611
          ],
          [
            37.3629718,
            55.8379505
          ],
          [
            37.3630509,
            55.8379415
          ],
          [
            37.3632024,
            55.83794
          ],
          [
            37.3635739,
            55.8379392
          ],
          [
            37.3636817,
            55.8379345
          ],
          [
            37.3637429,
            55.8379309
          ],
          [
            37.3639213,
            55.8379174
          ],
          [
            37.3640728,
            55.8379242
          ],
          [
            37.3641667,
            55.8379543
          ]
        ]
      }
    },
    {
      "type": "Feature",
      "properties": {
        "osm_kind": "road",
        "name": "",
        "source": "OpenStreetMap",
        "download_window_id": "moscow_mitino_-1_+0_e49ae920",
        "download_city": "Москва Митино",
        "osm_tags": {
          "highway": "path"
        },
        "osm_id": 1060266316,
        "osm_type": "way"
      },
      "geometry": {
        "type": "LineString",
        "coordinates": [
          [
            37.3623079,
            55.8380846
          ],
          [
            37.3623683,
            55.8379965
          ],
          [
            37.3624313,
            55.8379121
          ],
          [
            37.3624662,
            55.8378644
          ]
        ]
      }
    },
    {
      "type": "Feature",
      "properties": {
        "osm_kind": "road",
        "name": "",
        "source": "OpenStreetMap",
        "download_window_id": "moscow_mitino_-1_+0_e49ae920",
        "download_city": "Москва Митино",
        "osm_tags": {
          "highway": "footway"
        },
        "osm_id": 1065293039,
        "osm_type": "way"
      },
      "geometry": {
        "type": "LineString",
        "coordinates": [
          [
            37.3632176,
            55.8373494
          ],
          [
            37.3631576,
            55.8373388
          ],
          [
            37.3628962,
            55.8373155
          ],
          [
            37.3626733,
            55.837311
          ],
          [
            37.3625769,
            55.837316
          ],
          [
            37.3625155,
            55.8373323
          ],
          [
            37.3622701,
            55.8374281
          ],
          [
            37.361863,
            55.837565
          ],
          [
            37.3617755,
            55.837583
          ],
          [
            37.3616831,
            55.8375853
          ],
          [
            37.3615983,
            55.8375723
          ],
          [
            37.3613512,
            55.8374855
          ],
          [
            37.3610635,
            55.8373629
          ],
          [
            37.3607652,
            55.8372166
          ],
          [
            37.3604355,
            55.8371343
          ],
          [
            37.360156,
            55.8370995
          ],
          [
            37.3600389,
            55.8371017
          ]
        ]
      }
    },
    {
      "type": "Feature",
      "properties": {
        "osm_kind": "road",
        "name": "",
        "source": "OpenStreetMap",
        "download_window_id": "moscow_mitino_-1_+0_e49ae920",
        "download_city": "Москва Митино",
        "osm_tags": {
          "highway": "footway"
        },
        "osm_id": 1309893512,
        "osm_type": "way"
      },
      "geometry": {
        "type": "LineString",
        "coordinates": [
          [
            37.3621456,
            55.8378557
          ],
          [
            37.362159,
            55.8378165
          ],
          [
            37.362206,
            55.8377947
          ],
          [
            37.3624118,
            55.8378063
          ],
          [
            37.3624722,
            55.8378041
          ]
        ]
      }
    },
    {
      "type": "Feature",
      "properties": {
        "osm_kind": "road",
        "name": "",
        "source": "OpenStreetMap",
        "download_window_id": "moscow_mitino_-1_+0_e49ae920",
        "download_city": "Москва Митино",
        "osm_tags": {
          "highway": "footway"
        },
        "osm_id": 1309893513,
        "osm_type": "way"
      },
      "geometry": {
        "type": "LineString",
        "coordinates": [
          [
            37.3592223,
            55.8377039
          ],
          [
            37.3599183,
            55.8379534
          ]
        ]
      }
    }
  ]
}