{
  "type": "FeatureCollection",
  "features": [
    {
      "type": "Feature",
      "geometry": {
        "type": "Point",
        "coordinates": [
          37.648604398,
          55.668379672
        ]
      },
      "properties": {
        "id": "demand",
        "object_type": "oks_connection_point",
        "flow_tph": 15.0
      }
    },
    {
      "type": "Feature",
      "geometry": {
        "type": "Polygon",
        "coordinates": [
          [
            [
              37.648542372,
              55.668334058
            ],
            [
              37.64862184,
              55.668334933
            ],
            [
              37.648619611,
              55.66839961
            ],
            [
              37.648635504,
              55.668399785
            ],
            [
              37.648633089,
              55.668469852
            ],
            [
              37.648798383,
              55.668471672
            ],
            [
              37.648803027,
              55.668336928
            ],
            [
              37.648876138,
              55.668337732
            ],
            [
              37.648868399,
              55.668562306
            ],
            [
              37.648534631,
              55.668558631
            ],
            [
              37.648542372,
              55.668334058
            ]
          ]
        ]
      },
      "properties": {
        "id": "owner",
        "object_type": "restriction",
        "restriction_type": "oks"
      }
    },
    {
      "type": "Feature",
      "geometry": {
        "type": "LineString",
        "coordinates": [
          [
            37.648950546,
            55.66802403
          ],
          [
            37.648938164,
            55.668383347
          ]
        ]
      },
      "properties": {
        "id": "old",
        "object_type": "heat_network",
        "diameter": 100
      }
    },
    {
      "type": "Feature",
      "geometry": {
        "type": "Point",
        "coordinates": [
          37.648944355,
          55.668203688
        ]
      },
      "properties": {
        "id": "root",
        "object_type": "heat_chamber"
      }
    },
    {
      "type": "Feature",
      "geometry": {
        "type": "Point",
        "coordinates": [
          37.648950546,
          55.66802403
        ]
      },
      "properties": {
        "id": "source",
        "object_type": "source"
      }
    }
  ]
}