{
  "type": "FeatureCollection",
  "name": "moscow_mitino_-2_-1_e40dc88c_many_connection_points",
  "crs": {
    "type": "name",
    "properties": {
      "name": "EPSG:4326"
    }
  },
  "metadata": {
    "dataset_version": "osm_building_anchored_routing_scenes_v3",
    "parent_scene_id": "moscow_mitino_-2_-1_e40dc88c",
    "split": "train",
    "city": "Москва Митино",
    "seed": "moscow_mitino",
    "research_bucket": "many_connection_points",
    "source_research_bucket": "separate_pipes",
    "research_bucket_is_ground_truth": false,
    "bbox_south_west_north_east": [
      55.8293812,
      37.3450002,
      55.8320762,
      37.3497986
    ],
    "real_data_source": "OpenStreetMap via Overpass API",
    "source_file": "data/real_geojson_places/separate_pipes/042_moscow_mitino_-2_-1_e40dc88c.geojson",
    "real_layers": [
      "restrictions",
      "consumer_building_footprints"
    ],
    "synthetic_layers": [
      "source",
      "heat_network",
      "heat_chamber",
      "heat_demand"
    ],
    "consumer_selection": "deterministic points inside real OSM building footprints",
    "flow_model": "synthetic proxy derived from building footprint area; not metered demand",
    "note": "OSM buildings anchor consumers; heat demand and seed network are synthetic proxies."
  },
  "features": [
    {
      "type": "Feature",
      "properties": {
        "id": "moscow_mitino_-2_-1_e40dc88c_many_connection_points_osm_way_26999974_1",
        "object_type": "restriction",
        "restriction_type": "oks",
        "name": "",
        "osm_kind": "building",
        "osm_id": 26999974,
        "osm_type": "way",
        "osm_tags": {
          "building": "apartments"
        },
        "case_id": "moscow_mitino_-2_-1_e40dc88c_many_connection_points",
        "selected_as_heat_demand_proxy": true,
        "connection_point_id": "moscow_mitino_-2_-1_e40dc88c_many_connection_points_cp_11"
      },
      "geometry": {
        "type": "Polygon",
        "coordinates": [
          [
            [
              37.3500955,
              55.8311874
            ],
            [
              37.350373,
              55.8317003
            ],
            [
              37.3502864,
              55.8317151
            ],
            [
              37.3503549,
              55.8318416
            ],
            [
              37.3503092,
              55.8318494
            ],
            [
              37.3502505,
              55.8318594
            ],
            [
              37.3502212,
              55.8318052
            ],
            [
              37.3502039,
              55.8318081
            ],
            [
              37.3502284,
              55.8318534
            ],
            [
              37.3499003,
              55.8319094
            ],
            [
              37.3499252,
              55.8319554
            ],
            [
              37.3498608,
              55.8319664
            ],
            [
              37.3498202,
              55.8319734
            ],
            [
              37.3497953,
              55.8319273
            ],
            [
              37.3495273,
              55.8319731
            ],
            [
              37.3495519,
              55.8320186
            ],
            [
              37.349496,
              55.8320282
            ],
            [
              37.3494464,
              55.8320366
            ],
            [
              37.3494218,
              55.831991
            ],
            [
              37.3491465,
              55.832038
            ],
            [
              37.3491226,
              55.8319939
            ],
            [
              37.3490115,
              55.8320128
            ],
            [
              37.3490068,
              55.8320041
            ],
            [
              37.3489362,
              55.8320161
            ],
            [
              37.3489196,
              55.8319855
            ],
            [
              37.3489052,
              55.8319589
            ],
            [
              37.3489758,
              55.8319469
            ],
            [
              37.3489687,
              55.8319337
            ],
            [
              37.3488745,
              55.8319498
            ],
            [
              37.3488259,
              55.8318602
            ],
            [
              37.3490445,
              55.8318229
            ],
            [
              37.3490928,
              55.8319122
            ],
            [
              37.3501625,
              55.8317296
            ],
            [
              37.3500641,
              55.8315478
            ],
            [
              37.3499853,
              55.8315612
            ],
            [
              37.3499711,
              55.8315351
            ],
            [
              37.3499534,
              55.8315022
            ],
            [
              37.3500322,
              55.8314888
            ],
            [
              37.3499511,
              55.8313389
            ],
            [
              37.3498637,
              55.8313538
            ],
            [
              37.3498487,
              55.831326
            ],
            [
              37.3498314,
              55.8312941
            ],
            [
              37.3499188,
              55.8312792
            ],
            [
              37.3498883,
              55.8312228
            ],
            [
              37.3500955,
              55.8311874
            ]
          ]
        ]
      }
    },
    {
      "type": "Feature",
      "properties": {
        "id": "moscow_mitino_-2_-1_e40dc88c_many_connection_points_osm_way_47227818_2",
        "object_type": "restriction",
        "restriction_type": "road",
        "name": "",
        "osm_kind": "road",
        "osm_id": 47227818,
        "osm_type": "way",
        "osm_tags": {
          "highway": "service"
        },
        "case_id": "moscow_mitino_-2_-1_e40dc88c_many_connection_points"
      },
      "geometry": {
        "type": "LineString",
        "coordinates": [
          [
            37.3503524,
            55.8303321
          ],
          [
            37.3502145,
            55.830347
          ],
          [
            37.3500718,
            55.8303631
          ],
          [
            37.350037,
            55.830365
          ],
          [
            37.3497751,
            55.8303882
          ],
          [
            37.3494822,
            55.8304218
          ],
          [
            37.3493564,
            55.8304391
          ],
          [
            37.3492799,
            55.8304484
          ],
          [
            37.3488746,
            55.8306287
          ],
          [
            37.3488511,
            55.8307277
          ],
          [
            37.3489113,
            55.8308291
          ],
          [
            37.3490283,
            55.8308831
          ],
          [
            37.3494145,
            55.8308258
          ],
          [
            37.3495048,
            55.8309972
          ]
        ]
      }
    },
    {
      "type": "Feature",
      "properties": {
        "id": "moscow_mitino_-2_-1_e40dc88c_many_connection_points_osm_way_80203377_3",
        "object_type": "restriction",
        "restriction_type": "oks",
        "name": "",
        "osm_kind": "building",
        "osm_id": 80203377,
        "osm_type": "way",
        "osm_tags": {
          "building": "service"
        },
        "case_id": "moscow_mitino_-2_-1_e40dc88c_many_connection_points",
        "selected_as_heat_demand_proxy": true,
        "connection_point_id": "moscow_mitino_-2_-1_e40dc88c_many_connection_points_cp_10"
      },
      "geometry": {
        "type": "Polygon",
        "coordinates": [
          [
            [
              37.3493466,
              55.831426
            ],
            [
              37.3495432,
              55.8313946
            ],
            [
              37.3494587,
              55.8312277
            ],
            [
              37.3492621,
              55.8312591
            ],
            [
              37.3493466,
              55.831426
            ]
          ]
        ]
      }
    },
    {
      "type": "Feature",
      "properties": {
        "id": "moscow_mitino_-2_-1_e40dc88c_many_connection_points_osm_way_90255711_4",
        "object_type": "restriction",
        "restriction_type": "oks",
        "name": "",
        "osm_kind": "building",
        "osm_id": 90255711,
        "osm_type": "way",
        "osm_tags": {
          "building": "yes"
        },
        "case_id": "moscow_mitino_-2_-1_e40dc88c_many_connection_points"
      },
      "geometry": {
        "type": "Polygon",
        "coordinates": [
          [
            [
              37.3450327,
              55.8300793
            ],
            [
              37.3461498,
              55.8302803
            ],
            [
              37.3465952,
              55.8294997
            ],
            [
              37.3454781,
              55.8292986
            ],
            [
              37.3450327,
              55.8300793
            ]
          ]
        ]
      }
    },
    {
      "type": "Feature",
      "properties": {
        "id": "moscow_mitino_-2_-1_e40dc88c_many_connection_points_osm_way_90255715_5",
        "object_type": "restriction",
        "restriction_type": "oks",
        "name": "",
        "osm_kind": "building",
        "osm_id": 90255715,
        "osm_type": "way",
        "osm_tags": {
          "building": "yes"
        },
        "case_id": "moscow_mitino_-2_-1_e40dc88c_many_connection_points"
      },
      "geometry": {
        "type": "Polygon",
        "coordinates": [
          [
            [
              37.3448011,
              55.8308512
            ],
            [
              37.3458874,
              55.83108
            ],
            [
              37.346033,
              55.8308619
            ],
            [
              37.3449467,
              55.8306331
            ],
            [
              37.3448011,
              55.8308512
            ]
          ]
        ]
      }
    },
    {
      "type": "Feature",
      "properties": {
        "id": "moscow_mitino_-2_-1_e40dc88c_many_connection_points_osm_way_94596224_6",
        "object_type": "restriction",
        "restriction_type": "oks",
        "name": "",
        "osm_kind": "building",
        "osm_id": 94596224,
        "osm_type": "way",
        "osm_tags": {
          "building": "garages"
        },
        "case_id": "moscow_mitino_-2_-1_e40dc88c_many_connection_points"
      },
      "geometry": {
        "type": "Polygon",
        "coordinates": [
          [
            [
              37.3469581,
              55.8297151
            ],
            [
              37.3468828,
              55.8298319
            ],
            [
              37.3471394,
              55.8298841
            ],
            [
              37.3472148,
              55.8297673
            ],
            [
              37.3469581,
              55.8297151
            ]
          ]
        ]
      }
    },
    {
      "type": "Feature",
      "properties": {
        "id": "moscow_mitino_-2_-1_e40dc88c_many_connection_points_osm_way_94596239_7",
        "object_type": "restriction",
        "restriction_type": "oks",
        "name": "",
        "osm_kind": "building",
        "osm_id": 94596239,
        "osm_type": "way",
        "osm_tags": {
          "building": "yes"
        },
        "case_id": "moscow_mitino_-2_-1_e40dc88c_many_connection_points",
        "selected_as_heat_demand_proxy": true,
        "connection_point_id": "moscow_mitino_-2_-1_e40dc88c_many_connection_points_cp_12"
      },
      "geometry": {
        "type": "Polygon",
        "coordinates": [
          [
            [
              37.3462335,
              55.8311516
            ],
            [
              37.3463831,
              55.8312213
            ],
            [
              37.3466994,
              55.8310072
            ],
            [
              37.3465498,
              55.8309375
            ],
            [
              37.3462335,
              55.8311516
            ]
          ]
        ]
      }
    },
    {
      "type": "Feature",
      "properties": {
        "id": "moscow_mitino_-2_-1_e40dc88c_many_connection_points_osm_way_94596255_8",
        "object_type": "restriction",
        "restriction_type": "oks",
        "name": "",
        "osm_kind": "building",
        "osm_id": 94596255,
        "osm_type": "way",
        "osm_tags": {
          "building": "garages"
        },
        "case_id": "moscow_mitino_-2_-1_e40dc88c_many_connection_points"
      },
      "geometry": {
        "type": "Polygon",
        "coordinates": [
          [
            [
              37.3474991,
              55.8303877
            ],
            [
              37.3476924,
              55.8304103
            ],
            [
              37.348232,
              55.8295169
            ],
            [
              37.3485336,
              55.8291568
            ],
            [
              37.3484642,
              55.8291324
            ],
            [
              37.3485193,
              55.8290918
            ],
            [
              37.3479904,
              55.8288651
            ],
            [
              37.3479911,
              55.8288647
            ],
            [
              37.3478016,
              55.8287835
            ],
            [
              37.3478553,
              55.8287378
            ],
            [
              37.3477031,
              55.8286814
            ],
            [
              37.3475232,
              55.8288347
            ],
            [
              37.3476754,
              55.828891
            ],
            [
              37.347734,
              55.8288411
            ],
            [
              37.3478214,
              55.8288785
            ],
            [
              37.3477815,
              55.828908
            ],
            [
              37.3478434,
              55.8289345
            ],
            [
              37.3477986,
              55.8289675
            ],
            [
              37.3483609,
              55.8292085
            ],
            [
              37.3480633,
              55.829479
            ],
            [
              37.3474991,
              55.8303877
            ]
          ]
        ]
      }
    },
    {
      "type": "Feature",
      "properties": {
        "id": "moscow_mitino_-2_-1_e40dc88c_many_connection_points_osm_way_94596279_9",
        "object_type": "restriction",
        "restriction_type": "oks",
        "name": "",
        "osm_kind": "building",
        "osm_id": 94596279,
        "osm_type": "way",
        "osm_tags": {
          "building": "garages"
        },
        "case_id": "moscow_mitino_-2_-1_e40dc88c_many_connection_points"
      },
      "geometry": {
        "type": "Polygon",
        "coordinates": [
          [
            [
              37.3471542,
              55.8293831
            ],
            [
              37.3470772,
              55.8294938
            ],
            [
              37.3473315,
              55.8295496
            ],
            [
              37.3474084,
              55.8294388
            ],
            [
              37.3471542,
              55.8293831
            ]
          ]
        ]
      }
    },
    {
      "type": "Feature",
      "properties": {
        "id": "moscow_mitino_-2_-1_e40dc88c_many_connection_points_osm_way_94596300_10",
        "object_type": "restriction",
        "restriction_type": "oks",
        "name": "",
        "osm_kind": "building",
        "osm_id": 94596300,
        "osm_type": "way",
        "osm_tags": {
          "building": "garages"
        },
        "case_id": "moscow_mitino_-2_-1_e40dc88c_many_connection_points",
        "selected_as_heat_demand_proxy": true,
        "connection_point_id": "moscow_mitino_-2_-1_e40dc88c_many_connection_points_cp_1"
      },
      "geometry": {
        "type": "Polygon",
        "coordinates": [
          [
            [
              37.3466253,
              55.830199
            ],
            [
              37.347128,
              55.8302953
            ],
            [
              37.3478804,
              55.8290559
            ],
            [
              37.3477562,
              55.8290322
            ],
            [
              37.3470701,
              55.8301623
            ],
            [
              37.3466916,
              55.8300898
            ],
            [
              37.3466253,
              55.830199
            ]
          ]
        ]
      }
    },
    {
      "type": "Feature",
      "properties": {
        "id": "moscow_mitino_-2_-1_e40dc88c_many_connection_points_osm_way_94596313_11",
        "object_type": "restriction",
        "restriction_type": "oks",
        "name": "",
        "osm_kind": "building",
        "osm_id": 94596313,
        "osm_type": "way",
        "osm_tags": {
          "building": "garages"
        },
        "case_id": "moscow_mitino_-2_-1_e40dc88c_many_connection_points",
        "selected_as_heat_demand_proxy": true,
        "connection_point_id": "moscow_mitino_-2_-1_e40dc88c_many_connection_points_cp_2"
      },
      "geometry": {
        "type": "Polygon",
        "coordinates": [
          [
            [
              37.3471967,
              55.8303256
            ],
            [
              37.3473874,
              55.8303634
            ],
            [
              37.3481413,
              55.8291644
            ],
            [
              37.3479505,
              55.8291266
            ],
            [
              37.3471967,
              55.8303256
            ]
          ]
        ]
      }
    },
    {
      "type": "Feature",
      "properties": {
        "id": "moscow_mitino_-2_-1_e40dc88c_many_connection_points_osm_way_94596359_12",
        "object_type": "restriction",
        "restriction_type": "oks",
        "name": "",
        "osm_kind": "building",
        "osm_id": 94596359,
        "osm_type": "way",
        "osm_tags": {
          "building": "garages"
        },
        "case_id": "moscow_mitino_-2_-1_e40dc88c_many_connection_points"
      },
      "geometry": {
        "type": "Polygon",
        "coordinates": [
          [
            [
              37.3470328,
              55.8295424
            ],
            [
              37.3469633,
              55.8296495
            ],
            [
              37.3472364,
              55.8297054
            ],
            [
              37.3473059,
              55.8295984
            ],
            [
              37.3470328,
              55.8295424
            ]
          ]
        ]
      }
    },
    {
      "type": "Feature",
      "properties": {
        "id": "moscow_mitino_-2_-1_e40dc88c_many_connection_points_osm_way_94596384_13",
        "object_type": "restriction",
        "restriction_type": "oks",
        "name": "",
        "osm_kind": "building",
        "osm_id": 94596384,
        "osm_type": "way",
        "osm_tags": {
          "building": "garages"
        },
        "case_id": "moscow_mitino_-2_-1_e40dc88c_many_connection_points"
      },
      "geometry": {
        "type": "Polygon",
        "coordinates": [
          [
            [
              37.3468139,
              55.8298721
            ],
            [
              37.3467398,
              55.829993
            ],
            [
              37.3470295,
              55.830049
            ],
            [
              37.3471036,
              55.8299281
            ],
            [
              37.3468139,
              55.8298721
            ]
          ]
        ]
      }
    },
    {
      "type": "Feature",
      "properties": {
        "id": "moscow_mitino_-2_-1_e40dc88c_many_connection_points_osm_way_94596400_14",
        "object_type": "restriction",
        "restriction_type": "oks",
        "name": "",
        "osm_kind": "building",
        "osm_id": 94596400,
        "osm_type": "way",
        "osm_tags": {
          "building": "garages"
        },
        "case_id": "moscow_mitino_-2_-1_e40dc88c_many_connection_points"
      },
      "geometry": {
        "type": "Polygon",
        "coordinates": [
          [
            [
              37.3465829,
              55.8302371
            ],
            [
              37.3465031,
              55.8303669
            ],
            [
              37.3470241,
              55.8304679
            ],
            [
              37.3471038,
              55.8303381
            ],
            [
              37.3465829,
              55.8302371
            ]
          ]
        ]
      }
    },
    {
      "type": "Feature",
      "properties": {
        "id": "moscow_mitino_-2_-1_e40dc88c_many_connection_points_osm_way_103539164_15",
        "object_type": "restriction",
        "restriction_type": "road",
        "name": "",
        "osm_kind": "road",
        "osm_id": 103539164,
        "osm_type": "way",
        "osm_tags": {
          "highway": "service"
        },
        "case_id": "moscow_mitino_-2_-1_e40dc88c_many_connection_points"
      },
      "geometry": {
        "type": "LineString",
        "coordinates": [
          [
            37.3476415,
            55.8325316
          ],
          [
            37.3475663,
            55.8324637
          ],
          [
            37.347475,
            55.8323364
          ],
          [
            37.3472348,
            55.8319475
          ],
          [
            37.3456151,
            55.8322224
          ]
        ]
      }
    },
    {
      "type": "Feature",
      "properties": {
        "id": "moscow_mitino_-2_-1_e40dc88c_many_connection_points_osm_way_108888794_16",
        "object_type": "restriction",
        "restriction_type": "road",
        "name": "",
        "osm_kind": "road",
        "osm_id": 108888794,
        "osm_type": "way",
        "osm_tags": {
          "highway": "service"
        },
        "case_id": "moscow_mitino_-2_-1_e40dc88c_many_connection_points"
      },
      "geometry": {
        "type": "LineString",
        "coordinates": [
          [
            37.349124,
            55.8312014
          ],
          [
            37.3492242,
            55.8313795
          ]
        ]
      }
    },
    {
      "type": "Feature",
      "properties": {
        "id": "moscow_mitino_-2_-1_e40dc88c_many_connection_points_osm_way_108888803_17",
        "object_type": "restriction",
        "restriction_type": "road",
        "name": "",
        "osm_kind": "road",
        "osm_id": 108888803,
        "osm_type": "way",
        "osm_tags": {
          "highway": "service"
        },
        "case_id": "moscow_mitino_-2_-1_e40dc88c_many_connection_points"
      },
      "geometry": {
        "type": "LineString",
        "coordinates": [
          [
            37.3501049,
            55.8306803
          ],
          [
            37.3500462,
            55.8306906
          ],
          [
            37.3499254,
            55.8307118
          ],
          [
            37.3499705,
            55.8307944
          ],
          [
            37.3500153,
            55.8308597
          ],
          [
            37.349965,
            55.8309214
          ],
          [
            37.3495048,
            55.8309972
          ]
        ]
      }
    },
    {
      "type": "Feature",
      "properties": {
        "id": "moscow_mitino_-2_-1_e40dc88c_many_connection_points_osm_way_108888805_18",
        "object_type": "restriction",
        "restriction_type": "road",
        "name": "",
        "osm_kind": "road",
        "osm_id": 108888805,
        "osm_type": "way",
        "osm_tags": {
          "highway": "service"
        },
        "case_id": "moscow_mitino_-2_-1_e40dc88c_many_connection_points"
      },
      "geometry": {
        "type": "LineString",
        "coordinates": [
          [
            37.349026,
            55.8317523
          ],
          [
            37.3491902,
            55.831817
          ],
          [
            37.3499503,
            55.8316965
          ],
          [
            37.3497034,
            55.8312452
          ],
          [
            37.3496328,
            55.8311161
          ]
        ]
      }
    },
    {
      "type": "Feature",
      "properties": {
        "id": "moscow_mitino_-2_-1_e40dc88c_many_connection_points_osm_way_108888806_19",
        "object_type": "restriction",
        "restriction_type": "road",
        "name": "",
        "osm_kind": "road",
        "osm_id": 108888806,
        "osm_type": "way",
        "osm_tags": {
          "highway": "service"
        },
        "case_id": "moscow_mitino_-2_-1_e40dc88c_many_connection_points"
      },
      "geometry": {
        "type": "LineString",
        "coordinates": [
          [
            37.3486867,
            55.831812
          ],
          [
            37.349026,
            55.8317523
          ],
          [
            37.3490614,
            55.831532
          ],
          [
            37.3490957,
            55.8314691
          ],
          [
            37.3489616,
            55.8312283
          ],
          [
            37.3488913,
            55.8311104
          ],
          [
            37.3488507,
            55.8310759
          ],
          [
            37.3487953,
            55.8310497
          ],
          [
            37.3487224,
            55.8310432
          ],
          [
            37.3484045,
            55.8310972
          ],
          [
            37.3483798,
            55.8311119
          ],
          [
            37.3483578,
            55.8311251
          ],
          [
            37.3483578,
            55.8311791
          ],
          [
            37.3486867,
            55.831812
          ]
        ]
      }
    },
    {
      "type": "Feature",
      "properties": {
        "id": "moscow_mitino_-2_-1_e40dc88c_many_connection_points_osm_way_108888807_20",
        "object_type": "restriction",
        "restriction_type": "road",
        "name": "",
        "osm_kind": "road",
        "osm_id": 108888807,
        "osm_type": "way",
        "osm_tags": {
          "highway": "service"
        },
        "case_id": "moscow_mitino_-2_-1_e40dc88c_many_connection_points"
      },
      "geometry": {
        "type": "LineString",
        "coordinates": [
          [
            37.350597,
            55.8309558
          ],
          [
            37.3504645,
            55.8309751
          ],
          [
            37.3502778,
            55.8310029
          ],
          [
            37.3502245,
            55.8310108
          ],
          [
            37.3496328,
            55.8311161
          ],
          [
            37.349124,
            55.8312014
          ],
          [
            37.3489616,
            55.8312283
          ]
        ]
      }
    },
    {
      "type": "Feature",
      "properties": {
        "id": "moscow_mitino_-2_-1_e40dc88c_many_connection_points_osm_way_108888809_21",
        "object_type": "restriction",
        "restriction_type": "road",
        "name": "",
        "osm_kind": "road",
        "osm_id": 108888809,
        "osm_type": "way",
        "osm_tags": {
          "highway": "service"
        },
        "case_id": "moscow_mitino_-2_-1_e40dc88c_many_connection_points"
      },
      "geometry": {
        "type": "LineString",
        "coordinates": [
          [
            37.3488895,
            55.8322835
          ],
          [
            37.3488582,
            55.8322203
          ],
          [
            37.3486874,
            55.8318704
          ],
          [
            37.3486867,
            55.831812
          ]
        ]
      }
    },
    {
      "type": "Feature",
      "properties": {
        "id": "moscow_mitino_-2_-1_e40dc88c_many_connection_points_osm_way_173914959_22",
        "object_type": "restriction",
        "restriction_type": "oks",
        "name": "",
        "osm_kind": "building",
        "osm_id": 173914959,
        "osm_type": "way",
        "osm_tags": {
          "building": "yes"
        },
        "case_id": "moscow_mitino_-2_-1_e40dc88c_many_connection_points"
      },
      "geometry": {
        "type": "Polygon",
        "coordinates": [
          [
            [
              37.3495173,
              55.8298099
            ],
            [
              37.3495306,
              55.8299746
            ],
            [
              37.3494716,
              55.8299761
            ],
            [
              37.3494737,
              55.8300017
            ],
            [
              37.3494756,
              55.8300259
            ],
            [
              37.3495346,
              55.8300244
            ],
            [
              37.3495479,
              55.8301893
            ],
            [
              37.3497569,
              55.830184
            ],
            [
              37.3497485,
              55.8300795
            ],
            [
              37.3497995,
              55.8300782
            ],
            [
              37.349793,
              55.8299972
            ],
            [
              37.349786,
              55.8299108
            ],
            [
              37.3497271,
              55.8299123
            ],
            [
              37.3497184,
              55.8298048
            ],
            [
              37.3495173,
              55.8298099
            ]
          ]
        ]
      }
    },
    {
      "type": "Feature",
      "properties": {
        "id": "moscow_mitino_-2_-1_e40dc88c_many_connection_points_osm_way_173914963_23",
        "object_type": "restriction",
        "restriction_type": "oks",
        "name": "",
        "osm_kind": "building",
        "osm_id": 173914963,
        "osm_type": "way",
        "osm_tags": {
          "building": "yes"
        },
        "case_id": "moscow_mitino_-2_-1_e40dc88c_many_connection_points",
        "selected_as_heat_demand_proxy": true,
        "connection_point_id": "moscow_mitino_-2_-1_e40dc88c_many_connection_points_cp_5"
      },
      "geometry": {
        "type": "Polygon",
        "coordinates": [
          [
            [
              37.3489609,
              55.8306309
            ],
            [
              37.3494065,
              55.8305585
            ],
            [
              37.3493732,
              55.8304939
            ],
            [
              37.3495078,
              55.830472
            ],
            [
              37.3496533,
              55.8304483
            ],
            [
              37.3496882,
              55.830516
            ],
            [
              37.3498758,
              55.8304855
            ],
            [
              37.3499613,
              55.8306514
            ],
            [
              37.3497727,
              55.8306821
            ],
            [
              37.3498822,
              55.8308945
            ],
            [
              37.3495829,
              55.8309431
            ],
            [
              37.3494687,
              55.8307215
            ],
            [
              37.3490433,
              55.8307907
            ],
            [
              37.3489609,
              55.8306309
            ]
          ]
        ]
      }
    },
    {
      "type": "Feature",
      "properties": {
        "id": "moscow_mitino_-2_-1_e40dc88c_many_connection_points_osm_way_173915042_24",
        "object_type": "restriction",
        "restriction_type": "oks",
        "name": "",
        "osm_kind": "building",
        "osm_id": 173915042,
        "osm_type": "way",
        "osm_tags": {
          "building": "apartments"
        },
        "case_id": "moscow_mitino_-2_-1_e40dc88c_many_connection_points",
        "selected_as_heat_demand_proxy": true,
        "connection_point_id": "moscow_mitino_-2_-1_e40dc88c_many_connection_points_cp_8"
      },
      "geometry": {
        "type": "Polygon",
        "coordinates": [
          [
            [
              37.3485187,
              55.8311307
            ],
            [
              37.3487341,
              55.8315342
            ],
            [
              37.3489505,
              55.8314977
            ],
            [
              37.3489232,
              55.8314465
            ],
            [
              37.3490008,
              55.8314334
            ],
            [
              37.3489874,
              55.8314083
            ],
            [
              37.3489684,
              55.8313728
            ],
            [
              37.3488908,
              55.8313858
            ],
            [
              37.3488119,
              55.8312381
            ],
            [
              37.3488863,
              55.8312256
            ],
            [
              37.3488721,
              55.8311989
            ],
            [
              37.3488548,
              55.8311665
            ],
            [
              37.3487803,
              55.831179
            ],
            [
              37.3487351,
              55.8310943
            ],
            [
              37.3485187,
              55.8311307
            ]
          ]
        ]
      }
    },
    {
      "type": "Feature",
      "properties": {
        "id": "moscow_mitino_-2_-1_e40dc88c_many_connection_points_osm_way_188591765_25",
        "object_type": "restriction",
        "restriction_type": "road",
        "name": "",
        "osm_kind": "road",
        "osm_id": 188591765,
        "osm_type": "way",
        "osm_tags": {
          "highway": "service"
        },
        "case_id": "moscow_mitino_-2_-1_e40dc88c_many_connection_points"
      },
      "geometry": {
        "type": "LineString",
        "coordinates": [
          [
            37.3463943,
            55.8293555
          ],
          [
            37.3467266,
            55.829421
          ],
          [
            37.3461341,
            55.8304145
          ],
          [
            37.3449808,
            55.8301976
          ],
          [
            37.3449056,
            55.8301012
          ],
          [
            37.3453211,
            55.8293849
          ]
        ]
      }
    },
    {
      "type": "Feature",
      "properties": {
        "id": "moscow_mitino_-2_-1_e40dc88c_many_connection_points_osm_way_218662273_26",
        "object_type": "restriction",
        "restriction_type": "road",
        "name": "",
        "osm_kind": "road",
        "osm_id": 218662273,
        "osm_type": "way",
        "osm_tags": {
          "highway": "service"
        },
        "case_id": "moscow_mitino_-2_-1_e40dc88c_many_connection_points"
      },
      "geometry": {
        "type": "LineString",
        "coordinates": [
          [
            37.3472712,
            55.8297385
          ],
          [
            37.3469796,
            55.8296848
          ]
        ]
      }
    },
    {
      "type": "Feature",
      "properties": {
        "id": "moscow_mitino_-2_-1_e40dc88c_many_connection_points_osm_way_218662275_27",
        "object_type": "restriction",
        "restriction_type": "road",
        "name": "",
        "osm_kind": "road",
        "osm_id": 218662275,
        "osm_type": "way",
        "osm_tags": {
          "highway": "service"
        },
        "case_id": "moscow_mitino_-2_-1_e40dc88c_many_connection_points"
      },
      "geometry": {
        "type": "LineString",
        "coordinates": [
          [
            37.3471606,
            55.8299167
          ],
          [
            37.3468615,
            55.829858
          ]
        ]
      }
    },
    {
      "type": "Feature",
      "properties": {
        "id": "moscow_mitino_-2_-1_e40dc88c_many_connection_points_osm_way_218662277_28",
        "object_type": "restriction",
        "restriction_type": "road",
        "name": "",
        "osm_kind": "road",
        "osm_id": 218662277,
        "osm_type": "way",
        "osm_tags": {
          "highway": "service"
        },
        "case_id": "moscow_mitino_-2_-1_e40dc88c_many_connection_points"
      },
      "geometry": {
        "type": "LineString",
        "coordinates": [
          [
            37.3471554,
            55.8303262
          ],
          [
            37.3466061,
            55.8302206
          ]
        ]
      }
    },
    {
      "type": "Feature",
      "properties": {
        "id": "moscow_mitino_-2_-1_e40dc88c_many_connection_points_osm_way_218662278_29",
        "object_type": "restriction",
        "restriction_type": "road",
        "name": "",
        "osm_kind": "road",
        "osm_id": 218662278,
        "osm_type": "way",
        "osm_tags": {
          "highway": "service"
        },
        "case_id": "moscow_mitino_-2_-1_e40dc88c_many_connection_points"
      },
      "geometry": {
        "type": "LineString",
        "coordinates": [
          [
            37.3455011,
            55.8291856
          ],
          [
            37.3453211,
            55.8293849
          ]
        ]
      }
    },
    {
      "type": "Feature",
      "properties": {
        "id": "moscow_mitino_-2_-1_e40dc88c_many_connection_points_osm_way_218662285_30",
        "object_type": "restriction",
        "restriction_type": "road",
        "name": "",
        "osm_kind": "road",
        "osm_id": 218662285,
        "osm_type": "way",
        "osm_tags": {
          "highway": "service"
        },
        "case_id": "moscow_mitino_-2_-1_e40dc88c_many_connection_points"
      },
      "geometry": {
        "type": "LineString",
        "coordinates": [
          [
            37.3473675,
            55.8295833
          ],
          [
            37.3470591,
            55.8295211
          ]
        ]
      }
    },
    {
      "type": "Feature",
      "properties": {
        "id": "moscow_mitino_-2_-1_e40dc88c_many_connection_points_osm_way_218662291_31",
        "object_type": "restriction",
        "restriction_type": "road",
        "name": "",
        "osm_kind": "road",
        "osm_id": 218662291,
        "osm_type": "way",
        "osm_tags": {
          "highway": "service"
        },
        "case_id": "moscow_mitino_-2_-1_e40dc88c_many_connection_points"
      },
      "geometry": {
        "type": "LineString",
        "coordinates": [
          [
            37.3474723,
            55.8294145
          ],
          [
            37.3471843,
            55.829356
          ]
        ]
      }
    },
    {
      "type": "Feature",
      "properties": {
        "id": "moscow_mitino_-2_-1_e40dc88c_many_connection_points_osm_way_218662293_32",
        "object_type": "restriction",
        "restriction_type": "road",
        "name": "",
        "osm_kind": "road",
        "osm_id": 218662293,
        "osm_type": "way",
        "osm_tags": {
          "highway": "service"
        },
        "case_id": "moscow_mitino_-2_-1_e40dc88c_many_connection_points"
      },
      "geometry": {
        "type": "LineString",
        "coordinates": [
          [
            37.3461412,
            55.8278905
          ],
          [
            37.3457316,
            55.8282302
          ],
          [
            37.3457894,
            55.8282802
          ],
          [
            37.3459659,
            55.8283774
          ],
          [
            37.346069,
            55.8284342
          ],
          [
            37.3462713,
            55.8284656
          ],
          [
            37.3465667,
            55.8285478
          ],
          [
            37.3468863,
            55.8286367
          ],
          [
            37.3472001,
            55.8287239
          ],
          [
            37.3472687,
            55.828743
          ],
          [
            37.3474385,
            55.8288438
          ],
          [
            37.347524,
            55.8288946
          ],
          [
            37.3477168,
            55.8289731
          ],
          [
            37.3476784,
            55.8290678
          ],
          [
            37.3476614,
            55.8291097
          ],
          [
            37.3475811,
            55.8292391
          ],
          [
            37.3474723,
            55.8294145
          ],
          [
            37.3473675,
            55.8295833
          ],
          [
            37.3472712,
            55.8297385
          ],
          [
            37.3471606,
            55.8299167
          ],
          [
            37.3470518,
            55.8300921
          ],
          [
            37.3467459,
            55.8300353
          ]
        ]
      }
    },
    {
      "type": "Feature",
      "properties": {
        "id": "moscow_mitino_-2_-1_e40dc88c_many_connection_points_osm_way_218662299_33",
        "object_type": "restriction",
        "restriction_type": "road",
        "name": "",
        "osm_kind": "road",
        "osm_id": 218662299,
        "osm_type": "way",
        "osm_tags": {
          "highway": "service"
        },
        "case_id": "moscow_mitino_-2_-1_e40dc88c_many_connection_points"
      },
      "geometry": {
        "type": "LineString",
        "coordinates": [
          [
            37.3471362,
            55.8303857
          ],
          [
            37.3471554,
            55.8303262
          ],
          [
            37.3479336,
            55.8290569
          ]
        ]
      }
    },
    {
      "type": "Feature",
      "properties": {
        "id": "moscow_mitino_-2_-1_e40dc88c_many_connection_points_osm_way_218662300_34",
        "object_type": "restriction",
        "restriction_type": "road",
        "name": "",
        "osm_kind": "road",
        "osm_id": 218662300,
        "osm_type": "way",
        "osm_tags": {
          "highway": "service"
        },
        "case_id": "moscow_mitino_-2_-1_e40dc88c_many_connection_points"
      },
      "geometry": {
        "type": "LineString",
        "coordinates": [
          [
            37.3470193,
            55.8305288
          ],
          [
            37.3467798,
            55.8309379
          ],
          [
            37.3465723,
            55.8309078
          ],
          [
            37.3462163,
            55.8311269
          ]
        ]
      }
    },
    {
      "type": "Feature",
      "properties": {
        "id": "moscow_mitino_-2_-1_e40dc88c_many_connection_points_osm_way_218662303_35",
        "object_type": "restriction",
        "restriction_type": "road",
        "name": "",
        "osm_kind": "road",
        "osm_id": 218662303,
        "osm_type": "way",
        "osm_tags": {
          "highway": "service"
        },
        "case_id": "moscow_mitino_-2_-1_e40dc88c_many_connection_points"
      },
      "geometry": {
        "type": "LineString",
        "coordinates": [
          [
            37.3477168,
            55.8289731
          ],
          [
            37.3479336,
            55.8290569
          ],
          [
            37.3482492,
            55.8291909
          ],
          [
            37.3480011,
            55.8294818
          ],
          [
            37.3474397,
            55.830379
          ],
          [
            37.3471362,
            55.8303857
          ],
          [
            37.3470374,
            55.8304886
          ],
          [
            37.3470193,
            55.8305288
          ],
          [
            37.346517,
            55.8304006
          ]
        ]
      }
    },
    {
      "type": "Feature",
      "properties": {
        "id": "moscow_mitino_-2_-1_e40dc88c_many_connection_points_osm_way_218662307_36",
        "object_type": "restriction",
        "restriction_type": "oks",
        "name": "",
        "osm_kind": "building",
        "osm_id": 218662307,
        "osm_type": "way",
        "osm_tags": {
          "building": "yes"
        },
        "case_id": "moscow_mitino_-2_-1_e40dc88c_many_connection_points"
      },
      "geometry": {
        "type": "Polygon",
        "coordinates": [
          [
            [
              37.3463423,
              55.8309097
            ],
            [
              37.346465,
              55.8309422
            ],
            [
              37.346495,
              55.8309065
            ],
            [
              37.3463724,
              55.830874
            ],
            [
              37.3463423,
              55.8309097
            ]
          ]
        ]
      }
    },
    {
      "type": "Feature",
      "properties": {
        "id": "moscow_mitino_-2_-1_e40dc88c_many_connection_points_osm_way_218662310_37",
        "object_type": "restriction",
        "restriction_type": "oks",
        "name": "",
        "osm_kind": "building",
        "osm_id": 218662310,
        "osm_type": "way",
        "osm_tags": {
          "building": "garages"
        },
        "case_id": "moscow_mitino_-2_-1_e40dc88c_many_connection_points"
      },
      "geometry": {
        "type": "Polygon",
        "coordinates": [
          [
            [
              37.346498,
              55.8304292
            ],
            [
              37.3464214,
              55.8305152
            ],
            [
              37.346802,
              55.8306221
            ],
            [
              37.3468786,
              55.8305361
            ],
            [
              37.346498,
              55.8304292
            ]
          ]
        ]
      }
    },
    {
      "type": "Feature",
      "properties": {
        "id": "moscow_mitino_-2_-1_e40dc88c_many_connection_points_osm_way_218662311_38",
        "object_type": "restriction",
        "restriction_type": "oks",
        "name": "",
        "osm_kind": "building",
        "osm_id": 218662311,
        "osm_type": "way",
        "osm_tags": {
          "building": "yes"
        },
        "case_id": "moscow_mitino_-2_-1_e40dc88c_many_connection_points"
      },
      "geometry": {
        "type": "Polygon",
        "coordinates": [
          [
            [
              37.3462776,
              55.8309642
            ],
            [
              37.3463488,
              55.8309834
            ],
            [
              37.346388,
              55.8309375
            ],
            [
              37.3463168,
              55.8309183
            ],
            [
              37.3462776,
              55.8309642
            ]
          ]
        ]
      }
    },
    {
      "type": "Feature",
      "properties": {
        "id": "moscow_mitino_-2_-1_e40dc88c_many_connection_points_osm_way_369912721_39",
        "object_type": "restriction",
        "restriction_type": "road",
        "name": "",
        "osm_kind": "road",
        "osm_id": 369912721,
        "osm_type": "way",
        "osm_tags": {
          "highway": "service"
        },
        "case_id": "moscow_mitino_-2_-1_e40dc88c_many_connection_points"
      },
      "geometry": {
        "type": "LineString",
        "coordinates": [
          [
            37.3499779,
            55.8301067
          ],
          [
            37.3499582,
            55.8301067
          ],
          [
            37.3499008,
            55.8300959
          ],
          [
            37.3498617,
            55.8300671
          ],
          [
            37.3498539,
            55.8300442
          ],
          [
            37.349836,
            55.8298762
          ],
          [
            37.3498302,
            55.8297878
          ],
          [
            37.3498115,
            55.8297622
          ],
          [
            37.3497637,
            55.829738
          ],
          [
            37.3497122,
            55.8297275
          ],
          [
            37.3494708,
            55.8297381
          ],
          [
            37.3493891,
            55.8297515
          ],
          [
            37.3493434,
            55.8297897
          ],
          [
            37.3493356,
            55.8298252
          ],
          [
            37.3494124,
            55.8301759
          ],
          [
            37.3494396,
            55.8302021
          ],
          [
            37.3494736,
            55.8302229
          ],
          [
            37.3495328,
            55.8302392
          ],
          [
            37.3496018,
            55.830249
          ],
          [
            37.3496367,
            55.8302518
          ],
          [
            37.3497242,
            55.8302529
          ],
          [
            37.3497854,
            55.8302469
          ],
          [
            37.3498349,
            55.8302299
          ],
          [
            37.349866,
            55.8302092
          ],
          [
            37.3498932,
            55.8301738
          ],
          [
            37.3499058,
            55.8301361
          ],
          [
            37.3499582,
            55.8301067
          ]
        ]
      }
    },
    {
      "type": "Feature",
      "properties": {
        "id": "moscow_mitino_-2_-1_e40dc88c_many_connection_points_osm_way_373911480_40",
        "object_type": "restriction",
        "restriction_type": "road",
        "name": "",
        "osm_kind": "road",
        "osm_id": 373911480,
        "osm_type": "way",
        "osm_tags": {
          "highway": "footway"
        },
        "case_id": "moscow_mitino_-2_-1_e40dc88c_many_connection_points"
      },
      "geometry": {
        "type": "LineString",
        "coordinates": [
          [
            37.3495022,
            55.8304616
          ],
          [
            37.3495078,
            55.830472
          ]
        ]
      }
    },
    {
      "type": "Feature",
      "properties": {
        "id": "moscow_mitino_-2_-1_e40dc88c_many_connection_points_osm_way_373911481_41",
        "object_type": "restriction",
        "restriction_type": "road",
        "name": "",
        "osm_kind": "road",
        "osm_id": 373911481,
        "osm_type": "way",
        "osm_tags": {
          "highway": "steps"
        },
        "case_id": "moscow_mitino_-2_-1_e40dc88c_many_connection_points"
      },
      "geometry": {
        "type": "LineString",
        "coordinates": [
          [
            37.3494952,
            55.8304455
          ],
          [
            37.3495022,
            55.8304616
          ]
        ]
      }
    },
    {
      "type": "Feature",
      "properties": {
        "id": "moscow_mitino_-2_-1_e40dc88c_many_connection_points_osm_way_373911490_42",
        "object_type": "restriction",
        "restriction_type": "road",
        "name": "",
        "osm_kind": "road",
        "osm_id": 373911490,
        "osm_type": "way",
        "osm_tags": {
          "highway": "footway"
        },
        "case_id": "moscow_mitino_-2_-1_e40dc88c_many_connection_points"
      },
      "geometry": {
        "type": "LineString",
        "coordinates": [
          [
            37.3495022,
            55.8304616
          ],
          [
            37.3494507,
            55.830469
          ]
        ]
      }
    },
    {
      "type": "Feature",
      "properties": {
        "id": "moscow_mitino_-2_-1_e40dc88c_many_connection_points_osm_way_374311853_43",
        "object_type": "restriction",
        "restriction_type": "road",
        "name": "",
        "osm_kind": "road",
        "osm_id": 374311853,
        "osm_type": "way",
        "osm_tags": {
          "highway": "footway"
        },
        "case_id": "moscow_mitino_-2_-1_e40dc88c_many_connection_points"
      },
      "geometry": {
        "type": "LineString",
        "coordinates": [
          [
            37.3493564,
            55.8304391
          ],
          [
            37.3493769,
            55.830481
          ],
          [
            37.3494507,
            55.830469
          ]
        ]
      }
    },
    {
      "type": "Feature",
      "properties": {
        "id": "moscow_mitino_-2_-1_e40dc88c_many_connection_points_osm_way_375152952_44",
        "object_type": "restriction",
        "restriction_type": "park",
        "name": "",
        "osm_kind": "green",
        "osm_id": 375152952,
        "osm_type": "way",
        "osm_tags": {
          "landuse": "grass"
        },
        "case_id": "moscow_mitino_-2_-1_e40dc88c_many_connection_points"
      },
      "geometry": {
        "type": "Polygon",
        "coordinates": [
          [
            [
              37.3496545,
              55.8304354
            ],
            [
              37.3496909,
              55.8305072
            ],
            [
              37.3498795,
              55.8304804
            ],
            [
              37.3500114,
              55.8306518
            ],
            [
              37.3500341,
              55.8306387
            ],
            [
              37.3500415,
              55.8306205
            ],
            [
              37.3500239,
              55.8304488
            ],
            [
              37.3500091,
              55.8304252
            ],
            [
              37.3499841,
              55.8304143
            ],
            [
              37.3499494,
              55.8304102
            ],
            [
              37.3496545,
              55.8304354
            ]
          ]
        ]
      }
    },
    {
      "type": "Feature",
      "properties": {
        "id": "moscow_mitino_-2_-1_e40dc88c_many_connection_points_osm_way_412091461_45",
        "object_type": "restriction",
        "restriction_type": "oks",
        "name": "",
        "osm_kind": "building",
        "osm_id": 412091461,
        "osm_type": "way",
        "osm_tags": {
          "building": "service"
        },
        "case_id": "moscow_mitino_-2_-1_e40dc88c_many_connection_points",
        "selected_as_heat_demand_proxy": true,
        "connection_point_id": "moscow_mitino_-2_-1_e40dc88c_many_connection_points_cp_6"
      },
      "geometry": {
        "type": "Polygon",
        "coordinates": [
          [
            [
              37.3489988,
              55.8310826
            ],
            [
              37.3490896,
              55.8310674
            ],
            [
              37.3490672,
              55.8310254
            ],
            [
              37.3489764,
              55.8310407
            ],
            [
              37.3489988,
              55.8310826
            ]
          ]
        ]
      }
    },
    {
      "type": "Feature",
      "properties": {
        "id": "moscow_mitino_-2_-1_e40dc88c_many_connection_points_osm_way_460557827_46",
        "object_type": "restriction",
        "restriction_type": "road",
        "name": "",
        "osm_kind": "road",
        "osm_id": 460557827,
        "osm_type": "way",
        "osm_tags": {
          "highway": "path"
        },
        "case_id": "moscow_mitino_-2_-1_e40dc88c_many_connection_points"
      },
      "geometry": {
        "type": "LineString",
        "coordinates": [
          [
            37.3475177,
            55.8314832
          ],
          [
            37.3473868,
            55.8315609
          ],
          [
            37.3473492,
            55.8315955
          ],
          [
            37.3473277,
            55.8316332
          ],
          [
            37.3473197,
            55.8316814
          ],
          [
            37.3476764,
            55.8322433
          ],
          [
            37.3477488,
            55.8323148
          ],
          [
            37.3478459,
            55.8323577
          ],
          [
            37.3479877,
            55.8323893
          ]
        ]
      }
    },
    {
      "type": "Feature",
      "properties": {
        "id": "moscow_mitino_-2_-1_e40dc88c_many_connection_points_osm_way_460557828_47",
        "object_type": "restriction",
        "restriction_type": "road",
        "name": "",
        "osm_kind": "road",
        "osm_id": 460557828,
        "osm_type": "way",
        "osm_tags": {
          "highway": "path"
        },
        "case_id": "moscow_mitino_-2_-1_e40dc88c_many_connection_points"
      },
      "geometry": {
        "type": "LineString",
        "coordinates": [
          [
            37.3482477,
            55.8310502
          ],
          [
            37.3483798,
            55.8311119
          ]
        ]
      }
    },
    {
      "type": "Feature",
      "properties": {
        "id": "moscow_mitino_-2_-1_e40dc88c_many_connection_points_osm_way_460704034_48",
        "object_type": "restriction",
        "restriction_type": "road",
        "name": "",
        "osm_kind": "road",
        "osm_id": 460704034,
        "osm_type": "way",
        "osm_tags": {
          "highway": "footway"
        },
        "case_id": "moscow_mitino_-2_-1_e40dc88c_many_connection_points"
      },
      "geometry": {
        "type": "LineString",
        "coordinates": [
          [
            37.3494822,
            55.8304218
          ],
          [
            37.3494952,
            55.8304455
          ]
        ]
      }
    },
    {
      "type": "Feature",
      "properties": {
        "id": "moscow_mitino_-2_-1_e40dc88c_many_connection_points_osm_way_460750082_49",
        "object_type": "restriction",
        "restriction_type": "road",
        "name": "",
        "osm_kind": "road",
        "osm_id": 460750082,
        "osm_type": "way",
        "osm_tags": {
          "highway": "service"
        },
        "case_id": "moscow_mitino_-2_-1_e40dc88c_many_connection_points"
      },
      "geometry": {
        "type": "LineString",
        "coordinates": [
          [
            37.3484898,
            55.8321797
          ],
          [
            37.3480031,
            55.8322654
          ],
          [
            37.3478491,
            55.8321989
          ],
          [
            37.3478181,
            55.8321435
          ],
          [
            37.3484112,
            55.832039
          ]
        ]
      }
    },
    {
      "type": "Feature",
      "properties": {
        "id": "moscow_mitino_-2_-1_e40dc88c_many_connection_points_osm_way_460750083_50",
        "object_type": "restriction",
        "restriction_type": "road",
        "name": "",
        "osm_kind": "road",
        "osm_id": 460750083,
        "osm_type": "way",
        "osm_tags": {
          "highway": "service"
        },
        "case_id": "moscow_mitino_-2_-1_e40dc88c_many_connection_points"
      },
      "geometry": {
        "type": "LineString",
        "coordinates": [
          [
            37.3485766,
            55.8323356
          ],
          [
            37.3485437,
            55.832276
          ],
          [
            37.3485353,
            55.8322628
          ],
          [
            37.3484898,
            55.8321797
          ],
          [
            37.3484112,
            55.832039
          ],
          [
            37.3483214,
            55.8318783
          ],
          [
            37.3481784,
            55.8316224
          ]
        ]
      }
    },
    {
      "type": "Feature",
      "properties": {
        "id": "moscow_mitino_-2_-1_e40dc88c_many_connection_points_osm_way_460750084_51",
        "object_type": "restriction",
        "restriction_type": "oks",
        "name": "Пятёрочка",
        "osm_kind": "building",
        "osm_id": 460750084,
        "osm_type": "way",
        "osm_tags": {
          "building": "retail",
          "name": "Пятёрочка"
        },
        "case_id": "moscow_mitino_-2_-1_e40dc88c_many_connection_points",
        "selected_as_heat_demand_proxy": true,
        "connection_point_id": "moscow_mitino_-2_-1_e40dc88c_many_connection_points_cp_9"
      },
      "geometry": {
        "type": "Polygon",
        "coordinates": [
          [
            [
              37.3482768,
              55.8319876
            ],
            [
              37.3482252,
              55.8318953
            ],
            [
              37.3480648,
              55.8316082
            ],
            [
              37.3475068,
              55.8317066
            ],
            [
              37.3476687,
              55.8319963
            ],
            [
              37.3476397,
              55.8320014
            ],
            [
              37.3476812,
              55.8320755
            ],
            [
              37.3479028,
              55.8320365
            ],
            [
              37.3478905,
              55.8320146
            ],
            [
              37.3481608,
              55.8319669
            ],
            [
              37.3481817,
              55.8320044
            ],
            [
              37.3482268,
              55.8319964
            ],
            [
              37.3482768,
              55.8319876
            ]
          ]
        ]
      }
    },
    {
      "type": "Feature",
      "properties": {
        "id": "moscow_mitino_-2_-1_e40dc88c_many_connection_points_osm_way_481766390_52",
        "object_type": "restriction",
        "restriction_type": "oks",
        "name": "",
        "osm_kind": "building",
        "osm_id": 481766390,
        "osm_type": "way",
        "osm_tags": {
          "building": "service"
        },
        "case_id": "moscow_mitino_-2_-1_e40dc88c_many_connection_points",
        "selected_as_heat_demand_proxy": true,
        "connection_point_id": "moscow_mitino_-2_-1_e40dc88c_many_connection_points_cp_7"
      },
      "geometry": {
        "type": "Polygon",
        "coordinates": [
          [
            [
              37.3486809,
              55.8309863
            ],
            [
              37.3486544,
              55.8309395
            ],
            [
              37.3487399,
              55.8309242
            ],
            [
              37.3487664,
              55.830971
            ],
            [
              37.3486809,
              55.8309863
            ]
          ]
        ]
      }
    },
    {
      "type": "Feature",
      "properties": {
        "id": "moscow_mitino_-2_-1_e40dc88c_many_connection_points_osm_way_846968946_53",
        "object_type": "restriction",
        "restriction_type": "oks",
        "name": "",
        "osm_kind": "building",
        "osm_id": 846968946,
        "osm_type": "way",
        "osm_tags": {
          "building": "yes"
        },
        "case_id": "moscow_mitino_-2_-1_e40dc88c_many_connection_points"
      },
      "geometry": {
        "type": "Polygon",
        "coordinates": [
          [
            [
              37.3471105,
              55.8318848
            ],
            [
              37.3472272,
              55.8318649
            ],
            [
              37.3471977,
              55.8318102
            ],
            [
              37.347081,
              55.8318301
            ],
            [
              37.3471105,
              55.8318848
            ]
          ]
        ]
      }
    },
    {
      "type": "Feature",
      "properties": {
        "id": "moscow_mitino_-2_-1_e40dc88c_many_connection_points_osm_way_968425256_54",
        "object_type": "restriction",
        "restriction_type": "road",
        "name": "",
        "osm_kind": "road",
        "osm_id": 968425256,
        "osm_type": "way",
        "osm_tags": {
          "highway": "service"
        },
        "case_id": "moscow_mitino_-2_-1_e40dc88c_many_connection_points"
      },
      "geometry": {
        "type": "LineString",
        "coordinates": [
          [
            37.3481784,
            55.8316224
          ],
          [
            37.348012,
            55.831518
          ],
          [
            37.3475222,
            55.8316076
          ]
        ]
      }
    },
    {
      "type": "Feature",
      "properties": {
        "id": "moscow_mitino_-2_-1_e40dc88c_many_connection_points_osm_way_1088000557_55",
        "object_type": "restriction",
        "restriction_type": "oks",
        "name": "",
        "osm_kind": "building",
        "osm_id": 1088000557,
        "osm_type": "way",
        "osm_tags": {
          "building": "roof"
        },
        "case_id": "moscow_mitino_-2_-1_e40dc88c_many_connection_points",
        "selected_as_heat_demand_proxy": true,
        "connection_point_id": "moscow_mitino_-2_-1_e40dc88c_many_connection_points_cp_4"
      },
      "geometry": {
        "type": "Polygon",
        "coordinates": [
          [
            [
              37.3490646,
              55.8302076
            ],
            [
              37.349078,
              55.8302656
            ],
            [
              37.3491368,
              55.8302614
            ],
            [
              37.3491234,
              55.8302034
            ],
            [
              37.3490646,
              55.8302076
            ]
          ]
        ]
      }
    },
    {
      "type": "Feature",
      "properties": {
        "id": "moscow_mitino_-2_-1_e40dc88c_many_connection_points_osm_way_1088000558_56",
        "object_type": "restriction",
        "restriction_type": "oks",
        "name": "",
        "osm_kind": "building",
        "osm_id": 1088000558,
        "osm_type": "way",
        "osm_tags": {
          "building": "roof"
        },
        "case_id": "moscow_mitino_-2_-1_e40dc88c_many_connection_points",
        "selected_as_heat_demand_proxy": true,
        "connection_point_id": "moscow_mitino_-2_-1_e40dc88c_many_connection_points_cp_3"
      },
      "geometry": {
        "type": "Polygon",
        "coordinates": [
          [
            [
              37.3491041,
              55.830123
            ],
            [
              37.3491175,
              55.830181
            ],
            [
              37.3491762,
              55.8301767
            ],
            [
              37.3491628,
              55.8301187
            ],
            [
              37.3491041,
              55.830123
            ]
          ]
        ]
      }
    },
    {
      "type": "Feature",
      "properties": {
        "id": "moscow_mitino_-2_-1_e40dc88c_many_connection_points_osm_way_1088000559_57",
        "object_type": "restriction",
        "restriction_type": "oks",
        "name": "",
        "osm_kind": "building",
        "osm_id": 1088000559,
        "osm_type": "way",
        "osm_tags": {
          "building": "roof"
        },
        "case_id": "moscow_mitino_-2_-1_e40dc88c_many_connection_points"
      },
      "geometry": {
        "type": "Polygon",
        "coordinates": [
          [
            [
              37.3494507,
              55.8296767
            ],
            [
              37.3495124,
              55.8296888
            ],
            [
              37.3495446,
              55.8296368
            ],
            [
              37.3494829,
              55.8296248
            ],
            [
              37.3494507,
              55.8296767
            ]
          ]
        ]
      }
    },
    {
      "type": "Feature",
      "properties": {
        "id": "moscow_mitino_-2_-1_e40dc88c_many_connection_points_osm_way_1088000560_58",
        "object_type": "restriction",
        "restriction_type": "oks",
        "name": "",
        "osm_kind": "building",
        "osm_id": 1088000560,
        "osm_type": "way",
        "osm_tags": {
          "building": "roof"
        },
        "case_id": "moscow_mitino_-2_-1_e40dc88c_many_connection_points"
      },
      "geometry": {
        "type": "Polygon",
        "coordinates": [
          [
            [
              37.3495299,
              55.8295453
            ],
            [
              37.3495916,
              55.8295573
            ],
            [
              37.3496237,
              55.8295054
            ],
            [
              37.349562,
              55.8294933
            ],
            [
              37.3495299,
              55.8295453
            ]
          ]
        ]
      }
    },
    {
      "type": "Feature",
      "properties": {
        "id": "moscow_mitino_-2_-1_e40dc88c_many_connection_points_osm_way_1088000561_59",
        "object_type": "restriction",
        "restriction_type": "oks",
        "name": "",
        "osm_kind": "building",
        "osm_id": 1088000561,
        "osm_type": "way",
        "osm_tags": {
          "building": "roof"
        },
        "case_id": "moscow_mitino_-2_-1_e40dc88c_many_connection_points"
      },
      "geometry": {
        "type": "Polygon",
        "coordinates": [
          [
            [
              37.3497646,
              55.829412
            ],
            [
              37.3497812,
              55.8293755
            ],
            [
              37.3496787,
              55.8293607
            ],
            [
              37.3496621,
              55.8293972
            ],
            [
              37.3497646,
              55.829412
            ]
          ]
        ]
      }
    },
    {
      "type": "Feature",
      "properties": {
        "id": "moscow_mitino_-2_-1_e40dc88c_many_connection_points_osm_way_1088000565_60",
        "object_type": "restriction",
        "restriction_type": "road",
        "name": "",
        "osm_kind": "road",
        "osm_id": 1088000565,
        "osm_type": "way",
        "osm_tags": {
          "highway": "footway"
        },
        "case_id": "moscow_mitino_-2_-1_e40dc88c_many_connection_points"
      },
      "geometry": {
        "type": "LineString",
        "coordinates": [
          [
            37.3496269,
            55.8292846
          ],
          [
            37.348685,
            55.8306691
          ],
          [
            37.3486045,
            55.8307715
          ],
          [
            37.3485455,
            55.8308242
          ],
          [
            37.3484596,
            55.8309056
          ],
          [
            37.3482477,
            55.8310502
          ],
          [
            37.3475177,
            55.8314832
          ]
        ]
      }
    },
    {
      "type": "Feature",
      "properties": {
        "id": "moscow_mitino_-2_-1_e40dc88c_many_connection_points_osm_way_1318854920_61",
        "object_type": "restriction",
        "restriction_type": "oks",
        "name": "",
        "osm_kind": "building",
        "osm_id": 1318854920,
        "osm_type": "way",
        "osm_tags": {
          "building": "yes"
        },
        "case_id": "moscow_mitino_-2_-1_e40dc88c_many_connection_points"
      },
      "geometry": {
        "type": "Polygon",
        "coordinates": [
          [
            [
              37.3453338,
              55.8327449
            ],
            [
              37.3451799,
              55.8324595
            ],
            [
              37.3454706,
              55.8324101
            ],
            [
              37.3453587,
              55.8322027
            ],
            [
              37.3460001,
              55.8320935
            ],
            [
              37.3458652,
              55.8318435
            ],
            [
              37.3446364,
              55.8320526
            ],
            [
              37.3450371,
              55.8327954
            ],
            [
              37.3453338,
              55.8327449
            ]
          ]
        ]
      }
    },
    {
      "type": "Feature",
      "properties": {
        "id": "moscow_mitino_-2_-1_e40dc88c_many_connection_points_source",
        "object_type": "source",
        "case_id": "moscow_mitino_-2_-1_e40dc88c_many_connection_points"
      },
      "geometry": {
        "type": "Point",
        "coordinates": [
          37.345320093333335,
          55.83063886666667
        ]
      }
    },
    {
      "type": "Feature",
      "properties": {
        "id": "moscow_mitino_-2_-1_e40dc88c_many_connection_points_existing_network",
        "object_type": "heat_network",
        "diameter": 500,
        "flow_tph": 180.0,
        "upstream_object_id": "moscow_mitino_-2_-1_e40dc88c_many_connection_points_source",
        "case_id": "moscow_mitino_-2_-1_e40dc88c_many_connection_points"
      },
      "geometry": {
        "type": "LineString",
        "coordinates": [
          [
            37.345320093333335,
            55.83063886666667
          ],
          [
            37.34643972,
            55.8307287
          ]
        ]
      }
    },
    {
      "type": "Feature",
      "properties": {
        "id": "moscow_mitino_-2_-1_e40dc88c_many_connection_points_existing_chamber",
        "object_type": "heat_chamber",
        "diameter": 500,
        "upstream_object_id": "moscow_mitino_-2_-1_e40dc88c_many_connection_points_source",
        "case_id": "moscow_mitino_-2_-1_e40dc88c_many_connection_points"
      },
      "geometry": {
        "type": "Point",
        "coordinates": [
          37.34643972,
          55.8307287
        ]
      }
    },
    {
      "type": "Feature",
      "properties": {
        "id": "moscow_mitino_-2_-1_e40dc88c_many_connection_points_cp_1",
        "object_type": "oks_connection_point",
        "flow_tph": 16.854,
        "case_id": "moscow_mitino_-2_-1_e40dc88c_many_connection_points",
        "consumer_role": "osm_building_heat_demand_proxy",
        "source_building_osm_id": 94596300,
        "source_building_osm_type": "way",
        "source_building_name": "",
        "source_building_tags": {
          "building": "garages"
        },
        "footprint_area_m2": 1516.82,
        "flow_basis": "synthetic_proxy_from_osm_footprint_area",
        "stress_bucket": "many_connection_points"
      },
      "geometry": {
        "type": "Point",
        "coordinates": [
          37.34732133847055,
          55.82978082888722
        ]
      }
    },
    {
      "type": "Feature",
      "properties": {
        "id": "moscow_mitino_-2_-1_e40dc88c_many_connection_points_cp_2",
        "object_type": "oks_connection_point",
        "flow_tph": 19.89,
        "case_id": "moscow_mitino_-2_-1_e40dc88c_many_connection_points",
        "consumer_role": "osm_building_heat_demand_proxy",
        "source_building_osm_id": 94596313,
        "source_building_osm_type": "way",
        "source_building_name": "",
        "source_building_tags": {
          "building": "garages"
        },
        "footprint_area_m2": 1790.12,
        "flow_basis": "synthetic_proxy_from_osm_footprint_area",
        "stress_bucket": "many_connection_points"
      },
      "geometry": {
        "type": "Point",
        "coordinates": [
          37.34766576333815,
          55.829740107033246
        ]
      }
    },
    {
      "type": "Feature",
      "properties": {
        "id": "moscow_mitino_-2_-1_e40dc88c_many_connection_points_cp_3",
        "object_type": "oks_connection_point",
        "flow_tph": 5.0,
        "case_id": "moscow_mitino_-2_-1_e40dc88c_many_connection_points",
        "consumer_role": "osm_building_heat_demand_proxy",
        "source_building_osm_id": 1088000558,
        "source_building_osm_type": "way",
        "source_building_name": "",
        "source_building_tags": {
          "building": "roof"
        },
        "footprint_area_m2": 24.1,
        "flow_basis": "synthetic_proxy_from_osm_footprint_area",
        "stress_bucket": "many_connection_points"
      },
      "geometry": {
        "type": "Point",
        "coordinates": [
          37.34914015,
          55.83014985
        ]
      }
    },
    {
      "type": "Feature",
      "properties": {
        "id": "moscow_mitino_-2_-1_e40dc88c_many_connection_points_cp_4",
        "object_type": "oks_connection_point",
        "flow_tph": 5.0,
        "case_id": "moscow_mitino_-2_-1_e40dc88c_many_connection_points",
        "consumer_role": "osm_building_heat_demand_proxy",
        "source_building_osm_id": 1088000557,
        "source_building_osm_type": "way",
        "source_building_name": "",
        "source_building_tags": {
          "building": "roof"
        },
        "footprint_area_m2": 24.13,
        "flow_basis": "synthetic_proxy_from_osm_footprint_area",
        "stress_bucket": "many_connection_points"
      },
      "geometry": {
        "type": "Point",
        "coordinates": [
          37.349100699999994,
          55.8302345
        ]
      }
    },
    {
      "type": "Feature",
      "properties": {
        "id": "moscow_mitino_-2_-1_e40dc88c_many_connection_points_cp_5",
        "object_type": "oks_connection_point",
        "flow_tph": 19.402,
        "case_id": "moscow_mitino_-2_-1_e40dc88c_many_connection_points",
        "consumer_role": "osm_building_heat_demand_proxy",
        "source_building_osm_id": 173914963,
        "source_building_osm_type": "way",
        "source_building_name": "",
        "source_building_tags": {
          "building": "yes"
        },
        "footprint_area_m2": 1746.16,
        "flow_basis": "synthetic_proxy_from_osm_footprint_area",
        "stress_bucket": "many_connection_points"
      },
      "geometry": {
        "type": "Point",
        "coordinates": [
          37.34951619462972,
          55.83065720861416
        ]
      }
    },
    {
      "type": "Feature",
      "properties": {
        "id": "moscow_mitino_-2_-1_e40dc88c_many_connection_points_cp_6",
        "object_type": "oks_connection_point",
        "flow_tph": 5.0,
        "case_id": "moscow_mitino_-2_-1_e40dc88c_many_connection_points",
        "consumer_role": "osm_building_heat_demand_proxy",
        "source_building_osm_id": 412091461,
        "source_building_osm_type": "way",
        "source_building_name": "",
        "source_building_tags": {
          "building": "service"
        },
        "footprint_area_m2": 28.89,
        "flow_basis": "synthetic_proxy_from_osm_footprint_area",
        "stress_bucket": "many_connection_points"
      },
      "geometry": {
        "type": "Point",
        "coordinates": [
          37.349033,
          55.831054
        ]
      }
    },
    {
      "type": "Feature",
      "properties": {
        "id": "moscow_mitino_-2_-1_e40dc88c_many_connection_points_cp_7",
        "object_type": "oks_connection_point",
        "flow_tph": 5.0,
        "case_id": "moscow_mitino_-2_-1_e40dc88c_many_connection_points",
        "consumer_role": "osm_building_heat_demand_proxy",
        "source_building_osm_id": 481766390,
        "source_building_osm_type": "way",
        "source_building_name": "",
        "source_building_tags": {
          "building": "service"
        },
        "footprint_area_m2": 30.67,
        "flow_basis": "synthetic_proxy_from_osm_footprint_area",
        "stress_bucket": "many_connection_points"
      },
      "geometry": {
        "type": "Point",
        "coordinates": [
          37.3487104,
          55.83095525
        ]
      }
    },
    {
      "type": "Feature",
      "properties": {
        "id": "moscow_mitino_-2_-1_e40dc88c_many_connection_points_cp_8",
        "object_type": "oks_connection_point",
        "flow_tph": 8.127,
        "case_id": "moscow_mitino_-2_-1_e40dc88c_many_connection_points",
        "consumer_role": "osm_building_heat_demand_proxy",
        "source_building_osm_id": 173915042,
        "source_building_osm_type": "way",
        "source_building_name": "",
        "source_building_tags": {
          "building": "apartments"
        },
        "footprint_area_m2": 731.42,
        "flow_basis": "synthetic_proxy_from_osm_footprint_area",
        "stress_bucket": "many_connection_points"
      },
      "geometry": {
        "type": "Point",
        "coordinates": [
          37.34879497154169,
          55.83138187306563
        ]
      }
    },
    {
      "type": "Feature",
      "properties": {
        "id": "moscow_mitino_-2_-1_e40dc88c_many_connection_points_cp_9",
        "object_type": "oks_connection_point",
        "flow_tph": 17.052,
        "case_id": "moscow_mitino_-2_-1_e40dc88c_many_connection_points",
        "consumer_role": "osm_building_heat_demand_proxy",
        "source_building_osm_id": 460750084,
        "source_building_osm_type": "way",
        "source_building_name": "Пятёрочка",
        "source_building_tags": {
          "building": "retail",
          "name": "Пятёрочка"
        },
        "footprint_area_m2": 1534.68,
        "flow_basis": "synthetic_proxy_from_osm_footprint_area",
        "stress_bucket": "many_connection_points"
      },
      "geometry": {
        "type": "Point",
        "coordinates": [
          37.34788535072586,
          55.83184062667989
        ]
      }
    },
    {
      "type": "Feature",
      "properties": {
        "id": "moscow_mitino_-2_-1_e40dc88c_many_connection_points_cp_10",
        "object_type": "oks_connection_point",
        "flow_tph": 5.0,
        "case_id": "moscow_mitino_-2_-1_e40dc88c_many_connection_points",
        "consumer_role": "osm_building_heat_demand_proxy",
        "source_building_osm_id": 80203377,
        "source_building_osm_type": "way",
        "source_building_name": "",
        "source_building_tags": {
          "building": "service"
        },
        "footprint_area_m2": 246.84,
        "flow_basis": "synthetic_proxy_from_osm_footprint_area",
        "stress_bucket": "many_connection_points"
      },
      "geometry": {
        "type": "Point",
        "coordinates": [
          37.34937962678775,
          55.831292436665244
        ]
      }
    },
    {
      "type": "Feature",
      "properties": {
        "id": "moscow_mitino_-2_-1_e40dc88c_many_connection_points_cp_11",
        "object_type": "oks_connection_point",
        "flow_tph": 25.881,
        "case_id": "moscow_mitino_-2_-1_e40dc88c_many_connection_points",
        "consumer_role": "osm_building_heat_demand_proxy",
        "source_building_osm_id": 26999974,
        "source_building_osm_type": "way",
        "source_building_name": "",
        "source_building_tags": {
          "building": "apartments"
        },
        "footprint_area_m2": 2329.31,
        "flow_basis": "synthetic_proxy_from_osm_footprint_area",
        "stress_bucket": "many_connection_points"
      },
      "geometry": {
        "type": "Point",
        "coordinates": [
          37.349986224999995,
          55.831825349999995
        ]
      }
    },
    {
      "type": "Feature",
      "properties": {
        "id": "moscow_mitino_-2_-1_e40dc88c_many_connection_points_cp_12",
        "object_type": "oks_connection_point",
        "flow_tph": 5.0,
        "case_id": "moscow_mitino_-2_-1_e40dc88c_many_connection_points",
        "consumer_role": "osm_building_heat_demand_proxy",
        "source_building_osm_id": 94596239,
        "source_building_osm_type": "way",
        "source_building_name": "",
        "source_building_tags": {
          "building": "yes"
        },
        "footprint_area_m2": 376.36,
        "flow_basis": "synthetic_proxy_from_osm_footprint_area",
        "stress_bucket": "many_connection_points"
      },
      "geometry": {
        "type": "Point",
        "coordinates": [
          37.346466449999994,
          55.8310794
        ]
      }
    }
  ]
}