{
  "type": "FeatureCollection",
  "name": "spb_parnas_+1_-1_64f55c0b_many_connection_points",
  "crs": {
    "type": "name",
    "properties": {
      "name": "EPSG:4326"
    }
  },
  "metadata": {
    "dataset_version": "osm_building_anchored_routing_scenes_v3",
    "parent_scene_id": "spb_parnas_+1_-1_64f55c0b",
    "split": "test",
    "city": "Санкт-Петербург Парнас",
    "seed": "spb_parnas",
    "research_bucket": "many_connection_points",
    "source_research_bucket": "fifty_fifty",
    "research_bucket_is_ground_truth": false,
    "bbox_south_west_north_east": [
      60.0752882,
      30.3269956,
      60.0779831,
      30.332398
    ],
    "real_data_source": "OpenStreetMap via Overpass API",
    "source_file": "data/real_geojson_places/fifty_fifty/060_spb_parnas_+1_-1_64f55c0b.geojson",
    "real_layers": [
      "restrictions",
      "consumer_building_footprints"
    ],
    "synthetic_layers": [
      "source",
      "heat_network",
      "heat_chamber",
      "heat_demand"
    ],
    "consumer_selection": "deterministic points inside real OSM building footprints",
    "flow_model": "synthetic proxy derived from building footprint area; not metered demand",
    "note": "OSM buildings anchor consumers; heat demand and seed network are synthetic proxies."
  },
  "features": [
    {
      "type": "Feature",
      "properties": {
        "id": "spb_parnas_+1_-1_64f55c0b_many_connection_points_osm_way_31389296_1",
        "object_type": "restriction",
        "restriction_type": "road",
        "name": "улица Вологдина",
        "osm_kind": "road",
        "osm_id": 31389296,
        "osm_type": "way",
        "osm_tags": {
          "highway": "residential",
          "name": "улица Вологдина"
        },
        "case_id": "spb_parnas_+1_-1_64f55c0b_many_connection_points"
      },
      "geometry": {
        "type": "LineString",
        "coordinates": [
          [
            30.3204806,
            60.078489
          ],
          [
            30.3206259,
            60.0784755
          ],
          [
            30.3207252,
            60.0784674
          ],
          [
            30.3222818,
            60.0782807
          ],
          [
            30.3231129,
            60.0781662
          ],
          [
            30.3239171,
            60.0780543
          ],
          [
            30.3240972,
            60.078031
          ],
          [
            30.3250651,
            60.0778971
          ],
          [
            30.3264211,
            60.0777199
          ],
          [
            30.3270274,
            60.0776359
          ],
          [
            30.3274877,
            60.0775748
          ],
          [
            30.3281661,
            60.0774891
          ],
          [
            30.3282302,
            60.0774675
          ]
        ]
      }
    },
    {
      "type": "Feature",
      "properties": {
        "id": "spb_parnas_+1_-1_64f55c0b_many_connection_points_osm_way_110087014_2",
        "object_type": "restriction",
        "restriction_type": "oks",
        "name": "",
        "osm_kind": "building",
        "osm_id": 110087014,
        "osm_type": "way",
        "osm_tags": {
          "building": "detached"
        },
        "case_id": "spb_parnas_+1_-1_64f55c0b_many_connection_points",
        "selected_as_heat_demand_proxy": true,
        "connection_point_id": "spb_parnas_+1_-1_64f55c0b_many_connection_points_cp_9"
      },
      "geometry": {
        "type": "Polygon",
        "coordinates": [
          [
            [
              30.3278674,
              60.0777351
            ],
            [
              30.3278731,
              60.0777068
            ],
            [
              30.3277298,
              60.0776997
            ],
            [
              30.3277241,
              60.077728
            ],
            [
              30.3276003,
              60.0777218
            ],
            [
              30.3275845,
              60.0778009
            ],
            [
              30.3277083,
              60.0778071
            ],
            [
              30.3276884,
              60.0779065
            ],
            [
              30.3278316,
              60.0779136
            ],
            [
              30.3278515,
              60.0778142
            ],
            [
              30.3279765,
              60.0778204
            ],
            [
              30.3279924,
              60.0777414
            ],
            [
              30.3278674,
              60.0777351
            ]
          ]
        ]
      }
    },
    {
      "type": "Feature",
      "properties": {
        "id": "spb_parnas_+1_-1_64f55c0b_many_connection_points_osm_way_110087163_3",
        "object_type": "restriction",
        "restriction_type": "oks",
        "name": "",
        "osm_kind": "building",
        "osm_id": 110087163,
        "osm_type": "way",
        "osm_tags": {
          "building": "apartments"
        },
        "case_id": "spb_parnas_+1_-1_64f55c0b_many_connection_points",
        "selected_as_heat_demand_proxy": true,
        "connection_point_id": "spb_parnas_+1_-1_64f55c0b_many_connection_points_cp_4"
      },
      "geometry": {
        "type": "Polygon",
        "coordinates": [
          [
            [
              30.328667,
              60.077008
            ],
            [
              30.3288036,
              60.077
            ],
            [
              30.3289403,
              60.0769919
            ],
            [
              30.3290584,
              60.0774896
            ],
            [
              30.3287851,
              60.0775057
            ],
            [
              30.3287506,
              60.0773605
            ],
            [
              30.3288918,
              60.0773522
            ],
            [
              30.3289107,
              60.0773511
            ],
            [
              30.3288943,
              60.0772818
            ],
            [
              30.3288726,
              60.0772831
            ],
            [
              30.3287342,
              60.0772913
            ],
            [
              30.3287138,
              60.0772051
            ],
            [
              30.3286961,
              60.0772062
            ],
            [
              30.3286691,
              60.0770925
            ],
            [
              30.3286868,
              60.0770914
            ],
            [
              30.328667,
              60.077008
            ]
          ]
        ]
      }
    },
    {
      "type": "Feature",
      "properties": {
        "id": "spb_parnas_+1_-1_64f55c0b_many_connection_points_osm_way_110087257_4",
        "object_type": "restriction",
        "restriction_type": "oks",
        "name": "",
        "osm_kind": "building",
        "osm_id": 110087257,
        "osm_type": "way",
        "osm_tags": {
          "building": "apartments"
        },
        "case_id": "spb_parnas_+1_-1_64f55c0b_many_connection_points",
        "selected_as_heat_demand_proxy": true,
        "connection_point_id": "spb_parnas_+1_-1_64f55c0b_many_connection_points_cp_10"
      },
      "geometry": {
        "type": "Polygon",
        "coordinates": [
          [
            [
              30.3272113,
              60.0768733
            ],
            [
              30.3276587,
              60.0768387
            ],
            [
              30.3276832,
              60.0769176
            ],
            [
              30.3275979,
              60.0769242
            ],
            [
              30.3276082,
              60.0769573
            ],
            [
              30.3275269,
              60.0769636
            ],
            [
              30.3275217,
              60.0769471
            ],
            [
              30.3275166,
              60.0769305
            ],
            [
              30.3273982,
              60.0769397
            ],
            [
              30.3274033,
              60.0769562
            ],
            [
              30.3274085,
              60.0769728
            ],
            [
              30.3273267,
              60.0769791
            ],
            [
              30.3273165,
              60.076946
            ],
            [
              30.3272359,
              60.0769522
            ],
            [
              30.3272113,
              60.0768733
            ]
          ]
        ]
      }
    },
    {
      "type": "Feature",
      "properties": {
        "id": "spb_parnas_+1_-1_64f55c0b_many_connection_points_osm_way_110087294_5",
        "object_type": "restriction",
        "restriction_type": "road",
        "name": "",
        "osm_kind": "road",
        "osm_id": 110087294,
        "osm_type": "way",
        "osm_tags": {
          "highway": "service"
        },
        "case_id": "spb_parnas_+1_-1_64f55c0b_many_connection_points"
      },
      "geometry": {
        "type": "LineString",
        "coordinates": [
          [
            30.3282125,
            60.0780871
          ],
          [
            30.3282337,
            60.0779205
          ]
        ]
      }
    },
    {
      "type": "Feature",
      "properties": {
        "id": "spb_parnas_+1_-1_64f55c0b_many_connection_points_osm_way_144330178_6",
        "object_type": "restriction",
        "restriction_type": "road",
        "name": "Заречная улица",
        "osm_kind": "road",
        "osm_id": 144330178,
        "osm_type": "way",
        "osm_tags": {
          "highway": "proposed",
          "name": "Заречная улица"
        },
        "case_id": "spb_parnas_+1_-1_64f55c0b_many_connection_points"
      },
      "geometry": {
        "type": "LineString",
        "coordinates": [
          [
            30.3292284,
            60.0749335
          ],
          [
            30.3293313,
            60.0750617
          ],
          [
            30.3295417,
            60.0753415
          ],
          [
            30.3297001,
            60.0756972
          ]
        ]
      }
    },
    {
      "type": "Feature",
      "properties": {
        "id": "spb_parnas_+1_-1_64f55c0b_many_connection_points_osm_way_164024089_7",
        "object_type": "restriction",
        "restriction_type": "road",
        "name": "",
        "osm_kind": "road",
        "osm_id": 164024089,
        "osm_type": "way",
        "osm_tags": {
          "highway": "service"
        },
        "case_id": "spb_parnas_+1_-1_64f55c0b_many_connection_points"
      },
      "geometry": {
        "type": "LineString",
        "coordinates": [
          [
            30.3288276,
            60.0773127
          ],
          [
            30.3287056,
            60.0773187
          ],
          [
            30.3286412,
            60.0773314
          ],
          [
            30.3284635,
            60.0774128
          ],
          [
            30.3282302,
            60.0774675
          ]
        ]
      }
    },
    {
      "type": "Feature",
      "properties": {
        "id": "spb_parnas_+1_-1_64f55c0b_many_connection_points_osm_way_164024127_8",
        "object_type": "restriction",
        "restriction_type": "road",
        "name": "",
        "osm_kind": "road",
        "osm_id": 164024127,
        "osm_type": "way",
        "osm_tags": {
          "highway": "service"
        },
        "case_id": "spb_parnas_+1_-1_64f55c0b_many_connection_points"
      },
      "geometry": {
        "type": "LineString",
        "coordinates": [
          [
            30.3280492,
            60.0768412
          ],
          [
            30.3282119,
            60.0768298
          ],
          [
            30.3283779,
            60.0768158
          ],
          [
            30.3287589,
            60.0768429
          ],
          [
            30.3287942,
            60.0769867
          ]
        ]
      }
    },
    {
      "type": "Feature",
      "properties": {
        "id": "spb_parnas_+1_-1_64f55c0b_many_connection_points_osm_way_164024137_9",
        "object_type": "restriction",
        "restriction_type": "oks",
        "name": "Церковь Мучеников младенцев Вифлеемских",
        "osm_kind": "building",
        "osm_id": 164024137,
        "osm_type": "way",
        "osm_tags": {
          "building": "church",
          "name": "Церковь Мучеников младенцев Вифлеемских"
        },
        "case_id": "spb_parnas_+1_-1_64f55c0b_many_connection_points",
        "selected_as_heat_demand_proxy": true,
        "connection_point_id": "spb_parnas_+1_-1_64f55c0b_many_connection_points_cp_2"
      },
      "geometry": {
        "type": "Polygon",
        "coordinates": [
          [
            [
              30.327788,
              60.0757484
            ],
            [
              30.327791,
              60.0757766
            ],
            [
              30.3277955,
              60.0758095
            ],
            [
              30.3279612,
              60.0758045
            ],
            [
              30.3279632,
              60.0758208
            ],
            [
              30.3282343,
              60.0758125
            ],
            [
              30.3282222,
              60.0757136
            ],
            [
              30.3279582,
              60.0757217
            ],
            [
              30.3279495,
              60.0757435
            ],
            [
              30.327788,
              60.0757484
            ]
          ]
        ]
      }
    },
    {
      "type": "Feature",
      "properties": {
        "id": "spb_parnas_+1_-1_64f55c0b_many_connection_points_osm_way_171170240_10",
        "object_type": "restriction",
        "restriction_type": "road",
        "name": "",
        "osm_kind": "road",
        "osm_id": 171170240,
        "osm_type": "way",
        "osm_tags": {
          "highway": "footway"
        },
        "case_id": "spb_parnas_+1_-1_64f55c0b_many_connection_points"
      },
      "geometry": {
        "type": "LineString",
        "coordinates": [
          [
            30.3274057,
            60.0753763
          ],
          [
            30.3278826,
            60.0753273
          ],
          [
            30.3279826,
            60.0752787
          ],
          [
            30.3281145,
            60.0752183
          ],
          [
            30.328314,
            60.0751291
          ],
          [
            30.3285487,
            60.0750286
          ],
          [
            30.3286233,
            60.0749948
          ],
          [
            30.3286775,
            60.0749503
          ],
          [
            30.3287123,
            60.0749072
          ],
          [
            30.3287698,
            60.0748754
          ],
          [
            30.3289876,
            60.0748207
          ]
        ]
      }
    },
    {
      "type": "Feature",
      "properties": {
        "id": "spb_parnas_+1_-1_64f55c0b_many_connection_points_osm_way_186920189_11",
        "object_type": "restriction",
        "restriction_type": "road",
        "name": "",
        "osm_kind": "road",
        "osm_id": 186920189,
        "osm_type": "way",
        "osm_tags": {
          "highway": "footway"
        },
        "case_id": "spb_parnas_+1_-1_64f55c0b_many_connection_points"
      },
      "geometry": {
        "type": "LineString",
        "coordinates": [
          [
            30.3206466,
            60.0784216
          ],
          [
            30.3207265,
            60.0784273
          ],
          [
            30.3222572,
            60.0782377
          ],
          [
            30.3240729,
            60.0779812
          ],
          [
            30.3242292,
            60.07796
          ],
          [
            30.3250485,
            60.0778521
          ],
          [
            30.3252,
            60.0778378
          ],
          [
            30.3270239,
            60.077595
          ],
          [
            30.3271821,
            60.077587
          ],
          [
            30.3281127,
            60.0774635
          ],
          [
            30.3282321,
            60.0774456
          ]
        ]
      }
    },
    {
      "type": "Feature",
      "properties": {
        "id": "spb_parnas_+1_-1_64f55c0b_many_connection_points_osm_way_201079603_12",
        "object_type": "restriction",
        "restriction_type": "road",
        "name": "",
        "osm_kind": "road",
        "osm_id": 201079603,
        "osm_type": "way",
        "osm_tags": {
          "highway": "service"
        },
        "case_id": "spb_parnas_+1_-1_64f55c0b_many_connection_points"
      },
      "geometry": {
        "type": "LineString",
        "coordinates": [
          [
            30.3274245,
            60.0795372
          ],
          [
            30.3274816,
            60.079171
          ],
          [
            30.3275123,
            60.0789985
          ],
          [
            30.3275959,
            60.078528
          ],
          [
            30.3276657,
            60.0781278
          ],
          [
            30.3276282,
            60.0780749
          ],
          [
            30.3271189,
            60.0777265
          ],
          [
            30.3270274,
            60.0776359
          ]
        ]
      }
    },
    {
      "type": "Feature",
      "properties": {
        "id": "spb_parnas_+1_-1_64f55c0b_many_connection_points_osm_way_205782544_13",
        "object_type": "restriction",
        "restriction_type": "oks",
        "name": "",
        "osm_kind": "building",
        "osm_id": 205782544,
        "osm_type": "way",
        "osm_tags": {
          "building": "service"
        },
        "case_id": "spb_parnas_+1_-1_64f55c0b_many_connection_points",
        "selected_as_heat_demand_proxy": true,
        "connection_point_id": "spb_parnas_+1_-1_64f55c0b_many_connection_points_cp_5"
      },
      "geometry": {
        "type": "Polygon",
        "coordinates": [
          [
            [
              30.3276578,
              60.0767462
            ],
            [
              30.3277514,
              60.0767338
            ],
            [
              30.3277432,
              60.0767185
            ],
            [
              30.3277267,
              60.0766877
            ],
            [
              30.3276331,
              60.0767002
            ],
            [
              30.3276578,
              60.0767462
            ]
          ]
        ]
      }
    },
    {
      "type": "Feature",
      "properties": {
        "id": "spb_parnas_+1_-1_64f55c0b_many_connection_points_osm_way_205782552_14",
        "object_type": "restriction",
        "restriction_type": "road",
        "name": "",
        "osm_kind": "road",
        "osm_id": 205782552,
        "osm_type": "way",
        "osm_tags": {
          "highway": "footway"
        },
        "case_id": "spb_parnas_+1_-1_64f55c0b_many_connection_points"
      },
      "geometry": {
        "type": "LineString",
        "coordinates": [
          [
            30.3282337,
            60.0779205
          ],
          [
            30.3282,
            60.0776967
          ],
          [
            30.3282119,
            60.0776171
          ],
          [
            30.3281661,
            60.0774891
          ]
        ]
      }
    },
    {
      "type": "Feature",
      "properties": {
        "id": "spb_parnas_+1_-1_64f55c0b_many_connection_points_osm_way_205887274_15",
        "object_type": "restriction",
        "restriction_type": "oks",
        "name": "",
        "osm_kind": "building",
        "osm_id": 205887274,
        "osm_type": "way",
        "osm_tags": {
          "building": "garage"
        },
        "case_id": "spb_parnas_+1_-1_64f55c0b_many_connection_points"
      },
      "geometry": {
        "type": "Polygon",
        "coordinates": [
          [
            [
              30.3282844,
              60.0778741
            ],
            [
              30.3283809,
              60.0778537
            ],
            [
              30.3284047,
              60.0778816
            ],
            [
              30.3283081,
              60.0779021
            ],
            [
              30.3282844,
              60.0778741
            ]
          ]
        ]
      }
    },
    {
      "type": "Feature",
      "properties": {
        "id": "spb_parnas_+1_-1_64f55c0b_many_connection_points_osm_way_205887298_16",
        "object_type": "restriction",
        "restriction_type": "oks",
        "name": "",
        "osm_kind": "building",
        "osm_id": 205887298,
        "osm_type": "way",
        "osm_tags": {
          "building": "garage"
        },
        "case_id": "spb_parnas_+1_-1_64f55c0b_many_connection_points",
        "selected_as_heat_demand_proxy": true,
        "connection_point_id": "spb_parnas_+1_-1_64f55c0b_many_connection_points_cp_8"
      },
      "geometry": {
        "type": "Polygon",
        "coordinates": [
          [
            [
              30.3282995,
              60.0779127
            ],
            [
              30.3283894,
              60.0778876
            ],
            [
              30.3284221,
              60.0779166
            ],
            [
              30.3283322,
              60.0779418
            ],
            [
              30.3282995,
              60.0779127
            ]
          ]
        ]
      }
    },
    {
      "type": "Feature",
      "properties": {
        "id": "spb_parnas_+1_-1_64f55c0b_many_connection_points_osm_way_348102875_17",
        "object_type": "restriction",
        "restriction_type": "road",
        "name": "",
        "osm_kind": "road",
        "osm_id": 348102875,
        "osm_type": "way",
        "osm_tags": {
          "highway": "residential"
        },
        "case_id": "spb_parnas_+1_-1_64f55c0b_many_connection_points"
      },
      "geometry": {
        "type": "LineString",
        "coordinates": [
          [
            30.3282302,
            60.0774675
          ],
          [
            30.3282321,
            60.0774456
          ],
          [
            30.3282329,
            60.0774074
          ],
          [
            30.3281826,
            60.0771414
          ],
          [
            30.3281375,
            60.0770352
          ],
          [
            30.3281236,
            60.0770023
          ],
          [
            30.3281082,
            60.076969
          ],
          [
            30.3280878,
            60.0769248
          ],
          [
            30.3280492,
            60.0768412
          ],
          [
            30.3278816,
            60.0765503
          ],
          [
            30.3277948,
            60.0763359
          ],
          [
            30.3277823,
            60.076305
          ],
          [
            30.3276113,
            60.0758833
          ],
          [
            30.3275731,
            60.0757864
          ],
          [
            30.3275553,
            60.0757451
          ],
          [
            30.3275285,
            60.0756792
          ],
          [
            30.3274978,
            60.0756035
          ],
          [
            30.3274057,
            60.0753763
          ],
          [
            30.3273095,
            60.0752191
          ],
          [
            30.3272863,
            60.075186
          ],
          [
            30.3272281,
            60.0750976
          ],
          [
            30.3267285,
            60.0747077
          ]
        ]
      }
    },
    {
      "type": "Feature",
      "properties": {
        "id": "spb_parnas_+1_-1_64f55c0b_many_connection_points_osm_way_359990132_18",
        "object_type": "restriction",
        "restriction_type": "road",
        "name": "Заречная улица",
        "osm_kind": "road",
        "osm_id": 359990132,
        "osm_type": "way",
        "osm_tags": {
          "highway": "proposed",
          "name": "Заречная улица"
        },
        "case_id": "spb_parnas_+1_-1_64f55c0b_many_connection_points"
      },
      "geometry": {
        "type": "LineString",
        "coordinates": [
          [
            30.3297001,
            60.0756972
          ],
          [
            30.3298243,
            60.0761122
          ],
          [
            30.3299035,
            60.076458
          ],
          [
            30.3299728,
            60.0768258
          ],
          [
            30.3299972,
            60.0771891
          ],
          [
            30.3300356,
            60.0777093
          ],
          [
            30.3301437,
            60.0791729
          ],
          [
            30.3302306,
            60.0794906
          ],
          [
            30.330383,
            60.0798091
          ],
          [
            30.3304037,
            60.0798615
          ],
          [
            30.3306509,
            60.0802058
          ],
          [
            30.3311135,
            60.0806602
          ],
          [
            30.3317938,
            60.0810934
          ],
          [
            30.3323149,
            60.0813461
          ]
        ]
      }
    },
    {
      "type": "Feature",
      "properties": {
        "id": "spb_parnas_+1_-1_64f55c0b_many_connection_points_osm_way_359990134_19",
        "object_type": "restriction",
        "restriction_type": "road",
        "name": "Заречная улица",
        "osm_kind": "road",
        "osm_id": 359990134,
        "osm_type": "way",
        "osm_tags": {
          "highway": "proposed",
          "name": "Заречная улица"
        },
        "case_id": "spb_parnas_+1_-1_64f55c0b_many_connection_points"
      },
      "geometry": {
        "type": "LineString",
        "coordinates": [
          [
            30.3294393,
            60.0748923
          ],
          [
            30.3295302,
            60.075021
          ],
          [
            30.3297001,
            60.0756972
          ]
        ]
      }
    },
    {
      "type": "Feature",
      "properties": {
        "id": "spb_parnas_+1_-1_64f55c0b_many_connection_points_osm_way_795123477_20",
        "object_type": "restriction",
        "restriction_type": "road",
        "name": "",
        "osm_kind": "road",
        "osm_id": 795123477,
        "osm_type": "way",
        "osm_tags": {
          "highway": "path"
        },
        "case_id": "spb_parnas_+1_-1_64f55c0b_many_connection_points"
      },
      "geometry": {
        "type": "LineString",
        "coordinates": [
          [
            30.3338041,
            60.0793429
          ],
          [
            30.333644,
            60.0792685
          ],
          [
            30.3336005,
            60.0792481
          ],
          [
            30.3335294,
            60.0792288
          ],
          [
            30.3331,
            60.0791199
          ],
          [
            30.332717,
            60.0789187
          ],
          [
            30.3324069,
            60.0787108
          ],
          [
            30.3321541,
            60.0785074
          ],
          [
            30.3320816,
            60.0783568
          ],
          [
            30.3318287,
            60.0781191
          ],
          [
            30.3316304,
            60.0780315
          ],
          [
            30.3315872,
            60.0780124
          ],
          [
            30.3313667,
            60.0779339
          ],
          [
            30.3309695,
            60.0777973
          ],
          [
            30.3306097,
            60.0777439
          ],
          [
            30.3305309,
            60.077744
          ],
          [
            30.3303544,
            60.0777719
          ],
          [
            30.3302197,
            60.0778372
          ]
        ]
      }
    },
    {
      "type": "Feature",
      "properties": {
        "id": "spb_parnas_+1_-1_64f55c0b_many_connection_points_osm_way_813912175_21",
        "object_type": "restriction",
        "restriction_type": "road",
        "name": "",
        "osm_kind": "road",
        "osm_id": 813912175,
        "osm_type": "way",
        "osm_tags": {
          "highway": "path"
        },
        "case_id": "spb_parnas_+1_-1_64f55c0b_many_connection_points"
      },
      "geometry": {
        "type": "LineString",
        "coordinates": [
          [
            30.3311484,
            60.0796538
          ],
          [
            30.3312392,
            60.0794996
          ],
          [
            30.3315701,
            60.0786901
          ],
          [
            30.3316238,
            60.0785415
          ],
          [
            30.3316046,
            60.0783985
          ],
          [
            30.3316304,
            60.0780315
          ],
          [
            30.3316176,
            60.0778466
          ],
          [
            30.3314194,
            60.0776347
          ],
          [
            30.3309735,
            60.0771651
          ],
          [
            30.3306267,
            60.0769286
          ],
          [
            30.3305771,
            60.0767238
          ],
          [
            30.3305063,
            60.076579
          ],
          [
            30.3304426,
            60.0763848
          ],
          [
            30.3308178,
            60.0758728
          ],
          [
            30.331025,
            60.0757075
          ],
          [
            30.3312054,
            60.0754486
          ],
          [
            30.3314107,
            60.0752771
          ],
          [
            30.331709,
            60.0752362
          ],
          [
            30.3321341,
            60.0753069
          ],
          [
            30.3325816,
            60.0754185
          ],
          [
            30.3327159,
            60.0756045
          ],
          [
            30.3328128,
            60.0763598
          ],
          [
            30.3330664,
            60.0769253
          ],
          [
            30.3339986,
            60.0770741
          ],
          [
            30.334558,
            60.0770666
          ],
          [
            30.3349309,
            60.0770269
          ]
        ]
      }
    },
    {
      "type": "Feature",
      "properties": {
        "id": "spb_parnas_+1_-1_64f55c0b_many_connection_points_osm_way_1149693033_22",
        "object_type": "restriction",
        "restriction_type": "oks",
        "name": "",
        "osm_kind": "building",
        "osm_id": 1149693033,
        "osm_type": "way",
        "osm_tags": {
          "building": "apartments"
        },
        "case_id": "spb_parnas_+1_-1_64f55c0b_many_connection_points"
      },
      "geometry": {
        "type": "Polygon",
        "coordinates": [
          [
            [
              30.326597,
              60.0761201
            ],
            [
              30.3265679,
              60.0760577
            ],
            [
              30.3266119,
              60.0760526
            ],
            [
              30.3265409,
              60.0759001
            ],
            [
              30.3266256,
              60.0758903
            ],
            [
              30.3266165,
              60.0758707
            ],
            [
              30.3266407,
              60.0758679
            ],
            [
              30.3266304,
              60.0758457
            ],
            [
              30.3266169,
              60.0758168
            ],
            [
              30.3265927,
              60.0758196
            ],
            [
              30.3265839,
              60.0758007
            ],
            [
              30.3265004,
              60.0758104
            ],
            [
              30.3264291,
              60.0756572
            ],
            [
              30.3263826,
              60.0756626
            ],
            [
              30.3263527,
              60.0755984
            ],
            [
              30.326556,
              60.0755748
            ],
            [
              30.3268354,
              60.0755424
            ],
            [
              30.3267774,
              60.075418
            ],
            [
              30.3267337,
              60.0754231
            ],
            [
              30.3267048,
              60.075361
            ],
            [
              30.3269067,
              60.0753376
            ],
            [
              30.3271086,
              60.0753142
            ],
            [
              30.3271375,
              60.0753763
            ],
            [
              30.3270916,
              60.0753816
            ],
            [
              30.3271636,
              60.0755361
            ],
            [
              30.3270794,
              60.0755459
            ],
            [
              30.3270879,
              60.0755643
            ],
            [
              30.3269428,
              60.0755812
            ],
            [
              30.3269343,
              60.0755627
            ],
            [
              30.3267724,
              60.0755815
            ],
            [
              30.3267882,
              60.0756156
            ],
            [
              30.3267407,
              60.0756211
            ],
            [
              30.3268121,
              60.0757742
            ],
            [
              30.3267302,
              60.0757837
            ],
            [
              30.326739,
              60.0758026
            ],
            [
              30.3267134,
              60.0758056
            ],
            [
              30.3267266,
              60.075834
            ],
            [
              30.3267372,
              60.0758567
            ],
            [
              30.3267628,
              60.0758538
            ],
            [
              30.3267719,
              60.0758733
            ],
            [
              30.3268564,
              60.0758635
            ],
            [
              30.3269274,
              60.076016
            ],
            [
              30.3269722,
              60.0760108
            ],
            [
              30.326988,
              60.0760445
            ],
            [
              30.3271492,
              60.0760258
            ],
            [
              30.3271412,
              60.0760088
            ],
            [
              30.3272877,
              60.0759919
            ],
            [
              30.3272957,
              60.0760089
            ],
            [
              30.3273783,
              60.0759993
            ],
            [
              30.3274499,
              60.0761531
            ],
            [
              30.3274946,
              60.0761479
            ],
            [
              30.3275236,
              60.0762101
            ],
            [
              30.327322,
              60.0762335
            ],
            [
              30.3271205,
              60.0762568
            ],
            [
              30.3270915,
              60.0761946
            ],
            [
              30.3271369,
              60.0761894
            ],
            [
              30.3270786,
              60.0760643
            ],
            [
              30.3267979,
              60.0760968
            ],
            [
              30.326597,
              60.0761201
            ]
          ]
        ]
      }
    },
    {
      "type": "Feature",
      "properties": {
        "id": "spb_parnas_+1_-1_64f55c0b_many_connection_points_osm_way_1149693035_23",
        "object_type": "restriction",
        "restriction_type": "oks",
        "name": "",
        "osm_kind": "building",
        "osm_id": 1149693035,
        "osm_type": "way",
        "osm_tags": {
          "building": "apartments"
        },
        "case_id": "spb_parnas_+1_-1_64f55c0b_many_connection_points",
        "selected_as_heat_demand_proxy": true,
        "connection_point_id": "spb_parnas_+1_-1_64f55c0b_many_connection_points_cp_12"
      },
      "geometry": {
        "type": "Polygon",
        "coordinates": [
          [
            [
              30.3263964,
              60.0773081
            ],
            [
              30.3263673,
              60.0772457
            ],
            [
              30.3264113,
              60.0772406
            ],
            [
              30.3263403,
              60.0770881
            ],
            [
              30.326425,
              60.0770783
            ],
            [
              30.3264159,
              60.0770587
            ],
            [
              30.3264401,
              60.0770559
            ],
            [
              30.3264306,
              60.0770335
            ],
            [
              30.3264163,
              60.0770048
            ],
            [
              30.3263921,
              60.0770076
            ],
            [
              30.3263833,
              60.0769887
            ],
            [
              30.3262998,
              60.0769984
            ],
            [
              30.3262285,
              60.0768452
            ],
            [
              30.326182,
              60.0768506
            ],
            [
              30.3261521,
              60.0767864
            ],
            [
              30.3263554,
              60.0767628
            ],
            [
              30.3266348,
              60.0767304
            ],
            [
              30.3265768,
              60.076606
            ],
            [
              30.3265331,
              60.0766111
            ],
            [
              30.3265042,
              60.076549
            ],
            [
              30.3267061,
              60.0765256
            ],
            [
              30.326908,
              60.0765022
            ],
            [
              30.3269369,
              60.0765643
            ],
            [
              30.326891,
              60.0765696
            ],
            [
              30.326963,
              60.0767242
            ],
            [
              30.3268788,
              60.0767339
            ],
            [
              30.3268874,
              60.0767524
            ],
            [
              30.3267422,
              60.0767692
            ],
            [
              30.3267337,
              60.0767507
            ],
            [
              30.3265718,
              60.0767695
            ],
            [
              30.3265876,
              60.0768036
            ],
            [
              30.3265401,
              60.0768091
            ],
            [
              30.3266115,
              60.0769622
            ],
            [
              30.3265296,
              60.0769717
            ],
            [
              30.3265384,
              60.0769906
            ],
            [
              30.3265128,
              60.0769936
            ],
            [
              30.3265262,
              60.0770223
            ],
            [
              30.3265366,
              60.0770447
            ],
            [
              30.3265622,
              60.0770418
            ],
            [
              30.3265713,
              60.0770613
            ],
            [
              30.3266558,
              60.0770515
            ],
            [
              30.3267268,
              60.077204
            ],
            [
              30.3267717,
              60.0771988
            ],
            [
              30.3267874,
              60.0772325
            ],
            [
              30.3269486,
              60.0772138
            ],
            [
              30.3269407,
              60.0771968
            ],
            [
              30.3270872,
              60.0771799
            ],
            [
              30.3270951,
              60.0771969
            ],
            [
              30.3271777,
              60.0771873
            ],
            [
              30.3272494,
              60.0773411
            ],
            [
              30.327294,
              60.0773359
            ],
            [
              30.327323,
              60.0773981
            ],
            [
              30.3271215,
              60.0774214
            ],
            [
              30.3269199,
              60.0774448
            ],
            [
              30.3268909,
              60.0773826
            ],
            [
              30.3269363,
              60.0773774
            ],
            [
              30.326878,
              60.0772522
            ],
            [
              30.3265973,
              60.0772848
            ],
            [
              30.3263964,
              60.0773081
            ]
          ]
        ]
      }
    },
    {
      "type": "Feature",
      "properties": {
        "id": "spb_parnas_+1_-1_64f55c0b_many_connection_points_osm_way_1149693037_24",
        "object_type": "restriction",
        "restriction_type": "road",
        "name": "",
        "osm_kind": "road",
        "osm_id": 1149693037,
        "osm_type": "way",
        "osm_tags": {
          "highway": "path"
        },
        "case_id": "spb_parnas_+1_-1_64f55c0b_many_connection_points"
      },
      "geometry": {
        "type": "LineString",
        "coordinates": [
          [
            30.3300484,
            60.0757328
          ],
          [
            30.3301784,
            60.0759497
          ],
          [
            30.3302001,
            60.0761273
          ],
          [
            30.3299691,
            60.0761249
          ],
          [
            30.3297704,
            60.0761514
          ],
          [
            30.329368,
            60.076257
          ],
          [
            30.3290216,
            60.0764923
          ],
          [
            30.3287589,
            60.0768429
          ]
        ]
      }
    },
    {
      "type": "Feature",
      "properties": {
        "id": "spb_parnas_+1_-1_64f55c0b_many_connection_points_osm_way_1149693038_25",
        "object_type": "restriction",
        "restriction_type": "road",
        "name": "",
        "osm_kind": "road",
        "osm_id": 1149693038,
        "osm_type": "way",
        "osm_tags": {
          "highway": "service"
        },
        "case_id": "spb_parnas_+1_-1_64f55c0b_many_connection_points"
      },
      "geometry": {
        "type": "LineString",
        "coordinates": [
          [
            30.3302197,
            60.0778372
          ],
          [
            30.3301756,
            60.0777611
          ],
          [
            30.3301145,
            60.07767
          ],
          [
            30.3299257,
            60.077336
          ],
          [
            30.3299338,
            60.0769344
          ],
          [
            30.3298569,
            60.0766838
          ],
          [
            30.3296475,
            60.0764005
          ],
          [
            30.329675,
            60.0762894
          ],
          [
            30.3297704,
            60.0761514
          ],
          [
            30.3298169,
            60.0759087
          ],
          [
            30.3295518,
            60.0752658
          ],
          [
            30.3294203,
            60.0750434
          ],
          [
            30.3293421,
            60.0749113
          ]
        ]
      }
    },
    {
      "type": "Feature",
      "properties": {
        "id": "spb_parnas_+1_-1_64f55c0b_many_connection_points_osm_way_1149693039_26",
        "object_type": "restriction",
        "restriction_type": "road",
        "name": "",
        "osm_kind": "road",
        "osm_id": 1149693039,
        "osm_type": "way",
        "osm_tags": {
          "highway": "path"
        },
        "case_id": "spb_parnas_+1_-1_64f55c0b_many_connection_points"
      },
      "geometry": {
        "type": "LineString",
        "coordinates": [
          [
            30.3297765,
            60.0749706
          ],
          [
            30.3296131,
            60.0751705
          ],
          [
            30.3299877,
            60.0755169
          ],
          [
            30.3300484,
            60.0757328
          ],
          [
            30.3299715,
            60.0758782
          ],
          [
            30.3298169,
            60.0759087
          ]
        ]
      }
    },
    {
      "type": "Feature",
      "properties": {
        "id": "spb_parnas_+1_-1_64f55c0b_many_connection_points_osm_way_1215511626_27",
        "object_type": "restriction",
        "restriction_type": "water",
        "name": "",
        "osm_kind": "water",
        "osm_id": 1215511626,
        "osm_type": "way",
        "osm_tags": {
          "natural": "water"
        },
        "case_id": "spb_parnas_+1_-1_64f55c0b_many_connection_points"
      },
      "geometry": {
        "type": "Polygon",
        "coordinates": [
          [
            [
              30.332497,
              60.0766945
            ],
            [
              30.332535,
              60.0765951
            ],
            [
              30.3324912,
              60.0765329
            ],
            [
              30.3322039,
              60.0763868
            ],
            [
              30.3321345,
              60.076267
            ],
            [
              30.3321304,
              60.0760983
            ],
            [
              30.3321953,
              60.075984
            ],
            [
              30.3323457,
              60.0758929
            ],
            [
              30.3324531,
              60.0757697
            ],
            [
              30.3324069,
              60.0756264
            ],
            [
              30.3322641,
              60.0755126
            ],
            [
              30.3320665,
              60.0754354
            ],
            [
              30.3317658,
              60.075444
            ],
            [
              30.3316455,
              60.0756026
            ],
            [
              30.3312847,
              60.0758811
            ],
            [
              30.3310761,
              60.0759956
            ],
            [
              30.3309404,
              60.0759718
            ],
            [
              30.3308466,
              60.0759968
            ],
            [
              30.3307878,
              60.076096
            ],
            [
              30.3306449,
              60.0762069
            ],
            [
              30.3305459,
              60.0763868
            ],
            [
              30.3305119,
              60.0765024
            ],
            [
              30.3306834,
              60.0769068
            ],
            [
              30.330838,
              60.0770125
            ],
            [
              30.330929,
              60.0770731
            ],
            [
              30.3310433,
              60.0771105
            ],
            [
              30.3312064,
              60.0771455
            ],
            [
              30.3312874,
              60.0771252
            ],
            [
              30.3312983,
              60.0770605
            ],
            [
              30.3313808,
              60.0769592
            ],
            [
              30.3314058,
              60.0768521
            ],
            [
              30.3313799,
              60.076668
            ],
            [
              30.3314512,
              60.0765292
            ],
            [
              30.3316001,
              60.0765162
            ],
            [
              30.331872,
              60.0766293
            ],
            [
              30.3320209,
              60.0767262
            ],
            [
              30.3322626,
              60.0767639
            ],
            [
              30.3323798,
              60.0767525
            ],
            [
              30.332497,
              60.0766945
            ]
          ]
        ]
      }
    },
    {
      "type": "Feature",
      "properties": {
        "id": "spb_parnas_+1_-1_64f55c0b_many_connection_points_osm_way_1235629655_28",
        "object_type": "restriction",
        "restriction_type": "road",
        "name": "улица Вологдина",
        "osm_kind": "road",
        "osm_id": 1235629655,
        "osm_type": "way",
        "osm_tags": {
          "highway": "proposed",
          "name": "улица Вологдина"
        },
        "case_id": "spb_parnas_+1_-1_64f55c0b_many_connection_points"
      },
      "geometry": {
        "type": "LineString",
        "coordinates": [
          [
            30.3274877,
            60.0775748
          ],
          [
            30.3285296,
            60.0776007
          ],
          [
            30.3300356,
            60.0777093
          ]
        ]
      }
    },
    {
      "type": "Feature",
      "properties": {
        "id": "spb_parnas_+1_-1_64f55c0b_many_connection_points_osm_way_1274561801_29",
        "object_type": "restriction",
        "restriction_type": "oks",
        "name": "Часовня Мучеников младенцев Вифлеемских",
        "osm_kind": "building",
        "osm_id": 1274561801,
        "osm_type": "way",
        "osm_tags": {
          "building": "chapel",
          "name": "Часовня Мучеников младенцев Вифлеемских"
        },
        "case_id": "spb_parnas_+1_-1_64f55c0b_many_connection_points",
        "selected_as_heat_demand_proxy": true,
        "connection_point_id": "spb_parnas_+1_-1_64f55c0b_many_connection_points_cp_11"
      },
      "geometry": {
        "type": "Polygon",
        "coordinates": [
          [
            [
              30.3275759,
              60.075479
            ],
            [
              30.3276215,
              60.0755981
            ],
            [
              30.3278214,
              60.075579
            ],
            [
              30.3277952,
              60.0755105
            ],
            [
              30.3277503,
              60.0755148
            ],
            [
              30.3277309,
              60.0754642
            ],
            [
              30.3275759,
              60.075479
            ]
          ]
        ]
      }
    },
    {
      "type": "Feature",
      "properties": {
        "id": "spb_parnas_+1_-1_64f55c0b_many_connection_points_osm_way_1301616877_30",
        "object_type": "restriction",
        "restriction_type": "oks",
        "name": "",
        "osm_kind": "building",
        "osm_id": 1301616877,
        "osm_type": "way",
        "osm_tags": {
          "building": "garage"
        },
        "case_id": "spb_parnas_+1_-1_64f55c0b_many_connection_points",
        "selected_as_heat_demand_proxy": true,
        "connection_point_id": "spb_parnas_+1_-1_64f55c0b_many_connection_points_cp_7"
      },
      "geometry": {
        "type": "Polygon",
        "coordinates": [
          [
            [
              30.3280444,
              60.0775611
            ],
            [
              30.3281082,
              60.0775592
            ],
            [
              30.3281152,
              60.0776185
            ],
            [
              30.3280514,
              60.0776204
            ],
            [
              30.3280444,
              60.0775611
            ]
          ]
        ]
      }
    },
    {
      "type": "Feature",
      "properties": {
        "id": "spb_parnas_+1_-1_64f55c0b_many_connection_points_osm_way_1301616878_31",
        "object_type": "restriction",
        "restriction_type": "oks",
        "name": "",
        "osm_kind": "building",
        "osm_id": 1301616878,
        "osm_type": "way",
        "osm_tags": {
          "building": "garage"
        },
        "case_id": "spb_parnas_+1_-1_64f55c0b_many_connection_points"
      },
      "geometry": {
        "type": "Polygon",
        "coordinates": [
          [
            [
              30.3282297,
              60.0776666
            ],
            [
              30.3282652,
              60.0776645
            ],
            [
              30.328273,
              60.0776966
            ],
            [
              30.3282374,
              60.0776988
            ],
            [
              30.3282297,
              60.0776666
            ]
          ]
        ]
      }
    },
    {
      "type": "Feature",
      "properties": {
        "id": "spb_parnas_+1_-1_64f55c0b_many_connection_points_osm_way_1393276583_32",
        "object_type": "restriction",
        "restriction_type": "road",
        "name": "",
        "osm_kind": "road",
        "osm_id": 1393276583,
        "osm_type": "way",
        "osm_tags": {
          "highway": "path"
        },
        "case_id": "spb_parnas_+1_-1_64f55c0b_many_connection_points"
      },
      "geometry": {
        "type": "LineString",
        "coordinates": [
          [
            30.3303544,
            60.0777719
          ],
          [
            30.3303874,
            60.0778452
          ],
          [
            30.3304249,
            60.0780352
          ],
          [
            30.3304329,
            60.0782091
          ],
          [
            30.330449,
            60.0787804
          ],
          [
            30.3304678,
            60.0788834
          ],
          [
            30.330441,
            60.0789864
          ],
          [
            30.3303658,
            60.079086
          ]
        ]
      }
    },
    {
      "type": "Feature",
      "properties": {
        "id": "spb_parnas_+1_-1_64f55c0b_many_connection_points_osm_way_1424573663_33",
        "object_type": "restriction",
        "restriction_type": "road",
        "name": "",
        "osm_kind": "road",
        "osm_id": 1424573663,
        "osm_type": "way",
        "osm_tags": {
          "highway": "service"
        },
        "case_id": "spb_parnas_+1_-1_64f55c0b_many_connection_points"
      },
      "geometry": {
        "type": "LineString",
        "coordinates": [
          [
            30.3302197,
            60.0778372
          ],
          [
            30.3300084,
            60.0779684
          ],
          [
            30.3298122,
            60.0780252
          ],
          [
            30.3296673,
            60.0780375
          ],
          [
            30.3295244,
            60.0780524
          ]
        ]
      }
    },
    {
      "type": "Feature",
      "properties": {
        "id": "spb_parnas_+1_-1_64f55c0b_many_connection_points_osm_way_1435217082_34",
        "object_type": "restriction",
        "restriction_type": "road",
        "name": "",
        "osm_kind": "road",
        "osm_id": 1435217082,
        "osm_type": "way",
        "osm_tags": {
          "highway": "service"
        },
        "case_id": "spb_parnas_+1_-1_64f55c0b_many_connection_points"
      },
      "geometry": {
        "type": "LineString",
        "coordinates": [
          [
            30.324521,
            60.0766779
          ],
          [
            30.3246072,
            60.0766662
          ],
          [
            30.324686,
            60.0766573
          ],
          [
            30.3252007,
            60.0765989
          ],
          [
            30.3255441,
            60.0764996
          ],
          [
            30.3257988,
            60.0764703
          ],
          [
            30.3261587,
            60.0764289
          ],
          [
            30.3268281,
            60.0763519
          ],
          [
            30.3272096,
            60.0763732
          ],
          [
            30.3276804,
            60.0763171
          ],
          [
            30.3277823,
            60.076305
          ]
        ]
      }
    },
    {
      "type": "Feature",
      "properties": {
        "id": "spb_parnas_+1_-1_64f55c0b_many_connection_points_osm_way_1435217084_35",
        "object_type": "restriction",
        "restriction_type": "road",
        "name": "",
        "osm_kind": "road",
        "osm_id": 1435217084,
        "osm_type": "way",
        "osm_tags": {
          "highway": "footway"
        },
        "case_id": "spb_parnas_+1_-1_64f55c0b_many_connection_points"
      },
      "geometry": {
        "type": "LineString",
        "coordinates": [
          [
            30.3273095,
            60.0752191
          ],
          [
            30.327196,
            60.0752324
          ],
          [
            30.3264386,
            60.0753196
          ],
          [
            30.3262828,
            60.0753375
          ],
          [
            30.3262279,
            60.0753649
          ],
          [
            30.3262085,
            60.07541
          ],
          [
            30.3262957,
            60.075584
          ],
          [
            30.3257952,
            60.075642
          ],
          [
            30.3253011,
            60.0756984
          ],
          [
            30.325201,
            60.0755034
          ],
          [
            30.3251364,
            60.0754761
          ],
          [
            30.3249153,
            60.075502
          ],
          [
            30.3241611,
            60.0755904
          ],
          [
            30.3243406,
            60.0759626
          ],
          [
            30.3244148,
            60.0761061
          ],
          [
            30.324485,
            60.0762446
          ],
          [
            30.3246684,
            60.0766213
          ],
          [
            30.324686,
            60.0766573
          ],
          [
            30.3247033,
            60.0766956
          ],
          [
            30.3248668,
            60.0770643
          ],
          [
            30.3249309,
            60.0772088
          ],
          [
            30.3249953,
            60.0773539
          ],
          [
            30.3251537,
            60.0777113
          ],
          [
            30.3259188,
            60.0776219
          ],
          [
            30.3258939,
            60.0775705
          ],
          [
            30.3259393,
            60.0775651
          ],
          [
            30.3262946,
            60.0775235
          ],
          [
            30.326632,
            60.0774839
          ],
          [
            30.3266964,
            60.0774764
          ],
          [
            30.3267213,
            60.0775296
          ],
          [
            30.3274028,
            60.0774489
          ],
          [
            30.327442,
            60.0774355
          ],
          [
            30.3274616,
            60.0774018
          ],
          [
            30.3273724,
            60.0772231
          ],
          [
            30.3272925,
            60.0770627
          ],
          [
            30.327902,
            60.0769951
          ],
          [
            30.3281082,
            60.076969
          ]
        ]
      }
    },
    {
      "type": "Feature",
      "properties": {
        "id": "spb_parnas_+1_-1_64f55c0b_many_connection_points_osm_way_1435217086_36",
        "object_type": "restriction",
        "restriction_type": "road",
        "name": "",
        "osm_kind": "road",
        "osm_id": 1435217086,
        "osm_type": "way",
        "osm_tags": {
          "highway": "footway"
        },
        "case_id": "spb_parnas_+1_-1_64f55c0b_many_connection_points"
      },
      "geometry": {
        "type": "LineString",
        "coordinates": [
          [
            30.3247033,
            60.0766956
          ],
          [
            30.3254356,
            60.0766077
          ],
          [
            30.325838,
            60.0765593
          ],
          [
            30.3262335,
            60.0765118
          ],
          [
            30.3262168,
            60.0764717
          ],
          [
            30.3266543,
            60.0764184
          ],
          [
            30.3268124,
            60.0763992
          ],
          [
            30.3271871,
            60.0764088
          ],
          [
            30.3273994,
            60.0763833
          ],
          [
            30.3276933,
            60.0763481
          ],
          [
            30.3277948,
            60.0763359
          ]
        ]
      }
    },
    {
      "type": "Feature",
      "properties": {
        "id": "spb_parnas_+1_-1_64f55c0b_many_connection_points_osm_way_1435217092_37",
        "object_type": "restriction",
        "restriction_type": "road",
        "name": "",
        "osm_kind": "road",
        "osm_id": 1435217092,
        "osm_type": "way",
        "osm_tags": {
          "highway": "service"
        },
        "case_id": "spb_parnas_+1_-1_64f55c0b_many_connection_points"
      },
      "geometry": {
        "type": "LineString",
        "coordinates": [
          [
            30.3250203,
            60.0777563
          ],
          [
            30.3251184,
            60.0777459
          ],
          [
            30.3274689,
            60.0774789
          ],
          [
            30.3275463,
            60.0774391
          ],
          [
            30.3273842,
            60.0770878
          ],
          [
            30.3276883,
            60.0770526
          ],
          [
            30.3279176,
            60.0770261
          ],
          [
            30.3281236,
            60.0770023
          ]
        ]
      }
    },
    {
      "type": "Feature",
      "properties": {
        "id": "spb_parnas_+1_-1_64f55c0b_many_connection_points_osm_way_1490616594_38",
        "object_type": "restriction",
        "restriction_type": "oks",
        "name": "",
        "osm_kind": "building",
        "osm_id": 1490616594,
        "osm_type": "way",
        "osm_tags": {
          "building": "yes"
        },
        "case_id": "spb_parnas_+1_-1_64f55c0b_many_connection_points",
        "selected_as_heat_demand_proxy": true,
        "connection_point_id": "spb_parnas_+1_-1_64f55c0b_many_connection_points_cp_1"
      },
      "geometry": {
        "type": "Polygon",
        "coordinates": [
          [
            [
              30.3282575,
              60.0755613
            ],
            [
              30.328234,
              60.0755102
            ],
            [
              30.3281238,
              60.0755228
            ],
            [
              30.3281474,
              60.075574
            ],
            [
              30.3282575,
              60.0755613
            ]
          ]
        ]
      }
    },
    {
      "type": "Feature",
      "properties": {
        "id": "spb_parnas_+1_-1_64f55c0b_many_connection_points_osm_way_1490616595_39",
        "object_type": "restriction",
        "restriction_type": "oks",
        "name": "",
        "osm_kind": "building",
        "osm_id": 1490616595,
        "osm_type": "way",
        "osm_tags": {
          "building": "yes"
        },
        "case_id": "spb_parnas_+1_-1_64f55c0b_many_connection_points",
        "selected_as_heat_demand_proxy": true,
        "connection_point_id": "spb_parnas_+1_-1_64f55c0b_many_connection_points_cp_3"
      },
      "geometry": {
        "type": "Polygon",
        "coordinates": [
          [
            [
              30.3281522,
              60.0754866
            ],
            [
              30.3281163,
              60.0753955
            ],
            [
              30.3279853,
              60.0754083
            ],
            [
              30.3280038,
              60.0754555
            ],
            [
              30.3279614,
              60.0754596
            ],
            [
              30.3279787,
              60.0755036
            ],
            [
              30.3281522,
              60.0754866
            ]
          ]
        ]
      }
    },
    {
      "type": "Feature",
      "properties": {
        "id": "spb_parnas_+1_-1_64f55c0b_many_connection_points_osm_way_1490616600_40",
        "object_type": "restriction",
        "restriction_type": "oks",
        "name": "",
        "osm_kind": "building",
        "osm_id": 1490616600,
        "osm_type": "way",
        "osm_tags": {
          "building": "yes"
        },
        "case_id": "spb_parnas_+1_-1_64f55c0b_many_connection_points",
        "selected_as_heat_demand_proxy": true,
        "connection_point_id": "spb_parnas_+1_-1_64f55c0b_many_connection_points_cp_6"
      },
      "geometry": {
        "type": "Polygon",
        "coordinates": [
          [
            [
              30.3280732,
              60.0774028
            ],
            [
              30.3280516,
              60.0773561
            ],
            [
              30.3279626,
              60.0773663
            ],
            [
              30.3279842,
              60.077413
            ],
            [
              30.3280732,
              60.0774028
            ]
          ]
        ]
      }
    },
    {
      "type": "Feature",
      "properties": {
        "id": "spb_parnas_+1_-1_64f55c0b_many_connection_points_osm_way_1490616602_41",
        "object_type": "restriction",
        "restriction_type": "road",
        "name": "",
        "osm_kind": "road",
        "osm_id": 1490616602,
        "osm_type": "way",
        "osm_tags": {
          "highway": "service"
        },
        "case_id": "spb_parnas_+1_-1_64f55c0b_many_connection_points"
      },
      "geometry": {
        "type": "LineString",
        "coordinates": [
          [
            30.3276883,
            60.0770526
          ],
          [
            30.3278584,
            60.0774
          ],
          [
            30.3275463,
            60.0774391
          ]
        ]
      }
    },
    {
      "type": "Feature",
      "properties": {
        "id": "spb_parnas_+1_-1_64f55c0b_many_connection_points_osm_way_1490616624_42",
        "object_type": "restriction",
        "restriction_type": "road",
        "name": "",
        "osm_kind": "road",
        "osm_id": 1490616624,
        "osm_type": "way",
        "osm_tags": {
          "highway": "footway"
        },
        "case_id": "spb_parnas_+1_-1_64f55c0b_many_connection_points"
      },
      "geometry": {
        "type": "LineString",
        "coordinates": [
          [
            30.3273724,
            60.0772231
          ],
          [
            30.3272316,
            60.0771651
          ],
          [
            30.3271184,
            60.0771016
          ],
          [
            30.3270505,
            60.0770434
          ],
          [
            30.3270052,
            60.0769678
          ],
          [
            30.3269895,
            60.0768688
          ],
          [
            30.3270052,
            60.076775
          ],
          [
            30.3270697,
            60.0766829
          ],
          [
            30.3271567,
            60.0766169
          ],
          [
            30.3272508,
            60.0765786
          ]
        ]
      }
    },
    {
      "type": "Feature",
      "properties": {
        "id": "spb_parnas_+1_-1_64f55c0b_many_connection_points_osm_way_1490616626_43",
        "object_type": "restriction",
        "restriction_type": "road",
        "name": "",
        "osm_kind": "road",
        "osm_id": 1490616626,
        "osm_type": "way",
        "osm_tags": {
          "highway": "footway"
        },
        "case_id": "spb_parnas_+1_-1_64f55c0b_many_connection_points"
      },
      "geometry": {
        "type": "LineString",
        "coordinates": [
          [
            30.3272508,
            60.0765786
          ],
          [
            30.3272778,
            60.076487
          ],
          [
            30.3274232,
            60.0764353
          ],
          [
            30.3276034,
            60.0764462
          ],
          [
            30.3277105,
            60.076523
          ],
          [
            30.327687,
            60.0766186
          ],
          [
            30.3275312,
            60.0766707
          ],
          [
            30.32733,
            60.0766464
          ],
          [
            30.3272508,
            60.0765786
          ]
        ]
      }
    },
    {
      "type": "Feature",
      "properties": {
        "id": "spb_parnas_+1_-1_64f55c0b_many_connection_points_osm_way_1490616627_44",
        "object_type": "restriction",
        "restriction_type": "road",
        "name": "",
        "osm_kind": "road",
        "osm_id": 1490616627,
        "osm_type": "way",
        "osm_tags": {
          "highway": "footway"
        },
        "case_id": "spb_parnas_+1_-1_64f55c0b_many_connection_points"
      },
      "geometry": {
        "type": "LineString",
        "coordinates": [
          [
            30.3274232,
            60.0764353
          ],
          [
            30.3273994,
            60.0763833
          ]
        ]
      }
    },
    {
      "type": "Feature",
      "properties": {
        "id": "spb_parnas_+1_-1_64f55c0b_many_connection_points_osm_way_1490616628_45",
        "object_type": "restriction",
        "restriction_type": "road",
        "name": "",
        "osm_kind": "road",
        "osm_id": 1490616628,
        "osm_type": "way",
        "osm_tags": {
          "highway": "footway"
        },
        "case_id": "spb_parnas_+1_-1_64f55c0b_many_connection_points"
      },
      "geometry": {
        "type": "LineString",
        "coordinates": [
          [
            30.3271254,
            60.0769557
          ],
          [
            30.3270052,
            60.0769678
          ],
          [
            30.3265262,
            60.0770223
          ]
        ]
      }
    },
    {
      "type": "Feature",
      "properties": {
        "id": "spb_parnas_+1_-1_64f55c0b_many_connection_points_osm_way_1490616648_46",
        "object_type": "restriction",
        "restriction_type": "road",
        "name": "",
        "osm_kind": "road",
        "osm_id": 1490616648,
        "osm_type": "way",
        "osm_tags": {
          "highway": "footway"
        },
        "case_id": "spb_parnas_+1_-1_64f55c0b_many_connection_points"
      },
      "geometry": {
        "type": "LineString",
        "coordinates": [
          [
            30.3246684,
            60.0766213
          ],
          [
            30.3251788,
            60.0765621
          ],
          [
            30.3253834,
            60.0765031
          ],
          [
            30.3253533,
            60.0764321
          ],
          [
            30.3257636,
            60.0763852
          ],
          [
            30.3261194,
            60.0763432
          ],
          [
            30.3264655,
            60.0763049
          ],
          [
            30.3268879,
            60.0762609
          ],
          [
            30.326916,
            60.076324
          ],
          [
            30.3271848,
            60.07633
          ],
          [
            30.3276262,
            60.0762759
          ]
        ]
      }
    },
    {
      "type": "Feature",
      "properties": {
        "id": "spb_parnas_+1_-1_64f55c0b_many_connection_points_osm_way_1490616657_47",
        "object_type": "restriction",
        "restriction_type": "road",
        "name": "",
        "osm_kind": "road",
        "osm_id": 1490616657,
        "osm_type": "way",
        "osm_tags": {
          "highway": "service"
        },
        "case_id": "spb_parnas_+1_-1_64f55c0b_many_connection_points"
      },
      "geometry": {
        "type": "LineString",
        "coordinates": [
          [
            30.3276113,
            60.0758833
          ],
          [
            30.3270934,
            60.0759371
          ],
          [
            30.3270331,
            60.075802
          ],
          [
            30.3269727,
            60.0756668
          ],
          [
            30.3274978,
            60.0756035
          ]
        ]
      }
    },
    {
      "type": "Feature",
      "properties": {
        "id": "spb_parnas_+1_-1_64f55c0b_many_connection_points_osm_way_1490616658_48",
        "object_type": "restriction",
        "restriction_type": "road",
        "name": "",
        "osm_kind": "road",
        "osm_id": 1490616658,
        "osm_type": "way",
        "osm_tags": {
          "highway": "footway"
        },
        "case_id": "spb_parnas_+1_-1_64f55c0b_many_connection_points"
      },
      "geometry": {
        "type": "LineString",
        "coordinates": [
          [
            30.3271585,
            60.0757893
          ],
          [
            30.3271985,
            60.0758236
          ],
          [
            30.3272772,
            60.0758285
          ],
          [
            30.3273479,
            60.0758077
          ],
          [
            30.327357,
            60.0757684
          ],
          [
            30.3273161,
            60.075735
          ],
          [
            30.3272382,
            60.0757292
          ],
          [
            30.3271676,
            60.0757485
          ],
          [
            30.3271585,
            60.0757893
          ]
        ]
      }
    },
    {
      "type": "Feature",
      "properties": {
        "id": "spb_parnas_+1_-1_64f55c0b_many_connection_points_osm_way_1490616659_49",
        "object_type": "restriction",
        "restriction_type": "road",
        "name": "",
        "osm_kind": "road",
        "osm_id": 1490616659,
        "osm_type": "way",
        "osm_tags": {
          "highway": "footway"
        },
        "case_id": "spb_parnas_+1_-1_64f55c0b_many_connection_points"
      },
      "geometry": {
        "type": "LineString",
        "coordinates": [
          [
            30.327357,
            60.0757684
          ],
          [
            30.3275553,
            60.0757451
          ]
        ]
      }
    },
    {
      "type": "Feature",
      "properties": {
        "id": "spb_parnas_+1_-1_64f55c0b_many_connection_points_osm_way_1490616660_50",
        "object_type": "restriction",
        "restriction_type": "road",
        "name": "",
        "osm_kind": "road",
        "osm_id": 1490616660,
        "osm_type": "way",
        "osm_tags": {
          "highway": "footway"
        },
        "case_id": "spb_parnas_+1_-1_64f55c0b_many_connection_points"
      },
      "geometry": {
        "type": "LineString",
        "coordinates": [
          [
            30.3271585,
            60.0757893
          ],
          [
            30.3270331,
            60.075802
          ],
          [
            30.3267266,
            60.075834
          ]
        ]
      }
    },
    {
      "type": "Feature",
      "properties": {
        "id": "spb_parnas_+1_-1_64f55c0b_many_connection_points_osm_way_1490616662_51",
        "object_type": "restriction",
        "restriction_type": "road",
        "name": "",
        "osm_kind": "road",
        "osm_id": 1490616662,
        "osm_type": "way",
        "osm_tags": {
          "highway": "footway"
        },
        "case_id": "spb_parnas_+1_-1_64f55c0b_many_connection_points"
      },
      "geometry": {
        "type": "LineString",
        "coordinates": [
          [
            30.3275731,
            60.0757864
          ],
          [
            30.3276343,
            60.0757803
          ],
          [
            30.3277597,
            60.0757774
          ],
          [
            30.327791,
            60.0757766
          ]
        ]
      }
    },
    {
      "type": "Feature",
      "properties": {
        "id": "spb_parnas_+1_-1_64f55c0b_many_connection_points_osm_way_1490616663_52",
        "object_type": "restriction",
        "restriction_type": "road",
        "name": "",
        "osm_kind": "road",
        "osm_id": 1490616663,
        "osm_type": "way",
        "osm_tags": {
          "highway": "service"
        },
        "case_id": "spb_parnas_+1_-1_64f55c0b_many_connection_points"
      },
      "geometry": {
        "type": "LineString",
        "coordinates": [
          [
            30.3275285,
            60.0756792
          ],
          [
            30.3275929,
            60.0756737
          ],
          [
            30.3277509,
            60.0756717
          ],
          [
            30.3280578,
            60.075668
          ],
          [
            30.3282938,
            60.0756651
          ],
          [
            30.3283044,
            60.0758598
          ],
          [
            30.3279021,
            60.0758684
          ],
          [
            30.327811,
            60.0758704
          ],
          [
            30.3276113,
            60.0758833
          ]
        ]
      }
    },
    {
      "type": "Feature",
      "properties": {
        "id": "spb_parnas_+1_-1_64f55c0b_many_connection_points_osm_way_1490616664_53",
        "object_type": "restriction",
        "restriction_type": "road",
        "name": "",
        "osm_kind": "road",
        "osm_id": 1490616664,
        "osm_type": "way",
        "osm_tags": {
          "highway": "footway"
        },
        "case_id": "spb_parnas_+1_-1_64f55c0b_many_connection_points"
      },
      "geometry": {
        "type": "LineString",
        "coordinates": [
          [
            30.3279021,
            60.0758684
          ],
          [
            30.3279,
            60.0758209
          ],
          [
            30.3277652,
            60.0758235
          ],
          [
            30.3277597,
            60.0757774
          ],
          [
            30.3277509,
            60.0756717
          ]
        ]
      }
    },
    {
      "type": "Feature",
      "properties": {
        "id": "spb_parnas_+1_-1_64f55c0b_many_connection_points_osm_way_1490616665_54",
        "object_type": "restriction",
        "restriction_type": "road",
        "name": "",
        "osm_kind": "road",
        "osm_id": 1490616665,
        "osm_type": "way",
        "osm_tags": {
          "highway": "footway"
        },
        "case_id": "spb_parnas_+1_-1_64f55c0b_many_connection_points"
      },
      "geometry": {
        "type": "LineString",
        "coordinates": [
          [
            30.3280578,
            60.075668
          ],
          [
            30.328088,
            60.075543
          ],
          [
            30.3279993,
            60.075536
          ],
          [
            30.3278433,
            60.0755466
          ]
        ]
      }
    },
    {
      "type": "Feature",
      "properties": {
        "id": "spb_parnas_+1_-1_64f55c0b_many_connection_points_osm_way_1490616666_55",
        "object_type": "restriction",
        "restriction_type": "oks",
        "name": "",
        "osm_kind": "building",
        "osm_id": 1490616666,
        "osm_type": "way",
        "osm_tags": {
          "building": "yes"
        },
        "case_id": "spb_parnas_+1_-1_64f55c0b_many_connection_points"
      },
      "geometry": {
        "type": "Polygon",
        "coordinates": [
          [
            [
              30.3278885,
              60.0753956
            ],
            [
              30.3278819,
              60.0753707
            ],
            [
              30.3278174,
              60.075375
            ],
            [
              30.327824,
              60.0753999
            ],
            [
              30.3278885,
              60.0753956
            ]
          ]
        ]
      }
    },
    {
      "type": "Feature",
      "properties": {
        "id": "spb_parnas_+1_-1_64f55c0b_many_connection_points_osm_way_1490616667_56",
        "object_type": "restriction",
        "restriction_type": "oks",
        "name": "",
        "osm_kind": "building",
        "osm_id": 1490616667,
        "osm_type": "way",
        "osm_tags": {
          "building": "yes"
        },
        "case_id": "spb_parnas_+1_-1_64f55c0b_many_connection_points"
      },
      "geometry": {
        "type": "Polygon",
        "coordinates": [
          [
            [
              30.3282477,
              60.0756197
            ],
            [
              30.3282411,
              60.0755948
            ],
            [
              30.3281766,
              60.0755991
            ],
            [
              30.3281832,
              60.075624
            ],
            [
              30.3282477,
              60.0756197
            ]
          ]
        ]
      }
    },
    {
      "type": "Feature",
      "properties": {
        "id": "spb_parnas_+1_-1_64f55c0b_many_connection_points_osm_way_1490616668_57",
        "object_type": "restriction",
        "restriction_type": "water",
        "name": "",
        "osm_kind": "water",
        "osm_id": 1490616668,
        "osm_type": "way",
        "osm_tags": {
          "waterway": "ditch"
        },
        "case_id": "spb_parnas_+1_-1_64f55c0b_many_connection_points"
      },
      "geometry": {
        "type": "LineString",
        "coordinates": [
          [
            30.3277936,
            60.0760984
          ],
          [
            30.3280496,
            60.0766319
          ]
        ]
      }
    },
    {
      "type": "Feature",
      "properties": {
        "id": "spb_parnas_+1_-1_64f55c0b_many_connection_points_osm_way_1490616671_58",
        "object_type": "restriction",
        "restriction_type": "road",
        "name": "",
        "osm_kind": "road",
        "osm_id": 1490616671,
        "osm_type": "way",
        "osm_tags": {
          "highway": "service"
        },
        "case_id": "spb_parnas_+1_-1_64f55c0b_many_connection_points"
      },
      "geometry": {
        "type": "LineString",
        "coordinates": [
          [
            30.3272471,
            60.0770223
          ],
          [
            30.327827,
            60.0769615
          ],
          [
            30.3280878,
            60.0769248
          ]
        ]
      }
    },
    {
      "type": "Feature",
      "properties": {
        "id": "spb_parnas_+1_-1_64f55c0b_many_connection_points_osm_way_1490972052_59",
        "object_type": "restriction",
        "restriction_type": "road",
        "name": "",
        "osm_kind": "road",
        "osm_id": 1490972052,
        "osm_type": "way",
        "osm_tags": {
          "highway": "footway"
        },
        "case_id": "spb_parnas_+1_-1_64f55c0b_many_connection_points"
      },
      "geometry": {
        "type": "LineString",
        "coordinates": [
          [
            30.3287942,
            60.0769867
          ],
          [
            30.3281375,
            60.0770352
          ]
        ]
      }
    },
    {
      "type": "Feature",
      "properties": {
        "id": "spb_parnas_+1_-1_64f55c0b_many_connection_points_source",
        "object_type": "source",
        "case_id": "spb_parnas_+1_-1_64f55c0b_many_connection_points"
      },
      "geometry": {
        "type": "Point",
        "coordinates": [
          30.32735576,
          60.07663565
        ]
      }
    },
    {
      "type": "Feature",
      "properties": {
        "id": "spb_parnas_+1_-1_64f55c0b_many_connection_points_existing_network",
        "object_type": "heat_network",
        "diameter": 500,
        "flow_tph": 180.0,
        "upstream_object_id": "spb_parnas_+1_-1_64f55c0b_many_connection_points_source",
        "case_id": "spb_parnas_+1_-1_64f55c0b_many_connection_points"
      },
      "geometry": {
        "type": "LineString",
        "coordinates": [
          [
            30.32735576,
            60.07663565
          ],
          [
            30.328616320000002,
            60.07663565
          ]
        ]
      }
    },
    {
      "type": "Feature",
      "properties": {
        "id": "spb_parnas_+1_-1_64f55c0b_many_connection_points_existing_chamber",
        "object_type": "heat_chamber",
        "diameter": 500,
        "upstream_object_id": "spb_parnas_+1_-1_64f55c0b_many_connection_points_source",
        "case_id": "spb_parnas_+1_-1_64f55c0b_many_connection_points"
      },
      "geometry": {
        "type": "Point",
        "coordinates": [
          30.328616320000002,
          60.07663565
        ]
      }
    },
    {
      "type": "Feature",
      "properties": {
        "id": "spb_parnas_+1_-1_64f55c0b_many_connection_points_cp_1",
        "object_type": "oks_connection_point",
        "flow_tph": 5.0,
        "case_id": "spb_parnas_+1_-1_64f55c0b_many_connection_points",
        "consumer_role": "osm_building_heat_demand_proxy",
        "source_building_osm_id": 1490616594,
        "source_building_osm_type": "way",
        "source_building_name": "",
        "source_building_tags": {
          "building": "yes"
        },
        "footprint_area_m2": 36.67,
        "flow_basis": "synthetic_proxy_from_osm_footprint_area",
        "stress_bucket": "many_connection_points"
      },
      "geometry": {
        "type": "Point",
        "coordinates": [
          30.32819065,
          60.0755421
        ]
      }
    },
    {
      "type": "Feature",
      "properties": {
        "id": "spb_parnas_+1_-1_64f55c0b_many_connection_points_cp_2",
        "object_type": "oks_connection_point",
        "flow_tph": 5.0,
        "case_id": "spb_parnas_+1_-1_64f55c0b_many_connection_points",
        "consumer_role": "osm_building_heat_demand_proxy",
        "source_building_osm_id": 164024137,
        "source_building_osm_type": "way",
        "source_building_name": "Церковь Мучеников младенцев Вифлеемских",
        "source_building_tags": {
          "building": "church",
          "name": "Церковь Мучеников младенцев Вифлеемских"
        },
        "footprint_area_m2": 229.08,
        "flow_basis": "synthetic_proxy_from_osm_footprint_area",
        "stress_bucket": "many_connection_points"
      },
      "geometry": {
        "type": "Point",
        "coordinates": [
          30.328085533333333,
          60.0757672
        ]
      }
    },
    {
      "type": "Feature",
      "properties": {
        "id": "spb_parnas_+1_-1_64f55c0b_many_connection_points_cp_3",
        "object_type": "oks_connection_point",
        "flow_tph": 5.0,
        "case_id": "spb_parnas_+1_-1_64f55c0b_many_connection_points",
        "consumer_role": "osm_building_heat_demand_proxy",
        "source_building_osm_id": 1490616595,
        "source_building_osm_type": "way",
        "source_building_name": "",
        "source_building_tags": {
          "building": "yes"
        },
        "footprint_area_m2": 88.64,
        "flow_basis": "synthetic_proxy_from_osm_footprint_area",
        "stress_bucket": "many_connection_points"
      },
      "geometry": {
        "type": "Point",
        "coordinates": [
          30.3280727,
          60.07545855833333
        ]
      }
    },
    {
      "type": "Feature",
      "properties": {
        "id": "spb_parnas_+1_-1_64f55c0b_many_connection_points_cp_4",
        "object_type": "oks_connection_point",
        "flow_tph": 8.841,
        "case_id": "spb_parnas_+1_-1_64f55c0b_many_connection_points",
        "consumer_role": "osm_building_heat_demand_proxy",
        "source_building_osm_id": 110087163,
        "source_building_osm_type": "way",
        "source_building_name": "",
        "source_building_tags": {
          "building": "apartments"
        },
        "footprint_area_m2": 795.72,
        "flow_basis": "synthetic_proxy_from_osm_footprint_area",
        "stress_bucket": "many_connection_points"
      },
      "geometry": {
        "type": "Point",
        "coordinates": [
          30.328824465135362,
          60.077163594283796
        ]
      }
    },
    {
      "type": "Feature",
      "properties": {
        "id": "spb_parnas_+1_-1_64f55c0b_many_connection_points_cp_5",
        "object_type": "oks_connection_point",
        "flow_tph": 5.0,
        "case_id": "spb_parnas_+1_-1_64f55c0b_many_connection_points",
        "consumer_role": "osm_building_heat_demand_proxy",
        "source_building_osm_id": 205782544,
        "source_building_osm_type": "way",
        "source_building_name": "",
        "source_building_tags": {
          "building": "service"
        },
        "footprint_area_m2": 28.54,
        "flow_basis": "synthetic_proxy_from_osm_footprint_area",
        "stress_bucket": "many_connection_points"
      },
      "geometry": {
        "type": "Point",
        "coordinates": [
          30.32769225,
          60.076716950000005
        ]
      }
    },
    {
      "type": "Feature",
      "properties": {
        "id": "spb_parnas_+1_-1_64f55c0b_many_connection_points_cp_6",
        "object_type": "oks_connection_point",
        "flow_tph": 5.0,
        "case_id": "spb_parnas_+1_-1_64f55c0b_many_connection_points",
        "consumer_role": "osm_building_heat_demand_proxy",
        "source_building_osm_id": 1490616600,
        "source_building_osm_type": "way",
        "source_building_name": "",
        "source_building_tags": {
          "building": "yes"
        },
        "footprint_area_m2": 27.05,
        "flow_basis": "synthetic_proxy_from_osm_footprint_area",
        "stress_bucket": "many_connection_points"
      },
      "geometry": {
        "type": "Point",
        "coordinates": [
          30.3280179,
          60.077384550000005
        ]
      }
    },
    {
      "type": "Feature",
      "properties": {
        "id": "spb_parnas_+1_-1_64f55c0b_many_connection_points_cp_7",
        "object_type": "oks_connection_point",
        "flow_tph": 5.0,
        "case_id": "spb_parnas_+1_-1_64f55c0b_many_connection_points",
        "consumer_role": "osm_building_heat_demand_proxy",
        "source_building_osm_id": 1301616877,
        "source_building_osm_type": "way",
        "source_building_name": "",
        "source_building_tags": {
          "building": "garage"
        },
        "footprint_area_m2": 23.47,
        "flow_basis": "synthetic_proxy_from_osm_footprint_area",
        "stress_bucket": "many_connection_points"
      },
      "geometry": {
        "type": "Point",
        "coordinates": [
          30.328082238388298,
          60.077594627904055
        ]
      }
    },
    {
      "type": "Feature",
      "properties": {
        "id": "spb_parnas_+1_-1_64f55c0b_many_connection_points_cp_8",
        "object_type": "oks_connection_point",
        "flow_tph": 5.0,
        "case_id": "spb_parnas_+1_-1_64f55c0b_many_connection_points",
        "consumer_role": "osm_building_heat_demand_proxy",
        "source_building_osm_id": 205887298,
        "source_building_osm_type": "way",
        "source_building_name": "",
        "source_building_tags": {
          "building": "garage"
        },
        "footprint_area_m2": 21.23,
        "flow_basis": "synthetic_proxy_from_osm_footprint_area",
        "stress_bucket": "many_connection_points"
      },
      "geometry": {
        "type": "Point",
        "coordinates": [
          30.3283608,
          60.077914699999994
        ]
      }
    },
    {
      "type": "Feature",
      "properties": {
        "id": "spb_parnas_+1_-1_64f55c0b_many_connection_points_cp_9",
        "object_type": "oks_connection_point",
        "flow_tph": 5.0,
        "case_id": "spb_parnas_+1_-1_64f55c0b_many_connection_points",
        "consumer_role": "osm_building_heat_demand_proxy",
        "source_building_osm_id": 110087014,
        "source_building_osm_type": "way",
        "source_building_name": "",
        "source_building_tags": {
          "building": "detached"
        },
        "footprint_area_m2": 307.76,
        "flow_basis": "synthetic_proxy_from_osm_footprint_area",
        "stress_bucket": "many_connection_points"
      },
      "geometry": {
        "type": "Point",
        "coordinates": [
          30.32778845,
          60.077771
        ]
      }
    },
    {
      "type": "Feature",
      "properties": {
        "id": "spb_parnas_+1_-1_64f55c0b_many_connection_points_cp_10",
        "object_type": "oks_connection_point",
        "flow_tph": 5.0,
        "case_id": "spb_parnas_+1_-1_64f55c0b_many_connection_points",
        "consumer_role": "osm_building_heat_demand_proxy",
        "source_building_osm_id": 110087257,
        "source_building_osm_type": "way",
        "source_building_name": "",
        "source_building_tags": {
          "building": "apartments"
        },
        "footprint_area_m2": 257.67,
        "flow_basis": "synthetic_proxy_from_osm_footprint_area",
        "stress_bucket": "many_connection_points"
      },
      "geometry": {
        "type": "Point",
        "coordinates": [
          30.327565225,
          60.0768855
        ]
      }
    },
    {
      "type": "Feature",
      "properties": {
        "id": "spb_parnas_+1_-1_64f55c0b_many_connection_points_cp_11",
        "object_type": "oks_connection_point",
        "flow_tph": 5.0,
        "case_id": "spb_parnas_+1_-1_64f55c0b_many_connection_points",
        "consumer_role": "osm_building_heat_demand_proxy",
        "source_building_osm_id": 1274561801,
        "source_building_osm_type": "way",
        "source_building_name": "Часовня Мучеников младенцев Вифлеемских",
        "source_building_tags": {
          "building": "chapel",
          "name": "Часовня Мучеников младенцев Вифлеемских"
        },
        "footprint_area_m2": 138.0,
        "flow_basis": "synthetic_proxy_from_osm_footprint_area",
        "stress_bucket": "many_connection_points"
      },
      "geometry": {
        "type": "Point",
        "coordinates": [
          30.32771835495861,
          60.07558587297041
        ]
      }
    },
    {
      "type": "Feature",
      "properties": {
        "id": "spb_parnas_+1_-1_64f55c0b_many_connection_points_cp_12",
        "object_type": "oks_connection_point",
        "flow_tph": 22.747,
        "case_id": "spb_parnas_+1_-1_64f55c0b_many_connection_points",
        "consumer_role": "osm_building_heat_demand_proxy",
        "source_building_osm_id": 1149693035,
        "source_building_osm_type": "way",
        "source_building_name": "",
        "source_building_tags": {
          "building": "apartments"
        },
        "footprint_area_m2": 2047.21,
        "flow_basis": "synthetic_proxy_from_osm_footprint_area",
        "stress_bucket": "many_connection_points"
      },
      "geometry": {
        "type": "Point",
        "coordinates": [
          30.3265424,
          60.07720915
        ]
      }
    }
  ]
}