{
  "type": "FeatureCollection",
  "name": "moscow_kommunarka_+3_+0_1348bd6a",
  "crs": {
    "type": "name",
    "properties": {
      "name": "EPSG:4326"
    }
  },
  "metadata": {
    "dataset_version": "osm_building_anchored_routing_scenes_v3",
    "parent_scene_id": "moscow_kommunarka_+3_+0_1348bd6a",
    "split": "validation",
    "city": "Москва Коммунарка",
    "seed": "moscow_kommunarka",
    "research_bucket": "separate_pipes",
    "source_research_bucket": "separate_pipes",
    "research_bucket_is_ground_truth": false,
    "bbox_south_west_north_east": [
      55.5885595,
      37.4676156,
      55.5912544,
      37.4723844
    ],
    "real_data_source": "OpenStreetMap via Overpass API",
    "source_file": "data/real_geojson_places/separate_pipes/036_moscow_kommunarka_+3_+0_1348bd6a.geojson",
    "real_layers": [
      "restrictions",
      "consumer_building_footprints"
    ],
    "synthetic_layers": [
      "source",
      "heat_network",
      "heat_chamber",
      "heat_demand"
    ],
    "consumer_selection": "deterministic points inside real OSM building footprints",
    "flow_model": "synthetic proxy derived from building footprint area; not metered demand",
    "note": "OSM buildings anchor consumers; heat demand and seed network are synthetic proxies."
  },
  "features": [
    {
      "type": "Feature",
      "properties": {
        "id": "moscow_kommunarka_+3_+0_1348bd6a_osm_way_41662340_1",
        "object_type": "restriction",
        "restriction_type": "road",
        "name": "",
        "osm_kind": "road",
        "osm_id": 41662340,
        "osm_type": "way",
        "osm_tags": {
          "highway": "unclassified"
        },
        "case_id": "moscow_kommunarka_+3_+0_1348bd6a"
      },
      "geometry": {
        "type": "LineString",
        "coordinates": [
          [
            37.4742943,
            55.5890925
          ],
          [
            37.4740592,
            55.5891507
          ],
          [
            37.4735655,
            55.589273
          ],
          [
            37.4735276,
            55.5892806
          ],
          [
            37.4718526,
            55.5896054
          ],
          [
            37.4716626,
            55.5896421
          ],
          [
            37.4714518,
            55.5896743
          ],
          [
            37.4711576,
            55.5898867
          ],
          [
            37.4699387,
            55.5909533
          ],
          [
            37.4682167,
            55.5925079
          ],
          [
            37.467501,
            55.5932371
          ],
          [
            37.4669353,
            55.5937513
          ],
          [
            37.4666653,
            55.593973
          ],
          [
            37.4666437,
            55.5940101
          ]
        ]
      }
    },
    {
      "type": "Feature",
      "properties": {
        "id": "moscow_kommunarka_+3_+0_1348bd6a_osm_way_125114705_2",
        "object_type": "restriction",
        "restriction_type": "road",
        "name": "",
        "osm_kind": "road",
        "osm_id": 125114705,
        "osm_type": "way",
        "osm_tags": {
          "highway": "service"
        },
        "case_id": "moscow_kommunarka_+3_+0_1348bd6a"
      },
      "geometry": {
        "type": "LineString",
        "coordinates": [
          [
            37.4677931,
            55.5903542
          ],
          [
            37.4668603,
            55.5897479
          ],
          [
            37.4662005,
            55.5892113
          ],
          [
            37.4649077,
            55.5895509
          ],
          [
            37.4643337,
            55.5896524
          ],
          [
            37.4630657,
            55.5886854
          ],
          [
            37.462145,
            55.5888233
          ],
          [
            37.4611687,
            55.5889991
          ],
          [
            37.4608711,
            55.5889982
          ],
          [
            37.4580809,
            55.5889901
          ]
        ]
      }
    },
    {
      "type": "Feature",
      "properties": {
        "id": "moscow_kommunarka_+3_+0_1348bd6a_osm_way_125114706_3",
        "object_type": "restriction",
        "restriction_type": "road",
        "name": "",
        "osm_kind": "road",
        "osm_id": 125114706,
        "osm_type": "way",
        "osm_tags": {
          "highway": "service"
        },
        "case_id": "moscow_kommunarka_+3_+0_1348bd6a"
      },
      "geometry": {
        "type": "LineString",
        "coordinates": [
          [
            37.4711576,
            55.5898867
          ],
          [
            37.4708675,
            55.5898465
          ],
          [
            37.4701809,
            55.5896039
          ],
          [
            37.4681961,
            55.5903133
          ],
          [
            37.467091,
            55.5907043
          ],
          [
            37.4674202,
            55.5911543
          ],
          [
            37.4680083,
            55.5920064
          ]
        ]
      }
    },
    {
      "type": "Feature",
      "properties": {
        "id": "moscow_kommunarka_+3_+0_1348bd6a_osm_way_125114715_4",
        "object_type": "restriction",
        "restriction_type": "road",
        "name": "1-я улица Лесные Поляны",
        "osm_kind": "road",
        "osm_id": 125114715,
        "osm_type": "way",
        "osm_tags": {
          "highway": "service",
          "name": "1-я улица Лесные Поляны"
        },
        "case_id": "moscow_kommunarka_+3_+0_1348bd6a"
      },
      "geometry": {
        "type": "LineString",
        "coordinates": [
          [
            37.4716626,
            55.5896421
          ],
          [
            37.4716635,
            55.5895887
          ],
          [
            37.4715107,
            55.5894581
          ],
          [
            37.4710197,
            55.5885877
          ],
          [
            37.4706135,
            55.5877176
          ],
          [
            37.4705159,
            55.5868698
          ],
          [
            37.4701929,
            55.5858105
          ],
          [
            37.4699544,
            55.5850334
          ],
          [
            37.4698526,
            55.5848465
          ]
        ]
      }
    },
    {
      "type": "Feature",
      "properties": {
        "id": "moscow_kommunarka_+3_+0_1348bd6a_osm_way_125114723_5",
        "object_type": "restriction",
        "restriction_type": "road",
        "name": "",
        "osm_kind": "road",
        "osm_id": 125114723,
        "osm_type": "way",
        "osm_tags": {
          "highway": "service"
        },
        "case_id": "moscow_kommunarka_+3_+0_1348bd6a"
      },
      "geometry": {
        "type": "LineString",
        "coordinates": [
          [
            37.4699387,
            55.5909533
          ],
          [
            37.4706878,
            55.5912273
          ],
          [
            37.4709554,
            55.5916475
          ],
          [
            37.4716588,
            55.5925899
          ],
          [
            37.4725701,
            55.5939262
          ],
          [
            37.4734532,
            55.5951937
          ]
        ]
      }
    },
    {
      "type": "Feature",
      "properties": {
        "id": "moscow_kommunarka_+3_+0_1348bd6a_osm_way_125114725_6",
        "object_type": "restriction",
        "restriction_type": "road",
        "name": "",
        "osm_kind": "road",
        "osm_id": 125114725,
        "osm_type": "way",
        "osm_tags": {
          "highway": "service"
        },
        "case_id": "moscow_kommunarka_+3_+0_1348bd6a"
      },
      "geometry": {
        "type": "LineString",
        "coordinates": [
          [
            37.4714518,
            55.5896743
          ],
          [
            37.4713518,
            55.5895107
          ],
          [
            37.4710839,
            55.5891653
          ],
          [
            37.470942,
            55.5891061
          ],
          [
            37.4693605,
            55.5897783
          ],
          [
            37.468534,
            55.590083
          ],
          [
            37.4677931,
            55.5903542
          ],
          [
            37.4664827,
            55.5907782
          ],
          [
            37.465624,
            55.5910798
          ],
          [
            37.4652349,
            55.5912349
          ],
          [
            37.4649881,
            55.5912667
          ],
          [
            37.4644517,
            55.5909878
          ],
          [
            37.4639474,
            55.5907362
          ],
          [
            37.4627673,
            55.5895767
          ]
        ]
      }
    },
    {
      "type": "Feature",
      "properties": {
        "id": "moscow_kommunarka_+3_+0_1348bd6a_osm_way_125114726_7",
        "object_type": "restriction",
        "restriction_type": "road",
        "name": "",
        "osm_kind": "road",
        "osm_id": 125114726,
        "osm_type": "way",
        "osm_tags": {
          "highway": "service"
        },
        "case_id": "moscow_kommunarka_+3_+0_1348bd6a"
      },
      "geometry": {
        "type": "LineString",
        "coordinates": [
          [
            37.4710197,
            55.5885877
          ],
          [
            37.4709105,
            55.5886414
          ],
          [
            37.470256,
            55.588696
          ],
          [
            37.4695586,
            55.5888112
          ],
          [
            37.4686474,
            55.5890832
          ],
          [
            37.4684818,
            55.5890201
          ],
          [
            37.4680137,
            55.5891068
          ],
          [
            37.4675041,
            55.5891659
          ],
          [
            37.466815,
            55.5885704
          ]
        ]
      }
    },
    {
      "type": "Feature",
      "properties": {
        "id": "moscow_kommunarka_+3_+0_1348bd6a_osm_way_125114728_8",
        "object_type": "restriction",
        "restriction_type": "road",
        "name": "",
        "osm_kind": "road",
        "osm_id": 125114728,
        "osm_type": "way",
        "osm_tags": {
          "highway": "service"
        },
        "case_id": "moscow_kommunarka_+3_+0_1348bd6a"
      },
      "geometry": {
        "type": "LineString",
        "coordinates": [
          [
            37.4675041,
            55.5891659
          ],
          [
            37.468534,
            55.590083
          ]
        ]
      }
    },
    {
      "type": "Feature",
      "properties": {
        "id": "moscow_kommunarka_+3_+0_1348bd6a_osm_way_125114729_9",
        "object_type": "restriction",
        "restriction_type": "road",
        "name": "2-я улица Лесные Поляны",
        "osm_kind": "road",
        "osm_id": 125114729,
        "osm_type": "way",
        "osm_tags": {
          "highway": "service",
          "name": "2-я улица Лесные Поляны"
        },
        "case_id": "moscow_kommunarka_+3_+0_1348bd6a"
      },
      "geometry": {
        "type": "LineString",
        "coordinates": [
          [
            37.4688637,
            55.5848738
          ],
          [
            37.469108,
            55.5870527
          ],
          [
            37.4692783,
            55.5886553
          ],
          [
            37.4693294,
            55.5887323
          ],
          [
            37.4695586,
            55.5888112
          ]
        ]
      }
    },
    {
      "type": "Feature",
      "properties": {
        "id": "moscow_kommunarka_+3_+0_1348bd6a_osm_way_369399562_10",
        "object_type": "restriction",
        "restriction_type": "oks",
        "name": "",
        "osm_kind": "building",
        "osm_id": 369399562,
        "osm_type": "way",
        "osm_tags": {
          "building": "yes"
        },
        "case_id": "moscow_kommunarka_+3_+0_1348bd6a"
      },
      "geometry": {
        "type": "Polygon",
        "coordinates": [
          [
            [
              37.4717404,
              55.5884904
            ],
            [
              37.4714594,
              55.5885418
            ],
            [
              37.4715618,
              55.5887204
            ],
            [
              37.4718428,
              55.588669
            ],
            [
              37.4717404,
              55.5884904
            ]
          ]
        ]
      }
    },
    {
      "type": "Feature",
      "properties": {
        "id": "moscow_kommunarka_+3_+0_1348bd6a_osm_way_440155115_11",
        "object_type": "restriction",
        "restriction_type": "road",
        "name": "",
        "osm_kind": "road",
        "osm_id": 440155115,
        "osm_type": "way",
        "osm_tags": {
          "highway": "footway"
        },
        "case_id": "moscow_kommunarka_+3_+0_1348bd6a"
      },
      "geometry": {
        "type": "LineString",
        "coordinates": [
          [
            37.4716635,
            55.5895887
          ],
          [
            37.4724601,
            55.5894491
          ],
          [
            37.4733198,
            55.5892598
          ],
          [
            37.4736952,
            55.5891754
          ],
          [
            37.4739334,
            55.5891229
          ],
          [
            37.4740141,
            55.5890933
          ],
          [
            37.4740908,
            55.5890431
          ],
          [
            37.4740948,
            55.5889998
          ],
          [
            37.4740703,
            55.5889496
          ],
          [
            37.4737591,
            55.5885352
          ],
          [
            37.4736035,
            55.5883927
          ],
          [
            37.4733353,
            55.5880123
          ],
          [
            37.4732944,
            55.5878483
          ],
          [
            37.4716274,
            55.5855091
          ],
          [
            37.4713236,
            55.5850987
          ],
          [
            37.4711273,
            55.5848632
          ],
          [
            37.4707233,
            55.584432
          ],
          [
            37.4702951,
            55.5840646
          ],
          [
            37.470147,
            55.5839375
          ],
          [
            37.4699745,
            55.5838011
          ],
          [
            37.468771,
            55.5829354
          ],
          [
            37.468303,
            55.5826129
          ],
          [
            37.4676151,
            55.5821918
          ],
          [
            37.467485,
            55.5820777
          ],
          [
            37.4667637,
            55.581476
          ],
          [
            37.466412,
            55.5811826
          ],
          [
            37.4663244,
            55.581128
          ],
          [
            37.4663093,
            55.5810787
          ],
          [
            37.4662555,
            55.5810416
          ],
          [
            37.4661809,
            55.5809902
          ],
          [
            37.4661487,
            55.5809681
          ]
        ]
      }
    },
    {
      "type": "Feature",
      "properties": {
        "id": "moscow_kommunarka_+3_+0_1348bd6a_osm_way_658213967_12",
        "object_type": "restriction",
        "restriction_type": "oks",
        "name": "",
        "osm_kind": "building",
        "osm_id": 658213967,
        "osm_type": "way",
        "osm_tags": {
          "building": "yes"
        },
        "case_id": "moscow_kommunarka_+3_+0_1348bd6a"
      },
      "geometry": {
        "type": "Polygon",
        "coordinates": [
          [
            [
              37.4719459,
              55.5893932
            ],
            [
              37.4720086,
              55.589503
            ],
            [
              37.4723573,
              55.5894393
            ],
            [
              37.4722946,
              55.5893295
            ],
            [
              37.4719459,
              55.5893932
            ]
          ]
        ]
      }
    },
    {
      "type": "Feature",
      "properties": {
        "id": "moscow_kommunarka_+3_+0_1348bd6a_osm_way_679401443_13",
        "object_type": "restriction",
        "restriction_type": "road",
        "name": "",
        "osm_kind": "road",
        "osm_id": 679401443,
        "osm_type": "way",
        "osm_tags": {
          "highway": "service"
        },
        "case_id": "moscow_kommunarka_+3_+0_1348bd6a"
      },
      "geometry": {
        "type": "LineString",
        "coordinates": [
          [
            37.4772949,
            55.5947045
          ],
          [
            37.4771497,
            55.5945725
          ],
          [
            37.4765169,
            55.5935637
          ],
          [
            37.4761844,
            55.592983
          ],
          [
            37.4754553,
            55.5919369
          ],
          [
            37.4753284,
            55.5917512
          ],
          [
            37.475223,
            55.5915969
          ],
          [
            37.4751148,
            55.5914385
          ],
          [
            37.4749944,
            55.5912623
          ],
          [
            37.4749123,
            55.5911421
          ],
          [
            37.4747923,
            55.5909664
          ],
          [
            37.4746715,
            55.5907896
          ],
          [
            37.4745972,
            55.5906808
          ],
          [
            37.4745147,
            55.5905601
          ],
          [
            37.4744005,
            55.5903929
          ],
          [
            37.4742974,
            55.5902419
          ],
          [
            37.4741784,
            55.5900677
          ],
          [
            37.4740708,
            55.5899102
          ],
          [
            37.473951,
            55.5897348
          ],
          [
            37.4738931,
            55.5896371
          ],
          [
            37.4738254,
            55.5895847
          ],
          [
            37.4737214,
            55.5895962
          ],
          [
            37.4734684,
            55.5896572
          ],
          [
            37.473037,
            55.5897613
          ],
          [
            37.4721984,
            55.5899514
          ],
          [
            37.4720934,
            55.5899752
          ],
          [
            37.472029,
            55.5900222
          ],
          [
            37.4721201,
            55.5901068
          ],
          [
            37.4728105,
            55.591098
          ],
          [
            37.4736303,
            55.5923912
          ],
          [
            37.473743,
            55.5924306
          ],
          [
            37.4744982,
            55.5922575
          ],
          [
            37.4749929,
            55.5921578
          ],
          [
            37.4751753,
            55.5921518
          ],
          [
            37.4752074,
            55.5922003
          ]
        ]
      }
    },
    {
      "type": "Feature",
      "properties": {
        "id": "moscow_kommunarka_+3_+0_1348bd6a_osm_way_693607496_14",
        "object_type": "restriction",
        "restriction_type": "road",
        "name": "",
        "osm_kind": "road",
        "osm_id": 693607496,
        "osm_type": "way",
        "osm_tags": {
          "highway": "service"
        },
        "case_id": "moscow_kommunarka_+3_+0_1348bd6a"
      },
      "geometry": {
        "type": "LineString",
        "coordinates": [
          [
            37.472029,
            55.5900222
          ],
          [
            37.4719137,
            55.590001
          ],
          [
            37.4717244,
            55.5897816
          ],
          [
            37.4716626,
            55.5896421
          ]
        ]
      }
    },
    {
      "type": "Feature",
      "properties": {
        "id": "moscow_kommunarka_+3_+0_1348bd6a_osm_way_693607497_15",
        "object_type": "restriction",
        "restriction_type": "road",
        "name": "",
        "osm_kind": "road",
        "osm_id": 693607497,
        "osm_type": "way",
        "osm_tags": {
          "highway": "service"
        },
        "case_id": "moscow_kommunarka_+3_+0_1348bd6a"
      },
      "geometry": {
        "type": "LineString",
        "coordinates": [
          [
            37.4720934,
            55.5899752
          ],
          [
            37.4718526,
            55.5896054
          ]
        ]
      }
    },
    {
      "type": "Feature",
      "properties": {
        "id": "moscow_kommunarka_+3_+0_1348bd6a_osm_way_693607498_16",
        "object_type": "restriction",
        "restriction_type": "road",
        "name": "",
        "osm_kind": "road",
        "osm_id": 693607498,
        "osm_type": "way",
        "osm_tags": {
          "highway": "service"
        },
        "case_id": "moscow_kommunarka_+3_+0_1348bd6a"
      },
      "geometry": {
        "type": "LineString",
        "coordinates": [
          [
            37.470942,
            55.5891061
          ],
          [
            37.4707967,
            55.5887146
          ]
        ]
      }
    },
    {
      "type": "Feature",
      "properties": {
        "id": "moscow_kommunarka_+3_+0_1348bd6a_osm_way_693607499_17",
        "object_type": "restriction",
        "restriction_type": "road",
        "name": "",
        "osm_kind": "road",
        "osm_id": 693607499,
        "osm_type": "way",
        "osm_tags": {
          "highway": "service"
        },
        "case_id": "moscow_kommunarka_+3_+0_1348bd6a"
      },
      "geometry": {
        "type": "LineString",
        "coordinates": [
          [
            37.4693605,
            55.5897783
          ],
          [
            37.4686474,
            55.5890832
          ]
        ]
      }
    },
    {
      "type": "Feature",
      "properties": {
        "id": "moscow_kommunarka_+3_+0_1348bd6a_osm_way_804211915_18",
        "object_type": "restriction",
        "restriction_type": "oks",
        "name": "",
        "osm_kind": "building",
        "osm_id": 804211915,
        "osm_type": "way",
        "osm_tags": {
          "building": "yes"
        },
        "case_id": "moscow_kommunarka_+3_+0_1348bd6a"
      },
      "geometry": {
        "type": "Polygon",
        "coordinates": [
          [
            [
              37.4679601,
              55.5901874
            ],
            [
              37.4680546,
              55.5901497
            ],
            [
              37.467958,
              55.5900724
            ],
            [
              37.4678636,
              55.5901101
            ],
            [
              37.4679601,
              55.5901874
            ]
          ]
        ]
      }
    },
    {
      "type": "Feature",
      "properties": {
        "id": "moscow_kommunarka_+3_+0_1348bd6a_osm_way_804211919_19",
        "object_type": "restriction",
        "restriction_type": "oks",
        "name": "",
        "osm_kind": "building",
        "osm_id": 804211919,
        "osm_type": "way",
        "osm_tags": {
          "building": "yes"
        },
        "case_id": "moscow_kommunarka_+3_+0_1348bd6a"
      },
      "geometry": {
        "type": "Polygon",
        "coordinates": [
          [
            [
              37.4679118,
              55.5896948
            ],
            [
              37.4679675,
              55.5896748
            ],
            [
              37.4678924,
              55.5896081
            ],
            [
              37.4678367,
              55.5896281
            ],
            [
              37.4679118,
              55.5896948
            ]
          ]
        ]
      }
    },
    {
      "type": "Feature",
      "properties": {
        "id": "moscow_kommunarka_+3_+0_1348bd6a_osm_way_804211920_20",
        "object_type": "restriction",
        "restriction_type": "oks",
        "name": "",
        "osm_kind": "building",
        "osm_id": 804211920,
        "osm_type": "way",
        "osm_tags": {
          "building": "yes"
        },
        "case_id": "moscow_kommunarka_+3_+0_1348bd6a"
      },
      "geometry": {
        "type": "Polygon",
        "coordinates": [
          [
            [
              37.4676141,
              55.5896645
            ],
            [
              37.4676731,
              55.5896387
            ],
            [
              37.4676227,
              55.5896019
            ],
            [
              37.4675637,
              55.5896276
            ],
            [
              37.4676141,
              55.5896645
            ]
          ]
        ]
      }
    },
    {
      "type": "Feature",
      "properties": {
        "id": "moscow_kommunarka_+3_+0_1348bd6a_osm_way_804211922_21",
        "object_type": "restriction",
        "restriction_type": "oks",
        "name": "",
        "osm_kind": "building",
        "osm_id": 804211922,
        "osm_type": "way",
        "osm_tags": {
          "building": "yes"
        },
        "case_id": "moscow_kommunarka_+3_+0_1348bd6a"
      },
      "geometry": {
        "type": "Polygon",
        "coordinates": [
          [
            [
              37.4676168,
              55.5890809
            ],
            [
              37.4677348,
              55.5890339
            ],
            [
              37.4676351,
              55.5889539
            ],
            [
              37.4675171,
              55.5890009
            ],
            [
              37.4676168,
              55.5890809
            ]
          ]
        ]
      }
    },
    {
      "type": "Feature",
      "properties": {
        "id": "moscow_kommunarka_+3_+0_1348bd6a_osm_way_804211923_22",
        "object_type": "restriction",
        "restriction_type": "oks",
        "name": "",
        "osm_kind": "building",
        "osm_id": 804211923,
        "osm_type": "way",
        "osm_tags": {
          "building": "yes"
        },
        "case_id": "moscow_kommunarka_+3_+0_1348bd6a"
      },
      "geometry": {
        "type": "Polygon",
        "coordinates": [
          [
            [
              37.467767,
              55.5899646
            ],
            [
              37.4679056,
              55.5898908
            ],
            [
              37.4677741,
              55.589812
            ],
            [
              37.4676356,
              55.5898858
            ],
            [
              37.467767,
              55.5899646
            ]
          ]
        ]
      }
    },
    {
      "type": "Feature",
      "properties": {
        "id": "moscow_kommunarka_+3_+0_1348bd6a_osm_way_868842776_23",
        "object_type": "restriction",
        "restriction_type": "oks",
        "name": "",
        "osm_kind": "building",
        "osm_id": 868842776,
        "osm_type": "way",
        "osm_tags": {
          "building": "yes"
        },
        "case_id": "moscow_kommunarka_+3_+0_1348bd6a",
        "selected_as_heat_demand_proxy": true,
        "connection_point_id": "moscow_kommunarka_+3_+0_1348bd6a_cp_5"
      },
      "geometry": {
        "type": "Polygon",
        "coordinates": [
          [
            [
              37.4717152,
              55.5908377
            ],
            [
              37.471911,
              55.5907967
            ],
            [
              37.4718438,
              55.5906941
            ],
            [
              37.471648,
              55.590735
            ],
            [
              37.4717152,
              55.5908377
            ]
          ]
        ]
      }
    },
    {
      "type": "Feature",
      "properties": {
        "id": "moscow_kommunarka_+3_+0_1348bd6a_osm_way_868842777_24",
        "object_type": "restriction",
        "restriction_type": "oks",
        "name": "",
        "osm_kind": "building",
        "osm_id": 868842777,
        "osm_type": "way",
        "osm_tags": {
          "building": "yes"
        },
        "case_id": "moscow_kommunarka_+3_+0_1348bd6a"
      },
      "geometry": {
        "type": "Polygon",
        "coordinates": [
          [
            [
              37.4710581,
              55.5910847
            ],
            [
              37.4712217,
              55.5910559
            ],
            [
              37.4711505,
              55.5909268
            ],
            [
              37.4709869,
              55.5909556
            ],
            [
              37.4710581,
              55.5910847
            ]
          ]
        ]
      }
    },
    {
      "type": "Feature",
      "properties": {
        "id": "moscow_kommunarka_+3_+0_1348bd6a_osm_way_868842778_25",
        "object_type": "restriction",
        "restriction_type": "oks",
        "name": "",
        "osm_kind": "building",
        "osm_id": 868842778,
        "osm_type": "way",
        "osm_tags": {
          "building": "yes"
        },
        "case_id": "moscow_kommunarka_+3_+0_1348bd6a"
      },
      "geometry": {
        "type": "Polygon",
        "coordinates": [
          [
            [
              37.4711171,
              55.5907012
            ],
            [
              37.4711949,
              55.5906224
            ],
            [
              37.4710333,
              55.5905715
            ],
            [
              37.4709555,
              55.5906503
            ],
            [
              37.4711171,
              55.5907012
            ]
          ]
        ]
      }
    },
    {
      "type": "Feature",
      "properties": {
        "id": "moscow_kommunarka_+3_+0_1348bd6a_osm_way_868842779_26",
        "object_type": "restriction",
        "restriction_type": "oks",
        "name": "",
        "osm_kind": "building",
        "osm_id": 868842779,
        "osm_type": "way",
        "osm_tags": {
          "building": "yes"
        },
        "case_id": "moscow_kommunarka_+3_+0_1348bd6a"
      },
      "geometry": {
        "type": "Polygon",
        "coordinates": [
          [
            [
              37.4713129,
              55.590918
            ],
            [
              37.4715221,
              55.5908816
            ],
            [
              37.4714645,
              55.5907758
            ],
            [
              37.4712553,
              55.5908122
            ],
            [
              37.4713129,
              55.590918
            ]
          ]
        ]
      }
    },
    {
      "type": "Feature",
      "properties": {
        "id": "moscow_kommunarka_+3_+0_1348bd6a_osm_way_868842780_27",
        "object_type": "restriction",
        "restriction_type": "oks",
        "name": "",
        "osm_kind": "building",
        "osm_id": 868842780,
        "osm_type": "way",
        "osm_tags": {
          "building": "yes"
        },
        "case_id": "moscow_kommunarka_+3_+0_1348bd6a"
      },
      "geometry": {
        "type": "Polygon",
        "coordinates": [
          [
            [
              37.4715355,
              55.5912196
            ],
            [
              37.4717501,
              55.5911772
            ],
            [
              37.4716524,
              55.5910195
            ],
            [
              37.4714379,
              55.591062
            ],
            [
              37.4715355,
              55.5912196
            ]
          ]
        ]
      }
    },
    {
      "type": "Feature",
      "properties": {
        "id": "moscow_kommunarka_+3_+0_1348bd6a_osm_way_868842781_28",
        "object_type": "restriction",
        "restriction_type": "oks",
        "name": "",
        "osm_kind": "building",
        "osm_id": 868842781,
        "osm_type": "way",
        "osm_tags": {
          "building": "yes"
        },
        "case_id": "moscow_kommunarka_+3_+0_1348bd6a"
      },
      "geometry": {
        "type": "Polygon",
        "coordinates": [
          [
            [
              37.4711627,
              55.5912514
            ],
            [
              37.4713102,
              55.5912196
            ],
            [
              37.471237,
              55.5911113
            ],
            [
              37.4710895,
              55.5911431
            ],
            [
              37.4711627,
              55.5912514
            ]
          ]
        ]
      }
    },
    {
      "type": "Feature",
      "properties": {
        "id": "moscow_kommunarka_+3_+0_1348bd6a_osm_way_868842782_29",
        "object_type": "restriction",
        "restriction_type": "oks",
        "name": "",
        "osm_kind": "building",
        "osm_id": 868842782,
        "osm_type": "way",
        "osm_tags": {
          "building": "yes"
        },
        "case_id": "moscow_kommunarka_+3_+0_1348bd6a"
      },
      "geometry": {
        "type": "Polygon",
        "coordinates": [
          [
            [
              37.4707469,
              55.5911014
            ],
            [
              37.4708021,
              55.5910486
            ],
            [
              37.4706251,
              55.5909895
            ],
            [
              37.4705699,
              55.5910423
            ],
            [
              37.4707469,
              55.5911014
            ]
          ]
        ]
      }
    },
    {
      "type": "Feature",
      "properties": {
        "id": "moscow_kommunarka_+3_+0_1348bd6a_osm_way_868842783_30",
        "object_type": "restriction",
        "restriction_type": "oks",
        "name": "",
        "osm_kind": "building",
        "osm_id": 868842783,
        "osm_type": "way",
        "osm_tags": {
          "building": "yes"
        },
        "case_id": "moscow_kommunarka_+3_+0_1348bd6a"
      },
      "geometry": {
        "type": "Polygon",
        "coordinates": [
          [
            [
              37.47024,
              55.591012
            ],
            [
              37.4702772,
              55.5909745
            ],
            [
              37.4701243,
              55.590926
            ],
            [
              37.4700871,
              55.5909635
            ],
            [
              37.47024,
              55.591012
            ]
          ]
        ]
      }
    },
    {
      "type": "Feature",
      "properties": {
        "id": "moscow_kommunarka_+3_+0_1348bd6a_osm_way_868842784_31",
        "object_type": "restriction",
        "restriction_type": "oks",
        "name": "",
        "osm_kind": "building",
        "osm_id": 868842784,
        "osm_type": "way",
        "osm_tags": {
          "building": "yes"
        },
        "case_id": "moscow_kommunarka_+3_+0_1348bd6a"
      },
      "geometry": {
        "type": "Polygon",
        "coordinates": [
          [
            [
              37.4699476,
              55.590151
            ],
            [
              37.4700683,
              55.5902056
            ],
            [
              37.4701479,
              55.5901494
            ],
            [
              37.4700272,
              55.5900948
            ],
            [
              37.4699476,
              55.590151
            ]
          ]
        ]
      }
    },
    {
      "type": "Feature",
      "properties": {
        "id": "moscow_kommunarka_+3_+0_1348bd6a_osm_way_868842785_32",
        "object_type": "restriction",
        "restriction_type": "oks",
        "name": "",
        "osm_kind": "building",
        "osm_id": 868842785,
        "osm_type": "way",
        "osm_tags": {
          "building": "yes"
        },
        "case_id": "moscow_kommunarka_+3_+0_1348bd6a"
      },
      "geometry": {
        "type": "Polygon",
        "coordinates": [
          [
            [
              37.4690223,
              55.5903087
            ],
            [
              37.4691591,
              55.5903511
            ],
            [
              37.4692558,
              55.5902515
            ],
            [
              37.469119,
              55.5902091
            ],
            [
              37.4690223,
              55.5903087
            ]
          ]
        ]
      }
    },
    {
      "type": "Feature",
      "properties": {
        "id": "moscow_kommunarka_+3_+0_1348bd6a_osm_way_868842786_33",
        "object_type": "restriction",
        "restriction_type": "oks",
        "name": "",
        "osm_kind": "building",
        "osm_id": 868842786,
        "osm_type": "way",
        "osm_tags": {
          "building": "yes"
        },
        "case_id": "moscow_kommunarka_+3_+0_1348bd6a"
      },
      "geometry": {
        "type": "Polygon",
        "coordinates": [
          [
            [
              37.4694487,
              55.5904117
            ],
            [
              37.4696124,
              55.5904542
            ],
            [
              37.4696981,
              55.5903487
            ],
            [
              37.4695344,
              55.5903062
            ],
            [
              37.4694487,
              55.5904117
            ]
          ]
        ]
      }
    },
    {
      "type": "Feature",
      "properties": {
        "id": "moscow_kommunarka_+3_+0_1348bd6a_osm_way_868842787_34",
        "object_type": "restriction",
        "restriction_type": "oks",
        "name": "",
        "osm_kind": "building",
        "osm_id": 868842787,
        "osm_type": "way",
        "osm_tags": {
          "building": "yes"
        },
        "case_id": "moscow_kommunarka_+3_+0_1348bd6a"
      },
      "geometry": {
        "type": "Polygon",
        "coordinates": [
          [
            [
              37.4696258,
              55.590245
            ],
            [
              37.4697867,
              55.5903132
            ],
            [
              37.469891,
              55.5902346
            ],
            [
              37.4697301,
              55.5901664
            ],
            [
              37.4696258,
              55.590245
            ]
          ]
        ]
      }
    },
    {
      "type": "Feature",
      "properties": {
        "id": "moscow_kommunarka_+3_+0_1348bd6a_osm_way_868842788_35",
        "object_type": "restriction",
        "restriction_type": "oks",
        "name": "",
        "osm_kind": "building",
        "osm_id": 868842788,
        "osm_type": "way",
        "osm_tags": {
          "building": "yes"
        },
        "case_id": "moscow_kommunarka_+3_+0_1348bd6a"
      },
      "geometry": {
        "type": "Polygon",
        "coordinates": [
          [
            [
              37.4680889,
              55.5908301
            ],
            [
              37.4681747,
              55.5908134
            ],
            [
              37.4681265,
              55.5907342
            ],
            [
              37.4680407,
              55.5907509
            ],
            [
              37.4680889,
              55.5908301
            ]
          ]
        ]
      }
    },
    {
      "type": "Feature",
      "properties": {
        "id": "moscow_kommunarka_+3_+0_1348bd6a_osm_way_868842789_36",
        "object_type": "restriction",
        "restriction_type": "oks",
        "name": "",
        "osm_kind": "building",
        "osm_id": 868842789,
        "osm_type": "way",
        "osm_tags": {
          "building": "yes"
        },
        "case_id": "moscow_kommunarka_+3_+0_1348bd6a"
      },
      "geometry": {
        "type": "Polygon",
        "coordinates": [
          [
            [
              37.4680674,
              55.5910559
            ],
            [
              37.4681962,
              55.5910226
            ],
            [
              37.468146,
              55.5909608
            ],
            [
              37.4680173,
              55.5909941
            ],
            [
              37.4680674,
              55.5910559
            ]
          ]
        ]
      }
    },
    {
      "type": "Feature",
      "properties": {
        "id": "moscow_kommunarka_+3_+0_1348bd6a_osm_way_868842790_37",
        "object_type": "restriction",
        "restriction_type": "oks",
        "name": "",
        "osm_kind": "building",
        "osm_id": 868842790,
        "osm_type": "way",
        "osm_tags": {
          "building": "yes"
        },
        "case_id": "moscow_kommunarka_+3_+0_1348bd6a"
      },
      "geometry": {
        "type": "Polygon",
        "coordinates": [
          [
            [
              37.4694541,
              55.5908725
            ],
            [
              37.469572,
              55.5907871
            ],
            [
              37.4694379,
              55.590728
            ],
            [
              37.46932,
              55.5908134
            ],
            [
              37.4694541,
              55.5908725
            ]
          ]
        ]
      }
    },
    {
      "type": "Feature",
      "properties": {
        "id": "moscow_kommunarka_+3_+0_1348bd6a_osm_way_868842791_38",
        "object_type": "restriction",
        "restriction_type": "oks",
        "name": "",
        "osm_kind": "building",
        "osm_id": 868842791,
        "osm_type": "way",
        "osm_tags": {
          "building": "yes"
        },
        "case_id": "moscow_kommunarka_+3_+0_1348bd6a"
      },
      "geometry": {
        "type": "Polygon",
        "coordinates": [
          [
            [
              37.4693763,
              55.591018
            ],
            [
              37.4694491,
              55.5909626
            ],
            [
              37.4692935,
              55.5908974
            ],
            [
              37.4692208,
              55.5909529
            ],
            [
              37.4693763,
              55.591018
            ]
          ]
        ]
      }
    },
    {
      "type": "Feature",
      "properties": {
        "id": "moscow_kommunarka_+3_+0_1348bd6a_osm_way_868842792_39",
        "object_type": "restriction",
        "restriction_type": "oks",
        "name": "",
        "osm_kind": "building",
        "osm_id": 868842792,
        "osm_type": "way",
        "osm_tags": {
          "building": "yes"
        },
        "case_id": "moscow_kommunarka_+3_+0_1348bd6a"
      },
      "geometry": {
        "type": "Polygon",
        "coordinates": [
          [
            [
              37.4685743,
              55.5906876
            ],
            [
              37.4687326,
              55.5906376
            ],
            [
              37.4686472,
              55.5905513
            ],
            [
              37.4684889,
              55.5906013
            ],
            [
              37.4685743,
              55.5906876
            ]
          ]
        ]
      }
    },
    {
      "type": "Feature",
      "properties": {
        "id": "moscow_kommunarka_+3_+0_1348bd6a_osm_way_868843689_40",
        "object_type": "restriction",
        "restriction_type": "road",
        "name": "",
        "osm_kind": "road",
        "osm_id": 868843689,
        "osm_type": "way",
        "osm_tags": {
          "highway": "service"
        },
        "case_id": "moscow_kommunarka_+3_+0_1348bd6a"
      },
      "geometry": {
        "type": "LineString",
        "coordinates": [
          [
            37.4721984,
            55.5899514
          ],
          [
            37.47208,
            55.58976
          ],
          [
            37.473346,
            55.5894826
          ],
          [
            37.4734684,
            55.5896572
          ]
        ]
      }
    },
    {
      "type": "Feature",
      "properties": {
        "id": "moscow_kommunarka_+3_+0_1348bd6a_osm_way_1250726909_41",
        "object_type": "restriction",
        "restriction_type": "oks",
        "name": "",
        "osm_kind": "building",
        "osm_id": 1250726909,
        "osm_type": "way",
        "osm_tags": {
          "building": "yes"
        },
        "case_id": "moscow_kommunarka_+3_+0_1348bd6a"
      },
      "geometry": {
        "type": "Polygon",
        "coordinates": [
          [
            [
              37.4689354,
              55.5888896
            ],
            [
              37.4690803,
              55.5888564
            ],
            [
              37.4690315,
              55.5887884
            ],
            [
              37.4690878,
              55.5887755
            ],
            [
              37.4690688,
              55.588749
            ],
            [
              37.4690314,
              55.5887576
            ],
            [
              37.4690127,
              55.5887315
            ],
            [
              37.4688329,
              55.5887728
            ],
            [
              37.4688638,
              55.5888159
            ],
            [
              37.4688319,
              55.5888232
            ],
            [
              37.4688573,
              55.5888587
            ],
            [
              37.4689053,
              55.5888476
            ],
            [
              37.4689354,
              55.5888896
            ]
          ]
        ]
      }
    },
    {
      "type": "Feature",
      "properties": {
        "id": "moscow_kommunarka_+3_+0_1348bd6a_osm_way_1251501205_42",
        "object_type": "restriction",
        "restriction_type": "oks",
        "name": "",
        "osm_kind": "building",
        "osm_id": 1251501205,
        "osm_type": "way",
        "osm_tags": {
          "building": "yes"
        },
        "case_id": "moscow_kommunarka_+3_+0_1348bd6a"
      },
      "geometry": {
        "type": "Polygon",
        "coordinates": [
          [
            [
              37.4680443,
              55.5885592
            ],
            [
              37.4683581,
              55.5885978
            ],
            [
              37.4683696,
              55.5885678
            ],
            [
              37.4684033,
              55.5885719
            ],
            [
              37.4684202,
              55.5885278
            ],
            [
              37.4683602,
              55.5885204
            ],
            [
              37.4683859,
              55.5884536
            ],
            [
              37.4683041,
              55.5884436
            ],
            [
              37.4682858,
              55.5884912
            ],
            [
              37.4680802,
              55.5884659
            ],
            [
              37.4680443,
              55.5885592
            ]
          ]
        ]
      }
    },
    {
      "type": "Feature",
      "properties": {
        "id": "moscow_kommunarka_+3_+0_1348bd6a_osm_way_1251546671_43",
        "object_type": "restriction",
        "restriction_type": "oks",
        "name": "",
        "osm_kind": "building",
        "osm_id": 1251546671,
        "osm_type": "way",
        "osm_tags": {
          "building": "yes"
        },
        "case_id": "moscow_kommunarka_+3_+0_1348bd6a"
      },
      "geometry": {
        "type": "Polygon",
        "coordinates": [
          [
            [
              37.4693402,
              55.5886591
            ],
            [
              37.469439,
              55.5886557
            ],
            [
              37.4694325,
              55.5885948
            ],
            [
              37.4693336,
              55.5885982
            ],
            [
              37.4693402,
              55.5886591
            ]
          ]
        ]
      }
    },
    {
      "type": "Feature",
      "properties": {
        "id": "moscow_kommunarka_+3_+0_1348bd6a_osm_way_1252173877_44",
        "object_type": "restriction",
        "restriction_type": "oks",
        "name": "",
        "osm_kind": "building",
        "osm_id": 1252173877,
        "osm_type": "way",
        "osm_tags": {
          "building": "yes"
        },
        "case_id": "moscow_kommunarka_+3_+0_1348bd6a"
      },
      "geometry": {
        "type": "Polygon",
        "coordinates": [
          [
            [
              37.470389,
              55.5898694
            ],
            [
              37.4705741,
              55.5899315
            ],
            [
              37.4704776,
              55.5900149
            ],
            [
              37.4702952,
              55.5899497
            ],
            [
              37.470389,
              55.5898694
            ]
          ]
        ]
      }
    },
    {
      "type": "Feature",
      "properties": {
        "id": "moscow_kommunarka_+3_+0_1348bd6a_osm_way_1252213853_45",
        "object_type": "restriction",
        "restriction_type": "oks",
        "name": "",
        "osm_kind": "building",
        "osm_id": 1252213853,
        "osm_type": "way",
        "osm_tags": {
          "building": "yes"
        },
        "case_id": "moscow_kommunarka_+3_+0_1348bd6a"
      },
      "geometry": {
        "type": "Polygon",
        "coordinates": [
          [
            [
              37.4686129,
              55.5896513
            ],
            [
              37.468786,
              55.589806
            ],
            [
              37.4689338,
              55.5897532
            ],
            [
              37.4688476,
              55.5896762
            ],
            [
              37.4688804,
              55.5896644
            ],
            [
              37.4688396,
              55.589628
            ],
            [
              37.4688113,
              55.5896381
            ],
            [
              37.4687651,
              55.5895969
            ],
            [
              37.4686129,
              55.5896513
            ]
          ]
        ]
      }
    },
    {
      "type": "Feature",
      "properties": {
        "id": "moscow_kommunarka_+3_+0_1348bd6a_osm_way_1252230864_46",
        "object_type": "restriction",
        "restriction_type": "oks",
        "name": "",
        "osm_kind": "building",
        "osm_id": 1252230864,
        "osm_type": "way",
        "osm_tags": {
          "building": "yes"
        },
        "case_id": "moscow_kommunarka_+3_+0_1348bd6a"
      },
      "geometry": {
        "type": "Polygon",
        "coordinates": [
          [
            [
              37.4700568,
              55.5904427
            ],
            [
              37.4701302,
              55.5903781
            ],
            [
              37.4701207,
              55.5903746
            ],
            [
              37.4701668,
              55.5903341
            ],
            [
              37.4700563,
              55.590294
            ],
            [
              37.4700135,
              55.5903315
            ],
            [
              37.4700012,
              55.590327
            ],
            [
              37.4699244,
              55.5903946
            ],
            [
              37.4700568,
              55.5904427
            ]
          ]
        ]
      }
    },
    {
      "type": "Feature",
      "properties": {
        "id": "moscow_kommunarka_+3_+0_1348bd6a_osm_way_1265188497_47",
        "object_type": "restriction",
        "restriction_type": "oks",
        "name": "",
        "osm_kind": "building",
        "osm_id": 1265188497,
        "osm_type": "way",
        "osm_tags": {
          "building": "yes"
        },
        "case_id": "moscow_kommunarka_+3_+0_1348bd6a"
      },
      "geometry": {
        "type": "Polygon",
        "coordinates": [
          [
            [
              37.4703977,
              55.5889083
            ],
            [
              37.4705668,
              55.5888876
            ],
            [
              37.4705252,
              55.588779
            ],
            [
              37.470356,
              55.5887997
            ],
            [
              37.4703977,
              55.5889083
            ]
          ]
        ]
      }
    },
    {
      "type": "Feature",
      "properties": {
        "id": "moscow_kommunarka_+3_+0_1348bd6a_osm_way_1265711685_48",
        "object_type": "restriction",
        "restriction_type": "oks",
        "name": "",
        "osm_kind": "building",
        "osm_id": 1265711685,
        "osm_type": "way",
        "osm_tags": {
          "building": "yes"
        },
        "case_id": "moscow_kommunarka_+3_+0_1348bd6a"
      },
      "geometry": {
        "type": "Polygon",
        "coordinates": [
          [
            [
              37.4691132,
              55.5891655
            ],
            [
              37.4690535,
              55.5891088
            ],
            [
              37.4688598,
              55.5891738
            ],
            [
              37.468923,
              55.589234
            ],
            [
              37.4689826,
              55.589214
            ],
            [
              37.46901,
              55.5892401
            ],
            [
              37.4690822,
              55.5892158
            ],
            [
              37.4690512,
              55.5891863
            ],
            [
              37.4691132,
              55.5891655
            ]
          ]
        ]
      }
    },
    {
      "type": "Feature",
      "properties": {
        "id": "moscow_kommunarka_+3_+0_1348bd6a_osm_way_1266046303_49",
        "object_type": "restriction",
        "restriction_type": "oks",
        "name": "",
        "osm_kind": "building",
        "osm_id": 1266046303,
        "osm_type": "way",
        "osm_tags": {
          "building": "yes"
        },
        "case_id": "moscow_kommunarka_+3_+0_1348bd6a"
      },
      "geometry": {
        "type": "Polygon",
        "coordinates": [
          [
            [
              37.4699727,
              55.5898529
            ],
            [
              37.4701078,
              55.5898985
            ],
            [
              37.4701771,
              55.5898331
            ],
            [
              37.470042,
              55.5897874
            ],
            [
              37.4699727,
              55.5898529
            ]
          ]
        ]
      }
    },
    {
      "type": "Feature",
      "properties": {
        "id": "moscow_kommunarka_+3_+0_1348bd6a_osm_way_1266084699_50",
        "object_type": "restriction",
        "restriction_type": "oks",
        "name": "",
        "osm_kind": "building",
        "osm_id": 1266084699,
        "osm_type": "way",
        "osm_tags": {
          "building": "yes"
        },
        "case_id": "moscow_kommunarka_+3_+0_1348bd6a"
      },
      "geometry": {
        "type": "Polygon",
        "coordinates": [
          [
            [
              37.4707464,
              55.5892149
            ],
            [
              37.4708142,
              55.5892515
            ],
            [
              37.4709414,
              55.5891762
            ],
            [
              37.4708737,
              55.5891397
            ],
            [
              37.4707464,
              55.5892149
            ]
          ]
        ]
      }
    },
    {
      "type": "Feature",
      "properties": {
        "id": "moscow_kommunarka_+3_+0_1348bd6a_osm_way_1425992487_51",
        "object_type": "restriction",
        "restriction_type": "oks",
        "name": "",
        "osm_kind": "building",
        "osm_id": 1425992487,
        "osm_type": "way",
        "osm_tags": {
          "building": "yes"
        },
        "case_id": "moscow_kommunarka_+3_+0_1348bd6a"
      },
      "geometry": {
        "type": "Polygon",
        "coordinates": [
          [
            [
              37.4702194,
              55.5885092
            ],
            [
              37.4702249,
              55.5885985
            ],
            [
              37.4704297,
              55.5885945
            ],
            [
              37.4704242,
              55.5885052
            ],
            [
              37.4702194,
              55.5885092
            ]
          ]
        ]
      }
    },
    {
      "type": "Feature",
      "properties": {
        "id": "moscow_kommunarka_+3_+0_1348bd6a_osm_way_1434054376_52",
        "object_type": "restriction",
        "restriction_type": "oks",
        "name": "",
        "osm_kind": "building",
        "osm_id": 1434054376,
        "osm_type": "way",
        "osm_tags": {
          "building": "yes"
        },
        "case_id": "moscow_kommunarka_+3_+0_1348bd6a"
      },
      "geometry": {
        "type": "Polygon",
        "coordinates": [
          [
            [
              37.4707158,
              55.588593
            ],
            [
              37.4709126,
              55.5885625
            ],
            [
              37.4708612,
              55.5884566
            ],
            [
              37.4706644,
              55.5884871
            ],
            [
              37.4707158,
              55.588593
            ]
          ]
        ]
      }
    },
    {
      "type": "Feature",
      "properties": {
        "id": "moscow_kommunarka_+3_+0_1348bd6a_osm_way_1435917501_53",
        "object_type": "restriction",
        "restriction_type": "oks",
        "name": "",
        "osm_kind": "building",
        "osm_id": 1435917501,
        "osm_type": "way",
        "osm_tags": {
          "building": "yes"
        },
        "case_id": "moscow_kommunarka_+3_+0_1348bd6a"
      },
      "geometry": {
        "type": "Polygon",
        "coordinates": [
          [
            [
              37.469258,
              55.5901043
            ],
            [
              37.4693103,
              55.5900822
            ],
            [
              37.4692473,
              55.5900344
            ],
            [
              37.4691949,
              55.5900565
            ],
            [
              37.469258,
              55.5901043
            ]
          ]
        ]
      }
    },
    {
      "type": "Feature",
      "properties": {
        "id": "moscow_kommunarka_+3_+0_1348bd6a_osm_way_1436401955_54",
        "object_type": "restriction",
        "restriction_type": "oks",
        "name": "",
        "osm_kind": "building",
        "osm_id": 1436401955,
        "osm_type": "way",
        "osm_tags": {
          "building": "yes"
        },
        "case_id": "moscow_kommunarka_+3_+0_1348bd6a"
      },
      "geometry": {
        "type": "Polygon",
        "coordinates": [
          [
            [
              37.4683617,
              55.5904885
            ],
            [
              37.4685707,
              55.59041
            ],
            [
              37.4684389,
              55.5902979
            ],
            [
              37.4682298,
              55.5903764
            ],
            [
              37.4683617,
              55.5904885
            ]
          ]
        ]
      }
    },
    {
      "type": "Feature",
      "properties": {
        "id": "moscow_kommunarka_+3_+0_1348bd6a_osm_way_1457289548_55",
        "object_type": "restriction",
        "restriction_type": "oks",
        "name": "",
        "osm_kind": "building",
        "osm_id": 1457289548,
        "osm_type": "way",
        "osm_tags": {
          "building": "yes"
        },
        "case_id": "moscow_kommunarka_+3_+0_1348bd6a"
      },
      "geometry": {
        "type": "Polygon",
        "coordinates": [
          [
            [
              37.4698432,
              55.5894293
            ],
            [
              37.4701107,
              55.5893434
            ],
            [
              37.4699956,
              55.589229
            ],
            [
              37.4699517,
              55.5892431
            ],
            [
              37.4699282,
              55.5892198
            ],
            [
              37.4698121,
              55.5892572
            ],
            [
              37.4698221,
              55.5892798
            ],
            [
              37.4697244,
              55.5893112
            ],
            [
              37.4698432,
              55.5894293
            ]
          ]
        ]
      }
    },
    {
      "type": "Feature",
      "properties": {
        "id": "moscow_kommunarka_+3_+0_1348bd6a_osm_way_1476466579_56",
        "object_type": "restriction",
        "restriction_type": "oks",
        "name": "",
        "osm_kind": "building",
        "osm_id": 1476466579,
        "osm_type": "way",
        "osm_tags": {
          "building": "yes"
        },
        "case_id": "moscow_kommunarka_+3_+0_1348bd6a",
        "selected_as_heat_demand_proxy": true,
        "connection_point_id": "moscow_kommunarka_+3_+0_1348bd6a_cp_4"
      },
      "geometry": {
        "type": "Polygon",
        "coordinates": [
          [
            [
              37.4711569,
              55.5905216
            ],
            [
              37.471333,
              55.5905787
            ],
            [
              37.4713956,
              55.590517
            ],
            [
              37.4712196,
              55.5904599
            ],
            [
              37.4711569,
              55.5905216
            ]
          ]
        ]
      }
    },
    {
      "type": "Feature",
      "properties": {
        "id": "moscow_kommunarka_+3_+0_1348bd6a_osm_way_1485836151_57",
        "object_type": "restriction",
        "restriction_type": "oks",
        "name": "",
        "osm_kind": "building",
        "osm_id": 1485836151,
        "osm_type": "way",
        "osm_tags": {
          "building": "yes"
        },
        "case_id": "moscow_kommunarka_+3_+0_1348bd6a",
        "selected_as_heat_demand_proxy": true,
        "connection_point_id": "moscow_kommunarka_+3_+0_1348bd6a_cp_2"
      },
      "geometry": {
        "type": "Polygon",
        "coordinates": [
          [
            [
              37.4705728,
              55.5893608
            ],
            [
              37.4705043,
              55.5893094
            ],
            [
              37.4706908,
              55.58923
            ],
            [
              37.4707593,
              55.5892815
            ],
            [
              37.4705728,
              55.5893608
            ]
          ]
        ]
      }
    },
    {
      "type": "Feature",
      "properties": {
        "id": "moscow_kommunarka_+3_+0_1348bd6a_osm_way_1487317814_58",
        "object_type": "restriction",
        "restriction_type": "oks",
        "name": "",
        "osm_kind": "building",
        "osm_id": 1487317814,
        "osm_type": "way",
        "osm_tags": {
          "building": "yes"
        },
        "case_id": "moscow_kommunarka_+3_+0_1348bd6a"
      },
      "geometry": {
        "type": "Polygon",
        "coordinates": [
          [
            [
              37.4693044,
              55.5891757
            ],
            [
              37.4693877,
              55.5892601
            ],
            [
              37.4695677,
              55.5892033
            ],
            [
              37.4694769,
              55.5891114
            ],
            [
              37.4694341,
              55.5891249
            ],
            [
              37.4694083,
              55.5890988
            ],
            [
              37.4693156,
              55.589128
            ],
            [
              37.4693489,
              55.5891617
            ],
            [
              37.4693044,
              55.5891757
            ]
          ]
        ]
      }
    },
    {
      "type": "Feature",
      "properties": {
        "id": "moscow_kommunarka_+3_+0_1348bd6a_osm_way_1514866155_59",
        "object_type": "restriction",
        "restriction_type": "oks",
        "name": "",
        "osm_kind": "building",
        "osm_id": 1514866155,
        "osm_type": "way",
        "osm_tags": {
          "building": "yes"
        },
        "case_id": "moscow_kommunarka_+3_+0_1348bd6a"
      },
      "geometry": {
        "type": "Polygon",
        "coordinates": [
          [
            [
              37.4683291,
              55.5892562
            ],
            [
              37.4681432,
              55.5893017
            ],
            [
              37.4680646,
              55.5891993
            ],
            [
              37.4681961,
              55.5891671
            ],
            [
              37.4681795,
              55.5891455
            ],
            [
              37.4683039,
              55.589115
            ],
            [
              37.4683239,
              55.5891411
            ],
            [
              37.4683876,
              55.5891255
            ],
            [
              37.4684479,
              55.589204
            ],
            [
              37.4683142,
              55.5892367
            ],
            [
              37.4683291,
              55.5892562
            ]
          ]
        ]
      }
    },
    {
      "type": "Feature",
      "properties": {
        "id": "moscow_kommunarka_+3_+0_1348bd6a_osm_way_1522615857_60",
        "object_type": "restriction",
        "restriction_type": "oks",
        "name": "",
        "osm_kind": "building",
        "osm_id": 1522615857,
        "osm_type": "way",
        "osm_tags": {
          "building": "yes"
        },
        "case_id": "moscow_kommunarka_+3_+0_1348bd6a",
        "selected_as_heat_demand_proxy": true,
        "connection_point_id": "moscow_kommunarka_+3_+0_1348bd6a_cp_3"
      },
      "geometry": {
        "type": "Polygon",
        "coordinates": [
          [
            [
              37.4705564,
              55.5897215
            ],
            [
              37.4706948,
              55.5897722
            ],
            [
              37.4708191,
              55.5896638
            ],
            [
              37.4706807,
              55.5896131
            ],
            [
              37.4705564,
              55.5897215
            ]
          ]
        ]
      }
    },
    {
      "type": "Feature",
      "properties": {
        "id": "moscow_kommunarka_+3_+0_1348bd6a_osm_way_1535982151_61",
        "object_type": "restriction",
        "restriction_type": "oks",
        "name": "",
        "osm_kind": "building",
        "osm_id": 1535982151,
        "osm_type": "way",
        "osm_tags": {
          "building": "yes"
        },
        "case_id": "moscow_kommunarka_+3_+0_1348bd6a",
        "selected_as_heat_demand_proxy": true,
        "connection_point_id": "moscow_kommunarka_+3_+0_1348bd6a_cp_1"
      },
      "geometry": {
        "type": "Polygon",
        "coordinates": [
          [
            [
              37.4694216,
              55.5889262
            ],
            [
              37.4693837,
              55.5888813
            ],
            [
              37.4695826,
              55.5888277
            ],
            [
              37.4696206,
              55.5888726
            ],
            [
              37.4694216,
              55.5889262
            ]
          ]
        ]
      }
    },
    {
      "type": "Feature",
      "properties": {
        "id": "moscow_kommunarka_+3_+0_1348bd6a_source",
        "object_type": "source",
        "case_id": "moscow_kommunarka_+3_+0_1348bd6a"
      },
      "geometry": {
        "type": "Point",
        "coordinates": [
          37.46809248,
          55.58990695
        ]
      }
    },
    {
      "type": "Feature",
      "properties": {
        "id": "moscow_kommunarka_+3_+0_1348bd6a_existing_network",
        "object_type": "heat_network",
        "diameter": 500,
        "flow_tph": 180.0,
        "upstream_object_id": "moscow_kommunarka_+3_+0_1348bd6a_source",
        "case_id": "moscow_kommunarka_+3_+0_1348bd6a"
      },
      "geometry": {
        "type": "LineString",
        "coordinates": [
          [
            37.46809248,
            55.58990695
          ],
          [
            37.469046240000004,
            55.58990695
          ]
        ]
      }
    },
    {
      "type": "Feature",
      "properties": {
        "id": "moscow_kommunarka_+3_+0_1348bd6a_existing_chamber",
        "object_type": "heat_chamber",
        "diameter": 500,
        "upstream_object_id": "moscow_kommunarka_+3_+0_1348bd6a_source",
        "case_id": "moscow_kommunarka_+3_+0_1348bd6a"
      },
      "geometry": {
        "type": "Point",
        "coordinates": [
          37.469046240000004,
          55.58990695
        ]
      }
    },
    {
      "type": "Feature",
      "properties": {
        "id": "moscow_kommunarka_+3_+0_1348bd6a_cp_1",
        "object_type": "oks_connection_point",
        "flow_tph": 5.0,
        "case_id": "moscow_kommunarka_+3_+0_1348bd6a",
        "consumer_role": "osm_building_heat_demand_proxy",
        "source_building_osm_id": 1535982151,
        "source_building_osm_type": "way",
        "source_building_name": "",
        "source_building_tags": {
          "building": "yes"
        },
        "footprint_area_m2": 76.8,
        "flow_basis": "synthetic_proxy_from_osm_footprint_area",
        "stress_bucket": ""
      },
      "geometry": {
        "type": "Point",
        "coordinates": [
          37.46950215,
          55.58887695
        ]
      }
    },
    {
      "type": "Feature",
      "properties": {
        "id": "moscow_kommunarka_+3_+0_1348bd6a_cp_2",
        "object_type": "oks_connection_point",
        "flow_tph": 5.0,
        "case_id": "moscow_kommunarka_+3_+0_1348bd6a",
        "consumer_role": "osm_building_heat_demand_proxy",
        "source_building_osm_id": 1485836151,
        "source_building_osm_type": "way",
        "source_building_name": "",
        "source_building_tags": {
          "building": "yes"
        },
        "footprint_area_m2": 105.26,
        "flow_basis": "synthetic_proxy_from_osm_footprint_area",
        "stress_bucket": ""
      },
      "geometry": {
        "type": "Point",
        "coordinates": [
          37.4706318,
          55.5892954
        ]
      }
    },
    {
      "type": "Feature",
      "properties": {
        "id": "moscow_kommunarka_+3_+0_1348bd6a_cp_3",
        "object_type": "oks_connection_point",
        "flow_tph": 5.0,
        "case_id": "moscow_kommunarka_+3_+0_1348bd6a",
        "consumer_role": "osm_building_heat_demand_proxy",
        "source_building_osm_id": 1522615857,
        "source_building_osm_type": "way",
        "source_building_name": "",
        "source_building_tags": {
          "building": "yes"
        },
        "footprint_area_m2": 149.19,
        "flow_basis": "synthetic_proxy_from_osm_footprint_area",
        "stress_bucket": ""
      },
      "geometry": {
        "type": "Point",
        "coordinates": [
          37.470687749999996,
          55.58969265
        ]
      }
    },
    {
      "type": "Feature",
      "properties": {
        "id": "moscow_kommunarka_+3_+0_1348bd6a_cp_4",
        "object_type": "oks_connection_point",
        "flow_tph": 5.0,
        "case_id": "moscow_kommunarka_+3_+0_1348bd6a",
        "consumer_role": "osm_building_heat_demand_proxy",
        "source_building_osm_id": 1476466579,
        "source_building_osm_type": "way",
        "source_building_name": "",
        "source_building_tags": {
          "building": "yes"
        },
        "footprint_area_m2": 101.12,
        "flow_basis": "synthetic_proxy_from_osm_footprint_area",
        "stress_bucket": ""
      },
      "geometry": {
        "type": "Point",
        "coordinates": [
          37.47124140361954,
          55.590467577708814
        ]
      }
    },
    {
      "type": "Feature",
      "properties": {
        "id": "moscow_kommunarka_+3_+0_1348bd6a_cp_5",
        "object_type": "oks_connection_point",
        "flow_tph": 5.0,
        "case_id": "moscow_kommunarka_+3_+0_1348bd6a",
        "consumer_role": "osm_building_heat_demand_proxy",
        "source_building_osm_id": 868842776,
        "source_building_osm_type": "way",
        "source_building_name": "",
        "source_building_tags": {
          "building": "yes"
        },
        "footprint_area_m2": 160.02,
        "flow_basis": "synthetic_proxy_from_osm_footprint_area",
        "stress_bucket": ""
      },
      "geometry": {
        "type": "Point",
        "coordinates": [
          37.4717795,
          55.5907659
        ]
      }
    }
  ]
}