{
  "type": "FeatureCollection",
  "name": "moscow_mitino_+3_-2_3e5609fb",
  "crs": {
    "type": "name",
    "properties": {
      "name": "EPSG:4326"
    }
  },
  "metadata": {
    "dataset_version": "osm_building_anchored_routing_scenes_v3",
    "parent_scene_id": "moscow_mitino_+3_-2_3e5609fb",
    "split": "train",
    "city": "Москва Митино",
    "seed": "moscow_mitino",
    "research_bucket": "separate_pipes",
    "source_research_bucket": "separate_pipes",
    "research_bucket_is_ground_truth": false,
    "bbox_south_west_north_east": [
      55.8675595,
      37.3313973,
      55.8702544,
      37.3362003
    ],
    "real_data_source": "OpenStreetMap via Overpass API",
    "source_file": "data/real_geojson_places/separate_pipes/058_moscow_mitino_+3_-2_3e5609fb.geojson",
    "real_layers": [
      "restrictions",
      "consumer_building_footprints"
    ],
    "synthetic_layers": [
      "source",
      "heat_network",
      "heat_chamber",
      "heat_demand"
    ],
    "consumer_selection": "deterministic points inside real OSM building footprints",
    "flow_model": "synthetic proxy derived from building footprint area; not metered demand",
    "note": "OSM buildings anchor consumers; heat demand and seed network are synthetic proxies."
  },
  "features": [
    {
      "type": "Feature",
      "properties": {
        "id": "moscow_mitino_+3_-2_3e5609fb_osm_way_221538256_1",
        "object_type": "restriction",
        "restriction_type": "road",
        "name": "",
        "osm_kind": "road",
        "osm_id": 221538256,
        "osm_type": "way",
        "osm_tags": {
          "highway": "service"
        },
        "case_id": "moscow_mitino_+3_-2_3e5609fb"
      },
      "geometry": {
        "type": "LineString",
        "coordinates": [
          [
            37.3313163,
            55.8701978
          ],
          [
            37.3313489,
            55.8701378
          ],
          [
            37.3313913,
            55.8700915
          ],
          [
            37.3314408,
            55.8700624
          ],
          [
            37.3316058,
            55.8700082
          ],
          [
            37.3318486,
            55.8698445
          ]
        ]
      }
    },
    {
      "type": "Feature",
      "properties": {
        "id": "moscow_mitino_+3_-2_3e5609fb_osm_way_221538258_2",
        "object_type": "restriction",
        "restriction_type": "oks",
        "name": "",
        "osm_kind": "building",
        "osm_id": 221538258,
        "osm_type": "way",
        "osm_tags": {
          "building": "yes"
        },
        "case_id": "moscow_mitino_+3_-2_3e5609fb"
      },
      "geometry": {
        "type": "Polygon",
        "coordinates": [
          [
            [
              37.3319244,
              55.8700779
            ],
            [
              37.3319755,
              55.8700999
            ],
            [
              37.3320092,
              55.8700752
            ],
            [
              37.3319581,
              55.8700532
            ],
            [
              37.3319244,
              55.8700779
            ]
          ]
        ]
      }
    },
    {
      "type": "Feature",
      "properties": {
        "id": "moscow_mitino_+3_-2_3e5609fb_osm_way_221538259_3",
        "object_type": "restriction",
        "restriction_type": "oks",
        "name": "",
        "osm_kind": "building",
        "osm_id": 221538259,
        "osm_type": "way",
        "osm_tags": {
          "building": "yes"
        },
        "case_id": "moscow_mitino_+3_-2_3e5609fb"
      },
      "geometry": {
        "type": "Polygon",
        "coordinates": [
          [
            [
              37.331615,
              55.8700628
            ],
            [
              37.3317155,
              55.870106
            ],
            [
              37.3319252,
              55.8699527
            ],
            [
              37.3318248,
              55.8699094
            ],
            [
              37.331615,
              55.8700628
            ]
          ]
        ]
      }
    },
    {
      "type": "Feature",
      "properties": {
        "id": "moscow_mitino_+3_-2_3e5609fb_osm_way_221538260_4",
        "object_type": "restriction",
        "restriction_type": "oks",
        "name": "",
        "osm_kind": "building",
        "osm_id": 221538260,
        "osm_type": "way",
        "osm_tags": {
          "building": "yes"
        },
        "case_id": "moscow_mitino_+3_-2_3e5609fb"
      },
      "geometry": {
        "type": "Polygon",
        "coordinates": [
          [
            [
              37.3317156,
              55.8698175
            ],
            [
              37.3317929,
              55.8698507
            ],
            [
              37.3318547,
              55.8698056
            ],
            [
              37.3317774,
              55.8697723
            ],
            [
              37.3317156,
              55.8698175
            ]
          ]
        ]
      }
    },
    {
      "type": "Feature",
      "properties": {
        "id": "moscow_mitino_+3_-2_3e5609fb_osm_way_221538261_5",
        "object_type": "restriction",
        "restriction_type": "oks",
        "name": "",
        "osm_kind": "building",
        "osm_id": 221538261,
        "osm_type": "way",
        "osm_tags": {
          "building": "yes"
        },
        "case_id": "moscow_mitino_+3_-2_3e5609fb"
      },
      "geometry": {
        "type": "Polygon",
        "coordinates": [
          [
            [
              37.331823,
              55.8701612
            ],
            [
              37.3318771,
              55.8701844
            ],
            [
              37.3319126,
              55.8701585
            ],
            [
              37.3318585,
              55.8701352
            ],
            [
              37.331823,
              55.8701612
            ]
          ]
        ]
      }
    },
    {
      "type": "Feature",
      "properties": {
        "id": "moscow_mitino_+3_-2_3e5609fb_osm_way_327667498_6",
        "object_type": "restriction",
        "restriction_type": "road",
        "name": "",
        "osm_kind": "road",
        "osm_id": 327667498,
        "osm_type": "way",
        "osm_tags": {
          "highway": "service"
        },
        "case_id": "moscow_mitino_+3_-2_3e5609fb"
      },
      "geometry": {
        "type": "LineString",
        "coordinates": [
          [
            37.3404511,
            55.8653632
          ],
          [
            37.3400639,
            55.8653351
          ],
          [
            37.3379092,
            55.8659197
          ],
          [
            37.3368442,
            55.866204
          ],
          [
            37.3359654,
            55.8665114
          ],
          [
            37.3335616,
            55.8676543
          ]
        ]
      }
    },
    {
      "type": "Feature",
      "properties": {
        "id": "moscow_mitino_+3_-2_3e5609fb_osm_way_361512765_7",
        "object_type": "restriction",
        "restriction_type": "road",
        "name": "",
        "osm_kind": "road",
        "osm_id": 361512765,
        "osm_type": "way",
        "osm_tags": {
          "highway": "footway"
        },
        "case_id": "moscow_mitino_+3_-2_3e5609fb"
      },
      "geometry": {
        "type": "LineString",
        "coordinates": [
          [
            37.3322986,
            55.8680096
          ],
          [
            37.3325134,
            55.8678904
          ],
          [
            37.3328696,
            55.8677427
          ],
          [
            37.3333528,
            55.8675829
          ],
          [
            37.333681,
            55.8677638
          ],
          [
            37.3356168,
            55.8671362
          ],
          [
            37.3363001,
            55.8668097
          ],
          [
            37.3369529,
            55.8663957
          ],
          [
            37.339902,
            55.8657658
          ],
          [
            37.3403172,
            55.86566
          ],
          [
            37.3403607,
            55.8656374
          ],
          [
            37.3409508,
            55.8654778
          ],
          [
            37.3409599,
            55.8654381
          ]
        ]
      }
    },
    {
      "type": "Feature",
      "properties": {
        "id": "moscow_mitino_+3_-2_3e5609fb_osm_way_538110987_8",
        "object_type": "restriction",
        "restriction_type": "oks",
        "name": "",
        "osm_kind": "building",
        "osm_id": 538110987,
        "osm_type": "way",
        "osm_tags": {
          "building": "yes"
        },
        "case_id": "moscow_mitino_+3_-2_3e5609fb",
        "selected_as_heat_demand_proxy": true,
        "connection_point_id": "moscow_mitino_+3_-2_3e5609fb_cp_4"
      },
      "geometry": {
        "type": "Polygon",
        "coordinates": [
          [
            [
              37.3329565,
              55.8703676
            ],
            [
              37.3332301,
              55.870193
            ],
            [
              37.3331179,
              55.8701377
            ],
            [
              37.3328443,
              55.8703122
            ],
            [
              37.3329565,
              55.8703676
            ]
          ]
        ]
      }
    },
    {
      "type": "Feature",
      "properties": {
        "id": "moscow_mitino_+3_-2_3e5609fb_osm_way_538110988_9",
        "object_type": "restriction",
        "restriction_type": "road",
        "name": "",
        "osm_kind": "road",
        "osm_id": 538110988,
        "osm_type": "way",
        "osm_tags": {
          "highway": "track"
        },
        "case_id": "moscow_mitino_+3_-2_3e5609fb"
      },
      "geometry": {
        "type": "LineString",
        "coordinates": [
          [
            37.3322938,
            55.8707246
          ],
          [
            37.3323557,
            55.8707197
          ],
          [
            37.3324683,
            55.8707317
          ],
          [
            37.3325676,
            55.8707423
          ],
          [
            37.3326319,
            55.8707332
          ],
          [
            37.3330665,
            55.8704473
          ],
          [
            37.3331577,
            55.8703645
          ],
          [
            37.3333427,
            55.8702938
          ],
          [
            37.3335305,
            55.8701524
          ]
        ]
      }
    },
    {
      "type": "Feature",
      "properties": {
        "id": "moscow_mitino_+3_-2_3e5609fb_osm_way_995229433_10",
        "object_type": "restriction",
        "restriction_type": "road",
        "name": "",
        "osm_kind": "road",
        "osm_id": 995229433,
        "osm_type": "way",
        "osm_tags": {
          "highway": "service"
        },
        "case_id": "moscow_mitino_+3_-2_3e5609fb"
      },
      "geometry": {
        "type": "LineString",
        "coordinates": [
          [
            37.3311551,
            55.868302
          ],
          [
            37.33204,
            55.8685897
          ]
        ]
      }
    },
    {
      "type": "Feature",
      "properties": {
        "id": "moscow_mitino_+3_-2_3e5609fb_osm_way_995229434_11",
        "object_type": "restriction",
        "restriction_type": "road",
        "name": "",
        "osm_kind": "road",
        "osm_id": 995229434,
        "osm_type": "way",
        "osm_tags": {
          "highway": "service"
        },
        "case_id": "moscow_mitino_+3_-2_3e5609fb"
      },
      "geometry": {
        "type": "LineString",
        "coordinates": [
          [
            37.3307949,
            55.8686503
          ],
          [
            37.3315825,
            55.8689063
          ]
        ]
      }
    },
    {
      "type": "Feature",
      "properties": {
        "id": "moscow_mitino_+3_-2_3e5609fb_osm_way_995229435_12",
        "object_type": "restriction",
        "restriction_type": "road",
        "name": "",
        "osm_kind": "road",
        "osm_id": 995229435,
        "osm_type": "way",
        "osm_tags": {
          "highway": "service"
        },
        "case_id": "moscow_mitino_+3_-2_3e5609fb"
      },
      "geometry": {
        "type": "LineString",
        "coordinates": [
          [
            37.3304706,
            55.8689638
          ],
          [
            37.3307949,
            55.8686503
          ],
          [
            37.3311551,
            55.868302
          ],
          [
            37.3314231,
            55.868043
          ],
          [
            37.3314893,
            55.8680218
          ],
          [
            37.3315749,
            55.8680276
          ],
          [
            37.3317846,
            55.8680958
          ],
          [
            37.3328997,
            55.8684493
          ],
          [
            37.3345073,
            55.868959
          ],
          [
            37.3348909,
            55.8690825
          ],
          [
            37.3338514,
            55.8700827
          ],
          [
            37.331975,
            55.8694659
          ],
          [
            37.3318802,
            55.8694347
          ],
          [
            37.3314557,
            55.8692929
          ],
          [
            37.3304706,
            55.8689638
          ]
        ]
      }
    },
    {
      "type": "Feature",
      "properties": {
        "id": "moscow_mitino_+3_-2_3e5609fb_osm_way_995229442_13",
        "object_type": "restriction",
        "restriction_type": "oks",
        "name": "",
        "osm_kind": "building",
        "osm_id": 995229442,
        "osm_type": "way",
        "osm_tags": {
          "building": "house"
        },
        "case_id": "moscow_mitino_+3_-2_3e5609fb"
      },
      "geometry": {
        "type": "Polygon",
        "coordinates": [
          [
            [
              37.3314176,
              55.8697152
            ],
            [
              37.3316201,
              55.8698018
            ],
            [
              37.3317319,
              55.8697194
            ],
            [
              37.3315294,
              55.8696328
            ],
            [
              37.3314176,
              55.8697152
            ]
          ]
        ]
      }
    },
    {
      "type": "Feature",
      "properties": {
        "id": "moscow_mitino_+3_-2_3e5609fb_osm_way_1007662677_14",
        "object_type": "restriction",
        "restriction_type": "oks",
        "name": "",
        "osm_kind": "building",
        "osm_id": 1007662677,
        "osm_type": "way",
        "osm_tags": {
          "building": "service"
        },
        "case_id": "moscow_mitino_+3_-2_3e5609fb",
        "selected_as_heat_demand_proxy": true,
        "connection_point_id": "moscow_mitino_+3_-2_3e5609fb_cp_2"
      },
      "geometry": {
        "type": "Polygon",
        "coordinates": [
          [
            [
              37.3347269,
              55.8689035
            ],
            [
              37.3348011,
              55.8689276
            ],
            [
              37.3348555,
              55.8688749
            ],
            [
              37.3347813,
              55.8688508
            ],
            [
              37.3347269,
              55.8689035
            ]
          ]
        ]
      }
    },
    {
      "type": "Feature",
      "properties": {
        "id": "moscow_mitino_+3_-2_3e5609fb_osm_way_1007662678_15",
        "object_type": "restriction",
        "restriction_type": "oks",
        "name": "",
        "osm_kind": "building",
        "osm_id": 1007662678,
        "osm_type": "way",
        "osm_tags": {
          "building": "service"
        },
        "case_id": "moscow_mitino_+3_-2_3e5609fb",
        "selected_as_heat_demand_proxy": true,
        "connection_point_id": "moscow_mitino_+3_-2_3e5609fb_cp_1"
      },
      "geometry": {
        "type": "Polygon",
        "coordinates": [
          [
            [
              37.3336591,
              55.8685671
            ],
            [
              37.3337296,
              55.86859
            ],
            [
              37.3337812,
              55.86854
            ],
            [
              37.3337108,
              55.8685171
            ],
            [
              37.3336591,
              55.8685671
            ]
          ]
        ]
      }
    },
    {
      "type": "Feature",
      "properties": {
        "id": "moscow_mitino_+3_-2_3e5609fb_osm_way_1079740221_16",
        "object_type": "restriction",
        "restriction_type": "oks",
        "name": "",
        "osm_kind": "building",
        "osm_id": 1079740221,
        "osm_type": "way",
        "osm_tags": {
          "building": "yes"
        },
        "case_id": "moscow_mitino_+3_-2_3e5609fb"
      },
      "geometry": {
        "type": "Polygon",
        "coordinates": [
          [
            [
              37.331484,
              55.8691915
            ],
            [
              37.3315642,
              55.8692176
            ],
            [
              37.3315966,
              55.8691862
            ],
            [
              37.3315163,
              55.8691601
            ],
            [
              37.331484,
              55.8691915
            ]
          ]
        ]
      }
    },
    {
      "type": "Feature",
      "properties": {
        "id": "moscow_mitino_+3_-2_3e5609fb_osm_way_1079740223_17",
        "object_type": "restriction",
        "restriction_type": "road",
        "name": "",
        "osm_kind": "road",
        "osm_id": 1079740223,
        "osm_type": "way",
        "osm_tags": {
          "highway": "service"
        },
        "case_id": "moscow_mitino_+3_-2_3e5609fb"
      },
      "geometry": {
        "type": "LineString",
        "coordinates": [
          [
            37.3330903,
            55.8682651
          ],
          [
            37.3328997,
            55.8684493
          ],
          [
            37.3328239,
            55.8685226
          ],
          [
            37.3320806,
            55.869241
          ],
          [
            37.3318802,
            55.8694347
          ]
        ]
      }
    },
    {
      "type": "Feature",
      "properties": {
        "id": "moscow_mitino_+3_-2_3e5609fb_osm_way_1083476878_18",
        "object_type": "restriction",
        "restriction_type": "road",
        "name": "",
        "osm_kind": "road",
        "osm_id": 1083476878,
        "osm_type": "way",
        "osm_tags": {
          "highway": "footway"
        },
        "case_id": "moscow_mitino_+3_-2_3e5609fb"
      },
      "geometry": {
        "type": "LineString",
        "coordinates": [
          [
            37.3328496,
            55.8691749
          ],
          [
            37.3329208,
            55.8691944
          ],
          [
            37.3329966,
            55.8692006
          ],
          [
            37.3330673,
            55.8691927
          ],
          [
            37.3331117,
            55.86917
          ],
          [
            37.3331259,
            55.8691394
          ],
          [
            37.3331188,
            55.8691066
          ],
          [
            37.3330865,
            55.8690788
          ],
          [
            37.3330511,
            55.8690561
          ],
          [
            37.3329912,
            55.8690374
          ]
        ]
      }
    },
    {
      "type": "Feature",
      "properties": {
        "id": "moscow_mitino_+3_-2_3e5609fb_osm_way_1083476879_19",
        "object_type": "restriction",
        "restriction_type": "road",
        "name": "",
        "osm_kind": "road",
        "osm_id": 1083476879,
        "osm_type": "way",
        "osm_tags": {
          "highway": "footway"
        },
        "case_id": "moscow_mitino_+3_-2_3e5609fb"
      },
      "geometry": {
        "type": "LineString",
        "coordinates": [
          [
            37.3334911,
            55.8690221
          ],
          [
            37.3334572,
            55.8690595
          ],
          [
            37.3334421,
            55.8690929
          ],
          [
            37.3334562,
            55.8691253
          ],
          [
            37.3334989,
            55.869146
          ],
          [
            37.3335623,
            55.869155
          ],
          [
            37.3336259,
            55.8691434
          ],
          [
            37.3336623,
            55.8691219
          ],
          [
            37.3336968,
            55.8690888
          ]
        ]
      }
    },
    {
      "type": "Feature",
      "properties": {
        "id": "moscow_mitino_+3_-2_3e5609fb_osm_way_1083476880_20",
        "object_type": "restriction",
        "restriction_type": "road",
        "name": "",
        "osm_kind": "road",
        "osm_id": 1083476880,
        "osm_type": "way",
        "osm_tags": {
          "highway": "footway"
        },
        "case_id": "moscow_mitino_+3_-2_3e5609fb"
      },
      "geometry": {
        "type": "LineString",
        "coordinates": [
          [
            37.3333174,
            55.8691196
          ],
          [
            37.3333325,
            55.8690882
          ],
          [
            37.3333421,
            55.8690561
          ],
          [
            37.3333462,
            55.8690148
          ],
          [
            37.3333412,
            55.8689735
          ]
        ]
      }
    },
    {
      "type": "Feature",
      "properties": {
        "id": "moscow_mitino_+3_-2_3e5609fb_osm_way_1083476881_21",
        "object_type": "restriction",
        "restriction_type": "road",
        "name": "",
        "osm_kind": "road",
        "osm_id": 1083476881,
        "osm_type": "way",
        "osm_tags": {
          "highway": "footway"
        },
        "case_id": "moscow_mitino_+3_-2_3e5609fb"
      },
      "geometry": {
        "type": "LineString",
        "coordinates": [
          [
            37.3331773,
            55.8692062
          ],
          [
            37.3331076,
            55.8692222
          ],
          [
            37.3330339,
            55.8692307
          ],
          [
            37.3329587,
            55.8692314
          ],
          [
            37.3328845,
            55.8692243
          ],
          [
            37.3328139,
            55.8692097
          ]
        ]
      }
    },
    {
      "type": "Feature",
      "properties": {
        "id": "moscow_mitino_+3_-2_3e5609fb_osm_way_1083476882_22",
        "object_type": "restriction",
        "restriction_type": "road",
        "name": "",
        "osm_kind": "road",
        "osm_id": 1083476882,
        "osm_type": "way",
        "osm_tags": {
          "highway": "footway"
        },
        "case_id": "moscow_mitino_+3_-2_3e5609fb"
      },
      "geometry": {
        "type": "LineString",
        "coordinates": [
          [
            37.333462,
            55.869296
          ],
          [
            37.3334491,
            55.8692647
          ],
          [
            37.333431,
            55.869242
          ],
          [
            37.3334088,
            55.8692253
          ]
        ]
      }
    },
    {
      "type": "Feature",
      "properties": {
        "id": "moscow_mitino_+3_-2_3e5609fb_osm_way_1083476883_23",
        "object_type": "restriction",
        "restriction_type": "road",
        "name": "",
        "osm_kind": "road",
        "osm_id": 1083476883,
        "osm_type": "way",
        "osm_tags": {
          "highway": "footway"
        },
        "case_id": "moscow_mitino_+3_-2_3e5609fb"
      },
      "geometry": {
        "type": "LineString",
        "coordinates": [
          [
            37.333312,
            55.8695395
          ],
          [
            37.3334183,
            55.8694362
          ]
        ]
      }
    },
    {
      "type": "Feature",
      "properties": {
        "id": "moscow_mitino_+3_-2_3e5609fb_osm_way_1083476884_24",
        "object_type": "restriction",
        "restriction_type": "road",
        "name": "",
        "osm_kind": "road",
        "osm_id": 1083476884,
        "osm_type": "way",
        "osm_tags": {
          "highway": "footway"
        },
        "case_id": "moscow_mitino_+3_-2_3e5609fb"
      },
      "geometry": {
        "type": "LineString",
        "coordinates": [
          [
            37.3333946,
            55.8693344
          ],
          [
            37.3334411,
            55.8693032
          ],
          [
            37.333462,
            55.869296
          ],
          [
            37.3334779,
            55.8692905
          ],
          [
            37.3335224,
            55.8692885
          ],
          [
            37.3335638,
            55.8692939
          ],
          [
            37.3335896,
            55.8693075
          ],
          [
            37.3336017,
            55.8693256
          ],
          [
            37.3336012,
            55.8693517
          ],
          [
            37.3335865,
            55.869384
          ],
          [
            37.3335512,
            55.8694146
          ],
          [
            37.3335062,
            55.869435
          ],
          [
            37.3334668,
            55.8694413
          ],
          [
            37.3334183,
            55.8694362
          ],
          [
            37.3333971,
            55.8694262
          ],
          [
            37.3333804,
            55.8694121
          ],
          [
            37.3333729,
            55.8693891
          ],
          [
            37.3333774,
            55.869363
          ],
          [
            37.3333946,
            55.8693344
          ]
        ]
      }
    },
    {
      "type": "Feature",
      "properties": {
        "id": "moscow_mitino_+3_-2_3e5609fb_osm_way_1083476889_25",
        "object_type": "restriction",
        "restriction_type": "road",
        "name": "",
        "osm_kind": "road",
        "osm_id": 1083476889,
        "osm_type": "way",
        "osm_tags": {
          "highway": "service"
        },
        "case_id": "moscow_mitino_+3_-2_3e5609fb"
      },
      "geometry": {
        "type": "LineString",
        "coordinates": [
          [
            37.3320806,
            55.869241
          ],
          [
            37.3321751,
            55.8692716
          ],
          [
            37.3322704,
            55.8693024
          ]
        ]
      }
    },
    {
      "type": "Feature",
      "properties": {
        "id": "moscow_mitino_+3_-2_3e5609fb_osm_way_1083476891_26",
        "object_type": "restriction",
        "restriction_type": "oks",
        "name": "",
        "osm_kind": "building",
        "osm_id": 1083476891,
        "osm_type": "way",
        "osm_tags": {
          "building": "yes"
        },
        "case_id": "moscow_mitino_+3_-2_3e5609fb",
        "selected_as_heat_demand_proxy": true,
        "connection_point_id": "moscow_mitino_+3_-2_3e5609fb_cp_3"
      },
      "geometry": {
        "type": "Polygon",
        "coordinates": [
          [
            [
              37.3334845,
              55.8693333
            ],
            [
              37.3335335,
              55.8693479
            ],
            [
              37.3334759,
              55.8694086
            ],
            [
              37.3334269,
              55.8693939
            ],
            [
              37.3334845,
              55.8693333
            ]
          ]
        ]
      }
    },
    {
      "type": "Feature",
      "properties": {
        "id": "moscow_mitino_+3_-2_3e5609fb_osm_way_1083476892_27",
        "object_type": "restriction",
        "restriction_type": "road",
        "name": "",
        "osm_kind": "road",
        "osm_id": 1083476892,
        "osm_type": "way",
        "osm_tags": {
          "highway": "service"
        },
        "case_id": "moscow_mitino_+3_-2_3e5609fb"
      },
      "geometry": {
        "type": "LineString",
        "coordinates": [
          [
            37.3340825,
            55.8692137
          ],
          [
            37.3336821,
            55.8696027
          ],
          [
            37.3336252,
            55.869626
          ],
          [
            37.3335597,
            55.8696198
          ],
          [
            37.333312,
            55.8695395
          ],
          [
            37.3327401,
            55.8693542
          ],
          [
            37.3327131,
            55.869332
          ],
          [
            37.3327222,
            55.8692988
          ],
          [
            37.3328139,
            55.8692097
          ],
          [
            37.3328496,
            55.8691749
          ],
          [
            37.3329912,
            55.8690374
          ],
          [
            37.333086,
            55.8689452
          ],
          [
            37.3331441,
            55.8689271
          ],
          [
            37.3332205,
            55.8689345
          ],
          [
            37.3333412,
            55.8689735
          ],
          [
            37.3334911,
            55.8690221
          ],
          [
            37.3336968,
            55.8690888
          ],
          [
            37.3340825,
            55.8692137
          ]
        ]
      }
    },
    {
      "type": "Feature",
      "properties": {
        "id": "moscow_mitino_+3_-2_3e5609fb_osm_way_1278835173_28",
        "object_type": "restriction",
        "restriction_type": "road",
        "name": "",
        "osm_kind": "road",
        "osm_id": 1278835173,
        "osm_type": "way",
        "osm_tags": {
          "highway": "service"
        },
        "case_id": "moscow_mitino_+3_-2_3e5609fb"
      },
      "geometry": {
        "type": "LineString",
        "coordinates": [
          [
            37.3313222,
            55.8677003
          ],
          [
            37.3320489,
            55.8679292
          ],
          [
            37.3322986,
            55.8680096
          ],
          [
            37.3330903,
            55.8682651
          ],
          [
            37.3349133,
            55.8688351
          ],
          [
            37.3350333,
            55.8689465
          ],
          [
            37.3348909,
            55.8690825
          ]
        ]
      }
    },
    {
      "type": "Feature",
      "properties": {
        "id": "moscow_mitino_+3_-2_3e5609fb_osm_way_1278835176_29",
        "object_type": "restriction",
        "restriction_type": "road",
        "name": "",
        "osm_kind": "road",
        "osm_id": 1278835176,
        "osm_type": "way",
        "osm_tags": {
          "highway": "service"
        },
        "case_id": "moscow_mitino_+3_-2_3e5609fb"
      },
      "geometry": {
        "type": "LineString",
        "coordinates": [
          [
            37.3301466,
            55.8673177
          ],
          [
            37.3302357,
            55.8672293
          ],
          [
            37.330684,
            55.8667827
          ],
          [
            37.3311283,
            55.8663401
          ],
          [
            37.3312282,
            55.8662446
          ],
          [
            37.331709,
            55.8663987
          ],
          [
            37.3320711,
            55.8665147
          ],
          [
            37.3324289,
            55.8666293
          ],
          [
            37.3328716,
            55.8667712
          ],
          [
            37.3328893,
            55.8667769
          ],
          [
            37.333132,
            55.8668547
          ],
          [
            37.3321874,
            55.8677918
          ],
          [
            37.3321441,
            55.8678348
          ],
          [
            37.3320489,
            55.8679292
          ]
        ]
      }
    },
    {
      "type": "Feature",
      "properties": {
        "id": "moscow_mitino_+3_-2_3e5609fb_osm_way_1380304192_30",
        "object_type": "restriction",
        "restriction_type": "road",
        "name": "",
        "osm_kind": "road",
        "osm_id": 1380304192,
        "osm_type": "way",
        "osm_tags": {
          "highway": "footway"
        },
        "case_id": "moscow_mitino_+3_-2_3e5609fb"
      },
      "geometry": {
        "type": "LineString",
        "coordinates": [
          [
            37.3302357,
            55.8672293
          ],
          [
            37.330409,
            55.8672843
          ],
          [
            37.3318426,
            55.8677391
          ],
          [
            37.3321441,
            55.8678348
          ]
        ]
      }
    },
    {
      "type": "Feature",
      "properties": {
        "id": "moscow_mitino_+3_-2_3e5609fb_osm_way_1380304197_31",
        "object_type": "restriction",
        "restriction_type": "road",
        "name": "",
        "osm_kind": "road",
        "osm_id": 1380304197,
        "osm_type": "way",
        "osm_tags": {
          "highway": "service"
        },
        "case_id": "moscow_mitino_+3_-2_3e5609fb"
      },
      "geometry": {
        "type": "LineString",
        "coordinates": [
          [
            37.3328716,
            55.8667712
          ],
          [
            37.3327838,
            55.8668578
          ],
          [
            37.3319263,
            55.867709
          ],
          [
            37.3321874,
            55.8677918
          ]
        ]
      }
    },
    {
      "type": "Feature",
      "properties": {
        "id": "moscow_mitino_+3_-2_3e5609fb_osm_way_1380695544_32",
        "object_type": "restriction",
        "restriction_type": "road",
        "name": "",
        "osm_kind": "road",
        "osm_id": 1380695544,
        "osm_type": "way",
        "osm_tags": {
          "highway": "service"
        },
        "case_id": "moscow_mitino_+3_-2_3e5609fb"
      },
      "geometry": {
        "type": "LineString",
        "coordinates": [
          [
            37.3314557,
            55.8692929
          ],
          [
            37.3313079,
            55.869424
          ],
          [
            37.3316253,
            55.8695366
          ]
        ]
      }
    },
    {
      "type": "Feature",
      "properties": {
        "id": "moscow_mitino_+3_-2_3e5609fb_osm_way_1380695546_33",
        "object_type": "restriction",
        "restriction_type": "oks",
        "name": "",
        "osm_kind": "building",
        "osm_id": 1380695546,
        "osm_type": "way",
        "osm_tags": {
          "building": "retail"
        },
        "case_id": "moscow_mitino_+3_-2_3e5609fb",
        "selected_as_heat_demand_proxy": true,
        "connection_point_id": "moscow_mitino_+3_-2_3e5609fb_cp_5"
      },
      "geometry": {
        "type": "Polygon",
        "coordinates": [
          [
            [
              37.3316898,
              55.8696329
            ],
            [
              37.3317663,
              55.8696637
            ],
            [
              37.3317873,
              55.8696473
            ],
            [
              37.3328117,
              55.8700595
            ],
            [
              37.3327377,
              55.8701174
            ],
            [
              37.3328665,
              55.8701693
            ],
            [
              37.3329876,
              55.8700746
            ],
            [
              37.3326183,
              55.869926
            ],
            [
              37.3326064,
              55.8698683
            ],
            [
              37.3318024,
              55.8695448
            ],
            [
              37.3316898,
              55.8696329
            ]
          ]
        ]
      }
    },
    {
      "type": "Feature",
      "properties": {
        "id": "moscow_mitino_+3_-2_3e5609fb_osm_way_1380976125_34",
        "object_type": "restriction",
        "restriction_type": "road",
        "name": "",
        "osm_kind": "road",
        "osm_id": 1380976125,
        "osm_type": "way",
        "osm_tags": {
          "highway": "footway"
        },
        "case_id": "moscow_mitino_+3_-2_3e5609fb"
      },
      "geometry": {
        "type": "LineString",
        "coordinates": [
          [
            37.3325215,
            55.8692869
          ],
          [
            37.3326402,
            55.8693256
          ],
          [
            37.3327131,
            55.869332
          ]
        ]
      }
    },
    {
      "type": "Feature",
      "properties": {
        "id": "moscow_mitino_+3_-2_3e5609fb_osm_way_1380976126_35",
        "object_type": "restriction",
        "restriction_type": "road",
        "name": "",
        "osm_kind": "road",
        "osm_id": 1380976126,
        "osm_type": "way",
        "osm_tags": {
          "highway": "steps"
        },
        "case_id": "moscow_mitino_+3_-2_3e5609fb"
      },
      "geometry": {
        "type": "LineString",
        "coordinates": [
          [
            37.3323418,
            55.8692282
          ],
          [
            37.3325215,
            55.8692869
          ]
        ]
      }
    },
    {
      "type": "Feature",
      "properties": {
        "id": "moscow_mitino_+3_-2_3e5609fb_osm_way_1380976127_36",
        "object_type": "restriction",
        "restriction_type": "road",
        "name": "",
        "osm_kind": "road",
        "osm_id": 1380976127,
        "osm_type": "way",
        "osm_tags": {
          "highway": "footway"
        },
        "case_id": "moscow_mitino_+3_-2_3e5609fb"
      },
      "geometry": {
        "type": "LineString",
        "coordinates": [
          [
            37.3322504,
            55.8691983
          ],
          [
            37.3323418,
            55.8692282
          ]
        ]
      }
    },
    {
      "type": "Feature",
      "properties": {
        "id": "moscow_mitino_+3_-2_3e5609fb_osm_way_1380976128_37",
        "object_type": "restriction",
        "restriction_type": "road",
        "name": "",
        "osm_kind": "road",
        "osm_id": 1380976128,
        "osm_type": "way",
        "osm_tags": {
          "highway": "footway"
        },
        "case_id": "moscow_mitino_+3_-2_3e5609fb"
      },
      "geometry": {
        "type": "LineString",
        "coordinates": [
          [
            37.3329155,
            55.8685523
          ],
          [
            37.3322504,
            55.8691983
          ],
          [
            37.3321751,
            55.8692716
          ],
          [
            37.331975,
            55.8694659
          ]
        ]
      }
    },
    {
      "type": "Feature",
      "properties": {
        "id": "moscow_mitino_+3_-2_3e5609fb_osm_way_1380976129_38",
        "object_type": "restriction",
        "restriction_type": "road",
        "name": "",
        "osm_kind": "road",
        "osm_id": 1380976129,
        "osm_type": "way",
        "osm_tags": {
          "highway": "footway"
        },
        "case_id": "moscow_mitino_+3_-2_3e5609fb"
      },
      "geometry": {
        "type": "LineString",
        "coordinates": [
          [
            37.3344232,
            55.8690407
          ],
          [
            37.3329155,
            55.8685523
          ],
          [
            37.3328239,
            55.8685226
          ]
        ]
      }
    },
    {
      "type": "Feature",
      "properties": {
        "id": "moscow_mitino_+3_-2_3e5609fb_osm_way_1380976130_39",
        "object_type": "restriction",
        "restriction_type": "road",
        "name": "",
        "osm_kind": "road",
        "osm_id": 1380976130,
        "osm_type": "way",
        "osm_tags": {
          "highway": "service"
        },
        "case_id": "moscow_mitino_+3_-2_3e5609fb"
      },
      "geometry": {
        "type": "LineString",
        "coordinates": [
          [
            37.3345073,
            55.868959
          ],
          [
            37.3344232,
            55.8690407
          ],
          [
            37.3343715,
            55.8690909
          ],
          [
            37.3342749,
            55.8691848
          ],
          [
            37.3340825,
            55.8692137
          ]
        ]
      }
    },
    {
      "type": "Feature",
      "properties": {
        "id": "moscow_mitino_+3_-2_3e5609fb_osm_way_1495040263_40",
        "object_type": "restriction",
        "restriction_type": "road",
        "name": "",
        "osm_kind": "road",
        "osm_id": 1495040263,
        "osm_type": "way",
        "osm_tags": {
          "highway": "footway"
        },
        "case_id": "moscow_mitino_+3_-2_3e5609fb"
      },
      "geometry": {
        "type": "LineString",
        "coordinates": [
          [
            37.3318426,
            55.8677391
          ],
          [
            37.3327385,
            55.8668436
          ]
        ]
      }
    },
    {
      "type": "Feature",
      "properties": {
        "id": "moscow_mitino_+3_-2_3e5609fb_source",
        "object_type": "source",
        "case_id": "moscow_mitino_+3_-2_3e5609fb"
      },
      "geometry": {
        "type": "Point",
        "coordinates": [
          37.331717499999996,
          55.868906949999996
        ]
      }
    },
    {
      "type": "Feature",
      "properties": {
        "id": "moscow_mitino_+3_-2_3e5609fb_existing_network",
        "object_type": "heat_network",
        "diameter": 500,
        "flow_tph": 180.0,
        "upstream_object_id": "moscow_mitino_+3_-2_3e5609fb_source",
        "case_id": "moscow_mitino_+3_-2_3e5609fb"
      },
      "geometry": {
        "type": "LineString",
        "coordinates": [
          [
            37.331717499999996,
            55.868906949999996
          ],
          [
            37.3328382,
            55.868906949999996
          ]
        ]
      }
    },
    {
      "type": "Feature",
      "properties": {
        "id": "moscow_mitino_+3_-2_3e5609fb_existing_chamber",
        "object_type": "heat_chamber",
        "diameter": 500,
        "upstream_object_id": "moscow_mitino_+3_-2_3e5609fb_source",
        "case_id": "moscow_mitino_+3_-2_3e5609fb"
      },
      "geometry": {
        "type": "Point",
        "coordinates": [
          37.3328382,
          55.868906949999996
        ]
      }
    },
    {
      "type": "Feature",
      "properties": {
        "id": "moscow_mitino_+3_-2_3e5609fb_cp_1",
        "object_type": "oks_connection_point",
        "flow_tph": 5.0,
        "case_id": "moscow_mitino_+3_-2_3e5609fb",
        "consumer_role": "osm_building_heat_demand_proxy",
        "source_building_osm_id": 1007662678,
        "source_building_osm_type": "way",
        "source_building_name": "",
        "source_building_tags": {
          "building": "service"
        },
        "footprint_area_m2": 32.71,
        "flow_basis": "synthetic_proxy_from_osm_footprint_area",
        "stress_bucket": ""
      },
      "geometry": {
        "type": "Point",
        "coordinates": [
          37.33372015,
          55.86855355
        ]
      }
    },
    {
      "type": "Feature",
      "properties": {
        "id": "moscow_mitino_+3_-2_3e5609fb_cp_2",
        "object_type": "oks_connection_point",
        "flow_tph": 5.0,
        "case_id": "moscow_mitino_+3_-2_3e5609fb",
        "consumer_role": "osm_building_heat_demand_proxy",
        "source_building_osm_id": 1007662677,
        "source_building_osm_type": "way",
        "source_building_name": "",
        "source_building_tags": {
          "building": "service"
        },
        "footprint_area_m2": 36.31,
        "flow_basis": "synthetic_proxy_from_osm_footprint_area",
        "stress_bucket": ""
      },
      "geometry": {
        "type": "Point",
        "coordinates": [
          37.3347912,
          55.8688892
        ]
      }
    },
    {
      "type": "Feature",
      "properties": {
        "id": "moscow_mitino_+3_-2_3e5609fb_cp_3",
        "object_type": "oks_connection_point",
        "flow_tph": 5.0,
        "case_id": "moscow_mitino_+3_-2_3e5609fb",
        "consumer_role": "osm_building_heat_demand_proxy",
        "source_building_osm_id": 1083476891,
        "source_building_osm_type": "way",
        "source_building_name": "",
        "source_building_tags": {
          "building": "yes"
        },
        "footprint_area_m2": 26.53,
        "flow_basis": "synthetic_proxy_from_osm_footprint_area",
        "stress_bucket": ""
      },
      "geometry": {
        "type": "Point",
        "coordinates": [
          37.3334802,
          55.869370950000004
        ]
      }
    },
    {
      "type": "Feature",
      "properties": {
        "id": "moscow_mitino_+3_-2_3e5609fb_cp_4",
        "object_type": "oks_connection_point",
        "flow_tph": 5.0,
        "case_id": "moscow_mitino_+3_-2_3e5609fb",
        "consumer_role": "osm_building_heat_demand_proxy",
        "source_building_osm_id": 538110987,
        "source_building_osm_type": "way",
        "source_building_name": "",
        "source_building_tags": {
          "building": "yes"
        },
        "footprint_area_m2": 241.47,
        "flow_basis": "synthetic_proxy_from_osm_footprint_area",
        "stress_bucket": ""
      },
      "geometry": {
        "type": "Point",
        "coordinates": [
          37.3330372,
          55.87025265
        ]
      }
    },
    {
      "type": "Feature",
      "properties": {
        "id": "moscow_mitino_+3_-2_3e5609fb_cp_5",
        "object_type": "oks_connection_point",
        "flow_tph": 8.741,
        "case_id": "moscow_mitino_+3_-2_3e5609fb",
        "consumer_role": "osm_building_heat_demand_proxy",
        "source_building_osm_id": 1380695546,
        "source_building_osm_type": "way",
        "source_building_name": "",
        "source_building_tags": {
          "building": "retail"
        },
        "footprint_area_m2": 874.09,
        "flow_basis": "synthetic_proxy_from_osm_footprint_area",
        "stress_bucket": ""
      },
      "geometry": {
        "type": "Point",
        "coordinates": [
          37.33230913960816,
          55.869794323803106
        ]
      }
    }
  ]
}