{
  "type": "FeatureCollection",
  "name": "moscow_nekrasovka_+3_+2_08bab668",
  "metadata": {
    "category": "fifty_fifty",
    "rank": 14,
    "city": "Москва Некрасовка",
    "seed": "moscow_nekrasovka",
    "center": [
      37.957103,
      55.7279069
    ],
    "bbox_south_west_north_east": [
      55.7265595,
      37.9547102,
      55.7292544,
      37.9594958
    ],
    "source": "OpenStreetMap via Overpass API",
    "note": "Real OSM geometry only. Category is a heuristic research bucket, not heat-network ground truth.",
    "metrics": {
      "counts": {
        "building": 3,
        "road": 18,
        "major_road": 0,
        "railway": 0,
        "water": 1,
        "green": 0
      },
      "lengths_m": {
        "road": 3280.77,
        "major_road": 0.0,
        "railway": 0.0,
        "water": 1250.8
      },
      "building_centers": 3,
      "building_spread": 0.2,
      "barrier_score": 4.0016,
      "road_score": 3.0804,
      "category_scores": {
        "shared_pipe": -1.1073,
        "separate_pipes": 0.1864,
        "fifty_fifty": 1.0745,
        "refusal": 10.8603
      }
    }
  },
  "features": [
    {
      "type": "Feature",
      "properties": {
        "osm_kind": "road",
        "name": "",
        "source": "OpenStreetMap",
        "download_window_id": "moscow_nekrasovka_+3_+2_08bab668",
        "download_city": "Москва Некрасовка",
        "osm_tags": {
          "highway": "unclassified"
        },
        "osm_id": 23148092,
        "osm_type": "way"
      },
      "geometry": {
        "type": "LineString",
        "coordinates": [
          [
            37.9598617,
            55.7266871
          ],
          [
            37.9596901,
            55.7266932
          ],
          [
            37.959652,
            55.7266945
          ],
          [
            37.9594942,
            55.7267
          ],
          [
            37.9592987,
            55.7267244
          ],
          [
            37.9588088,
            55.7268358
          ],
          [
            37.9585757,
            55.7268699
          ],
          [
            37.9583403,
            55.7268787
          ],
          [
            37.9582281,
            55.7268713
          ],
          [
            37.9581399,
            55.7268605
          ]
        ]
      }
    },
    {
      "type": "Feature",
      "properties": {
        "osm_kind": "water",
        "name": "Пехорка",
        "source": "OpenStreetMap",
        "download_window_id": "moscow_nekrasovka_+3_+2_08bab668",
        "download_city": "Москва Некрасовка",
        "osm_tags": {
          "name": "Пехорка",
          "waterway": "river"
        },
        "osm_id": 24238601,
        "osm_type": "way"
      },
      "geometry": {
        "type": "LineString",
        "coordinates": [
          [
            37.9562136,
            55.7374025
          ],
          [
            37.9569176,
            55.7368902
          ],
          [
            37.957143,
            55.736924
          ],
          [
            37.9572825,
            55.7368697
          ],
          [
            37.9571982,
            55.7366447
          ],
          [
            37.9573792,
            55.7363645
          ],
          [
            37.9574827,
            55.7361225
          ],
          [
            37.9576814,
            55.7361198
          ],
          [
            37.957878,
            55.7359686
          ],
          [
            37.9579667,
            55.7358413
          ],
          [
            37.9578801,
            55.7356588
          ],
          [
            37.9579347,
            55.735538
          ],
          [
            37.9581062,
            55.7355228
          ],
          [
            37.9580521,
            55.7354632
          ],
          [
            37.9580941,
            55.7354378
          ],
          [
            37.9580894,
            55.7353774
          ],
          [
            37.9581919,
            55.7353198
          ],
          [
            37.9582387,
            55.7351812
          ],
          [
            37.9581581,
            55.7349115
          ],
          [
            37.9581066,
            55.7346892
          ],
          [
            37.9580282,
            55.7345131
          ],
          [
            37.9578334,
            55.7342481
          ],
          [
            37.9576347,
            55.7341224
          ],
          [
            37.9575824,
            55.7340533
          ],
          [
            37.9575769,
            55.7339622
          ],
          [
            37.9577437,
            55.7335675
          ],
          [
            37.9581257,
            55.7330907
          ],
          [
            37.9584101,
            55.7328452
          ],
          [
            37.9583782,
            55.7327809
          ],
          [
            37.9583321,
            55.7327163
          ],
          [
            37.9582317,
            55.7326455
          ],
          [
            37.9581329,
            55.7326101
          ],
          [
            37.9580992,
            55.7325654
          ],
          [
            37.9580758,
            55.7324471
          ],
          [
            37.9579718,
            55.7322899
          ],
          [
            37.9579287,
            55.7322248
          ],
          [
            37.9576937,
            55.7319842
          ],
          [
            37.9575079,
            55.7318893
          ],
          [
            37.9574455,
            55.7317607
          ],
          [
            37.957418,
            55.7316228
          ],
          [
            37.9573311,
            55.731536
          ],
          [
            37.9573273,
            55.7314629
          ],
          [
            37.9573725,
            55.7313622
          ],
          [
            37.9573121,
            55.7311487
          ],
          [
            37.9572051,
            55.7309294
          ],
          [
            37.9570798,
            55.7308118
          ],
          [
            37.9570953,
            55.7306713
          ],
          [
            37.9568512,
            55.7305306
          ],
          [
            37.9568455,
            55.7303745
          ],
          [
            37.9567647,
            55.7303387
          ],
          [
            37.9567202,
            55.7302868
          ],
          [
            37.9566716,
            55.7301383
          ],
          [
            37.9565812,
            55.7299907
          ],
          [
            37.9564253,
            55.7298357
          ],
          [
            37.9562213,
            55.7297114
          ],
          [
            37.9557196,
            55.7294837
          ],
          [
            37.9555542,
            55.7293893
          ],
          [
            37.9555368,
            55.7293326
          ],
          [
            37.9553174,
            55.729158
          ],
          [
            37.9553229,
            55.7290364
          ],
          [
            37.9554225,
            55.7289238
          ],
          [
            37.9553756,
            55.7287924
          ],
          [
            37.9551512,
            55.7286375
          ],
          [
            37.9550054,
            55.7284382
          ],
          [
            37.9545348,
            55.7280519
          ],
          [
            37.9543361,
            55.7279339
          ],
          [
            37.9542338,
            55.7279125
          ],
          [
            37.9541144,
            55.7279552
          ]
        ]
      }
    },
    {
      "type": "Feature",
      "properties": {
        "osm_kind": "building",
        "name": "Тубдиспансер",
        "source": "OpenStreetMap",
        "download_window_id": "moscow_nekrasovka_+3_+2_08bab668",
        "download_city": "Москва Некрасовка",
        "osm_tags": {
          "building": "yes",
          "name": "Тубдиспансер"
        },
        "osm_id": 72036323,
        "osm_type": "way"
      },
      "geometry": {
        "type": "Polygon",
        "coordinates": [
          [
            [
              37.9563696,
              55.7272136
            ],
            [
              37.9563699,
              55.7272292
            ],
            [
              37.9563999,
              55.727229
            ],
            [
              37.9564017,
              55.7273051
            ],
            [
              37.9563717,
              55.7273053
            ],
            [
              37.9563753,
              55.7274576
            ],
            [
              37.9566613,
              55.7274555
            ],
            [
              37.9566608,
              55.7274359
            ],
            [
              37.9569019,
              55.7274341
            ],
            [
              37.9569024,
              55.7274537
            ],
            [
              37.9571519,
              55.7274519
            ],
            [
              37.9571484,
              55.7272996
            ],
            [
              37.9571195,
              55.7272998
            ],
            [
              37.9571177,
              55.7272236
            ],
            [
              37.9571466,
              55.7272234
            ],
            [
              37.9571462,
              55.7272078
            ],
            [
              37.9573748,
              55.7272061
            ],
            [
              37.9573838,
              55.7275906
            ],
            [
              37.9561516,
              55.7275998
            ],
            [
              37.9561425,
              55.7272153
            ],
            [
              37.9563696,
              55.7272136
            ]
          ]
        ]
      }
    },
    {
      "type": "Feature",
      "properties": {
        "osm_kind": "road",
        "name": "",
        "source": "OpenStreetMap",
        "download_window_id": "moscow_nekrasovka_+3_+2_08bab668",
        "download_city": "Москва Некрасовка",
        "osm_tags": {
          "highway": "service"
        },
        "osm_id": 74873617,
        "osm_type": "way"
      },
      "geometry": {
        "type": "LineString",
        "coordinates": [
          [
            37.9583403,
            55.7268787
          ],
          [
            37.9582557,
            55.726917
          ],
          [
            37.9582394,
            55.7269245
          ],
          [
            37.9581788,
            55.726949
          ],
          [
            37.9580998,
            55.726981
          ],
          [
            37.9580716,
            55.7269924
          ],
          [
            37.9577397,
            55.7271268
          ],
          [
            37.9575825,
            55.7271589
          ],
          [
            37.9574527,
            55.7271688
          ],
          [
            37.9567463,
            55.7271725
          ],
          [
            37.9567511,
            55.7273384
          ]
        ]
      }
    },
    {
      "type": "Feature",
      "properties": {
        "osm_kind": "road",
        "name": "",
        "source": "OpenStreetMap",
        "download_window_id": "moscow_nekrasovka_+3_+2_08bab668",
        "download_city": "Москва Некрасовка",
        "osm_tags": {
          "highway": "service"
        },
        "osm_id": 74873618,
        "osm_type": "way"
      },
      "geometry": {
        "type": "LineString",
        "coordinates": [
          [
            37.9574527,
            55.7271688
          ],
          [
            37.9574528,
            55.7276682
          ],
          [
            37.9569592,
            55.7276743
          ]
        ]
      }
    },
    {
      "type": "Feature",
      "properties": {
        "osm_kind": "road",
        "name": "",
        "source": "OpenStreetMap",
        "download_window_id": "moscow_nekrasovka_+3_+2_08bab668",
        "download_city": "Москва Некрасовка",
        "osm_tags": {
          "highway": "service"
        },
        "osm_id": 166047147,
        "osm_type": "way"
      },
      "geometry": {
        "type": "LineString",
        "coordinates": [
          [
            37.9572254,
            55.7251716
          ],
          [
            37.9572095,
            55.7252325
          ],
          [
            37.957215,
            55.7252578
          ],
          [
            37.9572972,
            55.7253804
          ],
          [
            37.9573823,
            55.7254714
          ],
          [
            37.9575272,
            55.725594
          ],
          [
            37.9575753,
            55.7256483
          ],
          [
            37.9578381,
            55.7260482
          ],
          [
            37.9578788,
            55.726213
          ],
          [
            37.9580166,
            55.7265271
          ],
          [
            37.9580897,
            55.7267171
          ],
          [
            37.9581229,
            55.726812
          ],
          [
            37.9581399,
            55.7268605
          ]
        ]
      }
    },
    {
      "type": "Feature",
      "properties": {
        "osm_kind": "building",
        "name": "",
        "source": "OpenStreetMap",
        "download_window_id": "moscow_nekrasovka_+3_+2_08bab668",
        "download_city": "Москва Некрасовка",
        "osm_tags": {
          "building": "yes"
        },
        "osm_id": 166047177,
        "osm_type": "way"
      },
      "geometry": {
        "type": "Polygon",
        "coordinates": [
          [
            [
              37.9593658,
              55.7275486
            ],
            [
              37.9594594,
              55.7276498
            ],
            [
              37.9597055,
              55.7275775
            ],
            [
              37.9597162,
              55.727589
            ],
            [
              37.9598038,
              55.7275633
            ],
            [
              37.9596995,
              55.7274506
            ],
            [
              37.9593658,
              55.7275486
            ]
          ]
        ]
      }
    },
    {
      "type": "Feature",
      "properties": {
        "osm_kind": "road",
        "name": "",
        "source": "OpenStreetMap",
        "download_window_id": "moscow_nekrasovka_+3_+2_08bab668",
        "download_city": "Москва Некрасовка",
        "osm_tags": {
          "highway": "service"
        },
        "osm_id": 167047440,
        "osm_type": "way"
      },
      "geometry": {
        "type": "LineString",
        "coordinates": [
          [
            37.9587043,
            55.727305
          ],
          [
            37.9598092,
            55.7269714
          ]
        ]
      }
    },
    {
      "type": "Feature",
      "properties": {
        "osm_kind": "road",
        "name": "",
        "source": "OpenStreetMap",
        "download_window_id": "moscow_nekrasovka_+3_+2_08bab668",
        "download_city": "Москва Некрасовка",
        "osm_tags": {
          "highway": "service"
        },
        "osm_id": 167047455,
        "osm_type": "way"
      },
      "geometry": {
        "type": "LineString",
        "coordinates": [
          [
            37.9596262,
            55.7268597
          ],
          [
            37.9596907,
            55.726885
          ],
          [
            37.9597513,
            55.7269269
          ],
          [
            37.9598092,
            55.7269714
          ],
          [
            37.9599527,
            55.7270821
          ],
          [
            37.9588042,
            55.72741
          ]
        ]
      }
    },
    {
      "type": "Feature",
      "properties": {
        "osm_kind": "road",
        "name": "",
        "source": "OpenStreetMap",
        "download_window_id": "moscow_nekrasovka_+3_+2_08bab668",
        "download_city": "Москва Некрасовка",
        "osm_tags": {
          "highway": "footway"
        },
        "osm_id": 167047462,
        "osm_type": "way"
      },
      "geometry": {
        "type": "LineString",
        "coordinates": [
          [
            37.958877,
            55.7268863
          ],
          [
            37.9591292,
            55.7268762
          ],
          [
            37.9591748,
            55.7268747
          ],
          [
            37.959239,
            55.7268628
          ],
          [
            37.9595537,
            55.7267825
          ],
          [
            37.9596033,
            55.7267781
          ],
          [
            37.9596406,
            55.7267812
          ]
        ]
      }
    },
    {
      "type": "Feature",
      "properties": {
        "osm_kind": "road",
        "name": "",
        "source": "OpenStreetMap",
        "download_window_id": "moscow_nekrasovka_+3_+2_08bab668",
        "download_city": "Москва Некрасовка",
        "osm_tags": {
          "highway": "service"
        },
        "osm_id": 167047463,
        "osm_type": "way"
      },
      "geometry": {
        "type": "LineString",
        "coordinates": [
          [
            37.9590711,
            55.7276214
          ],
          [
            37.9589558,
            55.7274904
          ],
          [
            37.9588042,
            55.72741
          ],
          [
            37.9587043,
            55.727305
          ],
          [
            37.9586,
            55.7271954
          ],
          [
            37.9596262,
            55.7268597
          ],
          [
            37.9596369,
            55.7268092
          ],
          [
            37.9596406,
            55.7267812
          ],
          [
            37.959652,
            55.7266945
          ]
        ]
      }
    },
    {
      "type": "Feature",
      "properties": {
        "osm_kind": "road",
        "name": "",
        "source": "OpenStreetMap",
        "download_window_id": "moscow_nekrasovka_+3_+2_08bab668",
        "download_city": "Москва Некрасовка",
        "osm_tags": {
          "highway": "unclassified"
        },
        "osm_id": 227755316,
        "osm_type": "way"
      },
      "geometry": {
        "type": "LineString",
        "coordinates": [
          [
            37.9581399,
            55.7268605
          ],
          [
            37.9579923,
            55.7268293
          ],
          [
            37.9568968,
            55.7265505
          ],
          [
            37.9568257,
            55.7265331
          ],
          [
            37.9567103,
            55.7265048
          ],
          [
            37.9565339,
            55.7264687
          ],
          [
            37.9561286,
            55.7264293
          ],
          [
            37.9548648,
            55.7263553
          ]
        ]
      }
    },
    {
      "type": "Feature",
      "properties": {
        "osm_kind": "road",
        "name": "",
        "source": "OpenStreetMap",
        "download_window_id": "moscow_nekrasovka_+3_+2_08bab668",
        "download_city": "Москва Некрасовка",
        "osm_tags": {
          "highway": "service"
        },
        "osm_id": 600469701,
        "osm_type": "way"
      },
      "geometry": {
        "type": "LineString",
        "coordinates": [
          [
            37.9594878,
            55.7284081
          ],
          [
            37.9600193,
            55.7280541
          ],
          [
            37.9608052,
            55.7278044
          ],
          [
            37.9609382,
            55.7277675
          ]
        ]
      }
    },
    {
      "type": "Feature",
      "properties": {
        "osm_kind": "road",
        "name": "",
        "source": "OpenStreetMap",
        "download_window_id": "moscow_nekrasovka_+3_+2_08bab668",
        "download_city": "Москва Некрасовка",
        "osm_tags": {
          "highway": "construction"
        },
        "osm_id": 600469704,
        "osm_type": "way"
      },
      "geometry": {
        "type": "LineString",
        "coordinates": [
          [
            37.9594878,
            55.7284081
          ],
          [
            37.9581788,
            55.726949
          ],
          [
            37.9581571,
            55.7269094
          ],
          [
            37.9581399,
            55.7268605
          ]
        ]
      }
    },
    {
      "type": "Feature",
      "properties": {
        "osm_kind": "road",
        "name": "",
        "source": "OpenStreetMap",
        "download_window_id": "moscow_nekrasovka_+3_+2_08bab668",
        "download_city": "Москва Некрасовка",
        "osm_tags": {
          "highway": "service"
        },
        "osm_id": 600469705,
        "osm_type": "way"
      },
      "geometry": {
        "type": "LineString",
        "coordinates": [
          [
            37.9598806,
            55.7287646
          ],
          [
            37.9594878,
            55.7284081
          ]
        ]
      }
    },
    {
      "type": "Feature",
      "properties": {
        "osm_kind": "road",
        "name": "",
        "source": "OpenStreetMap",
        "download_window_id": "moscow_nekrasovka_+3_+2_08bab668",
        "download_city": "Москва Некрасовка",
        "osm_tags": {
          "highway": "footway"
        },
        "osm_id": 860228753,
        "osm_type": "way"
      },
      "geometry": {
        "type": "LineString",
        "coordinates": [
          [
            37.9549723,
            55.7262261
          ],
          [
            37.954975,
            55.7262654
          ],
          [
            37.955009,
            55.7263035
          ],
          [
            37.9550546,
            55.7263292
          ],
          [
            37.9551324,
            55.7263428
          ],
          [
            37.9562992,
            55.7263956
          ],
          [
            37.9564789,
            55.7264077
          ],
          [
            37.9565457,
            55.7264171
          ],
          [
            37.9566174,
            55.7264271
          ],
          [
            37.9566859,
            55.726442
          ],
          [
            37.9567694,
            55.7264602
          ],
          [
            37.9568176,
            55.7264718
          ],
          [
            37.956861,
            55.7264823
          ],
          [
            37.9569965,
            55.726515
          ],
          [
            37.9581229,
            55.726812
          ],
          [
            37.9582633,
            55.7268288
          ],
          [
            37.9584288,
            55.7268307
          ],
          [
            37.9586032,
            55.726814
          ],
          [
            37.9587588,
            55.7267986
          ]
        ]
      }
    },
    {
      "type": "Feature",
      "properties": {
        "osm_kind": "building",
        "name": "",
        "source": "OpenStreetMap",
        "download_window_id": "moscow_nekrasovka_+3_+2_08bab668",
        "download_city": "Москва Некрасовка",
        "osm_tags": {
          "building": "house"
        },
        "osm_id": 860228811,
        "osm_type": "way"
      },
      "geometry": {
        "type": "Polygon",
        "coordinates": [
          [
            [
              37.9584542,
              55.7266951
            ],
            [
              37.9583526,
              55.726575
            ],
            [
              37.9585132,
              55.7265319
            ],
            [
              37.9586148,
              55.726652
            ],
            [
              37.9584542,
              55.7266951
            ]
          ]
        ]
      }
    },
    {
      "type": "Feature",
      "properties": {
        "osm_kind": "road",
        "name": "",
        "source": "OpenStreetMap",
        "download_window_id": "moscow_nekrasovka_+3_+2_08bab668",
        "download_city": "Москва Некрасовка",
        "osm_tags": {
          "highway": "footway"
        },
        "osm_id": 860229014,
        "osm_type": "way"
      },
      "geometry": {
        "type": "LineString",
        "coordinates": [
          [
            37.9565164,
            55.7265029
          ],
          [
            37.9566881,
            55.7265361
          ],
          [
            37.9568034,
            55.7265694
          ]
        ]
      }
    },
    {
      "type": "Feature",
      "properties": {
        "osm_kind": "road",
        "name": "",
        "source": "OpenStreetMap",
        "download_window_id": "moscow_nekrasovka_+3_+2_08bab668",
        "download_city": "Москва Некрасовка",
        "osm_tags": {
          "highway": "path"
        },
        "osm_id": 996006346,
        "osm_type": "way"
      },
      "geometry": {
        "type": "LineString",
        "coordinates": [
          [
            37.9591062,
            55.7320009
          ],
          [
            37.9588325,
            55.7315672
          ],
          [
            37.9588269,
            55.7314382
          ],
          [
            37.9589028,
            55.7313464
          ],
          [
            37.9588168,
            55.7311997
          ],
          [
            37.9587577,
            55.731119
          ],
          [
            37.9587037,
            55.7309329
          ],
          [
            37.9587896,
            55.7307577
          ],
          [
            37.9588593,
            55.7304889
          ],
          [
            37.9586233,
            55.7303258
          ],
          [
            37.9581512,
            55.7302382
          ],
          [
            37.9577167,
            55.7300358
          ],
          [
            37.957663,
            55.7298757
          ],
          [
            37.957427,
            55.7296975
          ],
          [
            37.9574109,
            55.7296401
          ],
          [
            37.9576845,
            55.7293984
          ],
          [
            37.9577113,
            55.72919
          ],
          [
            37.9579473,
            55.7291175
          ],
          [
            37.9581351,
            55.7289967
          ],
          [
            37.9586661,
            55.7288711
          ],
          [
            37.9587537,
            55.7288168
          ],
          [
            37.9589558,
            55.7287731
          ],
          [
            37.9591114,
            55.7286916
          ],
          [
            37.9594655,
            55.7286795
          ],
          [
            37.9596484,
            55.7287612
          ],
          [
            37.9597337,
            55.7288003
          ],
          [
            37.9598195,
            55.7289121
          ],
          [
            37.9599268,
            55.7290631
          ],
          [
            37.9600985,
            55.7291991
          ],
          [
            37.9602433,
            55.729338
          ],
          [
            37.9602527,
            55.729347
          ],
          [
            37.9602621,
            55.7293561
          ],
          [
            37.9602882,
            55.7293824
          ],
          [
            37.960356,
            55.7294991
          ],
          [
            37.9604937,
            55.7296599
          ],
          [
            37.960621,
            55.7297979
          ],
          [
            37.9606933,
            55.7298921
          ],
          [
            37.9607984,
            55.7300566
          ],
          [
            37.9609069,
            55.7301482
          ],
          [
            37.9610081,
            55.7303092
          ],
          [
            37.9610782,
            55.7304919
          ],
          [
            37.9614972,
            55.7309464
          ],
          [
            37.9616983,
            55.7311397
          ],
          [
            37.9619498,
            55.7312853
          ],
          [
            37.9621205,
            55.7313826
          ],
          [
            37.9622941,
            55.7314782
          ],
          [
            37.9624763,
            55.7316001
          ],
          [
            37.9627039,
            55.7317134
          ],
          [
            37.9630617,
            55.7318061
          ],
          [
            37.9632081,
            55.73187
          ],
          [
            37.9634296,
            55.7319732
          ],
          [
            37.9637894,
            55.7320922
          ],
          [
            37.9638748,
            55.7321593
          ],
          [
            37.964139,
            55.732344
          ],
          [
            37.9644663,
            55.7325397
          ],
          [
            37.964564,
            55.7326166
          ],
          [
            37.9647631,
            55.7327732
          ],
          [
            37.9648268,
            55.7328512
          ],
          [
            37.9649968,
            55.7330594
          ],
          [
            37.9651229,
            55.7332974
          ],
          [
            37.9652184,
            55.7335504
          ],
          [
            37.9653241,
            55.7337644
          ],
          [
            37.9653871,
            55.7339578
          ],
          [
            37.9654501,
            55.734126
          ],
          [
            37.9654461,
            55.7342954
          ],
          [
            37.965442,
            55.7343561
          ],
          [
            37.965314,
            55.7345838
          ],
          [
            37.9650926,
            55.7348183
          ],
          [
            37.9650597,
            55.7348466
          ],
          [
            37.9650154,
            55.7348887
          ],
          [
            37.9648826,
            55.7349731
          ],
          [
            37.964835,
            55.7350435
          ],
          [
            37.9648544,
            55.7351312
          ],
          [
            37.9648954,
            55.735167
          ]
        ]
      }
    },
    {
      "type": "Feature",
      "properties": {
        "osm_kind": "road",
        "name": "",
        "source": "OpenStreetMap",
        "download_window_id": "moscow_nekrasovka_+3_+2_08bab668",
        "download_city": "Москва Некрасовка",
        "osm_tags": {
          "highway": "footway"
        },
        "osm_id": 1307842217,
        "osm_type": "way"
      },
      "geometry": {
        "type": "LineString",
        "coordinates": [
          [
            37.9568034,
            55.7265694
          ],
          [
            37.95771,
            55.7268072
          ],
          [
            37.9581571,
            55.7269094
          ],
          [
            37.9582557,
            55.726917
          ],
          [
            37.9585167,
            55.7269173
          ],
          [
            37.958877,
            55.7268863
          ]
        ]
      }
    },
    {
      "type": "Feature",
      "properties": {
        "osm_kind": "road",
        "name": "",
        "source": "OpenStreetMap",
        "download_window_id": "moscow_nekrasovka_+3_+2_08bab668",
        "download_city": "Москва Некрасовка",
        "osm_tags": {
          "highway": "footway"
        },
        "osm_id": 1417988474,
        "osm_type": "way"
      },
      "geometry": {
        "type": "LineString",
        "coordinates": [
          [
            37.9587588,
            55.7267986
          ],
          [
            37.9588088,
            55.7268358
          ],
          [
            37.958877,
            55.7268863
          ]
        ]
      }
    },
    {
      "type": "Feature",
      "properties": {
        "osm_kind": "road",
        "name": "",
        "source": "OpenStreetMap",
        "download_window_id": "moscow_nekrasovka_+3_+2_08bab668",
        "download_city": "Москва Некрасовка",
        "osm_tags": {
          "highway": "footway"
        },
        "osm_id": 1417988475,
        "osm_type": "way"
      },
      "geometry": {
        "type": "LineString",
        "coordinates": [
          [
            37.9568034,
            55.7265694
          ],
          [
            37.9568257,
            55.7265331
          ],
          [
            37.956861,
            55.7264823
          ]
        ]
      }
    }
  ]
}