{
  "type": "FeatureCollection",
  "name": "kazan_center_+3_+3_2dfb75e7",
  "metadata": {
    "category": "fifty_fifty",
    "rank": 88,
    "city": "Казань",
    "seed": "kazan_center",
    "center": [
      49.1471495,
      55.8190069
    ],
    "bbox_south_west_north_east": [
      55.8176595,
      49.1447511,
      55.8203544,
      49.149548
    ],
    "source": "OpenStreetMap via Overpass API",
    "note": "Real OSM geometry only. Category is a heuristic research bucket, not heat-network ground truth.",
    "metrics": {
      "counts": {
        "building": 2,
        "road": 68,
        "major_road": 10,
        "railway": 0,
        "water": 0,
        "green": 2
      },
      "lengths_m": {
        "road": 7899.25,
        "major_road": 2063.74,
        "railway": 0.0,
        "water": 0.0
      },
      "building_centers": 2,
      "building_spread": 0.0952,
      "barrier_score": 2.0637,
      "road_score": 11.2215,
      "category_scores": {
        "shared_pipe": 0.4276,
        "separate_pipes": 3.9415,
        "fifty_fifty": 1.3244,
        "refusal": 5.1969
      }
    }
  },
  "features": [
    {
      "type": "Feature",
      "properties": {
        "osm_kind": "building",
        "name": "",
        "source": "OpenStreetMap",
        "download_window_id": "kazan_center_+3_+3_2dfb75e7",
        "download_city": "Казань",
        "osm_tags": {
          "building": "apartments"
        },
        "osm_id": 83289914,
        "osm_type": "way"
      },
      "geometry": {
        "type": "Polygon",
        "coordinates": [
          [
            [
              49.1461884,
              55.8204462
            ],
            [
              49.1468886,
              55.8204439
            ],
            [
              49.1468801,
              55.8196444
            ],
            [
              49.1461876,
              55.8196467
            ],
            [
              49.146189,
              55.8197841
            ],
            [
              49.1464032,
              55.8197834
            ],
            [
              49.1466174,
              55.8197826
            ],
            [
              49.1466195,
              55.819977
            ],
            [
              49.1466215,
              55.8201714
            ],
            [
              49.1466229,
              55.8203005
            ],
            [
              49.1464049,
              55.8203012
            ],
            [
              49.1461869,
              55.8203019
            ],
            [
              49.1461884,
              55.8204462
            ]
          ]
        ]
      }
    },
    {
      "type": "Feature",
      "properties": {
        "osm_kind": "road",
        "name": "",
        "source": "OpenStreetMap",
        "download_window_id": "kazan_center_+3_+3_2dfb75e7",
        "download_city": "Казань",
        "osm_tags": {
          "highway": "service"
        },
        "osm_id": 114384135,
        "osm_type": "way"
      },
      "geometry": {
        "type": "LineString",
        "coordinates": [
          [
            49.1495292,
            55.8200623
          ],
          [
            49.1491905,
            55.8200649
          ],
          [
            49.1488822,
            55.8200634
          ]
        ]
      }
    },
    {
      "type": "Feature",
      "properties": {
        "osm_kind": "road",
        "name": "",
        "source": "OpenStreetMap",
        "download_window_id": "kazan_center_+3_+3_2dfb75e7",
        "download_city": "Казань",
        "osm_tags": {
          "highway": "service"
        },
        "osm_id": 114384149,
        "osm_type": "way"
      },
      "geometry": {
        "type": "LineString",
        "coordinates": [
          [
            49.1491971,
            55.8195983
          ],
          [
            49.1491964,
            55.8196276
          ],
          [
            49.1491905,
            55.8200649
          ],
          [
            49.1491894,
            55.8205693
          ],
          [
            49.1491951,
            55.8210851
          ],
          [
            49.1491961,
            55.8213163
          ]
        ]
      }
    },
    {
      "type": "Feature",
      "properties": {
        "osm_kind": "major_road",
        "name": "Чистопольская улица",
        "source": "OpenStreetMap",
        "download_window_id": "kazan_center_+3_+3_2dfb75e7",
        "download_city": "Казань",
        "osm_tags": {
          "highway": "secondary",
          "name": "Чистопольская улица"
        },
        "osm_id": 115937730,
        "osm_type": "way"
      },
      "geometry": {
        "type": "LineString",
        "coordinates": [
          [
            49.1539872,
            55.8205986
          ],
          [
            49.1538315,
            55.8204967
          ],
          [
            49.1534218,
            55.8202287
          ],
          [
            49.1528272,
            55.8198897
          ],
          [
            49.152518,
            55.8197446
          ],
          [
            49.1521355,
            55.8195953
          ],
          [
            49.151778,
            55.8195271
          ],
          [
            49.1513983,
            55.8194634
          ],
          [
            49.1504703,
            55.8194122
          ],
          [
            49.1499406,
            55.8194046
          ],
          [
            49.1494302,
            55.8194026
          ]
        ]
      }
    },
    {
      "type": "Feature",
      "properties": {
        "osm_kind": "major_road",
        "name": "Чистопольская улица",
        "source": "OpenStreetMap",
        "download_window_id": "kazan_center_+3_+3_2dfb75e7",
        "download_city": "Казань",
        "osm_tags": {
          "highway": "secondary",
          "name": "Чистопольская улица"
        },
        "osm_id": 118579478,
        "osm_type": "way"
      },
      "geometry": {
        "type": "LineString",
        "coordinates": [
          [
            49.1473556,
            55.8194242
          ],
          [
            49.1463559,
            55.8194272
          ],
          [
            49.1445346,
            55.8194342
          ],
          [
            49.1429221,
            55.8194405
          ],
          [
            49.1428086,
            55.8194408
          ],
          [
            49.1426495,
            55.819441
          ],
          [
            49.1424069,
            55.8194416
          ],
          [
            49.1422909,
            55.8194416
          ],
          [
            49.1417407,
            55.8194426
          ],
          [
            49.1407044,
            55.8194345
          ],
          [
            49.1402269,
            55.819439
          ]
        ]
      }
    },
    {
      "type": "Feature",
      "properties": {
        "osm_kind": "road",
        "name": "улица Адоратского",
        "source": "OpenStreetMap",
        "download_window_id": "kazan_center_+3_+3_2dfb75e7",
        "download_city": "Казань",
        "osm_tags": {
          "highway": "tertiary",
          "name": "улица Адоратского"
        },
        "osm_id": 118579481,
        "osm_type": "way"
      },
      "geometry": {
        "type": "LineString",
        "coordinates": [
          [
            49.1473556,
            55.8194242
          ],
          [
            49.1473602,
            55.8195978
          ],
          [
            49.147358,
            55.8196549
          ],
          [
            49.1473761,
            55.8200502
          ],
          [
            49.1473815,
            55.8205775
          ],
          [
            49.1473952,
            55.8210779
          ],
          [
            49.1473933,
            55.821487
          ],
          [
            49.1473926,
            55.8216398
          ],
          [
            49.147391,
            55.8217364
          ],
          [
            49.1473898,
            55.8218092
          ],
          [
            49.1473883,
            55.8224521
          ],
          [
            49.1473871,
            55.82293
          ],
          [
            49.1473812,
            55.8229979
          ],
          [
            49.1473853,
            55.8233581
          ],
          [
            49.1473786,
            55.8235816
          ]
        ]
      }
    },
    {
      "type": "Feature",
      "properties": {
        "osm_kind": "major_road",
        "name": "Чистопольская улица",
        "source": "OpenStreetMap",
        "download_window_id": "kazan_center_+3_+3_2dfb75e7",
        "download_city": "Казань",
        "osm_tags": {
          "highway": "secondary",
          "name": "Чистопольская улица"
        },
        "osm_id": 167483835,
        "osm_type": "way"
      },
      "geometry": {
        "type": "LineString",
        "coordinates": [
          [
            49.1394624,
            55.8193358
          ],
          [
            49.140677,
            55.8193279
          ],
          [
            49.1424086,
            55.8193199
          ],
          [
            49.1426351,
            55.8193201
          ],
          [
            49.1428078,
            55.8193179
          ],
          [
            49.1436363,
            55.8193191
          ],
          [
            49.1453279,
            55.8193192
          ],
          [
            49.1466108,
            55.8193192
          ],
          [
            49.1468973,
            55.8192828
          ],
          [
            49.1471617,
            55.8192092
          ],
          [
            49.1474202,
            55.8190881
          ],
          [
            49.1475665,
            55.8189667
          ],
          [
            49.1476427,
            55.8188836
          ],
          [
            49.1478436,
            55.8186645
          ],
          [
            49.1479756,
            55.8185494
          ]
        ]
      }
    },
    {
      "type": "Feature",
      "properties": {
        "osm_kind": "major_road",
        "name": "Чистопольская улица",
        "source": "OpenStreetMap",
        "download_window_id": "kazan_center_+3_+3_2dfb75e7",
        "download_city": "Казань",
        "osm_tags": {
          "highway": "secondary",
          "name": "Чистопольская улица"
        },
        "osm_id": 167484340,
        "osm_type": "way"
      },
      "geometry": {
        "type": "LineString",
        "coordinates": [
          [
            49.1491808,
            55.8194038
          ],
          [
            49.1486431,
            55.8193129
          ],
          [
            49.1483597,
            55.819221
          ],
          [
            49.1481461,
            55.8190953
          ],
          [
            49.1480218,
            55.8189419
          ],
          [
            49.147964,
            55.8187563
          ],
          [
            49.1479756,
            55.8185494
          ]
        ]
      }
    },
    {
      "type": "Feature",
      "properties": {
        "osm_kind": "major_road",
        "name": "улица Сибгата Хакима",
        "source": "OpenStreetMap",
        "download_window_id": "kazan_center_+3_+3_2dfb75e7",
        "download_city": "Казань",
        "osm_tags": {
          "highway": "secondary",
          "name": "улица Сибгата Хакима"
        },
        "osm_id": 183524381,
        "osm_type": "way"
      },
      "geometry": {
        "type": "LineString",
        "coordinates": [
          [
            49.148096,
            55.8183948
          ],
          [
            49.1481765,
            55.8182032
          ],
          [
            49.1482892,
            55.8179766
          ],
          [
            49.1483337,
            55.8178646
          ],
          [
            49.1483223,
            55.8177526
          ],
          [
            49.1482681,
            55.8175855
          ],
          [
            49.1481707,
            55.8174555
          ]
        ]
      }
    },
    {
      "type": "Feature",
      "properties": {
        "osm_kind": "major_road",
        "name": "Чистопольская улица",
        "source": "OpenStreetMap",
        "download_window_id": "kazan_center_+3_+3_2dfb75e7",
        "download_city": "Казань",
        "osm_tags": {
          "highway": "secondary",
          "name": "Чистопольская улица"
        },
        "osm_id": 183524382,
        "osm_type": "way"
      },
      "geometry": {
        "type": "LineString",
        "coordinates": [
          [
            49.1491808,
            55.8194038
          ],
          [
            49.1486681,
            55.8194385
          ],
          [
            49.1473556,
            55.8194242
          ]
        ]
      }
    },
    {
      "type": "Feature",
      "properties": {
        "osm_kind": "major_road",
        "name": "Чистопольская улица",
        "source": "OpenStreetMap",
        "download_window_id": "kazan_center_+3_+3_2dfb75e7",
        "download_city": "Казань",
        "osm_tags": {
          "highway": "secondary",
          "name": "Чистопольская улица"
        },
        "osm_id": 223054573,
        "osm_type": "way"
      },
      "geometry": {
        "type": "LineString",
        "coordinates": [
          [
            49.1494302,
            55.8194026
          ],
          [
            49.1491808,
            55.8194038
          ]
        ]
      }
    },
    {
      "type": "Feature",
      "properties": {
        "osm_kind": "major_road",
        "name": "Чистопольская улица",
        "source": "OpenStreetMap",
        "download_window_id": "kazan_center_+3_+3_2dfb75e7",
        "download_city": "Казань",
        "osm_tags": {
          "highway": "secondary",
          "name": "Чистопольская улица"
        },
        "osm_id": 223054575,
        "osm_type": "way"
      },
      "geometry": {
        "type": "LineString",
        "coordinates": [
          [
            49.1479756,
            55.8185494
          ],
          [
            49.148096,
            55.8183948
          ]
        ]
      }
    },
    {
      "type": "Feature",
      "properties": {
        "osm_kind": "major_road",
        "name": "Чистопольская улица",
        "source": "OpenStreetMap",
        "download_window_id": "kazan_center_+3_+3_2dfb75e7",
        "download_city": "Казань",
        "osm_tags": {
          "highway": "secondary",
          "name": "Чистопольская улица"
        },
        "osm_id": 223054577,
        "osm_type": "way"
      },
      "geometry": {
        "type": "LineString",
        "coordinates": [
          [
            49.148096,
            55.8183948
          ],
          [
            49.1483239,
            55.8182593
          ],
          [
            49.1485844,
            55.8181368
          ],
          [
            49.1488886,
            55.8180537
          ],
          [
            49.1491921,
            55.8180225
          ],
          [
            49.149507,
            55.8180329
          ],
          [
            49.1498509,
            55.8180808
          ],
          [
            49.1502063,
            55.8182037
          ]
        ]
      }
    },
    {
      "type": "Feature",
      "properties": {
        "osm_kind": "major_road",
        "name": "Чистопольская улица",
        "source": "OpenStreetMap",
        "download_window_id": "kazan_center_+3_+3_2dfb75e7",
        "download_city": "Казань",
        "osm_tags": {
          "highway": "secondary",
          "name": "Чистопольская улица"
        },
        "osm_id": 223054578,
        "osm_type": "way"
      },
      "geometry": {
        "type": "LineString",
        "coordinates": [
          [
            49.1504357,
            55.8183297
          ],
          [
            49.1506044,
            55.8185207
          ],
          [
            49.1506638,
            55.818654
          ],
          [
            49.1506774,
            55.8188223
          ],
          [
            49.1505907,
            55.8190111
          ],
          [
            49.1504749,
            55.8191223
          ],
          [
            49.1502053,
            55.8192595
          ],
          [
            49.1498966,
            55.81932
          ],
          [
            49.1494302,
            55.8194026
          ]
        ]
      }
    },
    {
      "type": "Feature",
      "properties": {
        "osm_kind": "green",
        "name": "",
        "source": "OpenStreetMap",
        "download_window_id": "kazan_center_+3_+3_2dfb75e7",
        "download_city": "Казань",
        "osm_tags": {
          "landuse": "grass"
        },
        "osm_id": 229388640,
        "osm_type": "way"
      },
      "geometry": {
        "type": "Polygon",
        "coordinates": [
          [
            [
              49.1482415,
              55.8181808
            ],
            [
              49.1483155,
              55.8180757
            ],
            [
              49.1483669,
              55.8179156
            ],
            [
              49.148372,
              55.8178086
            ],
            [
              49.148353,
              55.8176742
            ],
            [
              49.1483065,
              55.8175485
            ],
            [
              49.1482579,
              55.8174662
            ],
            [
              49.1481851,
              55.8173698
            ],
            [
              49.148176,
              55.8173146
            ],
            [
              49.1482259,
              55.8172636
            ],
            [
              49.1483262,
              55.8172386
            ],
            [
              49.148409,
              55.8172582
            ],
            [
              49.1485882,
              55.8173584
            ],
            [
              49.1487076,
              55.8174267
            ],
            [
              49.1496697,
              55.8179858
            ],
            [
              49.1494433,
              55.8179596
            ],
            [
              49.1491321,
              55.8179431
            ],
            [
              49.1488651,
              55.8179671
            ],
            [
              49.1486133,
              55.818022
            ],
            [
              49.1484228,
              55.8180969
            ],
            [
              49.1482415,
              55.8181808
            ]
          ]
        ]
      }
    },
    {
      "type": "Feature",
      "properties": {
        "osm_kind": "green",
        "name": "",
        "source": "OpenStreetMap",
        "download_window_id": "kazan_center_+3_+3_2dfb75e7",
        "download_city": "Казань",
        "osm_tags": {
          "landuse": "grass"
        },
        "osm_id": 229388642,
        "osm_type": "way"
      },
      "geometry": {
        "type": "Polygon",
        "coordinates": [
          [
            [
              49.1487956,
              55.8193003
            ],
            [
              49.1486152,
              55.8192544
            ],
            [
              49.1484449,
              55.8192036
            ],
            [
              49.1482423,
              55.8190942
            ],
            [
              49.1481243,
              55.8189627
            ],
            [
              49.14807,
              55.8188194
            ],
            [
              49.1480928,
              55.8186862
            ],
            [
              49.1481847,
              55.8185589
            ],
            [
              49.1482944,
              55.8184334
            ],
            [
              49.1484513,
              55.8183045
            ],
            [
              49.1486776,
              55.8181958
            ],
            [
              49.1490037,
              55.8181159
            ],
            [
              49.1492809,
              55.8180944
            ],
            [
              49.149581,
              55.8181195
            ],
            [
              49.1499155,
              55.8182082
            ],
            [
              49.1501128,
              55.8183013
            ],
            [
              49.1502849,
              55.8184
            ],
            [
              49.1504507,
              55.8185033
            ],
            [
              49.1505853,
              55.8186533
            ],
            [
              49.15063,
              55.8187912
            ],
            [
              49.1505885,
              55.818932
            ],
            [
              49.150491,
              55.8190607
            ],
            [
              49.150347,
              55.8191653
            ],
            [
              49.1501473,
              55.8192381
            ],
            [
              49.1497755,
              55.8193218
            ],
            [
              49.1492633,
              55.819349
            ],
            [
              49.1487956,
              55.8193003
            ]
          ]
        ]
      }
    },
    {
      "type": "Feature",
      "properties": {
        "osm_kind": "road",
        "name": "",
        "source": "OpenStreetMap",
        "download_window_id": "kazan_center_+3_+3_2dfb75e7",
        "download_city": "Казань",
        "osm_tags": {
          "highway": "service"
        },
        "osm_id": 253811467,
        "osm_type": "way"
      },
      "geometry": {
        "type": "LineString",
        "coordinates": [
          [
            49.1473602,
            55.8195978
          ],
          [
            49.1482501,
            55.8195996
          ],
          [
            49.1491971,
            55.8195983
          ],
          [
            49.1501333,
            55.8196041
          ],
          [
            49.1506124,
            55.8196133
          ],
          [
            49.1507665,
            55.8196349
          ],
          [
            49.1509802,
            55.8197267
          ],
          [
            49.1510978,
            55.8198024
          ]
        ]
      }
    },
    {
      "type": "Feature",
      "properties": {
        "osm_kind": "road",
        "name": "",
        "source": "OpenStreetMap",
        "download_window_id": "kazan_center_+3_+3_2dfb75e7",
        "download_city": "Казань",
        "osm_tags": {
          "highway": "service"
        },
        "osm_id": 254056228,
        "osm_type": "way"
      },
      "geometry": {
        "type": "LineString",
        "coordinates": [
          [
            49.1460594,
            55.8195964
          ],
          [
            49.1460311,
            55.81963
          ],
          [
            49.1459728,
            55.8199055
          ],
          [
            49.1459708,
            55.8199626
          ],
          [
            49.1459615,
            55.8202316
          ],
          [
            49.1459482,
            55.8204437
          ],
          [
            49.1459431,
            55.820526
          ],
          [
            49.1459363,
            55.8206119
          ],
          [
            49.1459509,
            55.8207208
          ],
          [
            49.1459543,
            55.8210742
          ],
          [
            49.1459576,
            55.8214185
          ],
          [
            49.1459583,
            55.8214883
          ],
          [
            49.1459778,
            55.8216954
          ]
        ]
      }
    },
    {
      "type": "Feature",
      "properties": {
        "osm_kind": "road",
        "name": "",
        "source": "OpenStreetMap",
        "download_window_id": "kazan_center_+3_+3_2dfb75e7",
        "download_city": "Казань",
        "osm_tags": {
          "highway": "service"
        },
        "osm_id": 385136306,
        "osm_type": "way"
      },
      "geometry": {
        "type": "LineString",
        "coordinates": [
          [
            49.1459728,
            55.8199055
          ],
          [
            49.1457217,
            55.8199095
          ],
          [
            49.1451646,
            55.8199184
          ],
          [
            49.1451566,
            55.8202318
          ],
          [
            49.1457314,
            55.8202355
          ]
        ]
      }
    },
    {
      "type": "Feature",
      "properties": {
        "osm_kind": "road",
        "name": "",
        "source": "OpenStreetMap",
        "download_window_id": "kazan_center_+3_+3_2dfb75e7",
        "download_city": "Казань",
        "osm_tags": {
          "highway": "service"
        },
        "osm_id": 457431031,
        "osm_type": "way"
      },
      "geometry": {
        "type": "LineString",
        "coordinates": [
          [
            49.1473602,
            55.8195978
          ],
          [
            49.1471204,
            55.8195949
          ],
          [
            49.1470298,
            55.8195937
          ],
          [
            49.1460594,
            55.8195964
          ]
        ]
      }
    },
    {
      "type": "Feature",
      "properties": {
        "osm_kind": "road",
        "name": "",
        "source": "OpenStreetMap",
        "download_window_id": "kazan_center_+3_+3_2dfb75e7",
        "download_city": "Казань",
        "osm_tags": {
          "highway": "footway"
        },
        "osm_id": 461023374,
        "osm_type": "way"
      },
      "geometry": {
        "type": "LineString",
        "coordinates": [
          [
            49.1424027,
            55.8196544
          ],
          [
            49.1424607,
            55.8196273
          ],
          [
            49.1424881,
            55.8196262
          ],
          [
            49.1425102,
            55.8196257
          ],
          [
            49.1425344,
            55.8196254
          ],
          [
            49.1426531,
            55.8196255
          ],
          [
            49.1426591,
            55.8196255
          ],
          [
            49.1428099,
            55.8196256
          ],
          [
            49.1428462,
            55.8196256
          ],
          [
            49.1430353,
            55.8196258
          ],
          [
            49.1445346,
            55.8196271
          ],
          [
            49.1460311,
            55.81963
          ],
          [
            49.1470368,
            55.819616
          ],
          [
            49.1471176,
            55.8196446
          ],
          [
            49.147358,
            55.8196549
          ]
        ]
      }
    },
    {
      "type": "Feature",
      "properties": {
        "osm_kind": "road",
        "name": "",
        "source": "OpenStreetMap",
        "download_window_id": "kazan_center_+3_+3_2dfb75e7",
        "download_city": "Казань",
        "osm_tags": {
          "highway": "footway"
        },
        "osm_id": 461023375,
        "osm_type": "way"
      },
      "geometry": {
        "type": "LineString",
        "coordinates": [
          [
            49.1427983,
            55.81914
          ],
          [
            49.1447889,
            55.8191373
          ],
          [
            49.1471203,
            55.8191341
          ],
          [
            49.1472821,
            55.8190657
          ],
          [
            49.1474812,
            55.8189199
          ],
          [
            49.148144,
            55.8181301
          ],
          [
            49.1482359,
            55.8179059
          ],
          [
            49.1482158,
            55.817674
          ],
          [
            49.1480974,
            55.8174728
          ],
          [
            49.1478016,
            55.8172151
          ],
          [
            49.1474961,
            55.8169937
          ],
          [
            49.1474406,
            55.8169514
          ],
          [
            49.1472913,
            55.8168788
          ],
          [
            49.1468213,
            55.8165213
          ],
          [
            49.146763,
            55.8164235
          ],
          [
            49.1466519,
            55.8163374
          ],
          [
            49.1463168,
            55.816079
          ],
          [
            49.1462525,
            55.8160397
          ],
          [
            49.1461765,
            55.8160078
          ],
          [
            49.1460868,
            55.8159833
          ],
          [
            49.1460131,
            55.8159717
          ],
          [
            49.1459535,
            55.8159689
          ],
          [
            49.1458999,
            55.8159711
          ],
          [
            49.1456611,
            55.8160003
          ],
          [
            49.1456115,
            55.8160056
          ],
          [
            49.1455726,
            55.816008
          ],
          [
            49.1455284,
            55.8160087
          ],
          [
            49.1450634,
            55.8160092
          ],
          [
            49.1443563,
            55.8160094
          ],
          [
            49.1440157,
            55.8159818
          ],
          [
            49.1429199,
            55.8159881
          ],
          [
            49.1427792,
            55.8159926
          ]
        ]
      }
    },
    {
      "type": "Feature",
      "properties": {
        "osm_kind": "road",
        "name": "",
        "source": "OpenStreetMap",
        "download_window_id": "kazan_center_+3_+3_2dfb75e7",
        "download_city": "Казань",
        "osm_tags": {
          "highway": "footway"
        },
        "osm_id": 489284815,
        "osm_type": "way"
      },
      "geometry": {
        "type": "LineString",
        "coordinates": [
          [
            49.1463595,
            55.81954
          ],
          [
            49.1471212,
            55.8195437
          ],
          [
            49.1471204,
            55.8195949
          ],
          [
            49.1471176,
            55.8196446
          ],
          [
            49.1470947,
            55.8205456
          ],
          [
            49.1471085,
            55.8214908
          ],
          [
            49.147104,
            55.8217364
          ],
          [
            49.1470595,
            55.8217997
          ],
          [
            49.1470335,
            55.8218277
          ],
          [
            49.1470419,
            55.8229341
          ],
          [
            49.1470424,
            55.8229953
          ],
          [
            49.1470248,
            55.8231825
          ],
          [
            49.1470401,
            55.8235826
          ],
          [
            49.1470229,
            55.8236981
          ],
          [
            49.1470629,
            55.8239964
          ],
          [
            49.1470674,
            55.824227
          ],
          [
            49.147102,
            55.8245529
          ],
          [
            49.1470963,
            55.8258704
          ],
          [
            49.1470966,
            55.8260245
          ],
          [
            49.1471026,
            55.826228
          ],
          [
            49.1471197,
            55.8264634
          ],
          [
            49.1471273,
            55.8265677
          ],
          [
            49.1471385,
            55.8267872
          ],
          [
            49.1471392,
            55.8267979
          ]
        ]
      }
    },
    {
      "type": "Feature",
      "properties": {
        "osm_kind": "road",
        "name": "",
        "source": "OpenStreetMap",
        "download_window_id": "kazan_center_+3_+3_2dfb75e7",
        "download_city": "Казань",
        "osm_tags": {
          "highway": "footway"
        },
        "osm_id": 489287476,
        "osm_type": "way"
      },
      "geometry": {
        "type": "LineString",
        "coordinates": [
          [
            49.1542013,
            55.8256725
          ],
          [
            49.1541597,
            55.8256275
          ],
          [
            49.1542121,
            55.8256065
          ],
          [
            49.1545631,
            55.825515
          ],
          [
            49.1546652,
            55.8255877
          ],
          [
            49.1549953,
            55.8255252
          ],
          [
            49.1558414,
            55.8252857
          ],
          [
            49.1559458,
            55.8251749
          ],
          [
            49.1563179,
            55.8250718
          ],
          [
            49.1565386,
            55.8250198
          ],
          [
            49.1571191,
            55.8248688
          ],
          [
            49.1572578,
            55.8247853
          ],
          [
            49.1572922,
            55.824679
          ],
          [
            49.1572533,
            55.8245668
          ],
          [
            49.156465,
            55.8236534
          ],
          [
            49.1562197,
            55.8234119
          ],
          [
            49.1561708,
            55.8233852
          ],
          [
            49.1559836,
            55.8233117
          ],
          [
            49.1556121,
            55.8230159
          ],
          [
            49.1551093,
            55.8226602
          ],
          [
            49.1549626,
            55.822563
          ],
          [
            49.1544023,
            55.8221779
          ],
          [
            49.1543266,
            55.8221321
          ],
          [
            49.1534161,
            55.8215024
          ],
          [
            49.153362,
            55.8214608
          ],
          [
            49.1528559,
            55.8210951
          ],
          [
            49.152651,
            55.8209619
          ],
          [
            49.1522416,
            55.8206618
          ],
          [
            49.1521356,
            55.8205878
          ],
          [
            49.1516196,
            55.8202273
          ],
          [
            49.1514797,
            55.8201337
          ],
          [
            49.1511162,
            55.8198905
          ],
          [
            49.1510336,
            55.8198386
          ],
          [
            49.1507976,
            55.8196773
          ],
          [
            49.1506809,
            55.8196442
          ],
          [
            49.1501309,
            55.8196381
          ],
          [
            49.1491964,
            55.8196276
          ],
          [
            49.1482553,
            55.8196367
          ],
          [
            49.1474582,
            55.8196533
          ],
          [
            49.147358,
            55.8196549
          ]
        ]
      }
    },
    {
      "type": "Feature",
      "properties": {
        "osm_kind": "road",
        "name": "",
        "source": "OpenStreetMap",
        "download_window_id": "kazan_center_+3_+3_2dfb75e7",
        "download_city": "Казань",
        "osm_tags": {
          "highway": "service"
        },
        "osm_id": 588760236,
        "osm_type": "way"
      },
      "geometry": {
        "type": "LineString",
        "coordinates": [
          [
            49.1470205,
            55.8205312
          ],
          [
            49.1470215,
            55.8204776
          ],
          [
            49.1470361,
            55.8196578
          ],
          [
            49.1470368,
            55.819616
          ],
          [
            49.1470298,
            55.8195937
          ]
        ]
      }
    },
    {
      "type": "Feature",
      "properties": {
        "osm_kind": "road",
        "name": "",
        "source": "OpenStreetMap",
        "download_window_id": "kazan_center_+3_+3_2dfb75e7",
        "download_city": "Казань",
        "osm_tags": {
          "highway": "service"
        },
        "osm_id": 607265426,
        "osm_type": "way"
      },
      "geometry": {
        "type": "LineString",
        "coordinates": [
          [
            49.1495292,
            55.8200623
          ],
          [
            49.1497621,
            55.8200602
          ]
        ]
      }
    },
    {
      "type": "Feature",
      "properties": {
        "osm_kind": "road",
        "name": "",
        "source": "OpenStreetMap",
        "download_window_id": "kazan_center_+3_+3_2dfb75e7",
        "download_city": "Казань",
        "osm_tags": {
          "highway": "service"
        },
        "osm_id": 607266051,
        "osm_type": "way"
      },
      "geometry": {
        "type": "LineString",
        "coordinates": [
          [
            49.1488822,
            55.8200634
          ],
          [
            49.1486641,
            55.8200645
          ]
        ]
      }
    },
    {
      "type": "Feature",
      "properties": {
        "osm_kind": "road",
        "name": "",
        "source": "OpenStreetMap",
        "download_window_id": "kazan_center_+3_+3_2dfb75e7",
        "download_city": "Казань",
        "osm_tags": {
          "highway": "service"
        },
        "osm_id": 607266052,
        "osm_type": "way"
      },
      "geometry": {
        "type": "LineString",
        "coordinates": [
          [
            49.1486641,
            55.8200645
          ],
          [
            49.148503,
            55.8200655
          ]
        ]
      }
    },
    {
      "type": "Feature",
      "properties": {
        "osm_kind": "road",
        "name": "",
        "source": "OpenStreetMap",
        "download_window_id": "kazan_center_+3_+3_2dfb75e7",
        "download_city": "Казань",
        "osm_tags": {
          "highway": "service"
        },
        "osm_id": 607266053,
        "osm_type": "way"
      },
      "geometry": {
        "type": "LineString",
        "coordinates": [
          [
            49.1484991,
            55.8202138
          ],
          [
            49.1482392,
            55.8202117
          ],
          [
            49.1482334,
            55.8202116
          ],
          [
            49.1480021,
            55.8202097
          ],
          [
            49.1480064,
            55.8200487
          ],
          [
            49.1480093,
            55.8199323
          ],
          [
            49.1482393,
            55.8199341
          ],
          [
            49.1485065,
            55.8199364
          ],
          [
            49.148503,
            55.8200655
          ],
          [
            49.1484991,
            55.8202138
          ]
        ]
      }
    },
    {
      "type": "Feature",
      "properties": {
        "osm_kind": "road",
        "name": "",
        "source": "OpenStreetMap",
        "download_window_id": "kazan_center_+3_+3_2dfb75e7",
        "download_city": "Казань",
        "osm_tags": {
          "highway": "service"
        },
        "osm_id": 607266054,
        "osm_type": "way"
      },
      "geometry": {
        "type": "LineString",
        "coordinates": [
          [
            49.1482334,
            55.8202116
          ],
          [
            49.1482341,
            55.8202896
          ]
        ]
      }
    },
    {
      "type": "Feature",
      "properties": {
        "osm_kind": "road",
        "name": "",
        "source": "OpenStreetMap",
        "download_window_id": "kazan_center_+3_+3_2dfb75e7",
        "download_city": "Казань",
        "osm_tags": {
          "highway": "service"
        },
        "osm_id": 607266055,
        "osm_type": "way"
      },
      "geometry": {
        "type": "LineString",
        "coordinates": [
          [
            49.1482341,
            55.8202896
          ],
          [
            49.1482328,
            55.820417
          ]
        ]
      }
    },
    {
      "type": "Feature",
      "properties": {
        "osm_kind": "road",
        "name": "",
        "source": "OpenStreetMap",
        "download_window_id": "kazan_center_+3_+3_2dfb75e7",
        "download_city": "Казань",
        "osm_tags": {
          "highway": "service"
        },
        "osm_id": 607266057,
        "osm_type": "way"
      },
      "geometry": {
        "type": "LineString",
        "coordinates": [
          [
            49.1473761,
            55.8200502
          ],
          [
            49.1476643,
            55.8200514
          ]
        ]
      }
    },
    {
      "type": "Feature",
      "properties": {
        "osm_kind": "road",
        "name": "",
        "source": "OpenStreetMap",
        "download_window_id": "kazan_center_+3_+3_2dfb75e7",
        "download_city": "Казань",
        "osm_tags": {
          "highway": "service"
        },
        "osm_id": 607266058,
        "osm_type": "way"
      },
      "geometry": {
        "type": "LineString",
        "coordinates": [
          [
            49.1476643,
            55.8200514
          ],
          [
            49.1478899,
            55.8200505
          ]
        ]
      }
    },
    {
      "type": "Feature",
      "properties": {
        "osm_kind": "road",
        "name": "",
        "source": "OpenStreetMap",
        "download_window_id": "kazan_center_+3_+3_2dfb75e7",
        "download_city": "Казань",
        "osm_tags": {
          "highway": "service"
        },
        "osm_id": 607266059,
        "osm_type": "way"
      },
      "geometry": {
        "type": "LineString",
        "coordinates": [
          [
            49.1478899,
            55.8200505
          ],
          [
            49.1480064,
            55.8200487
          ]
        ]
      }
    },
    {
      "type": "Feature",
      "properties": {
        "osm_kind": "road",
        "name": "",
        "source": "OpenStreetMap",
        "download_window_id": "kazan_center_+3_+3_2dfb75e7",
        "download_city": "Казань",
        "osm_tags": {
          "highway": "service"
        },
        "osm_id": 607266060,
        "osm_type": "way"
      },
      "geometry": {
        "type": "LineString",
        "coordinates": [
          [
            49.148247,
            55.8198352
          ],
          [
            49.1482393,
            55.8199341
          ]
        ]
      }
    },
    {
      "type": "Feature",
      "properties": {
        "osm_kind": "road",
        "name": "",
        "source": "OpenStreetMap",
        "download_window_id": "kazan_center_+3_+3_2dfb75e7",
        "download_city": "Казань",
        "osm_tags": {
          "highway": "service"
        },
        "osm_id": 607266061,
        "osm_type": "way"
      },
      "geometry": {
        "type": "LineString",
        "coordinates": [
          [
            49.1482536,
            55.8197095
          ],
          [
            49.148247,
            55.8198352
          ]
        ]
      }
    },
    {
      "type": "Feature",
      "properties": {
        "osm_kind": "road",
        "name": "",
        "source": "OpenStreetMap",
        "download_window_id": "kazan_center_+3_+3_2dfb75e7",
        "download_city": "Казань",
        "osm_tags": {
          "highway": "service"
        },
        "osm_id": 607266062,
        "osm_type": "way"
      },
      "geometry": {
        "type": "LineString",
        "coordinates": [
          [
            49.1482501,
            55.8195996
          ],
          [
            49.1482553,
            55.8196367
          ],
          [
            49.1482536,
            55.8197095
          ]
        ]
      }
    },
    {
      "type": "Feature",
      "properties": {
        "osm_kind": "building",
        "name": "",
        "source": "OpenStreetMap",
        "download_window_id": "kazan_center_+3_+3_2dfb75e7",
        "download_city": "Казань",
        "osm_tags": {
          "building": "apartments"
        },
        "osm_id": 857205985,
        "osm_type": "way"
      },
      "geometry": {
        "type": "Polygon",
        "coordinates": [
          [
            [
              49.1458716,
              55.8196441
            ],
            [
              49.1458716,
              55.8196958
            ],
            [
              49.1458718,
              55.8198332
            ],
            [
              49.1450768,
              55.8198332
            ],
            [
              49.1449782,
              55.8198886
            ],
            [
              49.1449814,
              55.8203421
            ],
            [
              49.1455625,
              55.8203408
            ],
            [
              49.1455636,
              55.8204962
            ],
            [
              49.1448149,
              55.8204978
            ],
            [
              49.1447256,
              55.8204442
            ],
            [
              49.1447099,
              55.8198522
            ],
            [
              49.1446231,
              55.8198522
            ],
            [
              49.1446231,
              55.8196443
            ],
            [
              49.1458716,
              55.8196441
            ]
          ]
        ]
      }
    },
    {
      "type": "Feature",
      "properties": {
        "osm_kind": "road",
        "name": "",
        "source": "OpenStreetMap",
        "download_window_id": "kazan_center_+3_+3_2dfb75e7",
        "download_city": "Казань",
        "osm_tags": {
          "highway": "service"
        },
        "osm_id": 862744313,
        "osm_type": "way"
      },
      "geometry": {
        "type": "LineString",
        "coordinates": [
          [
            49.1429516,
            55.8179237
          ],
          [
            49.143219,
            55.8179239
          ],
          [
            49.1434023,
            55.817924
          ],
          [
            49.1440815,
            55.8179245
          ],
          [
            49.1447905,
            55.8179252
          ]
        ]
      }
    },
    {
      "type": "Feature",
      "properties": {
        "osm_kind": "road",
        "name": "",
        "source": "OpenStreetMap",
        "download_window_id": "kazan_center_+3_+3_2dfb75e7",
        "download_city": "Казань",
        "osm_tags": {
          "highway": "service"
        },
        "osm_id": 968851016,
        "osm_type": "way"
      },
      "geometry": {
        "type": "LineString",
        "coordinates": [
          [
            49.1450634,
            55.8160092
          ],
          [
            49.1450639,
            55.8161172
          ],
          [
            49.1450702,
            55.8161395
          ],
          [
            49.1450879,
            55.8161585
          ],
          [
            49.1451059,
            55.8161693
          ],
          [
            49.1451355,
            55.8161798
          ],
          [
            49.1451676,
            55.816185
          ],
          [
            49.1452851,
            55.816185
          ],
          [
            49.1455782,
            55.8161852
          ],
          [
            49.1459676,
            55.8161854
          ],
          [
            49.1460039,
            55.8161834
          ],
          [
            49.1460347,
            55.8161803
          ],
          [
            49.1461512,
            55.816267
          ],
          [
            49.1472212,
            55.8170626
          ],
          [
            49.1472211,
            55.8171369
          ],
          [
            49.1472197,
            55.8177859
          ],
          [
            49.1472195,
            55.8178518
          ],
          [
            49.1472195,
            55.8178641
          ],
          [
            49.1472194,
            55.8179149
          ],
          [
            49.1472194,
            55.8179238
          ],
          [
            49.1472192,
            55.8179999
          ],
          [
            49.1472176,
            55.8187648
          ],
          [
            49.1472175,
            55.8189584
          ],
          [
            49.1472059,
            55.8189842
          ],
          [
            49.1471793,
            55.8190166
          ],
          [
            49.1471282,
            55.8190526
          ],
          [
            49.1470598,
            55.8190801
          ],
          [
            49.1469849,
            55.8190954
          ],
          [
            49.1469245,
            55.8190993
          ],
          [
            49.1464256,
            55.8190991
          ],
          [
            49.144915,
            55.819098
          ],
          [
            49.1447889,
            55.8190979
          ],
          [
            49.1446629,
            55.8190979
          ],
          [
            49.1434349,
            55.8190971
          ],
          [
            49.1433585,
            55.8190917
          ],
          [
            49.1432886,
            55.8190821
          ],
          [
            49.1432092,
            55.8190652
          ],
          [
            49.1431178,
            55.8190367
          ],
          [
            49.143026,
            55.8189951
          ],
          [
            49.1429628,
            55.8189553
          ],
          [
            49.1429061,
            55.8189061
          ],
          [
            49.1428471,
            55.8188473
          ],
          [
            49.1428338,
            55.8188379
          ],
          [
            49.1428166,
            55.8188287
          ],
          [
            49.1428006,
            55.8188221
          ],
          [
            49.142763,
            55.8188121
          ],
          [
            49.1427161,
            55.8188074
          ],
          [
            49.1426312,
            55.8188074
          ]
        ]
      }
    },
    {
      "type": "Feature",
      "properties": {
        "osm_kind": "road",
        "name": "",
        "source": "OpenStreetMap",
        "download_window_id": "kazan_center_+3_+3_2dfb75e7",
        "download_city": "Казань",
        "osm_tags": {
          "highway": "service"
        },
        "osm_id": 1044516015,
        "osm_type": "way"
      },
      "geometry": {
        "type": "LineString",
        "coordinates": [
          [
            49.1459615,
            55.8202316
          ],
          [
            49.1464727,
            55.8202327
          ],
          [
            49.1464632,
            55.8198962
          ],
          [
            49.1463055,
            55.8198995
          ]
        ]
      }
    },
    {
      "type": "Feature",
      "properties": {
        "osm_kind": "road",
        "name": "",
        "source": "OpenStreetMap",
        "download_window_id": "kazan_center_+3_+3_2dfb75e7",
        "download_city": "Казань",
        "osm_tags": {
          "highway": "service"
        },
        "osm_id": 1044516016,
        "osm_type": "way"
      },
      "geometry": {
        "type": "LineString",
        "coordinates": [
          [
            49.1457217,
            55.8199095
          ],
          [
            49.1457314,
            55.8202355
          ],
          [
            49.1457318,
            55.8205424
          ],
          [
            49.1445346,
            55.8205355
          ],
          [
            49.1445346,
            55.8199331
          ],
          [
            49.1445346,
            55.8196271
          ],
          [
            49.1445346,
            55.8194342
          ]
        ]
      }
    },
    {
      "type": "Feature",
      "properties": {
        "osm_kind": "road",
        "name": "",
        "source": "OpenStreetMap",
        "download_window_id": "kazan_center_+3_+3_2dfb75e7",
        "download_city": "Казань",
        "osm_tags": {
          "highway": "service"
        },
        "osm_id": 1151588660,
        "osm_type": "way"
      },
      "geometry": {
        "type": "LineString",
        "coordinates": [
          [
            49.1447891,
            55.8190406
          ],
          [
            49.1447889,
            55.8190979
          ],
          [
            49.1447889,
            55.8191373
          ],
          [
            49.1447885,
            55.8191959
          ],
          [
            49.1447988,
            55.819214
          ],
          [
            49.1448143,
            55.8192264
          ],
          [
            49.1448341,
            55.8192358
          ],
          [
            49.1448727,
            55.8192443
          ],
          [
            49.1449671,
            55.8192527
          ],
          [
            49.1450354,
            55.819256
          ],
          [
            49.1450925,
            55.8192625
          ],
          [
            49.1451416,
            55.8192711
          ],
          [
            49.1452042,
            55.8192862
          ],
          [
            49.1453279,
            55.8193192
          ]
        ]
      }
    },
    {
      "type": "Feature",
      "properties": {
        "osm_kind": "road",
        "name": "",
        "source": "OpenStreetMap",
        "download_window_id": "kazan_center_+3_+3_2dfb75e7",
        "download_city": "Казань",
        "osm_tags": {
          "highway": "service"
        },
        "osm_id": 1151588662,
        "osm_type": "way"
      },
      "geometry": {
        "type": "LineString",
        "coordinates": [
          [
            49.144915,
            55.819098
          ],
          [
            49.1449151,
            55.8190408
          ]
        ]
      }
    },
    {
      "type": "Feature",
      "properties": {
        "osm_kind": "road",
        "name": "",
        "source": "OpenStreetMap",
        "download_window_id": "kazan_center_+3_+3_2dfb75e7",
        "download_city": "Казань",
        "osm_tags": {
          "highway": "footway"
        },
        "osm_id": 1151588666,
        "osm_type": "way"
      },
      "geometry": {
        "type": "LineString",
        "coordinates": [
          [
            49.1465393,
            55.8183609
          ],
          [
            49.1452441,
            55.81836
          ],
          [
            49.1449463,
            55.8183598
          ]
        ]
      }
    },
    {
      "type": "Feature",
      "properties": {
        "osm_kind": "road",
        "name": "",
        "source": "OpenStreetMap",
        "download_window_id": "kazan_center_+3_+3_2dfb75e7",
        "download_city": "Казань",
        "osm_tags": {
          "highway": "footway"
        },
        "osm_id": 1151588667,
        "osm_type": "way"
      },
      "geometry": {
        "type": "LineString",
        "coordinates": [
          [
            49.1449458,
            55.8186114
          ],
          [
            49.1446553,
            55.8186112
          ]
        ]
      }
    },
    {
      "type": "Feature",
      "properties": {
        "osm_kind": "road",
        "name": "",
        "source": "OpenStreetMap",
        "download_window_id": "kazan_center_+3_+3_2dfb75e7",
        "download_city": "Казань",
        "osm_tags": {
          "highway": "footway"
        },
        "osm_id": 1151588668,
        "osm_type": "way"
      },
      "geometry": {
        "type": "LineString",
        "coordinates": [
          [
            49.1449463,
            55.8183598
          ],
          [
            49.1446558,
            55.8183596
          ]
        ]
      }
    },
    {
      "type": "Feature",
      "properties": {
        "osm_kind": "road",
        "name": "",
        "source": "OpenStreetMap",
        "download_window_id": "kazan_center_+3_+3_2dfb75e7",
        "download_city": "Казань",
        "osm_tags": {
          "highway": "service"
        },
        "osm_id": 1151588670,
        "osm_type": "way"
      },
      "geometry": {
        "type": "LineString",
        "coordinates": [
          [
            49.1458261,
            55.8178631
          ],
          [
            49.1457506,
            55.8178631
          ],
          [
            49.1451731,
            55.8178627
          ],
          [
            49.1450561,
            55.8178625
          ]
        ]
      }
    },
    {
      "type": "Feature",
      "properties": {
        "osm_kind": "road",
        "name": "",
        "source": "OpenStreetMap",
        "download_window_id": "kazan_center_+3_+3_2dfb75e7",
        "download_city": "Казань",
        "osm_tags": {
          "highway": "service"
        },
        "osm_id": 1151588671,
        "osm_type": "way"
      },
      "geometry": {
        "type": "LineString",
        "coordinates": [
          [
            49.1448128,
            55.8178476
          ],
          [
            49.1448388,
            55.8178332
          ],
          [
            49.1448703,
            55.817823
          ],
          [
            49.1449054,
            55.8178175
          ],
          [
            49.1449418,
            55.8178171
          ],
          [
            49.1449772,
            55.8178219
          ],
          [
            49.1450094,
            55.8178315
          ],
          [
            49.1450362,
            55.8178453
          ],
          [
            49.1450561,
            55.8178625
          ],
          [
            49.1450679,
            55.8178826
          ],
          [
            49.14507,
            55.8179039
          ],
          [
            49.1450622,
            55.8179247
          ],
          [
            49.1450451,
            55.8179436
          ],
          [
            49.1450231,
            55.8179578
          ],
          [
            49.1449958,
            55.8179687
          ],
          [
            49.1449648,
            55.8179758
          ],
          [
            49.1449317,
            55.8179787
          ],
          [
            49.1448984,
            55.8179772
          ],
          [
            49.1448665,
            55.8179715
          ],
          [
            49.1448378,
            55.8179618
          ],
          [
            49.144818,
            55.8179513
          ],
          [
            49.1448021,
            55.817939
          ],
          [
            49.1447905,
            55.8179252
          ],
          [
            49.1447826,
            55.8179052
          ],
          [
            49.1447838,
            55.8178848
          ],
          [
            49.1447941,
            55.8178651
          ],
          [
            49.1448128,
            55.8178476
          ]
        ]
      }
    },
    {
      "type": "Feature",
      "properties": {
        "osm_kind": "road",
        "name": "",
        "source": "OpenStreetMap",
        "download_window_id": "kazan_center_+3_+3_2dfb75e7",
        "download_city": "Казань",
        "osm_tags": {
          "highway": "service"
        },
        "osm_id": 1151588672,
        "osm_type": "way"
      },
      "geometry": {
        "type": "LineString",
        "coordinates": [
          [
            49.1458265,
            55.8176846
          ],
          [
            49.1458261,
            55.8178631
          ]
        ]
      }
    },
    {
      "type": "Feature",
      "properties": {
        "osm_kind": "road",
        "name": "",
        "source": "OpenStreetMap",
        "download_window_id": "kazan_center_+3_+3_2dfb75e7",
        "download_city": "Казань",
        "osm_tags": {
          "highway": "service"
        },
        "osm_id": 1151588673,
        "osm_type": "way"
      },
      "geometry": {
        "type": "LineString",
        "coordinates": [
          [
            49.1458261,
            55.8178631
          ],
          [
            49.1464403,
            55.8178635
          ],
          [
            49.146552,
            55.8178636
          ]
        ]
      }
    },
    {
      "type": "Feature",
      "properties": {
        "osm_kind": "road",
        "name": "",
        "source": "OpenStreetMap",
        "download_window_id": "kazan_center_+3_+3_2dfb75e7",
        "download_city": "Казань",
        "osm_tags": {
          "highway": "footway"
        },
        "osm_id": 1199411317,
        "osm_type": "way"
      },
      "geometry": {
        "type": "LineString",
        "coordinates": [
          [
            49.1475116,
            55.817924
          ],
          [
            49.1475124,
            55.8175228
          ],
          [
            49.1475122,
            55.8174833
          ],
          [
            49.147503,
            55.8174624
          ],
          [
            49.1474906,
            55.817443
          ],
          [
            49.1474747,
            55.817424
          ],
          [
            49.1474516,
            55.8174027
          ],
          [
            49.1473483,
            55.8173153
          ],
          [
            49.1473324,
            55.8173005
          ],
          [
            49.1473197,
            55.8172855
          ],
          [
            49.1473076,
            55.8172658
          ],
          [
            49.1472855,
            55.8171468
          ],
          [
            49.1472211,
            55.8171369
          ]
        ]
      }
    },
    {
      "type": "Feature",
      "properties": {
        "osm_kind": "road",
        "name": "",
        "source": "OpenStreetMap",
        "download_window_id": "kazan_center_+3_+3_2dfb75e7",
        "download_city": "Казань",
        "osm_tags": {
          "highway": "footway"
        },
        "osm_id": 1199411318,
        "osm_type": "way"
      },
      "geometry": {
        "type": "LineString",
        "coordinates": [
          [
            49.1472194,
            55.8179238
          ],
          [
            49.1475116,
            55.817924
          ],
          [
            49.1477312,
            55.8180783
          ]
        ]
      }
    },
    {
      "type": "Feature",
      "properties": {
        "osm_kind": "road",
        "name": "",
        "source": "OpenStreetMap",
        "download_window_id": "kazan_center_+3_+3_2dfb75e7",
        "download_city": "Казань",
        "osm_tags": {
          "highway": "footway"
        },
        "osm_id": 1199411320,
        "osm_type": "way"
      },
      "geometry": {
        "type": "LineString",
        "coordinates": [
          [
            49.1461694,
            55.8186812
          ],
          [
            49.1460996,
            55.8185839
          ]
        ]
      }
    },
    {
      "type": "Feature",
      "properties": {
        "osm_kind": "road",
        "name": "",
        "source": "OpenStreetMap",
        "download_window_id": "kazan_center_+3_+3_2dfb75e7",
        "download_city": "Казань",
        "osm_tags": {
          "highway": "footway"
        },
        "osm_id": 1199411321,
        "osm_type": "way"
      },
      "geometry": {
        "type": "LineString",
        "coordinates": [
          [
            49.1459169,
            55.8188314
          ],
          [
            49.1459154,
            55.8187581
          ],
          [
            49.1459135,
            55.8187432
          ],
          [
            49.1459099,
            55.8187306
          ],
          [
            49.1459059,
            55.8187211
          ],
          [
            49.145899,
            55.818709
          ],
          [
            49.1458502,
            55.8186405
          ]
        ]
      }
    },
    {
      "type": "Feature",
      "properties": {
        "osm_kind": "road",
        "name": "",
        "source": "OpenStreetMap",
        "download_window_id": "kazan_center_+3_+3_2dfb75e7",
        "download_city": "Казань",
        "osm_tags": {
          "highway": "footway"
        },
        "osm_id": 1199411322,
        "osm_type": "way"
      },
      "geometry": {
        "type": "LineString",
        "coordinates": [
          [
            49.1455713,
            55.818816
          ],
          [
            49.1455713,
            55.8186801
          ],
          [
            49.1455713,
            55.8186617
          ],
          [
            49.1455657,
            55.8186513
          ],
          [
            49.1455503,
            55.8186438
          ],
          [
            49.1455297,
            55.8186421
          ],
          [
            49.1451314,
            55.818642
          ],
          [
            49.1451115,
            55.8186414
          ],
          [
            49.1450937,
            55.8186394
          ],
          [
            49.1450785,
            55.8186363
          ],
          [
            49.145063,
            55.8186319
          ],
          [
            49.1450497,
            55.8186268
          ],
          [
            49.1450358,
            55.8186222
          ],
          [
            49.145022,
            55.8186177
          ],
          [
            49.1450049,
            55.8186139
          ],
          [
            49.1449852,
            55.8186115
          ],
          [
            49.1449458,
            55.8186114
          ]
        ]
      }
    },
    {
      "type": "Feature",
      "properties": {
        "osm_kind": "road",
        "name": "",
        "source": "OpenStreetMap",
        "download_window_id": "kazan_center_+3_+3_2dfb75e7",
        "download_city": "Казань",
        "osm_tags": {
          "highway": "footway"
        },
        "osm_id": 1199411324,
        "osm_type": "way"
      },
      "geometry": {
        "type": "LineString",
        "coordinates": [
          [
            49.1452441,
            55.81836
          ],
          [
            49.1452445,
            55.818138
          ],
          [
            49.1452463,
            55.8181322
          ],
          [
            49.1452501,
            55.8181281
          ],
          [
            49.1452558,
            55.8181247
          ],
          [
            49.1452655,
            55.8181222
          ],
          [
            49.1452841,
            55.8181223
          ],
          [
            49.1461421,
            55.8181228
          ]
        ]
      }
    },
    {
      "type": "Feature",
      "properties": {
        "osm_kind": "road",
        "name": "",
        "source": "OpenStreetMap",
        "download_window_id": "kazan_center_+3_+3_2dfb75e7",
        "download_city": "Казань",
        "osm_tags": {
          "highway": "steps"
        },
        "osm_id": 1199411325,
        "osm_type": "way"
      },
      "geometry": {
        "type": "LineString",
        "coordinates": [
          [
            49.1452843,
            55.818008
          ],
          [
            49.1452844,
            55.8179437
          ],
          [
            49.1451807,
            55.8179436
          ]
        ]
      }
    },
    {
      "type": "Feature",
      "properties": {
        "osm_kind": "road",
        "name": "",
        "source": "OpenStreetMap",
        "download_window_id": "kazan_center_+3_+3_2dfb75e7",
        "download_city": "Казань",
        "osm_tags": {
          "highway": "footway"
        },
        "osm_id": 1199411326,
        "osm_type": "way"
      },
      "geometry": {
        "type": "LineString",
        "coordinates": [
          [
            49.1450451,
            55.8179436
          ],
          [
            49.1451807,
            55.8179436
          ]
        ]
      }
    },
    {
      "type": "Feature",
      "properties": {
        "osm_kind": "road",
        "name": "",
        "source": "OpenStreetMap",
        "download_window_id": "kazan_center_+3_+3_2dfb75e7",
        "download_city": "Казань",
        "osm_tags": {
          "highway": "service"
        },
        "osm_id": 1199411328,
        "osm_type": "way"
      },
      "geometry": {
        "type": "LineString",
        "coordinates": [
          [
            49.1452467,
            55.8165381
          ],
          [
            49.1456541,
            55.8165381
          ],
          [
            49.1456705,
            55.8165391
          ],
          [
            49.1456876,
            55.8165418
          ],
          [
            49.1457037,
            55.8165463
          ],
          [
            49.1457207,
            55.8165537
          ],
          [
            49.1465128,
            55.8171435
          ],
          [
            49.1465433,
            55.817166
          ],
          [
            49.1465642,
            55.8171861
          ],
          [
            49.1465783,
            55.817203
          ],
          [
            49.1465918,
            55.8172247
          ],
          [
            49.1466011,
            55.8172466
          ],
          [
            49.1466053,
            55.8172629
          ],
          [
            49.1466046,
            55.8175013
          ],
          [
            49.1465906,
            55.8175236
          ],
          [
            49.1465746,
            55.8175398
          ],
          [
            49.1465522,
            55.817556
          ],
          [
            49.146526,
            55.8175697
          ],
          [
            49.146479,
            55.8175839
          ],
          [
            49.146456,
            55.8175945
          ],
          [
            49.1464456,
            55.8176047
          ],
          [
            49.1464409,
            55.8176174
          ],
          [
            49.1464406,
            55.8177349
          ]
        ]
      }
    },
    {
      "type": "Feature",
      "properties": {
        "osm_kind": "road",
        "name": "",
        "source": "OpenStreetMap",
        "download_window_id": "kazan_center_+3_+3_2dfb75e7",
        "download_city": "Казань",
        "osm_tags": {
          "highway": "footway"
        },
        "osm_id": 1199411330,
        "osm_type": "way"
      },
      "geometry": {
        "type": "LineString",
        "coordinates": [
          [
            49.1472176,
            55.8187648
          ],
          [
            49.1474572,
            55.8185058
          ],
          [
            49.1474738,
            55.8184866
          ],
          [
            49.1474874,
            55.8184683
          ],
          [
            49.1475014,
            55.8184457
          ],
          [
            49.1475241,
            55.8184012
          ],
          [
            49.1475337,
            55.8183829
          ],
          [
            49.147547,
            55.8183672
          ],
          [
            49.1475731,
            55.8183471
          ],
          [
            49.1476459,
            55.8183005
          ],
          [
            49.1476604,
            55.8182842
          ],
          [
            49.1476714,
            55.8182661
          ],
          [
            49.1476792,
            55.8182361
          ],
          [
            49.1476876,
            55.8181428
          ],
          [
            49.1476929,
            55.8181162
          ],
          [
            49.1477044,
            55.8180994
          ],
          [
            49.1477312,
            55.8180783
          ],
          [
            49.1477619,
            55.8180647
          ],
          [
            49.1477942,
            55.8180461
          ],
          [
            49.1478178,
            55.8180284
          ],
          [
            49.1478433,
            55.8180024
          ],
          [
            49.1478621,
            55.8179502
          ],
          [
            49.1478691,
            55.8179241
          ],
          [
            49.1478758,
            55.8178911
          ],
          [
            49.1478833,
            55.8178374
          ],
          [
            49.1478812,
            55.8178008
          ],
          [
            49.1478734,
            55.8177703
          ],
          [
            49.1478577,
            55.8177357
          ],
          [
            49.147841,
            55.817711
          ],
          [
            49.1478071,
            55.8176716
          ],
          [
            49.1477607,
            55.8176298
          ],
          [
            49.1476989,
            55.8175892
          ],
          [
            49.1476142,
            55.8175523
          ],
          [
            49.1475124,
            55.8175228
          ]
        ]
      }
    },
    {
      "type": "Feature",
      "properties": {
        "osm_kind": "road",
        "name": "",
        "source": "OpenStreetMap",
        "download_window_id": "kazan_center_+3_+3_2dfb75e7",
        "download_city": "Казань",
        "osm_tags": {
          "highway": "service"
        },
        "osm_id": 1203769972,
        "osm_type": "way"
      },
      "geometry": {
        "type": "LineString",
        "coordinates": [
          [
            49.1457503,
            55.8180083
          ],
          [
            49.1457506,
            55.8178631
          ]
        ]
      }
    },
    {
      "type": "Feature",
      "properties": {
        "osm_kind": "road",
        "name": "",
        "source": "OpenStreetMap",
        "download_window_id": "kazan_center_+3_+3_2dfb75e7",
        "download_city": "Казань",
        "osm_tags": {
          "highway": "service"
        },
        "osm_id": 1217161652,
        "osm_type": "way"
      },
      "geometry": {
        "type": "LineString",
        "coordinates": [
          [
            49.1448021,
            55.817939
          ],
          [
            49.1447616,
            55.8179692
          ],
          [
            49.1447496,
            55.8179797
          ],
          [
            49.144741,
            55.8179916
          ],
          [
            49.1447371,
            55.8180024
          ],
          [
            49.144737,
            55.8180178
          ],
          [
            49.1447353,
            55.818566
          ],
          [
            49.1447365,
            55.8185761
          ],
          [
            49.1447385,
            55.8185845
          ],
          [
            49.1447412,
            55.8185924
          ],
          [
            49.1447459,
            55.8186025
          ],
          [
            49.1447898,
            55.8186796
          ],
          [
            49.1448261,
            55.8186042
          ],
          [
            49.1448305,
            55.8185954
          ],
          [
            49.1448339,
            55.8185852
          ],
          [
            49.1448355,
            55.8185766
          ],
          [
            49.1448358,
            55.8185661
          ],
          [
            49.1448378,
            55.8179618
          ]
        ]
      }
    },
    {
      "type": "Feature",
      "properties": {
        "osm_kind": "road",
        "name": "",
        "source": "OpenStreetMap",
        "download_window_id": "kazan_center_+3_+3_2dfb75e7",
        "download_city": "Казань",
        "osm_tags": {
          "highway": "service"
        },
        "osm_id": 1217161671,
        "osm_type": "way"
      },
      "geometry": {
        "type": "LineString",
        "coordinates": [
          [
            49.1447897,
            55.818759
          ],
          [
            49.1447894,
            55.8188726
          ]
        ]
      }
    },
    {
      "type": "Feature",
      "properties": {
        "osm_kind": "road",
        "name": "",
        "source": "OpenStreetMap",
        "download_window_id": "kazan_center_+3_+3_2dfb75e7",
        "download_city": "Казань",
        "osm_tags": {
          "highway": "service"
        },
        "osm_id": 1217161672,
        "osm_type": "way"
      },
      "geometry": {
        "type": "LineString",
        "coordinates": [
          [
            49.1447898,
            55.8186796
          ],
          [
            49.1447897,
            55.818759
          ]
        ]
      }
    },
    {
      "type": "Feature",
      "properties": {
        "osm_kind": "road",
        "name": "",
        "source": "OpenStreetMap",
        "download_window_id": "kazan_center_+3_+3_2dfb75e7",
        "download_city": "Казань",
        "osm_tags": {
          "highway": "service"
        },
        "osm_id": 1217161673,
        "osm_type": "way"
      },
      "geometry": {
        "type": "LineString",
        "coordinates": [
          [
            49.1440854,
            55.8186791
          ],
          [
            49.1447898,
            55.8186796
          ],
          [
            49.145515,
            55.8186801
          ]
        ]
      }
    },
    {
      "type": "Feature",
      "properties": {
        "osm_kind": "road",
        "name": "",
        "source": "OpenStreetMap",
        "download_window_id": "kazan_center_+3_+3_2dfb75e7",
        "download_city": "Казань",
        "osm_tags": {
          "highway": "service"
        },
        "osm_id": 1217189179,
        "osm_type": "way"
      },
      "geometry": {
        "type": "LineString",
        "coordinates": [
          [
            49.1467596,
            55.8179996
          ],
          [
            49.1470384,
            55.8179998
          ]
        ]
      }
    },
    {
      "type": "Feature",
      "properties": {
        "osm_kind": "road",
        "name": "",
        "source": "OpenStreetMap",
        "download_window_id": "kazan_center_+3_+3_2dfb75e7",
        "download_city": "Казань",
        "osm_tags": {
          "highway": "service"
        },
        "osm_id": 1217189180,
        "osm_type": "way"
      },
      "geometry": {
        "type": "LineString",
        "coordinates": [
          [
            49.1465517,
            55.8179994
          ],
          [
            49.1467596,
            55.8179996
          ]
        ]
      }
    },
    {
      "type": "Feature",
      "properties": {
        "osm_kind": "road",
        "name": "",
        "source": "OpenStreetMap",
        "download_window_id": "kazan_center_+3_+3_2dfb75e7",
        "download_city": "Казань",
        "osm_tags": {
          "highway": "service"
        },
        "osm_id": 1217189181,
        "osm_type": "way"
      },
      "geometry": {
        "type": "LineString",
        "coordinates": [
          [
            49.1465115,
            55.8179994
          ],
          [
            49.1465517,
            55.8179994
          ]
        ]
      }
    },
    {
      "type": "Feature",
      "properties": {
        "osm_kind": "road",
        "name": "",
        "source": "OpenStreetMap",
        "download_window_id": "kazan_center_+3_+3_2dfb75e7",
        "download_city": "Казань",
        "osm_tags": {
          "highway": "service"
        },
        "osm_id": 1217189182,
        "osm_type": "way"
      },
      "geometry": {
        "type": "LineString",
        "coordinates": [
          [
            49.1464256,
            55.8190991
          ],
          [
            49.1464258,
            55.8190053
          ],
          [
            49.146434,
            55.8189894
          ],
          [
            49.1464507,
            55.8189753
          ],
          [
            49.1464729,
            55.8189652
          ],
          [
            49.1465075,
            55.8189582
          ],
          [
            49.1472175,
            55.8189584
          ]
        ]
      }
    },
    {
      "type": "Feature",
      "properties": {
        "osm_kind": "road",
        "name": "",
        "source": "OpenStreetMap",
        "download_window_id": "kazan_center_+3_+3_2dfb75e7",
        "download_city": "Казань",
        "osm_tags": {
          "highway": "service"
        },
        "osm_id": 1217189189,
        "osm_type": "way"
      },
      "geometry": {
        "type": "LineString",
        "coordinates": [
          [
            49.1467598,
            55.8179146
          ],
          [
            49.1470386,
            55.8179148
          ]
        ]
      }
    },
    {
      "type": "Feature",
      "properties": {
        "osm_kind": "road",
        "name": "",
        "source": "OpenStreetMap",
        "download_window_id": "kazan_center_+3_+3_2dfb75e7",
        "download_city": "Казань",
        "osm_tags": {
          "highway": "service"
        },
        "osm_id": 1217189190,
        "osm_type": "way"
      },
      "geometry": {
        "type": "LineString",
        "coordinates": [
          [
            49.145515,
            55.8186801
          ],
          [
            49.1455365,
            55.8186801
          ],
          [
            49.1455713,
            55.8186801
          ],
          [
            49.1456236,
            55.8186802
          ],
          [
            49.1456484,
            55.8186793
          ],
          [
            49.1456699,
            55.8186776
          ],
          [
            49.1456967,
            55.8186741
          ],
          [
            49.1457314,
            55.8186673
          ],
          [
            49.1458502,
            55.8186405
          ],
          [
            49.1460996,
            55.8185839
          ],
          [
            49.146411,
            55.8185131
          ],
          [
            49.1464639,
            55.8184951
          ],
          [
            49.1464999,
            55.8184738
          ],
          [
            49.1465242,
            55.8184498
          ],
          [
            49.1465391,
            55.8184198
          ],
          [
            49.1465393,
            55.8183609
          ],
          [
            49.1465394,
            55.8182805
          ],
          [
            49.1465272,
            55.8182638
          ],
          [
            49.1465024,
            55.8182472
          ],
          [
            49.1464725,
            55.8182368
          ],
          [
            49.1464323,
            55.8182317
          ],
          [
            49.1462646,
            55.8182315
          ],
          [
            49.1462183,
            55.8182262
          ],
          [
            49.1461862,
            55.8182154
          ],
          [
            49.1461583,
            55.8181973
          ],
          [
            49.1461423,
            55.8181742
          ],
          [
            49.1461421,
            55.8181228
          ],
          [
            49.1461427,
            55.8179459
          ],
          [
            49.1461452,
            55.8179357
          ],
          [
            49.1461527,
            55.8179265
          ],
          [
            49.146163,
            55.8179197
          ],
          [
            49.1461775,
            55.8179142
          ],
          [
            49.1462352,
            55.8179143
          ],
          [
            49.1465519,
            55.8179145
          ]
        ]
      }
    },
    {
      "type": "Feature",
      "properties": {
        "osm_kind": "road",
        "name": "",
        "source": "OpenStreetMap",
        "download_window_id": "kazan_center_+3_+3_2dfb75e7",
        "download_city": "Казань",
        "osm_tags": {
          "highway": "service"
        },
        "osm_id": 1217189191,
        "osm_type": "way"
      },
      "geometry": {
        "type": "LineString",
        "coordinates": [
          [
            49.1467599,
            55.8178638
          ],
          [
            49.1472195,
            55.8178641
          ]
        ]
      }
    },
    {
      "type": "Feature",
      "properties": {
        "osm_kind": "road",
        "name": "",
        "source": "OpenStreetMap",
        "download_window_id": "kazan_center_+3_+3_2dfb75e7",
        "download_city": "Казань",
        "osm_tags": {
          "highway": "service"
        },
        "osm_id": 1217189192,
        "osm_type": "way"
      },
      "geometry": {
        "type": "LineString",
        "coordinates": [
          [
            49.146552,
            55.8178636
          ],
          [
            49.1467599,
            55.8178638
          ]
        ]
      }
    },
    {
      "type": "Feature",
      "properties": {
        "osm_kind": "road",
        "name": "",
        "source": "OpenStreetMap",
        "download_window_id": "kazan_center_+3_+3_2dfb75e7",
        "download_city": "Казань",
        "osm_tags": {
          "highway": "service"
        },
        "osm_id": 1217807175,
        "osm_type": "way"
      },
      "geometry": {
        "type": "LineString",
        "coordinates": [
          [
            49.1458265,
            55.8176846
          ],
          [
            49.1458213,
            55.8176708
          ],
          [
            49.1458138,
            55.8176602
          ],
          [
            49.1458044,
            55.8176512
          ],
          [
            49.1457899,
            55.8176413
          ],
          [
            49.1457084,
            55.8176054
          ]
        ]
      }
    },
    {
      "type": "Feature",
      "properties": {
        "osm_kind": "road",
        "name": "",
        "source": "OpenStreetMap",
        "download_window_id": "kazan_center_+3_+3_2dfb75e7",
        "download_city": "Казань",
        "osm_tags": {
          "highway": "service"
        },
        "osm_id": 1217807180,
        "osm_type": "way"
      },
      "geometry": {
        "type": "LineString",
        "coordinates": [
          [
            49.1449151,
            55.8190408
          ],
          [
            49.1449155,
            55.8188727
          ]
        ]
      }
    },
    {
      "type": "Feature",
      "properties": {
        "osm_kind": "road",
        "name": "",
        "source": "OpenStreetMap",
        "download_window_id": "kazan_center_+3_+3_2dfb75e7",
        "download_city": "Казань",
        "osm_tags": {
          "highway": "service"
        },
        "osm_id": 1217807182,
        "osm_type": "way"
      },
      "geometry": {
        "type": "LineString",
        "coordinates": [
          [
            49.1447894,
            55.8188726
          ],
          [
            49.1447891,
            55.8190406
          ]
        ]
      }
    },
    {
      "type": "Feature",
      "properties": {
        "osm_kind": "road",
        "name": "",
        "source": "OpenStreetMap",
        "download_window_id": "kazan_center_+3_+3_2dfb75e7",
        "download_city": "Казань",
        "osm_tags": {
          "highway": "service"
        },
        "osm_id": 1217807186,
        "osm_type": "way"
      },
      "geometry": {
        "type": "LineString",
        "coordinates": [
          [
            49.1465519,
            55.8179145
          ],
          [
            49.1467598,
            55.8179146
          ]
        ]
      }
    },
    {
      "type": "Feature",
      "properties": {
        "osm_kind": "road",
        "name": "",
        "source": "OpenStreetMap",
        "download_window_id": "kazan_center_+3_+3_2dfb75e7",
        "download_city": "Казань",
        "osm_tags": {
          "highway": "service"
        },
        "osm_id": 1217807187,
        "osm_type": "way"
      },
      "geometry": {
        "type": "LineString",
        "coordinates": [
          [
            49.1470386,
            55.8179148
          ],
          [
            49.1472194,
            55.8179149
          ]
        ]
      }
    },
    {
      "type": "Feature",
      "properties": {
        "osm_kind": "road",
        "name": "",
        "source": "OpenStreetMap",
        "download_window_id": "kazan_center_+3_+3_2dfb75e7",
        "download_city": "Казань",
        "osm_tags": {
          "highway": "service"
        },
        "osm_id": 1217807188,
        "osm_type": "way"
      },
      "geometry": {
        "type": "LineString",
        "coordinates": [
          [
            49.1470384,
            55.8179998
          ],
          [
            49.1472192,
            55.8179999
          ]
        ]
      }
    },
    {
      "type": "Feature",
      "properties": {
        "osm_kind": "road",
        "name": "",
        "source": "OpenStreetMap",
        "download_window_id": "kazan_center_+3_+3_2dfb75e7",
        "download_city": "Казань",
        "osm_tags": {
          "highway": "footway"
        },
        "osm_id": 1217807189,
        "osm_type": "way"
      },
      "geometry": {
        "type": "LineString",
        "coordinates": [
          [
            49.1452841,
            55.8181223
          ],
          [
            49.1452843,
            55.818008
          ]
        ]
      }
    },
    {
      "type": "Feature",
      "properties": {
        "osm_kind": "road",
        "name": "",
        "source": "OpenStreetMap",
        "download_window_id": "kazan_center_+3_+3_2dfb75e7",
        "download_city": "Казань",
        "osm_tags": {
          "highway": "service"
        },
        "osm_id": 1217839837,
        "osm_type": "way"
      },
      "geometry": {
        "type": "LineString",
        "coordinates": [
          [
            49.1464403,
            55.8178635
          ],
          [
            49.1464406,
            55.8177349
          ]
        ]
      }
    }
  ]
}