{
  "type": "FeatureCollection",
  "name": "moscow_kommunarka_+0_+0_dfe1bde7",
  "crs": {
    "type": "name",
    "properties": {
      "name": "EPSG:4326"
    }
  },
  "metadata": {
    "dataset_version": "osm_building_anchored_routing_scenes_v3",
    "parent_scene_id": "moscow_kommunarka_+0_+0_dfe1bde7",
    "split": "validation",
    "city": "Москва Коммунарка",
    "seed": "moscow_kommunarka",
    "research_bucket": "refusal",
    "source_research_bucket": "refusal",
    "research_bucket_is_ground_truth": false,
    "bbox_south_west_north_east": [
      55.5656525,
      37.467617,
      55.5683475,
      37.472383
    ],
    "real_data_source": "OpenStreetMap via Overpass API",
    "source_file": "data/real_geojson_places/refusal/080_moscow_kommunarka_+0_+0_dfe1bde7.geojson",
    "real_layers": [
      "restrictions",
      "consumer_building_footprints"
    ],
    "synthetic_layers": [
      "source",
      "heat_network",
      "heat_chamber",
      "heat_demand"
    ],
    "consumer_selection": "deterministic points inside real OSM building footprints",
    "flow_model": "synthetic proxy derived from building footprint area; not metered demand",
    "note": "OSM buildings anchor consumers; heat demand and seed network are synthetic proxies."
  },
  "features": [
    {
      "type": "Feature",
      "properties": {
        "id": "moscow_kommunarka_+0_+0_dfe1bde7_osm_way_200909941_1",
        "object_type": "restriction",
        "restriction_type": "oks",
        "name": "",
        "osm_kind": "building",
        "osm_id": 200909941,
        "osm_type": "way",
        "osm_tags": {
          "building": "apartments"
        },
        "case_id": "moscow_kommunarka_+0_+0_dfe1bde7"
      },
      "geometry": {
        "type": "Polygon",
        "coordinates": [
          [
            [
              37.4723358,
              55.5658637
            ],
            [
              37.4730258,
              55.5661827
            ],
            [
              37.4733188,
              55.5661267
            ],
            [
              37.4734474,
              55.5661039
            ],
            [
              37.4734782,
              55.5659681
            ],
            [
              37.4733872,
              55.5659555
            ],
            [
              37.4730813,
              55.5660128
            ],
            [
              37.4725784,
              55.5657827
            ],
            [
              37.4725378,
              55.5655698
            ],
            [
              37.4722767,
              55.5655821
            ],
            [
              37.4723358,
              55.5658637
            ]
          ]
        ]
      }
    },
    {
      "type": "Feature",
      "properties": {
        "id": "moscow_kommunarka_+0_+0_dfe1bde7_osm_way_238308977_2",
        "object_type": "restriction",
        "restriction_type": "oks",
        "name": "",
        "osm_kind": "building",
        "osm_id": 238308977,
        "osm_type": "way",
        "osm_tags": {
          "building": "apartments"
        },
        "case_id": "moscow_kommunarka_+0_+0_dfe1bde7"
      },
      "geometry": {
        "type": "Polygon",
        "coordinates": [
          [
            [
              37.4710032,
              55.5663742
            ],
            [
              37.4709643,
              55.5660141
            ],
            [
              37.4712873,
              55.5656619
            ],
            [
              37.4714187,
              55.5657059
            ],
            [
              37.4713849,
              55.5657532
            ],
            [
              37.4718525,
              55.565895
            ],
            [
              37.4719145,
              55.5658276
            ],
            [
              37.4718734,
              55.5658113
            ],
            [
              37.4719164,
              55.5657675
            ],
            [
              37.4718565,
              55.5657504
            ],
            [
              37.4718727,
              55.565738
            ],
            [
              37.4715522,
              55.5656421
            ],
            [
              37.471536,
              55.5656572
            ],
            [
              37.4714098,
              55.5656189
            ],
            [
              37.4715432,
              55.5654751
            ],
            [
              37.471441,
              55.5654451
            ],
            [
              37.4714631,
              55.5654192
            ],
            [
              37.47135,
              55.5653879
            ],
            [
              37.4712583,
              55.5654898
            ],
            [
              37.471282,
              55.5654971
            ],
            [
              37.4712367,
              55.5655422
            ],
            [
              37.4712044,
              55.5655343
            ],
            [
              37.4710976,
              55.5656423
            ],
            [
              37.4710803,
              55.5656356
            ],
            [
              37.4710566,
              55.565663
            ],
            [
              37.4710264,
              55.5656532
            ],
            [
              37.4707217,
              55.5659789
            ],
            [
              37.4707641,
              55.5663807
            ],
            [
              37.4710032,
              55.5663742
            ]
          ]
        ]
      }
    },
    {
      "type": "Feature",
      "properties": {
        "id": "moscow_kommunarka_+0_+0_dfe1bde7_osm_way_238308985_3",
        "object_type": "restriction",
        "restriction_type": "oks",
        "name": "",
        "osm_kind": "building",
        "osm_id": 238308985,
        "osm_type": "way",
        "osm_tags": {
          "building": "apartments"
        },
        "case_id": "moscow_kommunarka_+0_+0_dfe1bde7",
        "selected_as_heat_demand_proxy": true,
        "connection_point_id": "moscow_kommunarka_+0_+0_dfe1bde7_cp_3"
      },
      "geometry": {
        "type": "Polygon",
        "coordinates": [
          [
            [
              37.4713576,
              55.5675986
            ],
            [
              37.4720271,
              55.5679969
            ],
            [
              37.4718909,
              55.5680696
            ],
            [
              37.4718441,
              55.5680717
            ],
            [
              37.4712163,
              55.5676932
            ],
            [
              37.4712163,
              55.5676677
            ],
            [
              37.4713576,
              55.5675986
            ]
          ]
        ]
      }
    },
    {
      "type": "Feature",
      "properties": {
        "id": "moscow_kommunarka_+0_+0_dfe1bde7_osm_way_247767907_4",
        "object_type": "restriction",
        "restriction_type": "oks",
        "name": "",
        "osm_kind": "building",
        "osm_id": 247767907,
        "osm_type": "way",
        "osm_tags": {
          "building": "apartments"
        },
        "case_id": "moscow_kommunarka_+0_+0_dfe1bde7"
      },
      "geometry": {
        "type": "Polygon",
        "coordinates": [
          [
            [
              37.4699071,
              55.5684305
            ],
            [
              37.4699042,
              55.5682891
            ],
            [
              37.4699689,
              55.5682891
            ],
            [
              37.4699844,
              55.5682766
            ],
            [
              37.4701841,
              55.5682771
            ],
            [
              37.4702005,
              55.568288
            ],
            [
              37.4702922,
              55.5682864
            ],
            [
              37.4703058,
              55.568276
            ],
            [
              37.4705046,
              55.5682771
            ],
            [
              37.470521,
              55.5682864
            ],
            [
              37.4705856,
              55.5682864
            ],
            [
              37.4705876,
              55.5684316
            ],
            [
              37.4705104,
              55.5684316
            ],
            [
              37.4705094,
              55.5684605
            ],
            [
              37.4704911,
              55.5684605
            ],
            [
              37.4704901,
              55.5684501
            ],
            [
              37.4703974,
              55.5684496
            ],
            [
              37.4703955,
              55.5684599
            ],
            [
              37.4703521,
              55.5684594
            ],
            [
              37.470353,
              55.5684326
            ],
            [
              37.4703051,
              55.5684325
            ],
            [
              37.4703048,
              55.5684283
            ],
            [
              37.4701909,
              55.5684283
            ],
            [
              37.470188,
              55.5684605
            ],
            [
              37.4701668,
              55.5684605
            ],
            [
              37.4701658,
              55.5684496
            ],
            [
              37.470078,
              55.5684496
            ],
            [
              37.470076,
              55.5684578
            ],
            [
              37.4700316,
              55.5684572
            ],
            [
              37.4700326,
              55.5684299
            ],
            [
              37.4699071,
              55.5684305
            ]
          ]
        ]
      }
    },
    {
      "type": "Feature",
      "properties": {
        "id": "moscow_kommunarka_+0_+0_dfe1bde7_osm_way_247768369_5",
        "object_type": "restriction",
        "restriction_type": "road",
        "name": "Лазурная улица",
        "osm_kind": "road",
        "osm_id": 247768369,
        "osm_type": "way",
        "osm_tags": {
          "highway": "residential",
          "name": "Лазурная улица"
        },
        "case_id": "moscow_kommunarka_+0_+0_dfe1bde7"
      },
      "geometry": {
        "type": "LineString",
        "coordinates": [
          [
            37.4731186,
            55.5695395
          ],
          [
            37.4729242,
            55.5693096
          ],
          [
            37.4727149,
            55.5691088
          ],
          [
            37.4726945,
            55.5690658
          ],
          [
            37.4725056,
            55.568643
          ],
          [
            37.4724462,
            55.5683426
          ],
          [
            37.4724193,
            55.56818
          ],
          [
            37.4723879,
            55.5679905
          ],
          [
            37.4723523,
            55.5677751
          ],
          [
            37.4723271,
            55.5676323
          ],
          [
            37.4722634,
            55.5671191
          ],
          [
            37.4722482,
            55.5669966
          ],
          [
            37.4722099,
            55.5666885
          ],
          [
            37.4721716,
            55.5664204
          ],
          [
            37.4721153,
            55.5660255
          ],
          [
            37.4721031,
            55.5659401
          ],
          [
            37.472083,
            55.565799
          ],
          [
            37.4720386,
            55.5655981
          ],
          [
            37.4718007,
            55.5653397
          ],
          [
            37.4715736,
            55.5651847
          ],
          [
            37.4714797,
            55.5651206
          ]
        ]
      }
    },
    {
      "type": "Feature",
      "properties": {
        "id": "moscow_kommunarka_+0_+0_dfe1bde7_osm_way_248696035_6",
        "object_type": "restriction",
        "restriction_type": "road",
        "name": "",
        "osm_kind": "road",
        "osm_id": 248696035,
        "osm_type": "way",
        "osm_tags": {
          "highway": "service"
        },
        "case_id": "moscow_kommunarka_+0_+0_dfe1bde7"
      },
      "geometry": {
        "type": "LineString",
        "coordinates": [
          [
            37.4724462,
            55.5683426
          ],
          [
            37.4721587,
            55.5683417
          ],
          [
            37.4718968,
            55.56819
          ],
          [
            37.4711248,
            55.5677428
          ]
        ]
      }
    },
    {
      "type": "Feature",
      "properties": {
        "id": "moscow_kommunarka_+0_+0_dfe1bde7_osm_way_248696036_7",
        "object_type": "restriction",
        "restriction_type": "road",
        "name": "",
        "osm_kind": "road",
        "osm_id": 248696036,
        "osm_type": "way",
        "osm_tags": {
          "highway": "service"
        },
        "case_id": "moscow_kommunarka_+0_+0_dfe1bde7"
      },
      "geometry": {
        "type": "LineString",
        "coordinates": [
          [
            37.4723523,
            55.5677751
          ],
          [
            37.4720289,
            55.5677837
          ],
          [
            37.4713023,
            55.5673815
          ],
          [
            37.4711078,
            55.5672738
          ]
        ]
      }
    },
    {
      "type": "Feature",
      "properties": {
        "id": "moscow_kommunarka_+0_+0_dfe1bde7_osm_way_248696040_8",
        "object_type": "restriction",
        "restriction_type": "road",
        "name": "",
        "osm_kind": "road",
        "osm_id": 248696040,
        "osm_type": "way",
        "osm_tags": {
          "highway": "service"
        },
        "case_id": "moscow_kommunarka_+0_+0_dfe1bde7"
      },
      "geometry": {
        "type": "LineString",
        "coordinates": [
          [
            37.474831,
            55.5674092
          ],
          [
            37.4745979,
            55.5674551
          ],
          [
            37.4734631,
            55.5676796
          ],
          [
            37.4727457,
            55.56761
          ],
          [
            37.4726074,
            55.5676174
          ],
          [
            37.4723271,
            55.5676323
          ]
        ]
      }
    },
    {
      "type": "Feature",
      "properties": {
        "id": "moscow_kommunarka_+0_+0_dfe1bde7_osm_way_248696056_9",
        "object_type": "restriction",
        "restriction_type": "oks",
        "name": "",
        "osm_kind": "building",
        "osm_id": 248696056,
        "osm_type": "way",
        "osm_tags": {
          "building": "service"
        },
        "case_id": "moscow_kommunarka_+0_+0_dfe1bde7"
      },
      "geometry": {
        "type": "Polygon",
        "coordinates": [
          [
            [
              37.4721725,
              55.5682518
            ],
            [
              37.472247,
              55.5682107
            ],
            [
              37.4721748,
              55.5681689
            ],
            [
              37.4721004,
              55.56821
            ],
            [
              37.4721725,
              55.5682518
            ]
          ]
        ]
      }
    },
    {
      "type": "Feature",
      "properties": {
        "id": "moscow_kommunarka_+0_+0_dfe1bde7_osm_way_248696057_10",
        "object_type": "restriction",
        "restriction_type": "oks",
        "name": "",
        "osm_kind": "building",
        "osm_id": 248696057,
        "osm_type": "way",
        "osm_tags": {
          "building": "yes"
        },
        "case_id": "moscow_kommunarka_+0_+0_dfe1bde7",
        "selected_as_heat_demand_proxy": true,
        "connection_point_id": "moscow_kommunarka_+0_+0_dfe1bde7_cp_2"
      },
      "geometry": {
        "type": "Polygon",
        "coordinates": [
          [
            [
              37.4720889,
              55.5675887
            ],
            [
              37.4720632,
              55.5673854
            ],
            [
              37.47194,
              55.5672478
            ],
            [
              37.4718801,
              55.5671834
            ],
            [
              37.4716944,
              55.5672351
            ],
            [
              37.4716712,
              55.5672288
            ],
            [
              37.4714771,
              55.5673398
            ],
            [
              37.4719872,
              55.5676397
            ],
            [
              37.4720889,
              55.5675887
            ]
          ]
        ]
      }
    },
    {
      "type": "Feature",
      "properties": {
        "id": "moscow_kommunarka_+0_+0_dfe1bde7_osm_way_249172817_11",
        "object_type": "restriction",
        "restriction_type": "road",
        "name": "",
        "osm_kind": "road",
        "osm_id": 249172817,
        "osm_type": "way",
        "osm_tags": {
          "highway": "service"
        },
        "case_id": "moscow_kommunarka_+0_+0_dfe1bde7"
      },
      "geometry": {
        "type": "LineString",
        "coordinates": [
          [
            37.4722634,
            55.5671191
          ],
          [
            37.473161,
            55.5674688
          ],
          [
            37.4738077,
            55.5673215
          ],
          [
            37.4737973,
            55.5670503
          ],
          [
            37.4737891,
            55.5668374
          ],
          [
            37.4748664,
            55.5666277
          ]
        ]
      }
    },
    {
      "type": "Feature",
      "properties": {
        "id": "moscow_kommunarka_+0_+0_dfe1bde7_osm_way_268965182_12",
        "object_type": "restriction",
        "restriction_type": "road",
        "name": "",
        "osm_kind": "road",
        "osm_id": 268965182,
        "osm_type": "way",
        "osm_tags": {
          "highway": "footway"
        },
        "case_id": "moscow_kommunarka_+0_+0_dfe1bde7"
      },
      "geometry": {
        "type": "LineString",
        "coordinates": [
          [
            37.4721587,
            55.5683417
          ],
          [
            37.471256,
            55.568339
          ]
        ]
      }
    },
    {
      "type": "Feature",
      "properties": {
        "id": "moscow_kommunarka_+0_+0_dfe1bde7_osm_way_268965187_13",
        "object_type": "restriction",
        "restriction_type": "road",
        "name": "",
        "osm_kind": "road",
        "osm_id": 268965187,
        "osm_type": "way",
        "osm_tags": {
          "highway": "service"
        },
        "case_id": "moscow_kommunarka_+0_+0_dfe1bde7"
      },
      "geometry": {
        "type": "LineString",
        "coordinates": [
          [
            37.4703878,
            55.5676414
          ],
          [
            37.4704757,
            55.5678733
          ],
          [
            37.4705302,
            55.5679292
          ],
          [
            37.4706091,
            55.5679555
          ],
          [
            37.4707595,
            55.5679708
          ],
          [
            37.4709169,
            55.5679701
          ],
          [
            37.4710349,
            55.5679545
          ],
          [
            37.4711317,
            55.5679196
          ],
          [
            37.4711248,
            55.5677428
          ],
          [
            37.4711078,
            55.5672738
          ],
          [
            37.4711664,
            55.5670536
          ],
          [
            37.4711294,
            55.5667365
          ]
        ]
      }
    },
    {
      "type": "Feature",
      "properties": {
        "id": "moscow_kommunarka_+0_+0_dfe1bde7_osm_way_268967473_14",
        "object_type": "restriction",
        "restriction_type": "road",
        "name": "",
        "osm_kind": "road",
        "osm_id": 268967473,
        "osm_type": "way",
        "osm_tags": {
          "highway": "service"
        },
        "case_id": "moscow_kommunarka_+0_+0_dfe1bde7"
      },
      "geometry": {
        "type": "LineString",
        "coordinates": [
          [
            37.4718968,
            55.56819
          ],
          [
            37.4721315,
            55.5680605
          ]
        ]
      }
    },
    {
      "type": "Feature",
      "properties": {
        "id": "moscow_kommunarka_+0_+0_dfe1bde7_osm_way_272822582_15",
        "object_type": "restriction",
        "restriction_type": "road",
        "name": "",
        "osm_kind": "road",
        "osm_id": 272822582,
        "osm_type": "way",
        "osm_tags": {
          "highway": "service"
        },
        "case_id": "moscow_kommunarka_+0_+0_dfe1bde7"
      },
      "geometry": {
        "type": "LineString",
        "coordinates": [
          [
            37.4720289,
            55.5677837
          ],
          [
            37.4723879,
            55.5679905
          ]
        ]
      }
    },
    {
      "type": "Feature",
      "properties": {
        "id": "moscow_kommunarka_+0_+0_dfe1bde7_osm_way_272822583_16",
        "object_type": "restriction",
        "restriction_type": "road",
        "name": "",
        "osm_kind": "road",
        "osm_id": 272822583,
        "osm_type": "way",
        "osm_tags": {
          "highway": "service"
        },
        "case_id": "moscow_kommunarka_+0_+0_dfe1bde7"
      },
      "geometry": {
        "type": "LineString",
        "coordinates": [
          [
            37.4722482,
            55.5669966
          ],
          [
            37.4712836,
            55.5670363
          ],
          [
            37.4711664,
            55.5670536
          ]
        ]
      }
    },
    {
      "type": "Feature",
      "properties": {
        "id": "moscow_kommunarka_+0_+0_dfe1bde7_osm_way_366915433_17",
        "object_type": "restriction",
        "restriction_type": "oks",
        "name": "Дикси",
        "osm_kind": "building",
        "osm_id": 366915433,
        "osm_type": "way",
        "osm_tags": {
          "building": "retail",
          "name": "Дикси"
        },
        "case_id": "moscow_kommunarka_+0_+0_dfe1bde7",
        "selected_as_heat_demand_proxy": true,
        "connection_point_id": "moscow_kommunarka_+0_+0_dfe1bde7_cp_1"
      },
      "geometry": {
        "type": "Polygon",
        "coordinates": [
          [
            [
              37.4720234,
              55.566313
            ],
            [
              37.4720126,
              55.5661431
            ],
            [
              37.4718565,
              55.5661463
            ],
            [
              37.4718607,
              55.5662125
            ],
            [
              37.4714915,
              55.56622
            ],
            [
              37.471498,
              55.5663236
            ],
            [
              37.4720234,
              55.566313
            ]
          ]
        ]
      }
    },
    {
      "type": "Feature",
      "properties": {
        "id": "moscow_kommunarka_+0_+0_dfe1bde7_osm_way_366967344_18",
        "object_type": "restriction",
        "restriction_type": "road",
        "name": "",
        "osm_kind": "road",
        "osm_id": 366967344,
        "osm_type": "way",
        "osm_tags": {
          "highway": "service"
        },
        "case_id": "moscow_kommunarka_+0_+0_dfe1bde7"
      },
      "geometry": {
        "type": "LineString",
        "coordinates": [
          [
            37.4721716,
            55.5664204
          ],
          [
            37.4733979,
            55.5665029
          ],
          [
            37.4746518,
            55.5662679
          ]
        ]
      }
    },
    {
      "type": "Feature",
      "properties": {
        "id": "moscow_kommunarka_+0_+0_dfe1bde7_osm_way_408874841_19",
        "object_type": "restriction",
        "restriction_type": "road",
        "name": "",
        "osm_kind": "road",
        "osm_id": 408874841,
        "osm_type": "way",
        "osm_tags": {
          "highway": "service"
        },
        "case_id": "moscow_kommunarka_+0_+0_dfe1bde7"
      },
      "geometry": {
        "type": "LineString",
        "coordinates": [
          [
            37.4699769,
            55.5681166
          ],
          [
            37.469969,
            55.5679463
          ],
          [
            37.4699759,
            55.5679074
          ],
          [
            37.4699936,
            55.5678752
          ],
          [
            37.4700187,
            55.5678493
          ],
          [
            37.4700601,
            55.5678212
          ],
          [
            37.4703878,
            55.5676414
          ],
          [
            37.4703619,
            55.5673301
          ],
          [
            37.4703797,
            55.5672983
          ],
          [
            37.4704869,
            55.5671911
          ],
          [
            37.4705047,
            55.5671471
          ],
          [
            37.4704757,
            55.5669085
          ],
          [
            37.4704853,
            55.566878
          ],
          [
            37.4705044,
            55.5668514
          ],
          [
            37.4705331,
            55.5668233
          ],
          [
            37.4706294,
            55.5667531
          ]
        ]
      }
    },
    {
      "type": "Feature",
      "properties": {
        "id": "moscow_kommunarka_+0_+0_dfe1bde7_osm_way_408874966_20",
        "object_type": "restriction",
        "restriction_type": "road",
        "name": "",
        "osm_kind": "road",
        "osm_id": 408874966,
        "osm_type": "way",
        "osm_tags": {
          "highway": "service"
        },
        "case_id": "moscow_kommunarka_+0_+0_dfe1bde7"
      },
      "geometry": {
        "type": "LineString",
        "coordinates": [
          [
            37.4714797,
            55.5651206
          ],
          [
            37.4712906,
            55.5650125
          ],
          [
            37.4709389,
            55.5647951
          ],
          [
            37.4707404,
            55.5646724
          ],
          [
            37.4704506,
            55.5647161
          ],
          [
            37.4701566,
            55.5647605
          ],
          [
            37.4696553,
            55.5648361
          ],
          [
            37.4696204,
            55.5649008
          ],
          [
            37.4698806,
            55.5653051
          ],
          [
            37.4701991,
            55.5655133
          ],
          [
            37.4706007,
            55.5656771
          ]
        ]
      }
    },
    {
      "type": "Feature",
      "properties": {
        "id": "moscow_kommunarka_+0_+0_dfe1bde7_osm_way_442670706_21",
        "object_type": "restriction",
        "restriction_type": "road",
        "name": "",
        "osm_kind": "road",
        "osm_id": 442670706,
        "osm_type": "way",
        "osm_tags": {
          "highway": "living_street"
        },
        "case_id": "moscow_kommunarka_+0_+0_dfe1bde7"
      },
      "geometry": {
        "type": "LineString",
        "coordinates": [
          [
            37.4721031,
            55.5659401
          ],
          [
            37.4728993,
            55.5662772
          ],
          [
            37.4734878,
            55.5661654
          ],
          [
            37.4735614,
            55.5660809
          ],
          [
            37.4735992,
            55.5658178
          ]
        ]
      }
    },
    {
      "type": "Feature",
      "properties": {
        "id": "moscow_kommunarka_+0_+0_dfe1bde7_osm_way_701670972_22",
        "object_type": "restriction",
        "restriction_type": "oks",
        "name": "Инфекционный корпус",
        "osm_kind": "building",
        "osm_id": 701670972,
        "osm_type": "way",
        "osm_tags": {
          "building": "hospital",
          "name": "Инфекционный корпус"
        },
        "case_id": "moscow_kommunarka_+0_+0_dfe1bde7"
      },
      "geometry": {
        "type": "Polygon",
        "coordinates": [
          [
            [
              37.4670373,
              55.5660303
            ],
            [
              37.4677216,
              55.5661017
            ],
            [
              37.4676782,
              55.5662345
            ],
            [
              37.4669999,
              55.5661638
            ],
            [
              37.4669074,
              55.5664474
            ],
            [
              37.4674579,
              55.5665048
            ],
            [
              37.4674187,
              55.5666252
            ],
            [
              37.4665757,
              55.5665373
            ],
            [
              37.4668094,
              55.565821
            ],
            [
              37.4670959,
              55.5658509
            ],
            [
              37.4670373,
              55.5660303
            ]
          ]
        ]
      }
    },
    {
      "type": "Feature",
      "properties": {
        "id": "moscow_kommunarka_+0_+0_dfe1bde7_osm_way_783112113_23",
        "object_type": "restriction",
        "restriction_type": "road",
        "name": "",
        "osm_kind": "road",
        "osm_id": 783112113,
        "osm_type": "way",
        "osm_tags": {
          "highway": "service"
        },
        "case_id": "moscow_kommunarka_+0_+0_dfe1bde7"
      },
      "geometry": {
        "type": "LineString",
        "coordinates": [
          [
            37.4708833,
            55.5683837
          ],
          [
            37.4710129,
            55.568328
          ],
          [
            37.4710516,
            55.568304
          ],
          [
            37.4710832,
            55.56827
          ],
          [
            37.4711075,
            55.5682264
          ],
          [
            37.4711225,
            55.5681794
          ],
          [
            37.4711317,
            55.5679196
          ]
        ]
      }
    },
    {
      "type": "Feature",
      "properties": {
        "id": "moscow_kommunarka_+0_+0_dfe1bde7_osm_way_810076789_24",
        "object_type": "restriction",
        "restriction_type": "oks",
        "name": "",
        "osm_kind": "building",
        "osm_id": 810076789,
        "osm_type": "way",
        "osm_tags": {
          "building": "yes"
        },
        "case_id": "moscow_kommunarka_+0_+0_dfe1bde7"
      },
      "geometry": {
        "type": "Polygon",
        "coordinates": [
          [
            [
              37.4710455,
              55.566969
            ],
            [
              37.4712448,
              55.5669628
            ],
            [
              37.4712354,
              55.5668492
            ],
            [
              37.4710282,
              55.5668594
            ],
            [
              37.4710455,
              55.566969
            ]
          ]
        ]
      }
    },
    {
      "type": "Feature",
      "properties": {
        "id": "moscow_kommunarka_+0_+0_dfe1bde7_osm_way_886159756_25",
        "object_type": "restriction",
        "restriction_type": "road",
        "name": "улица Сосенский Стан",
        "osm_kind": "road",
        "osm_id": 886159756,
        "osm_type": "way",
        "osm_tags": {
          "highway": "tertiary",
          "name": "улица Сосенский Стан"
        },
        "case_id": "moscow_kommunarka_+0_+0_dfe1bde7"
      },
      "geometry": {
        "type": "LineString",
        "coordinates": [
          [
            37.470501,
            55.5657614
          ],
          [
            37.4706007,
            55.5656771
          ],
          [
            37.4709044,
            55.5654579
          ],
          [
            37.4714797,
            55.5651206
          ]
        ]
      }
    },
    {
      "type": "Feature",
      "properties": {
        "id": "moscow_kommunarka_+0_+0_dfe1bde7_osm_way_1002240491_26",
        "object_type": "restriction",
        "restriction_type": "oks",
        "name": "",
        "osm_kind": "building",
        "osm_id": 1002240491,
        "osm_type": "way",
        "osm_tags": {
          "building": "yes"
        },
        "case_id": "moscow_kommunarka_+0_+0_dfe1bde7"
      },
      "geometry": {
        "type": "Polygon",
        "coordinates": [
          [
            [
              37.4675247,
              55.5677408
            ],
            [
              37.467735,
              55.5677639
            ],
            [
              37.4677657,
              55.5676744
            ],
            [
              37.4675555,
              55.5676513
            ],
            [
              37.4675247,
              55.5677408
            ]
          ]
        ]
      }
    },
    {
      "type": "Feature",
      "properties": {
        "id": "moscow_kommunarka_+0_+0_dfe1bde7_osm_way_1062858353_27",
        "object_type": "restriction",
        "restriction_type": "railway",
        "name": "Троицкая линия",
        "osm_kind": "railway",
        "osm_id": 1062858353,
        "osm_type": "way",
        "osm_tags": {
          "name": "Троицкая линия",
          "railway": "subway"
        },
        "case_id": "moscow_kommunarka_+0_+0_dfe1bde7"
      },
      "geometry": {
        "type": "LineString",
        "coordinates": [
          [
            37.5090847,
            55.6642689
          ],
          [
            37.5089271,
            55.6641734
          ],
          [
            37.5085463,
            55.6639171
          ],
          [
            37.5081963,
            55.6636419
          ],
          [
            37.5078863,
            55.6633546
          ],
          [
            37.507617,
            55.6630571
          ],
          [
            37.5073922,
            55.6627555
          ],
          [
            37.507212,
            55.6624548
          ],
          [
            37.5070699,
            55.6621472
          ],
          [
            37.5069671,
            55.6618359
          ],
          [
            37.5069047,
            55.6615284
          ],
          [
            37.50688,
            55.6612186
          ],
          [
            37.5068934,
            55.6609093
          ],
          [
            37.5069451,
            55.6605993
          ],
          [
            37.5070356,
            55.6602902
          ],
          [
            37.5071639,
            55.659986
          ],
          [
            37.507329,
            55.6596884
          ],
          [
            37.5075345,
            55.6593928
          ],
          [
            37.5115394,
            55.654278
          ],
          [
            37.5116851,
            55.6540625
          ],
          [
            37.5118064,
            55.6538412
          ],
          [
            37.5119006,
            55.6536196
          ],
          [
            37.511969,
            55.6533971
          ],
          [
            37.5120145,
            55.6531565
          ],
          [
            37.5120305,
            55.6529491
          ],
          [
            37.5120237,
            55.652725
          ],
          [
            37.5119922,
            55.6525025
          ],
          [
            37.5119367,
            55.6522832
          ],
          [
            37.5118561,
            55.652064
          ],
          [
            37.5117503,
            55.651846
          ],
          [
            37.5116193,
            55.6516308
          ],
          [
            37.5114652,
            55.6514219
          ],
          [
            37.5112823,
            55.651213
          ],
          [
            37.511081,
            55.6510161
          ],
          [
            37.51085,
            55.6508205
          ],
          [
            37.5098965,
            55.6501315
          ],
          [
            37.5070342,
            55.6479834
          ],
          [
            37.5047339,
            55.646257
          ],
          [
            37.5011314,
            55.6435239
          ],
          [
            37.4967451,
            55.640089
          ],
          [
            37.4962955,
            55.6397571
          ],
          [
            37.4958236,
            55.6394407
          ],
          [
            37.4953263,
            55.6391375
          ],
          [
            37.4948019,
            55.6388463
          ],
          [
            37.4934162,
            55.6381172
          ],
          [
            37.4928126,
            55.6377592
          ],
          [
            37.4922744,
            55.6373582
          ],
          [
            37.4918108,
            55.6369154
          ],
          [
            37.4914466,
            55.6364536
          ],
          [
            37.4908334,
            55.6355219
          ],
          [
            37.4906416,
            55.6351871
          ],
          [
            37.4904978,
            55.6348465
          ],
          [
            37.490402,
            55.6345023
          ],
          [
            37.4903541,
            55.6341556
          ],
          [
            37.4903538,
            55.6338141
          ],
          [
            37.4903996,
            55.6334736
          ],
          [
            37.4904926,
            55.6331326
          ],
          [
            37.4906328,
            55.6327948
          ],
          [
            37.4917769,
            55.6304871
          ],
          [
            37.4918821,
            55.6302173
          ],
          [
            37.4919453,
            55.629941
          ],
          [
            37.4919648,
            55.6296627
          ],
          [
            37.4919405,
            55.6293846
          ],
          [
            37.4918717,
            55.6291059
          ],
          [
            37.4917583,
            55.6288304
          ],
          [
            37.4916008,
            55.628561
          ],
          [
            37.4914018,
            55.6283018
          ],
          [
            37.4911337,
            55.6280273
          ],
          [
            37.4908177,
            55.6277687
          ],
          [
            37.490448,
            55.6275236
          ],
          [
            37.4900397,
            55.627303
          ],
          [
            37.4896036,
            55.627111
          ],
          [
            37.4891378,
            55.6269449
          ],
          [
            37.4886447,
            55.6268055
          ],
          [
            37.4881321,
            55.6266949
          ],
          [
            37.4857339,
            55.6262768
          ],
          [
            37.4826628,
            55.6257416
          ],
          [
            37.4819448,
            55.6255765
          ],
          [
            37.4812769,
            55.6253642
          ],
          [
            37.4806782,
            55.6251119
          ],
          [
            37.48013,
            55.6248109
          ],
          [
            37.4796303,
            55.6244878
          ],
          [
            37.4792112,
            55.6241441
          ],
          [
            37.4789919,
            55.6239118
          ],
          [
            37.4788609,
            55.6237729
          ],
          [
            37.4785946,
            55.6233933
          ],
          [
            37.4785311,
            55.6232626
          ],
          [
            37.4784076,
            55.6230083
          ],
          [
            37.4782957,
            55.6226158
          ],
          [
            37.4782591,
            55.6222164
          ],
          [
            37.4782997,
            55.6218157
          ],
          [
            37.4784183,
            55.6214164
          ],
          [
            37.4786149,
            55.6210251
          ],
          [
            37.478892,
            55.6206416
          ],
          [
            37.4792417,
            55.6202797
          ],
          [
            37.4795973,
            55.6199948
          ],
          [
            37.4809942,
            55.6190072
          ],
          [
            37.4822034,
            55.6181524
          ],
          [
            37.4836432,
            55.6171345
          ],
          [
            37.4840678,
            55.6168178
          ],
          [
            37.4844674,
            55.6164915
          ],
          [
            37.4853926,
            55.6156774
          ],
          [
            37.4871084,
            55.6141674
          ],
          [
            37.4873977,
            55.6138889
          ],
          [
            37.4876577,
            55.6136003
          ],
          [
            37.4878856,
            55.6133046
          ],
          [
            37.4880825,
            55.6130006
          ],
          [
            37.4882462,
            55.6126917
          ],
          [
            37.488377,
            55.6123773
          ],
          [
            37.4884748,
            55.6120572
          ],
          [
            37.4885381,
            55.6117347
          ],
          [
            37.4885672,
            55.6114054
          ],
          [
            37.4885604,
            55.6110738
          ],
          [
            37.4885176,
            55.6107431
          ],
          [
            37.4884384,
            55.6104131
          ],
          [
            37.4883226,
            55.6100848
          ],
          [
            37.4881709,
            55.6097611
          ],
          [
            37.4879866,
            55.6094475
          ],
          [
            37.4877691,
            55.6091415
          ],
          [
            37.4868174,
            55.6079967
          ],
          [
            37.4859705,
            55.607074
          ],
          [
            37.4843792,
            55.6050904
          ],
          [
            37.4840091,
            55.6045517
          ],
          [
            37.4826592,
            55.6022862
          ],
          [
            37.482501,
            55.6020645
          ],
          [
            37.4822766,
            55.6018062
          ],
          [
            37.4820776,
            55.6016131
          ],
          [
            37.4818581,
            55.6014274
          ],
          [
            37.4805105,
            55.6003852
          ],
          [
            37.48028,
            55.6001839
          ],
          [
            37.4800771,
            55.5999716
          ],
          [
            37.4799,
            55.5997509
          ],
          [
            37.47888,
            55.5984213
          ],
          [
            37.477912,
            55.5971495
          ],
          [
            37.4776965,
            55.5968002
          ],
          [
            37.477546,
            55.5964401
          ],
          [
            37.4774617,
            55.5960733
          ],
          [
            37.4774448,
            55.5957034
          ],
          [
            37.4774952,
            55.5953345
          ],
          [
            37.4776124,
            55.5949706
          ],
          [
            37.4788512,
            55.5919176
          ],
          [
            37.4789968,
            55.5914682
          ],
          [
            37.4790745,
            55.5910134
          ],
          [
            37.4790837,
            55.5905565
          ],
          [
            37.4790243,
            55.5901008
          ],
          [
            37.4788967,
            55.5896496
          ],
          [
            37.4787018,
            55.5892062
          ],
          [
            37.4784411,
            55.5887737
          ],
          [
            37.4747377,
            55.5832175
          ],
          [
            37.4744728,
            55.5827818
          ],
          [
            37.4743035,
            55.5823401
          ],
          [
            37.4742268,
            55.5818969
          ],
          [
            37.4742405,
            55.5814513
          ],
          [
            37.4743417,
            55.5804864
          ],
          [
            37.4743269,
            55.5801549
          ],
          [
            37.4742375,
            55.5798198
          ],
          [
            37.4740837,
            55.5795088
          ],
          [
            37.47386,
            55.5792043
          ],
          [
            37.4735678,
            55.5789137
          ],
          [
            37.473213,
            55.5786449
          ],
          [
            37.4727954,
            55.5783997
          ],
          [
            37.4723344,
            55.5781894
          ],
          [
            37.4719076,
            55.5780368
          ],
          [
            37.4708408,
            55.5776897
          ],
          [
            37.4704586,
            55.5775633
          ],
          [
            37.4700935,
            55.5774155
          ],
          [
            37.4697585,
            55.5772514
          ],
          [
            37.4694528,
            55.5770715
          ],
          [
            37.4691788,
            55.5768776
          ],
          [
            37.4689334,
            55.576667
          ],
          [
            37.4687246,
            55.5764457
          ],
          [
            37.4685542,
            55.5762172
          ],
          [
            37.4684056,
            55.5759418
          ],
          [
            37.4678612,
            55.5746175
          ],
          [
            37.4674258,
            55.573558
          ],
          [
            37.4673314,
            55.5732989
          ],
          [
            37.4672816,
            55.573042
          ],
          [
            37.4672725,
            55.5728245
          ],
          [
            37.4672978,
            55.5725828
          ],
          [
            37.4673548,
            55.5723592
          ],
          [
            37.4692698,
            55.5670474
          ],
          [
            37.4693358,
            55.5667833
          ],
          [
            37.4693728,
            55.5665234
          ],
          [
            37.4693918,
            55.5653231
          ],
          [
            37.4693475,
            55.5649506
          ],
          [
            37.4692489,
            55.5645835
          ],
          [
            37.4690987,
            55.5642165
          ],
          [
            37.4689132,
            55.5638541
          ],
          [
            37.4686657,
            55.5634936
          ],
          [
            37.4684027,
            55.5631594
          ],
          [
            37.4678113,
            55.5625033
          ],
          [
            37.4675283,
            55.5622409
          ],
          [
            37.4671706,
            55.561959
          ],
          [
            37.4668171,
            55.5617132
          ],
          [
            37.4650197,
            55.5605747
          ]
        ]
      }
    },
    {
      "type": "Feature",
      "properties": {
        "id": "moscow_kommunarka_+0_+0_dfe1bde7_osm_way_1076494396_28",
        "object_type": "restriction",
        "restriction_type": "road",
        "name": "",
        "osm_kind": "road",
        "osm_id": 1076494396,
        "osm_type": "way",
        "osm_tags": {
          "highway": "service"
        },
        "case_id": "moscow_kommunarka_+0_+0_dfe1bde7"
      },
      "geometry": {
        "type": "LineString",
        "coordinates": [
          [
            37.4680423,
            55.5658506
          ],
          [
            37.4681085,
            55.5655881
          ],
          [
            37.4675648,
            55.5648745
          ]
        ]
      }
    },
    {
      "type": "Feature",
      "properties": {
        "id": "moscow_kommunarka_+0_+0_dfe1bde7_osm_way_1076494398_29",
        "object_type": "restriction",
        "restriction_type": "road",
        "name": "",
        "osm_kind": "road",
        "osm_id": 1076494398,
        "osm_type": "way",
        "osm_tags": {
          "highway": "service"
        },
        "case_id": "moscow_kommunarka_+0_+0_dfe1bde7"
      },
      "geometry": {
        "type": "LineString",
        "coordinates": [
          [
            37.4674398,
            55.5691517
          ],
          [
            37.4680643,
            55.5673667
          ],
          [
            37.4683812,
            55.5664609
          ]
        ]
      }
    },
    {
      "type": "Feature",
      "properties": {
        "id": "moscow_kommunarka_+0_+0_dfe1bde7_osm_way_1076494400_30",
        "object_type": "restriction",
        "restriction_type": "road",
        "name": "",
        "osm_kind": "road",
        "osm_id": 1076494400,
        "osm_type": "way",
        "osm_tags": {
          "highway": "service"
        },
        "case_id": "moscow_kommunarka_+0_+0_dfe1bde7"
      },
      "geometry": {
        "type": "LineString",
        "coordinates": [
          [
            37.4666572,
            55.565691
          ],
          [
            37.4680423,
            55.5658506
          ],
          [
            37.4676983,
            55.5668055
          ],
          [
            37.4663391,
            55.566649
          ]
        ]
      }
    },
    {
      "type": "Feature",
      "properties": {
        "id": "moscow_kommunarka_+0_+0_dfe1bde7_osm_way_1076494401_31",
        "object_type": "restriction",
        "restriction_type": "road",
        "name": "",
        "osm_kind": "road",
        "osm_id": 1076494401,
        "osm_type": "way",
        "osm_tags": {
          "highway": "service"
        },
        "case_id": "moscow_kommunarka_+0_+0_dfe1bde7"
      },
      "geometry": {
        "type": "LineString",
        "coordinates": [
          [
            37.4676983,
            55.5668055
          ],
          [
            37.4675123,
            55.5672996
          ]
        ]
      }
    },
    {
      "type": "Feature",
      "properties": {
        "id": "moscow_kommunarka_+0_+0_dfe1bde7_osm_way_1349268242_32",
        "object_type": "restriction",
        "restriction_type": "railway",
        "name": "Троицкая линия",
        "osm_kind": "railway",
        "osm_id": 1349268242,
        "osm_type": "way",
        "osm_tags": {
          "name": "Троицкая линия",
          "railway": "subway"
        },
        "case_id": "moscow_kommunarka_+0_+0_dfe1bde7"
      },
      "geometry": {
        "type": "LineString",
        "coordinates": [
          [
            37.4652168,
            55.5604716
          ],
          [
            37.4667159,
            55.5614211
          ],
          [
            37.4670169,
            55.561633
          ],
          [
            37.4672721,
            55.5618412
          ],
          [
            37.4674609,
            55.5620193
          ],
          [
            37.4684731,
            55.5631433
          ],
          [
            37.468737,
            55.5634778
          ],
          [
            37.4689852,
            55.5638398
          ],
          [
            37.4691728,
            55.5642061
          ],
          [
            37.4693241,
            55.5645761
          ],
          [
            37.4694239,
            55.5649472
          ],
          [
            37.4694681,
            55.5653233
          ],
          [
            37.469449,
            55.5665252
          ],
          [
            37.4694115,
            55.566789
          ],
          [
            37.4693447,
            55.5670555
          ],
          [
            37.4678746,
            55.5711334
          ],
          [
            37.4678153,
            55.5713324
          ],
          [
            37.4675622,
            55.5723793
          ],
          [
            37.4675208,
            55.5725973
          ],
          [
            37.4675076,
            55.5728341
          ],
          [
            37.4675223,
            55.5730371
          ],
          [
            37.4675742,
            55.573288
          ],
          [
            37.4676611,
            55.5735314
          ],
          [
            37.4680929,
            55.5745854
          ],
          [
            37.4686327,
            55.5759029
          ],
          [
            37.4687853,
            55.5761878
          ],
          [
            37.4689514,
            55.5764124
          ],
          [
            37.4691541,
            55.5766286
          ],
          [
            37.469393,
            55.576835
          ],
          [
            37.4696681,
            55.5770304
          ],
          [
            37.4699777,
            55.5772123
          ],
          [
            37.4703078,
            55.5773731
          ],
          [
            37.4706852,
            55.5775242
          ],
          [
            37.471046,
            55.5776419
          ],
          [
            37.472111,
            55.5779881
          ],
          [
            37.4725547,
            55.5781438
          ],
          [
            37.4730238,
            55.5783552
          ],
          [
            37.4734475,
            55.5786019
          ],
          [
            37.4738145,
            55.5788792
          ],
          [
            37.4741151,
            55.5791804
          ],
          [
            37.4743393,
            55.5794914
          ],
          [
            37.4744919,
            55.5798124
          ],
          [
            37.4745744,
            55.5801478
          ],
          [
            37.474582,
            55.5804823
          ],
          [
            37.4744775,
            55.5814363
          ],
          [
            37.4744673,
            55.5818801
          ],
          [
            37.4745452,
            55.5823184
          ],
          [
            37.4747173,
            55.5827636
          ],
          [
            37.4749735,
            55.5831856
          ],
          [
            37.4786878,
            55.5887643
          ],
          [
            37.4789484,
            55.5891967
          ],
          [
            37.4791433,
            55.5896402
          ],
          [
            37.4792709,
            55.5900914
          ],
          [
            37.4793303,
            55.590547
          ],
          [
            37.4793211,
            55.5910039
          ],
          [
            37.4792435,
            55.5914587
          ],
          [
            37.4790978,
            55.5919081
          ],
          [
            37.4778598,
            55.5949549
          ],
          [
            37.4777426,
            55.5953189
          ],
          [
            37.4776922,
            55.5956878
          ],
          [
            37.4777092,
            55.5960576
          ],
          [
            37.4777934,
            55.5964245
          ],
          [
            37.477944,
            55.5967845
          ],
          [
            37.4781593,
            55.5971339
          ],
          [
            37.4790981,
            55.5983698
          ],
          [
            37.480133,
            55.5997186
          ],
          [
            37.480309,
            55.5999352
          ],
          [
            37.4805099,
            55.6001446
          ],
          [
            37.480737,
            55.6003432
          ],
          [
            37.4820662,
            55.6013695
          ],
          [
            37.4822841,
            55.6015521
          ],
          [
            37.48248,
            55.6017399
          ],
          [
            37.4827098,
            55.6020004
          ],
          [
            37.4828839,
            55.6022424
          ],
          [
            37.4842277,
            55.6044987
          ],
          [
            37.4846133,
            55.6050559
          ],
          [
            37.4861871,
            55.6070205
          ],
          [
            37.4870351,
            55.6079424
          ],
          [
            37.4880386,
            55.6091535
          ],
          [
            37.4882591,
            55.6094639
          ],
          [
            37.4884442,
            55.6097801
          ],
          [
            37.4885953,
            55.610104
          ],
          [
            37.4887104,
            55.6104326
          ],
          [
            37.488788,
            55.6107586
          ],
          [
            37.4888303,
            55.6110856
          ],
          [
            37.4888371,
            55.6114153
          ],
          [
            37.4888082,
            55.6117449
          ],
          [
            37.488745,
            55.6120677
          ],
          [
            37.4886473,
            55.6123882
          ],
          [
            37.4885155,
            55.6127049
          ],
          [
            37.4883508,
            55.6130152
          ],
          [
            37.4881525,
            55.6133207
          ],
          [
            37.4879238,
            55.6136166
          ],
          [
            37.4876657,
            55.6139027
          ],
          [
            37.487378,
            55.6141794
          ],
          [
            37.4855904,
            55.6157507
          ],
          [
            37.484659,
            55.6165694
          ],
          [
            37.484256,
            55.6169002
          ],
          [
            37.4838306,
            55.6172164
          ],
          [
            37.4823867,
            55.6182372
          ],
          [
            37.4811766,
            55.6190927
          ],
          [
            37.4798025,
            55.6200639
          ],
          [
            37.4794518,
            55.6203521
          ],
          [
            37.4791124,
            55.6207039
          ],
          [
            37.4788449,
            55.6210712
          ],
          [
            37.4786538,
            55.6214489
          ],
          [
            37.478539,
            55.6218326
          ],
          [
            37.4784997,
            55.6222165
          ],
          [
            37.4785341,
            55.6225977
          ],
          [
            37.4786437,
            55.6229812
          ],
          [
            37.4787066,
            55.6231093
          ],
          [
            37.4788276,
            55.623356
          ],
          [
            37.4790849,
            55.623719
          ],
          [
            37.4791962,
            55.6238361
          ],
          [
            37.4794191,
            55.6240705
          ],
          [
            37.4798185,
            55.6243964
          ],
          [
            37.4803015,
            55.6247072
          ],
          [
            37.4808354,
            55.6249987
          ],
          [
            37.4814216,
            55.625243
          ],
          [
            37.4820888,
            55.6254505
          ],
          [
            37.4827411,
            55.6256004
          ],
          [
            37.485809,
            55.6261325
          ],
          [
            37.488398,
            55.6265809
          ],
          [
            37.488909,
            55.6266937
          ],
          [
            37.4894012,
            55.6268325
          ],
          [
            37.4898716,
            55.627
          ],
          [
            37.4903153,
            55.6271958
          ],
          [
            37.4907232,
            55.627417
          ],
          [
            37.4910911,
            55.6276617
          ],
          [
            37.4914174,
            55.6279307
          ],
          [
            37.4916944,
            55.6282195
          ],
          [
            37.491888,
            55.6284787
          ],
          [
            37.4920405,
            55.6287484
          ],
          [
            37.4921486,
            55.6290221
          ],
          [
            37.4922127,
            55.629299
          ],
          [
            37.492233,
            55.6295729
          ],
          [
            37.4922109,
            55.6298473
          ],
          [
            37.4921465,
            55.6301187
          ],
          [
            37.4920412,
            55.6303846
          ],
          [
            37.490859,
            55.6327685
          ],
          [
            37.4907195,
            55.6331077
          ],
          [
            37.4906275,
            55.6334504
          ],
          [
            37.4905828,
            55.6337965
          ],
          [
            37.4905859,
            55.6341431
          ],
          [
            37.4906354,
            55.6344831
          ],
          [
            37.4907313,
            55.6348214
          ],
          [
            37.4908738,
            55.6351565
          ],
          [
            37.491062,
            55.6354849
          ],
          [
            37.4916424,
            55.636367
          ],
          [
            37.4919989,
            55.6368229
          ],
          [
            37.4924497,
            55.6372586
          ],
          [
            37.4929781,
            55.6376581
          ],
          [
            37.4935827,
            55.6380218
          ],
          [
            37.4949772,
            55.6387555
          ],
          [
            37.4955057,
            55.6390491
          ],
          [
            37.4960068,
            55.6393549
          ],
          [
            37.4964846,
            55.6396756
          ],
          [
            37.4969327,
            55.640007
          ],
          [
            37.5003837,
            55.6427099
          ],
          [
            37.5049518,
            55.6461653
          ],
          [
            37.5072508,
            55.6478912
          ],
          [
            37.5101117,
            55.6500388
          ],
          [
            37.5110675,
            55.6507306
          ],
          [
            37.511371,
            55.6509823
          ],
          [
            37.5115867,
            55.6511947
          ],
          [
            37.5117733,
            55.6514114
          ],
          [
            37.5119352,
            55.6516373
          ],
          [
            37.5120601,
            55.6518508
          ],
          [
            37.5121621,
            55.6520714
          ],
          [
            37.5122369,
            55.652288
          ],
          [
            37.512289,
            55.6525135
          ],
          [
            37.5123151,
            55.6527336
          ],
          [
            37.5123168,
            55.6529603
          ],
          [
            37.5122955,
            55.6531703
          ],
          [
            37.5122446,
            55.653408
          ],
          [
            37.5121685,
            55.653636
          ],
          [
            37.5120701,
            55.6538533
          ],
          [
            37.5119538,
            55.654057
          ],
          [
            37.511816,
            55.6542565
          ],
          [
            37.5077868,
            55.659402
          ],
          [
            37.507589,
            55.6596941
          ],
          [
            37.5074284,
            55.6599923
          ],
          [
            37.5073051,
            55.6602955
          ],
          [
            37.5072197,
            55.6606015
          ],
          [
            37.5071722,
            55.6609101
          ],
          [
            37.5071625,
            55.6612179
          ],
          [
            37.5071904,
            55.6615255
          ],
          [
            37.5072562,
            55.6618327
          ],
          [
            37.5073585,
            55.6621342
          ],
          [
            37.5074983,
            55.6624331
          ],
          [
            37.5076776,
            55.6627305
          ],
          [
            37.5078943,
            55.6630217
          ],
          [
            37.5081563,
            55.6633123
          ],
          [
            37.5084568,
            55.6635931
          ],
          [
            37.5087886,
            55.6638575
          ],
          [
            37.509158,
            55.6641106
          ]
        ]
      }
    },
    {
      "type": "Feature",
      "properties": {
        "id": "moscow_kommunarka_+0_+0_dfe1bde7_osm_way_1415601039_33",
        "object_type": "restriction",
        "restriction_type": "road",
        "name": "Проектируемый проезд № 7051",
        "osm_kind": "major_road",
        "osm_id": 1415601039,
        "osm_type": "way",
        "osm_tags": {
          "highway": "secondary",
          "name": "Проектируемый проезд № 7051"
        },
        "case_id": "moscow_kommunarka_+0_+0_dfe1bde7"
      },
      "geometry": {
        "type": "LineString",
        "coordinates": [
          [
            37.4680267,
            55.5636192
          ],
          [
            37.4683095,
            55.5639275
          ],
          [
            37.4686056,
            55.5642738
          ],
          [
            37.4690459,
            55.564804
          ],
          [
            37.4693085,
            55.5651752
          ],
          [
            37.4694875,
            55.565479
          ],
          [
            37.4695474,
            55.5655958
          ],
          [
            37.4696305,
            55.5657926
          ],
          [
            37.4696908,
            55.565968
          ],
          [
            37.4697313,
            55.5661433
          ],
          [
            37.4697714,
            55.5663843
          ],
          [
            37.4697956,
            55.5667265
          ],
          [
            37.4697815,
            55.5669481
          ],
          [
            37.4697457,
            55.5671533
          ],
          [
            37.4696902,
            55.5673365
          ],
          [
            37.469602,
            55.567578
          ],
          [
            37.4694318,
            55.5679749
          ],
          [
            37.4694002,
            55.5680485
          ],
          [
            37.469206,
            55.568512
          ],
          [
            37.4681186,
            55.571104
          ],
          [
            37.4681017,
            55.5711564
          ],
          [
            37.4680681,
            55.5712654
          ],
          [
            37.4680406,
            55.5713542
          ],
          [
            37.4679481,
            55.5716545
          ],
          [
            37.4679384,
            55.571686
          ],
          [
            37.4678534,
            55.5719802
          ],
          [
            37.4677938,
            55.5722179
          ],
          [
            37.4677558,
            55.5724116
          ],
          [
            37.467734,
            55.5726257
          ],
          [
            37.4677333,
            55.5728217
          ],
          [
            37.4677424,
            55.5730052
          ],
          [
            37.4677552,
            55.5732227
          ],
          [
            37.4677822,
            55.5734243
          ],
          [
            37.4678808,
            55.5738103
          ],
          [
            37.4679358,
            55.5739988
          ],
          [
            37.467953,
            55.5740577
          ],
          [
            37.468098,
            55.5744135
          ]
        ]
      }
    },
    {
      "type": "Feature",
      "properties": {
        "id": "moscow_kommunarka_+0_+0_dfe1bde7_osm_way_1423538741_34",
        "object_type": "restriction",
        "restriction_type": "road",
        "name": "",
        "osm_kind": "road",
        "osm_id": 1423538741,
        "osm_type": "way",
        "osm_tags": {
          "highway": "tertiary"
        },
        "case_id": "moscow_kommunarka_+0_+0_dfe1bde7"
      },
      "geometry": {
        "type": "LineString",
        "coordinates": [
          [
            37.470501,
            55.5657614
          ],
          [
            37.4702601,
            55.5660411
          ],
          [
            37.4701117,
            55.566199
          ],
          [
            37.4699947,
            55.5663508
          ],
          [
            37.4698875,
            55.5665212
          ],
          [
            37.4697956,
            55.5667265
          ]
        ]
      }
    },
    {
      "type": "Feature",
      "properties": {
        "id": "moscow_kommunarka_+0_+0_dfe1bde7_osm_way_1423538743_35",
        "object_type": "restriction",
        "restriction_type": "road",
        "name": "",
        "osm_kind": "road",
        "osm_id": 1423538743,
        "osm_type": "way",
        "osm_tags": {
          "highway": "tertiary"
        },
        "case_id": "moscow_kommunarka_+0_+0_dfe1bde7"
      },
      "geometry": {
        "type": "LineString",
        "coordinates": [
          [
            37.4695474,
            55.5655958
          ],
          [
            37.4696498,
            55.5657025
          ],
          [
            37.4697337,
            55.5657745
          ],
          [
            37.4697945,
            55.565809
          ],
          [
            37.4698613,
            55.5658363
          ],
          [
            37.4699373,
            55.5658567
          ],
          [
            37.4700201,
            55.5658661
          ],
          [
            37.4701078,
            55.5658681
          ],
          [
            37.4702077,
            55.5658593
          ],
          [
            37.4703024,
            55.565839
          ],
          [
            37.4703631,
            55.565818
          ],
          [
            37.470501,
            55.5657614
          ]
        ]
      }
    },
    {
      "type": "Feature",
      "properties": {
        "id": "moscow_kommunarka_+0_+0_dfe1bde7_osm_way_1469768718_36",
        "object_type": "restriction",
        "restriction_type": "road",
        "name": "",
        "osm_kind": "road",
        "osm_id": 1469768718,
        "osm_type": "way",
        "osm_tags": {
          "highway": "service"
        },
        "case_id": "moscow_kommunarka_+0_+0_dfe1bde7"
      },
      "geometry": {
        "type": "LineString",
        "coordinates": [
          [
            37.4706294,
            55.5667531
          ],
          [
            37.4711294,
            55.5667365
          ],
          [
            37.4711977,
            55.5667342
          ],
          [
            37.4712312,
            55.5667279
          ],
          [
            37.4712511,
            55.5667126
          ],
          [
            37.4712546,
            55.5666928
          ],
          [
            37.4712302,
            55.5664698
          ],
          [
            37.4712636,
            55.5662708
          ],
          [
            37.4712424,
            55.5660587
          ],
          [
            37.4712477,
            55.5660377
          ],
          [
            37.4713893,
            55.5659036
          ],
          [
            37.4714176,
            55.5658956
          ],
          [
            37.4714512,
            55.5658976
          ],
          [
            37.4718317,
            55.5660227
          ],
          [
            37.4718865,
            55.5660327
          ],
          [
            37.4721153,
            55.5660255
          ]
        ]
      }
    },
    {
      "type": "Feature",
      "properties": {
        "id": "moscow_kommunarka_+0_+0_dfe1bde7_osm_way_1469768719_37",
        "object_type": "restriction",
        "restriction_type": "road",
        "name": "",
        "osm_kind": "road",
        "osm_id": 1469768719,
        "osm_type": "way",
        "osm_tags": {
          "highway": "service"
        },
        "case_id": "moscow_kommunarka_+0_+0_dfe1bde7"
      },
      "geometry": {
        "type": "LineString",
        "coordinates": [
          [
            37.4712302,
            55.5664698
          ],
          [
            37.470602,
            55.5664897
          ]
        ]
      }
    },
    {
      "type": "Feature",
      "properties": {
        "id": "moscow_kommunarka_+0_+0_dfe1bde7_osm_way_1469768720_38",
        "object_type": "restriction",
        "restriction_type": "road",
        "name": "",
        "osm_kind": "road",
        "osm_id": 1469768720,
        "osm_type": "way",
        "osm_tags": {
          "highway": "service"
        },
        "case_id": "moscow_kommunarka_+0_+0_dfe1bde7"
      },
      "geometry": {
        "type": "LineString",
        "coordinates": [
          [
            37.4706294,
            55.5667531
          ],
          [
            37.470602,
            55.5664897
          ],
          [
            37.4705544,
            55.5660321
          ],
          [
            37.4706537,
            55.5659264
          ],
          [
            37.4710671,
            55.5655395
          ],
          [
            37.4713002,
            55.5653529
          ],
          [
            37.4714812,
            55.5652415
          ],
          [
            37.4715736,
            55.5651847
          ]
        ]
      }
    },
    {
      "type": "Feature",
      "properties": {
        "id": "moscow_kommunarka_+0_+0_dfe1bde7_osm_way_1469768721_39",
        "object_type": "restriction",
        "restriction_type": "road",
        "name": "",
        "osm_kind": "road",
        "osm_id": 1469768721,
        "osm_type": "way",
        "osm_tags": {
          "highway": "service"
        },
        "case_id": "moscow_kommunarka_+0_+0_dfe1bde7"
      },
      "geometry": {
        "type": "LineString",
        "coordinates": [
          [
            37.4706861,
            55.5685552
          ],
          [
            37.4698359,
            55.5685594
          ],
          [
            37.4698313,
            55.5682602
          ],
          [
            37.469838,
            55.5682369
          ],
          [
            37.469852,
            55.5682244
          ],
          [
            37.4698589,
            55.5682183
          ],
          [
            37.469897,
            55.5682047
          ],
          [
            37.4699444,
            55.5681998
          ],
          [
            37.4699807,
            55.5681996
          ]
        ]
      }
    },
    {
      "type": "Feature",
      "properties": {
        "id": "moscow_kommunarka_+0_+0_dfe1bde7_osm_way_1469768722_40",
        "object_type": "restriction",
        "restriction_type": "road",
        "name": "",
        "osm_kind": "road",
        "osm_id": 1469768722,
        "osm_type": "way",
        "osm_tags": {
          "highway": "service"
        },
        "case_id": "moscow_kommunarka_+0_+0_dfe1bde7"
      },
      "geometry": {
        "type": "LineString",
        "coordinates": [
          [
            37.4699807,
            55.5681996
          ],
          [
            37.4706806,
            55.5681961
          ],
          [
            37.4706847,
            55.5684625
          ],
          [
            37.4706861,
            55.5685552
          ]
        ]
      }
    },
    {
      "type": "Feature",
      "properties": {
        "id": "moscow_kommunarka_+0_+0_dfe1bde7_osm_way_1469768724_41",
        "object_type": "restriction",
        "restriction_type": "road",
        "name": "",
        "osm_kind": "road",
        "osm_id": 1469768724,
        "osm_type": "way",
        "osm_tags": {
          "highway": "service"
        },
        "case_id": "moscow_kommunarka_+0_+0_dfe1bde7"
      },
      "geometry": {
        "type": "LineString",
        "coordinates": [
          [
            37.4699807,
            55.5681996
          ],
          [
            37.4699769,
            55.5681166
          ]
        ]
      }
    },
    {
      "type": "Feature",
      "properties": {
        "id": "moscow_kommunarka_+0_+0_dfe1bde7_osm_way_1470036092_42",
        "object_type": "restriction",
        "restriction_type": "road",
        "name": "",
        "osm_kind": "road",
        "osm_id": 1470036092,
        "osm_type": "way",
        "osm_tags": {
          "highway": "footway"
        },
        "case_id": "moscow_kommunarka_+0_+0_dfe1bde7"
      },
      "geometry": {
        "type": "LineString",
        "coordinates": [
          [
            37.4689975,
            55.5679925
          ],
          [
            37.4691742,
            55.5680171
          ],
          [
            37.4694002,
            55.5680485
          ],
          [
            37.4695658,
            55.5680716
          ]
        ]
      }
    },
    {
      "type": "Feature",
      "properties": {
        "id": "moscow_kommunarka_+0_+0_dfe1bde7_osm_way_1471831216_43",
        "object_type": "restriction",
        "restriction_type": "road",
        "name": "Проектируемый проезд № 7051",
        "osm_kind": "major_road",
        "osm_id": 1471831216,
        "osm_type": "way",
        "osm_tags": {
          "highway": "secondary",
          "name": "Проектируемый проезд № 7051"
        },
        "case_id": "moscow_kommunarka_+0_+0_dfe1bde7"
      },
      "geometry": {
        "type": "LineString",
        "coordinates": [
          [
            37.4687885,
            55.5689262
          ],
          [
            37.4691414,
            55.5680943
          ],
          [
            37.4691742,
            55.5680171
          ],
          [
            37.4692947,
            55.567733
          ],
          [
            37.4693696,
            55.5675565
          ],
          [
            37.469453,
            55.5673126
          ],
          [
            37.4695058,
            55.5670876
          ],
          [
            37.4695339,
            55.5668907
          ],
          [
            37.4695273,
            55.5666933
          ],
          [
            37.4695143,
            55.5665049
          ],
          [
            37.4694947,
            55.5663436
          ],
          [
            37.4694616,
            55.5661488
          ],
          [
            37.4694147,
            55.5659571
          ],
          [
            37.4693721,
            55.5658209
          ],
          [
            37.4693141,
            55.565676
          ],
          [
            37.4692217,
            55.5654959
          ],
          [
            37.4690922,
            55.5652748
          ],
          [
            37.4688917,
            55.5649627
          ],
          [
            37.4685558,
            55.5645157
          ],
          [
            37.4682077,
            55.5640619
          ],
          [
            37.4678578,
            55.563669
          ]
        ]
      }
    },
    {
      "type": "Feature",
      "properties": {
        "id": "moscow_kommunarka_+0_+0_dfe1bde7_osm_way_1553483263_44",
        "object_type": "restriction",
        "restriction_type": "road",
        "name": "",
        "osm_kind": "road",
        "osm_id": 1553483263,
        "osm_type": "way",
        "osm_tags": {
          "highway": "footway"
        },
        "case_id": "moscow_kommunarka_+0_+0_dfe1bde7"
      },
      "geometry": {
        "type": "LineString",
        "coordinates": [
          [
            37.4706824,
            55.5770124
          ],
          [
            37.4703907,
            55.5768655
          ],
          [
            37.4700936,
            55.5767035
          ],
          [
            37.4697771,
            55.5765095
          ],
          [
            37.4695491,
            55.5763381
          ],
          [
            37.4693292,
            55.5761501
          ],
          [
            37.4691441,
            55.5759515
          ],
          [
            37.4689939,
            55.5757528
          ],
          [
            37.4688556,
            55.5754977
          ],
          [
            37.4685371,
            55.5748754
          ],
          [
            37.4682716,
            55.5744012
          ],
          [
            37.4681265,
            55.5741111
          ],
          [
            37.4680593,
            55.573923
          ],
          [
            37.4680475,
            55.5738778
          ],
          [
            37.4679885,
            55.5736509
          ],
          [
            37.4679035,
            55.5733248
          ],
          [
            37.4678823,
            55.5730506
          ],
          [
            37.4678788,
            55.5727805
          ],
          [
            37.4678894,
            55.5725424
          ],
          [
            37.4679248,
            55.5723303
          ],
          [
            37.4680026,
            55.5719961
          ],
          [
            37.4681883,
            55.5713718
          ],
          [
            37.4682145,
            55.571284
          ],
          [
            37.4682559,
            55.5711748
          ],
          [
            37.4684804,
            55.5705834
          ],
          [
            37.4688167,
            55.569807
          ],
          [
            37.469213,
            55.5688825
          ],
          [
            37.4693022,
            55.5686762
          ],
          [
            37.4694785,
            55.5682682
          ],
          [
            37.4695372,
            55.5681361
          ],
          [
            37.4695658,
            55.5680716
          ],
          [
            37.4696625,
            55.5678539
          ],
          [
            37.4698006,
            55.5675318
          ],
          [
            37.4698784,
            55.5673056
          ],
          [
            37.4699209,
            55.5671135
          ],
          [
            37.4699492,
            55.5669054
          ],
          [
            37.4699669,
            55.5666752
          ],
          [
            37.4699846,
            55.5665512
          ],
          [
            37.4700448,
            55.5664091
          ],
          [
            37.4701332,
            55.566293
          ],
          [
            37.4704341,
            55.5659668
          ],
          [
            37.4707137,
            55.5657306
          ],
          [
            37.4710074,
            55.5655085
          ],
          [
            37.4714049,
            55.5652455
          ],
          [
            37.4714478,
            55.5652364
          ],
          [
            37.4714812,
            55.5652415
          ]
        ]
      }
    },
    {
      "type": "Feature",
      "properties": {
        "id": "moscow_kommunarka_+0_+0_dfe1bde7_osm_way_1553483264_45",
        "object_type": "restriction",
        "restriction_type": "road",
        "name": "",
        "osm_kind": "road",
        "osm_id": 1553483264,
        "osm_type": "way",
        "osm_tags": {
          "highway": "footway"
        },
        "case_id": "moscow_kommunarka_+0_+0_dfe1bde7"
      },
      "geometry": {
        "type": "LineString",
        "coordinates": [
          [
            37.4673899,
            55.5647678
          ],
          [
            37.4679496,
            55.5646162
          ],
          [
            37.4681041,
            55.5646392
          ],
          [
            37.4682423,
            55.564676
          ],
          [
            37.4683886,
            55.564738
          ],
          [
            37.4685391,
            55.5648254
          ],
          [
            37.4686651,
            55.5649219
          ],
          [
            37.4687952,
            55.5650852
          ],
          [
            37.4689619,
            55.5653403
          ],
          [
            37.4691164,
            55.5656093
          ],
          [
            37.4692099,
            55.56583
          ],
          [
            37.469283,
            55.5660553
          ],
          [
            37.469344,
            55.5663633
          ],
          [
            37.4693603,
            55.566653
          ],
          [
            37.4693481,
            55.5669679
          ],
          [
            37.4692912,
            55.5672346
          ],
          [
            37.4691936,
            55.5675145
          ],
          [
            37.4691814,
            55.5675495
          ],
          [
            37.4689975,
            55.5679925
          ],
          [
            37.468634,
            55.5688681
          ],
          [
            37.4684355,
            55.5691927
          ],
          [
            37.4681458,
            55.5696294
          ],
          [
            37.4680482,
            55.5697972
          ],
          [
            37.4679669,
            55.5699696
          ],
          [
            37.4675617,
            55.5710918
          ],
          [
            37.4674906,
            55.5712885
          ],
          [
            37.4674743,
            55.5713336
          ],
          [
            37.4671739,
            55.5722617
          ],
          [
            37.4671095,
            55.5725043
          ],
          [
            37.4670613,
            55.5727833
          ],
          [
            37.4670398,
            55.5730805
          ],
          [
            37.467062,
            55.5733571
          ],
          [
            37.4670666,
            55.5734142
          ],
          [
            37.4671149,
            55.5737235
          ],
          [
            37.4672007,
            55.5740086
          ],
          [
            37.4673188,
            55.5743058
          ],
          [
            37.4674904,
            55.5746242
          ],
          [
            37.4682951,
            55.576001
          ],
          [
            37.4684936,
            55.5762497
          ],
          [
            37.468692,
            55.576468
          ],
          [
            37.4689603,
            55.5767046
          ],
          [
            37.4692446,
            55.5769199
          ],
          [
            37.4696308,
            55.5771837
          ],
          [
            37.4699205,
            55.5773505
          ],
          [
            37.4702891,
            55.5775281
          ]
        ]
      }
    },
    {
      "type": "Feature",
      "properties": {
        "id": "moscow_kommunarka_+0_+0_dfe1bde7_osm_way_1553483265_46",
        "object_type": "restriction",
        "restriction_type": "road",
        "name": "",
        "osm_kind": "road",
        "osm_id": 1553483265,
        "osm_type": "way",
        "osm_tags": {
          "highway": "footway"
        },
        "case_id": "moscow_kommunarka_+0_+0_dfe1bde7"
      },
      "geometry": {
        "type": "LineString",
        "coordinates": [
          [
            37.4680643,
            55.5673667
          ],
          [
            37.4691936,
            55.5675145
          ]
        ]
      }
    },
    {
      "type": "Feature",
      "properties": {
        "id": "moscow_kommunarka_+0_+0_dfe1bde7_source",
        "object_type": "source",
        "case_id": "moscow_kommunarka_+0_+0_dfe1bde7"
      },
      "geometry": {
        "type": "Point",
        "coordinates": [
          37.46793473333333,
          55.567
        ]
      }
    },
    {
      "type": "Feature",
      "properties": {
        "id": "moscow_kommunarka_+0_+0_dfe1bde7_existing_network",
        "object_type": "heat_network",
        "diameter": 500,
        "flow_tph": 180.0,
        "upstream_object_id": "moscow_kommunarka_+0_+0_dfe1bde7_source",
        "case_id": "moscow_kommunarka_+0_+0_dfe1bde7"
      },
      "geometry": {
        "type": "LineString",
        "coordinates": [
          [
            37.46793473333333,
            55.567
          ],
          [
            37.4690468,
            55.567
          ]
        ]
      }
    },
    {
      "type": "Feature",
      "properties": {
        "id": "moscow_kommunarka_+0_+0_dfe1bde7_existing_chamber",
        "object_type": "heat_chamber",
        "diameter": 500,
        "upstream_object_id": "moscow_kommunarka_+0_+0_dfe1bde7_source",
        "case_id": "moscow_kommunarka_+0_+0_dfe1bde7"
      },
      "geometry": {
        "type": "Point",
        "coordinates": [
          37.4690468,
          55.567
        ]
      }
    },
    {
      "type": "Feature",
      "properties": {
        "id": "moscow_kommunarka_+0_+0_dfe1bde7_cp_1",
        "object_type": "oks_connection_point",
        "flow_tph": 5.0,
        "case_id": "moscow_kommunarka_+0_+0_dfe1bde7",
        "consumer_role": "osm_building_heat_demand_proxy",
        "source_building_osm_id": 366915433,
        "source_building_osm_type": "way",
        "source_building_name": "Дикси",
        "source_building_tags": {
          "building": "retail",
          "name": "Дикси"
        },
        "footprint_area_m2": 454.51,
        "flow_basis": "synthetic_proxy_from_osm_footprint_area",
        "stress_bucket": ""
      },
      "geometry": {
        "type": "Point",
        "coordinates": [
          37.47181580474934,
          55.56629645391794
        ]
      }
    },
    {
      "type": "Feature",
      "properties": {
        "id": "moscow_kommunarka_+0_+0_dfe1bde7_cp_2",
        "object_type": "oks_connection_point",
        "flow_tph": 10.4,
        "case_id": "moscow_kommunarka_+0_+0_dfe1bde7",
        "consumer_role": "osm_building_heat_demand_proxy",
        "source_building_osm_id": 248696057,
        "source_building_osm_type": "way",
        "source_building_name": "",
        "source_building_tags": {
          "building": "yes"
        },
        "footprint_area_m2": 1040.04,
        "flow_basis": "synthetic_proxy_from_osm_footprint_area",
        "stress_bucket": ""
      },
      "geometry": {
        "type": "Point",
        "coordinates": [
          37.471832987815816,
          55.567390327977826
        ]
      }
    },
    {
      "type": "Feature",
      "properties": {
        "id": "moscow_kommunarka_+0_+0_dfe1bde7_cp_3",
        "object_type": "oks_connection_point",
        "flow_tph": 8.498,
        "case_id": "moscow_kommunarka_+0_+0_dfe1bde7",
        "consumer_role": "osm_building_heat_demand_proxy",
        "source_building_osm_id": 238308985,
        "source_building_osm_type": "way",
        "source_building_name": "",
        "source_building_tags": {
          "building": "apartments"
        },
        "footprint_area_m2": 849.81,
        "flow_basis": "synthetic_proxy_from_osm_footprint_area",
        "stress_bucket": ""
      },
      "geometry": {
        "type": "Point",
        "coordinates": [
          37.471618208481544,
          55.56784919132112
        ]
      }
    }
  ]
}