{
  "type": "FeatureCollection",
  "name": "moscow_kommunarka_+2_+0_15b1ee4f",
  "crs": {
    "type": "name",
    "properties": {
      "name": "EPSG:4326"
    }
  },
  "metadata": {
    "dataset_version": "osm_building_anchored_routing_scenes_v3",
    "parent_scene_id": "moscow_kommunarka_+2_+0_15b1ee4f",
    "split": "validation",
    "city": "Москва Коммунарка",
    "seed": "moscow_kommunarka",
    "research_bucket": "refusal",
    "source_research_bucket": "refusal",
    "research_bucket_is_ground_truth": false,
    "bbox_south_west_north_east": [
      55.5809238,
      37.467616,
      55.5836188,
      37.472384
    ],
    "real_data_source": "OpenStreetMap via Overpass API",
    "source_file": "data/real_geojson_places/refusal/088_moscow_kommunarka_+2_+0_15b1ee4f.geojson",
    "real_layers": [
      "restrictions",
      "consumer_building_footprints"
    ],
    "synthetic_layers": [
      "source",
      "heat_network",
      "heat_chamber",
      "heat_demand"
    ],
    "consumer_selection": "deterministic points inside real OSM building footprints",
    "flow_model": "synthetic proxy derived from building footprint area; not metered demand",
    "note": "OSM buildings anchor consumers; heat demand and seed network are synthetic proxies."
  },
  "features": [
    {
      "type": "Feature",
      "properties": {
        "id": "moscow_kommunarka_+2_+0_15b1ee4f_osm_way_125114720_1",
        "object_type": "restriction",
        "restriction_type": "road",
        "name": "",
        "osm_kind": "road",
        "osm_id": 125114720,
        "osm_type": "way",
        "osm_tags": {
          "highway": "service"
        },
        "case_id": "moscow_kommunarka_+2_+0_15b1ee4f"
      },
      "geometry": {
        "type": "LineString",
        "coordinates": [
          [
            37.4698526,
            55.5848465
          ],
          [
            37.4692553,
            55.5838991
          ],
          [
            37.4688101,
            55.5834793
          ],
          [
            37.4675427,
            55.5825461
          ],
          [
            37.4663215,
            55.5816201
          ],
          [
            37.4661099,
            55.581394
          ],
          [
            37.4659323,
            55.5812879
          ],
          [
            37.4658063,
            55.5812617
          ]
        ]
      }
    },
    {
      "type": "Feature",
      "properties": {
        "id": "moscow_kommunarka_+2_+0_15b1ee4f_osm_way_209965926_2",
        "object_type": "restriction",
        "restriction_type": "road",
        "name": "Калужское шоссе (дублёр)",
        "osm_kind": "major_road",
        "osm_id": 209965926,
        "osm_type": "way",
        "osm_tags": {
          "highway": "secondary",
          "name": "Калужское шоссе (дублёр)"
        },
        "case_id": "moscow_kommunarka_+2_+0_15b1ee4f"
      },
      "geometry": {
        "type": "LineString",
        "coordinates": [
          [
            37.4679969,
            55.581465
          ],
          [
            37.4685349,
            55.5818477
          ],
          [
            37.4690602,
            55.5822392
          ]
        ]
      }
    },
    {
      "type": "Feature",
      "properties": {
        "id": "moscow_kommunarka_+2_+0_15b1ee4f_osm_way_252185762_3",
        "object_type": "restriction",
        "restriction_type": "road",
        "name": "",
        "osm_kind": "road",
        "osm_id": 252185762,
        "osm_type": "way",
        "osm_tags": {
          "highway": "service"
        },
        "case_id": "moscow_kommunarka_+2_+0_15b1ee4f"
      },
      "geometry": {
        "type": "LineString",
        "coordinates": [
          [
            37.4698328,
            55.5791949
          ],
          [
            37.4699828,
            55.5792701
          ],
          [
            37.4717873,
            55.580541
          ],
          [
            37.4714057,
            55.5813021
          ],
          [
            37.4730361,
            55.5825891
          ],
          [
            37.4720553,
            55.5829385
          ],
          [
            37.4711968,
            55.5828839
          ],
          [
            37.4707601,
            55.5828622
          ],
          [
            37.470607,
            55.5828011
          ],
          [
            37.4697908,
            55.5822451
          ],
          [
            37.4698068,
            55.5820829
          ],
          [
            37.4695554,
            55.5819175
          ],
          [
            37.469382,
            55.5819888
          ],
          [
            37.4687639,
            55.5815503
          ],
          [
            37.468931,
            55.5814754
          ],
          [
            37.4684958,
            55.5811475
          ],
          [
            37.4684867,
            55.5810777
          ]
        ]
      }
    },
    {
      "type": "Feature",
      "properties": {
        "id": "moscow_kommunarka_+2_+0_15b1ee4f_osm_way_252185767_4",
        "object_type": "restriction",
        "restriction_type": "road",
        "name": "",
        "osm_kind": "road",
        "osm_id": 252185767,
        "osm_type": "way",
        "osm_tags": {
          "highway": "service"
        },
        "case_id": "moscow_kommunarka_+2_+0_15b1ee4f"
      },
      "geometry": {
        "type": "LineString",
        "coordinates": [
          [
            37.4698068,
            55.5820829
          ],
          [
            37.4698393,
            55.5818997
          ],
          [
            37.4701237,
            55.5817486
          ]
        ]
      }
    },
    {
      "type": "Feature",
      "properties": {
        "id": "moscow_kommunarka_+2_+0_15b1ee4f_osm_way_252185768_5",
        "object_type": "restriction",
        "restriction_type": "road",
        "name": "",
        "osm_kind": "road",
        "osm_id": 252185768,
        "osm_type": "way",
        "osm_tags": {
          "highway": "service"
        },
        "case_id": "moscow_kommunarka_+2_+0_15b1ee4f"
      },
      "geometry": {
        "type": "LineString",
        "coordinates": [
          [
            37.4686973,
            55.5807818
          ],
          [
            37.4701237,
            55.5817486
          ],
          [
            37.470088,
            55.582089
          ],
          [
            37.4711968,
            55.5828839
          ]
        ]
      }
    },
    {
      "type": "Feature",
      "properties": {
        "id": "moscow_kommunarka_+2_+0_15b1ee4f_osm_way_252185772_6",
        "object_type": "restriction",
        "restriction_type": "road",
        "name": "",
        "osm_kind": "road",
        "osm_id": 252185772,
        "osm_type": "way",
        "osm_tags": {
          "highway": "service"
        },
        "case_id": "moscow_kommunarka_+2_+0_15b1ee4f"
      },
      "geometry": {
        "type": "LineString",
        "coordinates": [
          [
            37.4684867,
            55.5810777
          ],
          [
            37.4686973,
            55.5807818
          ],
          [
            37.4697741,
            55.5792685
          ],
          [
            37.4698328,
            55.5791949
          ],
          [
            37.4698249,
            55.5791352
          ],
          [
            37.4697431,
            55.5790824
          ]
        ]
      }
    },
    {
      "type": "Feature",
      "properties": {
        "id": "moscow_kommunarka_+2_+0_15b1ee4f_osm_way_252188569_7",
        "object_type": "restriction",
        "restriction_type": "oks",
        "name": "",
        "osm_kind": "building",
        "osm_id": 252188569,
        "osm_type": "way",
        "osm_tags": {
          "building": "office"
        },
        "case_id": "moscow_kommunarka_+2_+0_15b1ee4f"
      },
      "geometry": {
        "type": "Polygon",
        "coordinates": [
          [
            [
              37.4711927,
              55.5809967
            ],
            [
              37.4712202,
              55.5809792
            ],
            [
              37.4713664,
              55.5809975
            ],
            [
              37.47143,
              55.580914
            ],
            [
              37.4715492,
              55.580732
            ],
            [
              37.4715618,
              55.5807025
            ],
            [
              37.4714779,
              55.5806623
            ],
            [
              37.471511,
              55.5806579
            ],
            [
              37.4715331,
              55.5806142
            ],
            [
              37.4714603,
              55.5805684
            ],
            [
              37.4713781,
              55.5805737
            ],
            [
              37.4713817,
              55.5806115
            ],
            [
              37.4713628,
              55.5806115
            ],
            [
              37.4713063,
              55.5805705
            ],
            [
              37.4710602,
              55.5805884
            ],
            [
              37.4710063,
              55.5805534
            ],
            [
              37.4709348,
              55.5805849
            ],
            [
              37.4709781,
              55.5806151
            ],
            [
              37.4708583,
              55.5806263
            ],
            [
              37.4708218,
              55.5806297
            ],
            [
              37.4707818,
              55.5806706
            ],
            [
              37.4710199,
              55.5808644
            ],
            [
              37.4711007,
              55.580925
            ],
            [
              37.4711016,
              55.5809761
            ],
            [
              37.4711927,
              55.5809967
            ]
          ]
        ]
      }
    },
    {
      "type": "Feature",
      "properties": {
        "id": "moscow_kommunarka_+2_+0_15b1ee4f_osm_way_252189481_8",
        "object_type": "restriction",
        "restriction_type": "oks",
        "name": "",
        "osm_kind": "building",
        "osm_id": 252189481,
        "osm_type": "way",
        "osm_tags": {
          "building": "yes"
        },
        "case_id": "moscow_kommunarka_+2_+0_15b1ee4f"
      },
      "geometry": {
        "type": "Polygon",
        "coordinates": [
          [
            [
              37.4725173,
              55.5816007
            ],
            [
              37.4736829,
              55.5810959
            ],
            [
              37.4733329,
              55.5808231
            ],
            [
              37.4721314,
              55.5813076
            ],
            [
              37.4725173,
              55.5816007
            ]
          ]
        ]
      }
    },
    {
      "type": "Feature",
      "properties": {
        "id": "moscow_kommunarka_+2_+0_15b1ee4f_osm_way_312070672_9",
        "object_type": "restriction",
        "restriction_type": "road",
        "name": "Калужское шоссе (дублёр)",
        "osm_kind": "major_road",
        "osm_id": 312070672,
        "osm_type": "way",
        "osm_tags": {
          "highway": "secondary",
          "name": "Калужское шоссе (дублёр)"
        },
        "case_id": "moscow_kommunarka_+2_+0_15b1ee4f"
      },
      "geometry": {
        "type": "LineString",
        "coordinates": [
          [
            37.4704209,
            55.5831772
          ],
          [
            37.470694,
            55.5833806
          ],
          [
            37.4709834,
            55.5835905
          ],
          [
            37.4710477,
            55.583651
          ]
        ]
      }
    },
    {
      "type": "Feature",
      "properties": {
        "id": "moscow_kommunarka_+2_+0_15b1ee4f_osm_way_367894960_10",
        "object_type": "restriction",
        "restriction_type": "road",
        "name": "Калужское шоссе (дублёр)",
        "osm_kind": "major_road",
        "osm_id": 367894960,
        "osm_type": "way",
        "osm_tags": {
          "highway": "secondary",
          "name": "Калужское шоссе (дублёр)"
        },
        "case_id": "moscow_kommunarka_+2_+0_15b1ee4f"
      },
      "geometry": {
        "type": "LineString",
        "coordinates": [
          [
            37.4690602,
            55.5822392
          ],
          [
            37.4704209,
            55.5831772
          ]
        ]
      }
    },
    {
      "type": "Feature",
      "properties": {
        "id": "moscow_kommunarka_+2_+0_15b1ee4f_osm_way_376383817_11",
        "object_type": "restriction",
        "restriction_type": "road",
        "name": "Калужское шоссе (дублёр)",
        "osm_kind": "major_road",
        "osm_id": 376383817,
        "osm_type": "way",
        "osm_tags": {
          "highway": "secondary",
          "name": "Калужское шоссе (дублёр)"
        },
        "case_id": "moscow_kommunarka_+2_+0_15b1ee4f"
      },
      "geometry": {
        "type": "LineString",
        "coordinates": [
          [
            37.4699573,
            55.5836512
          ],
          [
            37.4679545,
            55.5822416
          ],
          [
            37.4677931,
            55.5821177
          ],
          [
            37.4672078,
            55.5816686
          ]
        ]
      }
    },
    {
      "type": "Feature",
      "properties": {
        "id": "moscow_kommunarka_+2_+0_15b1ee4f_osm_way_378663697_12",
        "object_type": "restriction",
        "restriction_type": "road",
        "name": "",
        "osm_kind": "road",
        "osm_id": 378663697,
        "osm_type": "way",
        "osm_tags": {
          "highway": "footway"
        },
        "case_id": "moscow_kommunarka_+2_+0_15b1ee4f"
      },
      "geometry": {
        "type": "LineString",
        "coordinates": [
          [
            37.4710584,
            55.5835619
          ],
          [
            37.4710396,
            55.5835423
          ],
          [
            37.4708366,
            55.5834001
          ],
          [
            37.4694016,
            55.5823406
          ],
          [
            37.46872,
            55.5818153
          ],
          [
            37.468683,
            55.5817818
          ],
          [
            37.4680182,
            55.5813066
          ],
          [
            37.4686327,
            55.5804547
          ],
          [
            37.4689431,
            55.5800607
          ],
          [
            37.4697325,
            55.5790588
          ]
        ]
      }
    },
    {
      "type": "Feature",
      "properties": {
        "id": "moscow_kommunarka_+2_+0_15b1ee4f_osm_way_438015601_13",
        "object_type": "restriction",
        "restriction_type": "road",
        "name": "",
        "osm_kind": "road",
        "osm_id": 438015601,
        "osm_type": "way",
        "osm_tags": {
          "highway": "secondary_link"
        },
        "case_id": "moscow_kommunarka_+2_+0_15b1ee4f"
      },
      "geometry": {
        "type": "LineString",
        "coordinates": [
          [
            37.470694,
            55.5833806
          ],
          [
            37.4707456,
            55.5834532
          ],
          [
            37.4707736,
            55.5835251
          ],
          [
            37.4707514,
            55.5835921
          ],
          [
            37.470665,
            55.5836561
          ],
          [
            37.4705863,
            55.5836906
          ],
          [
            37.4704932,
            55.5837246
          ],
          [
            37.4703851,
            55.5837585
          ],
          [
            37.4703182,
            55.5837666
          ],
          [
            37.4702413,
            55.5837632
          ],
          [
            37.4701305,
            55.5837356
          ],
          [
            37.4699573,
            55.5836512
          ]
        ]
      }
    },
    {
      "type": "Feature",
      "properties": {
        "id": "moscow_kommunarka_+2_+0_15b1ee4f_osm_way_440155115_14",
        "object_type": "restriction",
        "restriction_type": "road",
        "name": "",
        "osm_kind": "road",
        "osm_id": 440155115,
        "osm_type": "way",
        "osm_tags": {
          "highway": "footway"
        },
        "case_id": "moscow_kommunarka_+2_+0_15b1ee4f"
      },
      "geometry": {
        "type": "LineString",
        "coordinates": [
          [
            37.4716635,
            55.5895887
          ],
          [
            37.4724601,
            55.5894491
          ],
          [
            37.4733198,
            55.5892598
          ],
          [
            37.4736952,
            55.5891754
          ],
          [
            37.4739334,
            55.5891229
          ],
          [
            37.4740141,
            55.5890933
          ],
          [
            37.4740908,
            55.5890431
          ],
          [
            37.4740948,
            55.5889998
          ],
          [
            37.4740703,
            55.5889496
          ],
          [
            37.4737591,
            55.5885352
          ],
          [
            37.4736035,
            55.5883927
          ],
          [
            37.4733353,
            55.5880123
          ],
          [
            37.4732944,
            55.5878483
          ],
          [
            37.4716274,
            55.5855091
          ],
          [
            37.4713236,
            55.5850987
          ],
          [
            37.4711273,
            55.5848632
          ],
          [
            37.4707233,
            55.584432
          ],
          [
            37.4702951,
            55.5840646
          ],
          [
            37.470147,
            55.5839375
          ],
          [
            37.4699745,
            55.5838011
          ],
          [
            37.468771,
            55.5829354
          ],
          [
            37.468303,
            55.5826129
          ],
          [
            37.4676151,
            55.5821918
          ],
          [
            37.467485,
            55.5820777
          ],
          [
            37.4667637,
            55.581476
          ],
          [
            37.466412,
            55.5811826
          ],
          [
            37.4663244,
            55.581128
          ],
          [
            37.4663093,
            55.5810787
          ],
          [
            37.4662555,
            55.5810416
          ],
          [
            37.4661809,
            55.5809902
          ],
          [
            37.4661487,
            55.5809681
          ]
        ]
      }
    },
    {
      "type": "Feature",
      "properties": {
        "id": "moscow_kommunarka_+2_+0_15b1ee4f_osm_way_440155117_15",
        "object_type": "restriction",
        "restriction_type": "road",
        "name": "",
        "osm_kind": "road",
        "osm_id": 440155117,
        "osm_type": "way",
        "osm_tags": {
          "highway": "footway"
        },
        "case_id": "moscow_kommunarka_+2_+0_15b1ee4f"
      },
      "geometry": {
        "type": "LineString",
        "coordinates": [
          [
            37.4680182,
            55.5813066
          ],
          [
            37.4678946,
            55.5812273
          ],
          [
            37.4676519,
            55.5810549
          ]
        ]
      }
    },
    {
      "type": "Feature",
      "properties": {
        "id": "moscow_kommunarka_+2_+0_15b1ee4f_osm_way_440155120_16",
        "object_type": "restriction",
        "restriction_type": "road",
        "name": "улица Александры Монаховой",
        "osm_kind": "major_road",
        "osm_id": 440155120,
        "osm_type": "way",
        "osm_tags": {
          "highway": "secondary",
          "name": "улица Александры Монаховой"
        },
        "case_id": "moscow_kommunarka_+2_+0_15b1ee4f"
      },
      "geometry": {
        "type": "LineString",
        "coordinates": [
          [
            37.4682513,
            55.5807345
          ],
          [
            37.4680079,
            55.5810422
          ],
          [
            37.46794,
            55.5811344
          ],
          [
            37.4678946,
            55.5812273
          ],
          [
            37.4679145,
            55.5813186
          ],
          [
            37.4679969,
            55.581465
          ]
        ]
      }
    },
    {
      "type": "Feature",
      "properties": {
        "id": "moscow_kommunarka_+2_+0_15b1ee4f_osm_way_440896094_17",
        "object_type": "restriction",
        "restriction_type": "road",
        "name": "",
        "osm_kind": "road",
        "osm_id": 440896094,
        "osm_type": "way",
        "osm_tags": {
          "highway": "footway"
        },
        "case_id": "moscow_kommunarka_+2_+0_15b1ee4f"
      },
      "geometry": {
        "type": "LineString",
        "coordinates": [
          [
            37.4703153,
            55.5838702
          ],
          [
            37.4703699,
            55.5838309
          ],
          [
            37.4709834,
            55.5835905
          ],
          [
            37.4710584,
            55.5835619
          ]
        ]
      }
    },
    {
      "type": "Feature",
      "properties": {
        "id": "moscow_kommunarka_+2_+0_15b1ee4f_osm_way_440896095_18",
        "object_type": "restriction",
        "restriction_type": "road",
        "name": "",
        "osm_kind": "road",
        "osm_id": 440896095,
        "osm_type": "way",
        "osm_tags": {
          "highway": "footway"
        },
        "case_id": "moscow_kommunarka_+2_+0_15b1ee4f"
      },
      "geometry": {
        "type": "LineString",
        "coordinates": [
          [
            37.4710584,
            55.5835619
          ],
          [
            37.4711417,
            55.5835773
          ]
        ]
      }
    },
    {
      "type": "Feature",
      "properties": {
        "id": "moscow_kommunarka_+2_+0_15b1ee4f_osm_way_442619607_19",
        "object_type": "restriction",
        "restriction_type": "road",
        "name": "Калужское шоссе",
        "osm_kind": "major_road",
        "osm_id": 442619607,
        "osm_type": "way",
        "osm_tags": {
          "highway": "trunk",
          "name": "Калужское шоссе"
        },
        "case_id": "moscow_kommunarka_+2_+0_15b1ee4f"
      },
      "geometry": {
        "type": "LineString",
        "coordinates": [
          [
            37.4704988,
            55.5834982
          ],
          [
            37.4709955,
            55.5838849
          ]
        ]
      }
    },
    {
      "type": "Feature",
      "properties": {
        "id": "moscow_kommunarka_+2_+0_15b1ee4f_osm_way_442619608_20",
        "object_type": "restriction",
        "restriction_type": "road",
        "name": "Калужское шоссе",
        "osm_kind": "major_road",
        "osm_id": 442619608,
        "osm_type": "way",
        "osm_tags": {
          "highway": "trunk",
          "name": "Калужское шоссе"
        },
        "case_id": "moscow_kommunarka_+2_+0_15b1ee4f"
      },
      "geometry": {
        "type": "LineString",
        "coordinates": [
          [
            37.4707363,
            55.583984
          ],
          [
            37.4702543,
            55.5835979
          ]
        ]
      }
    },
    {
      "type": "Feature",
      "properties": {
        "id": "moscow_kommunarka_+2_+0_15b1ee4f_osm_way_442619611_21",
        "object_type": "restriction",
        "restriction_type": "road",
        "name": "Калужское шоссе",
        "osm_kind": "major_road",
        "osm_id": 442619611,
        "osm_type": "way",
        "osm_tags": {
          "highway": "trunk",
          "name": "Калужское шоссе"
        },
        "case_id": "moscow_kommunarka_+2_+0_15b1ee4f"
      },
      "geometry": {
        "type": "LineString",
        "coordinates": [
          [
            37.4672561,
            55.5811232
          ],
          [
            37.4685895,
            55.5821384
          ],
          [
            37.4704988,
            55.5834982
          ]
        ]
      }
    },
    {
      "type": "Feature",
      "properties": {
        "id": "moscow_kommunarka_+2_+0_15b1ee4f_osm_way_442619612_22",
        "object_type": "restriction",
        "restriction_type": "road",
        "name": "Калужское шоссе",
        "osm_kind": "major_road",
        "osm_id": 442619612,
        "osm_type": "way",
        "osm_tags": {
          "highway": "trunk",
          "name": "Калужское шоссе"
        },
        "case_id": "moscow_kommunarka_+2_+0_15b1ee4f"
      },
      "geometry": {
        "type": "LineString",
        "coordinates": [
          [
            37.4702543,
            55.5835979
          ],
          [
            37.4683458,
            55.5822483
          ],
          [
            37.4670031,
            55.581234
          ]
        ]
      }
    },
    {
      "type": "Feature",
      "properties": {
        "id": "moscow_kommunarka_+2_+0_15b1ee4f_osm_way_448302308_23",
        "object_type": "restriction",
        "restriction_type": "road",
        "name": "Калужское шоссе (дублёр)",
        "osm_kind": "major_road",
        "osm_id": 448302308,
        "osm_type": "way",
        "osm_tags": {
          "highway": "secondary",
          "name": "Калужское шоссе (дублёр)"
        },
        "case_id": "moscow_kommunarka_+2_+0_15b1ee4f"
      },
      "geometry": {
        "type": "LineString",
        "coordinates": [
          [
            37.4670255,
            55.5806786
          ],
          [
            37.4671026,
            55.5807459
          ],
          [
            37.4671533,
            55.5807903
          ],
          [
            37.4673643,
            55.5809746
          ],
          [
            37.4679969,
            55.581465
          ]
        ]
      }
    },
    {
      "type": "Feature",
      "properties": {
        "id": "moscow_kommunarka_+2_+0_15b1ee4f_osm_way_528129677_24",
        "object_type": "restriction",
        "restriction_type": "park",
        "name": "",
        "osm_kind": "green",
        "osm_id": 528129677,
        "osm_type": "way",
        "osm_tags": {
          "landuse": "grass"
        },
        "case_id": "moscow_kommunarka_+2_+0_15b1ee4f"
      },
      "geometry": {
        "type": "Polygon",
        "coordinates": [
          [
            [
              37.4686827,
              55.5805261
            ],
            [
              37.4687229,
              55.5805974
            ],
            [
              37.4686264,
              55.5807452
            ],
            [
              37.4686747,
              55.5807892
            ],
            [
              37.4684668,
              55.5810765
            ],
            [
              37.4684802,
              55.5811485
            ],
            [
              37.468904,
              55.5814767
            ],
            [
              37.4686653,
              55.5815912
            ],
            [
              37.4681825,
              55.5812486
            ],
            [
              37.4686827,
              55.5805261
            ]
          ]
        ]
      }
    },
    {
      "type": "Feature",
      "properties": {
        "id": "moscow_kommunarka_+2_+0_15b1ee4f_osm_way_528129679_25",
        "object_type": "restriction",
        "restriction_type": "park",
        "name": "",
        "osm_kind": "green",
        "osm_id": 528129679,
        "osm_type": "way",
        "osm_tags": {
          "landuse": "grass"
        },
        "case_id": "moscow_kommunarka_+2_+0_15b1ee4f"
      },
      "geometry": {
        "type": "Polygon",
        "coordinates": [
          [
            [
              37.4695979,
              55.5819908
            ],
            [
              37.469759,
              55.5821084
            ],
            [
              37.469759,
              55.5821619
            ],
            [
              37.4695672,
              55.5822458
            ],
            [
              37.4693603,
              55.5820948
            ],
            [
              37.4695979,
              55.5819908
            ]
          ]
        ]
      }
    },
    {
      "type": "Feature",
      "properties": {
        "id": "moscow_kommunarka_+2_+0_15b1ee4f_osm_way_528129681_26",
        "object_type": "restriction",
        "restriction_type": "park",
        "name": "",
        "osm_kind": "green",
        "osm_id": 528129681,
        "osm_type": "way",
        "osm_tags": {
          "landuse": "grass"
        },
        "case_id": "moscow_kommunarka_+2_+0_15b1ee4f"
      },
      "geometry": {
        "type": "Polygon",
        "coordinates": [
          [
            [
              37.4706681,
              55.5830042
            ],
            [
              37.4701983,
              55.5826642
            ],
            [
              37.470293,
              55.5826146
            ],
            [
              37.4705971,
              55.5828209
            ],
            [
              37.4707559,
              55.5828858
            ],
            [
              37.4712257,
              55.5829164
            ],
            [
              37.4713879,
              55.5830195
            ],
            [
              37.4711784,
              55.583115
            ],
            [
              37.4709452,
              55.5829412
            ],
            [
              37.4708066,
              55.582945
            ],
            [
              37.4706681,
              55.5830042
            ]
          ]
        ]
      }
    },
    {
      "type": "Feature",
      "properties": {
        "id": "moscow_kommunarka_+2_+0_15b1ee4f_osm_way_528129683_27",
        "object_type": "restriction",
        "restriction_type": "park",
        "name": "",
        "osm_kind": "green",
        "osm_id": 528129683,
        "osm_type": "way",
        "osm_tags": {
          "landuse": "grass"
        },
        "case_id": "moscow_kommunarka_+2_+0_15b1ee4f"
      },
      "geometry": {
        "type": "Polygon",
        "coordinates": [
          [
            [
              37.4712968,
              55.5834859
            ],
            [
              37.4711845,
              55.5833955
            ],
            [
              37.4716533,
              55.5832095
            ],
            [
              37.4717878,
              55.5833178
            ],
            [
              37.4712968,
              55.5834859
            ]
          ]
        ]
      }
    },
    {
      "type": "Feature",
      "properties": {
        "id": "moscow_kommunarka_+2_+0_15b1ee4f_osm_way_528129685_28",
        "object_type": "restriction",
        "restriction_type": "park",
        "name": "",
        "osm_kind": "green",
        "osm_id": 528129685,
        "osm_type": "way",
        "osm_tags": {
          "landuse": "grass"
        },
        "case_id": "moscow_kommunarka_+2_+0_15b1ee4f"
      },
      "geometry": {
        "type": "Polygon",
        "coordinates": [
          [
            [
              37.4719056,
              55.5832889
            ],
            [
              37.4715458,
              55.5829936
            ],
            [
              37.4721442,
              55.5830253
            ],
            [
              37.4731068,
              55.582666
            ],
            [
              37.4732499,
              55.5828239
            ],
            [
              37.4719056,
              55.5832889
            ]
          ]
        ]
      }
    },
    {
      "type": "Feature",
      "properties": {
        "id": "moscow_kommunarka_+2_+0_15b1ee4f_osm_way_548190424_29",
        "object_type": "restriction",
        "restriction_type": "road",
        "name": "",
        "osm_kind": "road",
        "osm_id": 548190424,
        "osm_type": "way",
        "osm_tags": {
          "highway": "footway"
        },
        "case_id": "moscow_kommunarka_+2_+0_15b1ee4f"
      },
      "geometry": {
        "type": "LineString",
        "coordinates": [
          [
            37.4711417,
            55.5835773
          ],
          [
            37.4711934,
            55.5836221
          ],
          [
            37.4712924,
            55.5836927
          ]
        ]
      }
    },
    {
      "type": "Feature",
      "properties": {
        "id": "moscow_kommunarka_+2_+0_15b1ee4f_osm_way_548653374_30",
        "object_type": "restriction",
        "restriction_type": "road",
        "name": "",
        "osm_kind": "road",
        "osm_id": 548653374,
        "osm_type": "way",
        "osm_tags": {
          "highway": "footway"
        },
        "case_id": "moscow_kommunarka_+2_+0_15b1ee4f"
      },
      "geometry": {
        "type": "LineString",
        "coordinates": [
          [
            37.4676519,
            55.5810549
          ],
          [
            37.4672538,
            55.5807646
          ],
          [
            37.4672112,
            55.5807146
          ],
          [
            37.4671344,
            55.5806399
          ],
          [
            37.4670611,
            55.5805688
          ]
        ]
      }
    },
    {
      "type": "Feature",
      "properties": {
        "id": "moscow_kommunarka_+2_+0_15b1ee4f_osm_way_803032152_31",
        "object_type": "restriction",
        "restriction_type": "oks",
        "name": "",
        "osm_kind": "building",
        "osm_id": 803032152,
        "osm_type": "way",
        "osm_tags": {
          "building": "office"
        },
        "case_id": "moscow_kommunarka_+2_+0_15b1ee4f",
        "selected_as_heat_demand_proxy": true,
        "connection_point_id": "moscow_kommunarka_+2_+0_15b1ee4f_cp_1"
      },
      "geometry": {
        "type": "Polygon",
        "coordinates": [
          [
            [
              37.4709164,
              55.5817766
            ],
            [
              37.4708303,
              55.5817724
            ],
            [
              37.4708399,
              55.5817165
            ],
            [
              37.4707601,
              55.5817117
            ],
            [
              37.4707718,
              55.5816558
            ],
            [
              37.4706871,
              55.5816054
            ],
            [
              37.4706984,
              55.5815243
            ],
            [
              37.4707594,
              55.5814255
            ],
            [
              37.4708371,
              55.581375
            ],
            [
              37.4709244,
              55.5813801
            ],
            [
              37.4709938,
              55.5813828
            ],
            [
              37.4710726,
              55.5813964
            ],
            [
              37.4711344,
              55.5814461
            ],
            [
              37.4711537,
              55.5814959
            ],
            [
              37.4712322,
              55.5814949
            ],
            [
              37.4712397,
              55.5815351
            ],
            [
              37.4713165,
              55.5815369
            ],
            [
              37.4713162,
              55.5815866
            ],
            [
              37.471294,
              55.5817856
            ],
            [
              37.4711027,
              55.5818724
            ],
            [
              37.4710751,
              55.5819724
            ],
            [
              37.4708852,
              55.5819641
            ],
            [
              37.4709164,
              55.5817766
            ]
          ]
        ]
      }
    },
    {
      "type": "Feature",
      "properties": {
        "id": "moscow_kommunarka_+2_+0_15b1ee4f_osm_way_808816472_32",
        "object_type": "restriction",
        "restriction_type": "oks",
        "name": "",
        "osm_kind": "building",
        "osm_id": 808816472,
        "osm_type": "way",
        "osm_tags": {
          "building": "office"
        },
        "case_id": "moscow_kommunarka_+2_+0_15b1ee4f"
      },
      "geometry": {
        "type": "Polygon",
        "coordinates": [
          [
            [
              37.4711451,
              55.5824656
            ],
            [
              37.4711465,
              55.5825042
            ],
            [
              37.4714534,
              55.5825125
            ],
            [
              37.4714664,
              55.5825128
            ],
            [
              37.4714694,
              55.5824808
            ],
            [
              37.4714696,
              55.5824673
            ],
            [
              37.4714727,
              55.5823213
            ],
            [
              37.4718096,
              55.5821509
            ],
            [
              37.4716794,
              55.5820469
            ],
            [
              37.4717793,
              55.5819904
            ],
            [
              37.4716407,
              55.5818959
            ],
            [
              37.4716962,
              55.5818674
            ],
            [
              37.4716172,
              55.581818
            ],
            [
              37.4715534,
              55.5818484
            ],
            [
              37.4714626,
              55.581801
            ],
            [
              37.4711065,
              55.5819738
            ],
            [
              37.4710751,
              55.5819724
            ],
            [
              37.4708852,
              55.5819641
            ],
            [
              37.4706294,
              55.5819529
            ],
            [
              37.4705854,
              55.5821631
            ],
            [
              37.4709956,
              55.5824599
            ],
            [
              37.4710725,
              55.5824629
            ],
            [
              37.4711451,
              55.5824656
            ]
          ]
        ]
      }
    },
    {
      "type": "Feature",
      "properties": {
        "id": "moscow_kommunarka_+2_+0_15b1ee4f_osm_way_808816473_33",
        "object_type": "restriction",
        "restriction_type": "oks",
        "name": "Административное здание",
        "osm_kind": "building",
        "osm_id": 808816473,
        "osm_type": "way",
        "osm_tags": {
          "building": "office",
          "name": "Административное здание"
        },
        "case_id": "moscow_kommunarka_+2_+0_15b1ee4f"
      },
      "geometry": {
        "type": "Polygon",
        "coordinates": [
          [
            [
              37.4702402,
              55.58204
            ],
            [
              37.4704075,
              55.5821602
            ],
            [
              37.4705854,
              55.5821631
            ],
            [
              37.4706398,
              55.5819424
            ],
            [
              37.4706871,
              55.5816054
            ],
            [
              37.4706984,
              55.5815243
            ],
            [
              37.4703347,
              55.581516
            ],
            [
              37.4702402,
              55.58204
            ]
          ]
        ]
      }
    },
    {
      "type": "Feature",
      "properties": {
        "id": "moscow_kommunarka_+2_+0_15b1ee4f_osm_way_808816474_34",
        "object_type": "restriction",
        "restriction_type": "oks",
        "name": "Административное здание",
        "osm_kind": "building",
        "osm_id": 808816474,
        "osm_type": "way",
        "osm_tags": {
          "building": "yes",
          "name": "Административное здание"
        },
        "case_id": "moscow_kommunarka_+2_+0_15b1ee4f",
        "selected_as_heat_demand_proxy": true,
        "connection_point_id": "moscow_kommunarka_+2_+0_15b1ee4f_cp_2"
      },
      "geometry": {
        "type": "Polygon",
        "coordinates": [
          [
            [
              37.4714727,
              55.5823213
            ],
            [
              37.4716374,
              55.5824391
            ],
            [
              37.4719796,
              55.5822844
            ],
            [
              37.4718096,
              55.5821509
            ],
            [
              37.4714727,
              55.5823213
            ]
          ]
        ]
      }
    },
    {
      "type": "Feature",
      "properties": {
        "id": "moscow_kommunarka_+2_+0_15b1ee4f_osm_way_808816475_35",
        "object_type": "restriction",
        "restriction_type": "oks",
        "name": "",
        "osm_kind": "building",
        "osm_id": 808816475,
        "osm_type": "way",
        "osm_tags": {
          "building": "office"
        },
        "case_id": "moscow_kommunarka_+2_+0_15b1ee4f",
        "selected_as_heat_demand_proxy": true,
        "connection_point_id": "moscow_kommunarka_+2_+0_15b1ee4f_cp_3"
      },
      "geometry": {
        "type": "Polygon",
        "coordinates": [
          [
            [
              37.4711707,
              55.5827415
            ],
            [
              37.4719414,
              55.5827657
            ],
            [
              37.4720211,
              55.5828258
            ],
            [
              37.4720424,
              55.5827702
            ],
            [
              37.4722764,
              55.5827657
            ],
            [
              37.4720663,
              55.5826244
            ],
            [
              37.4720823,
              55.5825718
            ],
            [
              37.4719706,
              55.5825613
            ],
            [
              37.4718589,
              55.5824681
            ],
            [
              37.4714696,
              55.5824673
            ],
            [
              37.4714534,
              55.5825125
            ],
            [
              37.4711465,
              55.5825042
            ],
            [
              37.4711451,
              55.5824656
            ],
            [
              37.4710725,
              55.5824629
            ],
            [
              37.4709256,
              55.5825733
            ],
            [
              37.4711707,
              55.5827415
            ]
          ]
        ]
      }
    },
    {
      "type": "Feature",
      "properties": {
        "id": "moscow_kommunarka_+2_+0_15b1ee4f_osm_way_808819300_36",
        "object_type": "restriction",
        "restriction_type": "oks",
        "name": "",
        "osm_kind": "building",
        "osm_id": 808819300,
        "osm_type": "way",
        "osm_tags": {
          "building": "office"
        },
        "case_id": "moscow_kommunarka_+2_+0_15b1ee4f"
      },
      "geometry": {
        "type": "Polygon",
        "coordinates": [
          [
            [
              37.4694864,
              55.5809265
            ],
            [
              37.4696431,
              55.581022
            ],
            [
              37.4695878,
              55.5811036
            ],
            [
              37.4701469,
              55.5814891
            ],
            [
              37.4703251,
              55.5814874
            ],
            [
              37.4703347,
              55.581516
            ],
            [
              37.4706984,
              55.5815243
            ],
            [
              37.4707829,
              55.5811609
            ],
            [
              37.4701746,
              55.5806886
            ],
            [
              37.4698182,
              55.580699
            ],
            [
              37.4695909,
              55.5807181
            ],
            [
              37.4695509,
              55.5807528
            ],
            [
              37.4694035,
              55.5807598
            ],
            [
              37.4693359,
              55.5808084
            ],
            [
              37.4694619,
              55.5808605
            ],
            [
              37.4694864,
              55.5809265
            ]
          ]
        ]
      }
    },
    {
      "type": "Feature",
      "properties": {
        "id": "moscow_kommunarka_+2_+0_15b1ee4f_osm_way_956158977_37",
        "object_type": "restriction",
        "restriction_type": "road",
        "name": "",
        "osm_kind": "road",
        "osm_id": 956158977,
        "osm_type": "way",
        "osm_tags": {
          "highway": "footway"
        },
        "case_id": "moscow_kommunarka_+2_+0_15b1ee4f"
      },
      "geometry": {
        "type": "LineString",
        "coordinates": [
          [
            37.4710396,
            55.5835423
          ],
          [
            37.4712926,
            55.5835337
          ],
          [
            37.4734622,
            55.5827728
          ],
          [
            37.4743747,
            55.5823853
          ],
          [
            37.4752693,
            55.5819775
          ],
          [
            37.4761227,
            55.5816002
          ],
          [
            37.4772734,
            55.5811087
          ],
          [
            37.4774383,
            55.581036
          ],
          [
            37.4776469,
            55.5809439
          ],
          [
            37.4778223,
            55.5808666
          ],
          [
            37.4784053,
            55.5806027
          ],
          [
            37.478775,
            55.5804665
          ],
          [
            37.4791566,
            55.5803333
          ]
        ]
      }
    },
    {
      "type": "Feature",
      "properties": {
        "id": "moscow_kommunarka_+2_+0_15b1ee4f_osm_way_1059177038_38",
        "object_type": "restriction",
        "restriction_type": "oks",
        "name": "",
        "osm_kind": "building",
        "osm_id": 1059177038,
        "osm_type": "way",
        "osm_tags": {
          "building": "construction"
        },
        "case_id": "moscow_kommunarka_+2_+0_15b1ee4f"
      },
      "geometry": {
        "type": "Polygon",
        "coordinates": [
          [
            [
              37.4724367,
              55.5834691
            ],
            [
              37.4722346,
              55.5835407
            ],
            [
              37.4725809,
              55.5838529
            ],
            [
              37.4725451,
              55.5838655
            ],
            [
              37.4729016,
              55.584187
            ],
            [
              37.4731018,
              55.5841161
            ],
            [
              37.4727548,
              55.5838032
            ],
            [
              37.4727925,
              55.5837899
            ],
            [
              37.4724367,
              55.5834691
            ]
          ]
        ]
      }
    },
    {
      "type": "Feature",
      "properties": {
        "id": "moscow_kommunarka_+2_+0_15b1ee4f_osm_way_1083777979_39",
        "object_type": "restriction",
        "restriction_type": "road",
        "name": "проектируемый проезд № 812",
        "osm_kind": "road",
        "osm_id": 1083777979,
        "osm_type": "way",
        "osm_tags": {
          "highway": "tertiary",
          "name": "проектируемый проезд № 812"
        },
        "case_id": "moscow_kommunarka_+2_+0_15b1ee4f"
      },
      "geometry": {
        "type": "LineString",
        "coordinates": [
          [
            37.4710477,
            55.583651
          ],
          [
            37.4711934,
            55.5836221
          ],
          [
            37.4713499,
            55.5835656
          ],
          [
            37.472926,
            55.5830284
          ],
          [
            37.4737209,
            55.5827178
          ]
        ]
      }
    },
    {
      "type": "Feature",
      "properties": {
        "id": "moscow_kommunarka_+2_+0_15b1ee4f_source",
        "object_type": "source",
        "case_id": "moscow_kommunarka_+2_+0_15b1ee4f"
      },
      "geometry": {
        "type": "Point",
        "coordinates": [
          37.46793386666667,
          55.5822713
        ]
      }
    },
    {
      "type": "Feature",
      "properties": {
        "id": "moscow_kommunarka_+2_+0_15b1ee4f_existing_network",
        "object_type": "heat_network",
        "diameter": 500,
        "flow_tph": 180.0,
        "upstream_object_id": "moscow_kommunarka_+2_+0_15b1ee4f_source",
        "case_id": "moscow_kommunarka_+2_+0_15b1ee4f"
      },
      "geometry": {
        "type": "LineString",
        "coordinates": [
          [
            37.46793386666667,
            55.5822713
          ],
          [
            37.469046399999996,
            55.5822713
          ]
        ]
      }
    },
    {
      "type": "Feature",
      "properties": {
        "id": "moscow_kommunarka_+2_+0_15b1ee4f_existing_chamber",
        "object_type": "heat_chamber",
        "diameter": 500,
        "upstream_object_id": "moscow_kommunarka_+2_+0_15b1ee4f_source",
        "case_id": "moscow_kommunarka_+2_+0_15b1ee4f"
      },
      "geometry": {
        "type": "Point",
        "coordinates": [
          37.469046399999996,
          55.5822713
        ]
      }
    },
    {
      "type": "Feature",
      "properties": {
        "id": "moscow_kommunarka_+2_+0_15b1ee4f_cp_1",
        "object_type": "oks_connection_point",
        "flow_tph": 16.984,
        "case_id": "moscow_kommunarka_+2_+0_15b1ee4f",
        "consumer_role": "osm_building_heat_demand_proxy",
        "source_building_osm_id": 803032152,
        "source_building_osm_type": "way",
        "source_building_name": "",
        "source_building_tags": {
          "building": "office"
        },
        "footprint_area_m2": 1698.35,
        "flow_basis": "synthetic_proxy_from_osm_footprint_area",
        "stress_bucket": ""
      },
      "geometry": {
        "type": "Point",
        "coordinates": [
          37.47100563413705,
          55.581638497282704
        ]
      }
    },
    {
      "type": "Feature",
      "properties": {
        "id": "moscow_kommunarka_+2_+0_15b1ee4f_cp_2",
        "object_type": "oks_connection_point",
        "flow_tph": 5.0,
        "case_id": "moscow_kommunarka_+2_+0_15b1ee4f",
        "consumer_role": "osm_building_heat_demand_proxy",
        "source_building_osm_id": 808816474,
        "source_building_osm_type": "way",
        "source_building_name": "Административное здание",
        "source_building_tags": {
          "building": "yes",
          "name": "Административное здание"
        },
        "footprint_area_m2": 489.37,
        "flow_basis": "synthetic_proxy_from_osm_footprint_area",
        "stress_bucket": ""
      },
      "geometry": {
        "type": "Point",
        "coordinates": [
          37.471697189465985,
          55.58225329954055
        ]
      }
    },
    {
      "type": "Feature",
      "properties": {
        "id": "moscow_kommunarka_+2_+0_15b1ee4f_cp_3",
        "object_type": "oks_connection_point",
        "flow_tph": 20.193,
        "case_id": "moscow_kommunarka_+2_+0_15b1ee4f",
        "consumer_role": "osm_building_heat_demand_proxy",
        "source_building_osm_id": 808816475,
        "source_building_osm_type": "way",
        "source_building_name": "",
        "source_building_tags": {
          "building": "office"
        },
        "footprint_area_m2": 2019.3,
        "flow_basis": "synthetic_proxy_from_osm_footprint_area",
        "stress_bucket": ""
      },
      "geometry": {
        "type": "Point",
        "coordinates": [
          37.471575519118396,
          55.582620309413784
        ]
      }
    }
  ]
}