{
  "type": "FeatureCollection",
  "name": "moscow_mitino_-2_+3_ab4b5530",
  "crs": {
    "type": "name",
    "properties": {
      "name": "EPSG:4326"
    }
  },
  "metadata": {
    "dataset_version": "osm_building_anchored_routing_scenes_v3",
    "parent_scene_id": "moscow_mitino_-2_+3_ab4b5530",
    "split": "train",
    "city": "Москва Митино",
    "seed": "moscow_mitino",
    "research_bucket": "refusal",
    "source_research_bucket": "refusal",
    "research_bucket_is_ground_truth": false,
    "bbox_south_west_north_east": [
      55.8293812,
      37.3994027,
      55.8320762,
      37.404201
    ],
    "real_data_source": "OpenStreetMap via Overpass API",
    "source_file": "data/real_geojson_places/refusal/099_moscow_mitino_-2_+3_ab4b5530.geojson",
    "real_layers": [
      "restrictions",
      "consumer_building_footprints"
    ],
    "synthetic_layers": [
      "source",
      "heat_network",
      "heat_chamber",
      "heat_demand"
    ],
    "consumer_selection": "deterministic points inside real OSM building footprints",
    "flow_model": "synthetic proxy derived from building footprint area; not metered demand",
    "note": "OSM buildings anchor consumers; heat demand and seed network are synthetic proxies."
  },
  "features": [
    {
      "type": "Feature",
      "properties": {
        "id": "moscow_mitino_-2_+3_ab4b5530_osm_way_23116669_1",
        "object_type": "restriction",
        "restriction_type": "road",
        "name": "",
        "osm_kind": "road",
        "osm_id": 23116669,
        "osm_type": "way",
        "osm_tags": {
          "highway": "primary_link"
        },
        "case_id": "moscow_mitino_-2_+3_ab4b5530"
      },
      "geometry": {
        "type": "LineString",
        "coordinates": [
          [
            37.4007377,
            55.8317123
          ],
          [
            37.4004425,
            55.8318149
          ],
          [
            37.4003481,
            55.8318581
          ],
          [
            37.400244,
            55.8319119
          ],
          [
            37.400126,
            55.831993
          ],
          [
            37.4000603,
            55.8320569
          ],
          [
            37.4000426,
            55.8320994
          ],
          [
            37.400048,
            55.8321571
          ],
          [
            37.4000584,
            55.832229
          ],
          [
            37.400045,
            55.8322863
          ],
          [
            37.4000242,
            55.8323402
          ],
          [
            37.399981,
            55.8323912
          ],
          [
            37.3999373,
            55.8324336
          ],
          [
            37.3998813,
            55.8324682
          ],
          [
            37.3998186,
            55.8324949
          ],
          [
            37.3997062,
            55.8325253
          ],
          [
            37.3995559,
            55.8325502
          ],
          [
            37.3968104,
            55.8329245
          ],
          [
            37.3966551,
            55.8329728
          ],
          [
            37.3965765,
            55.8330038
          ],
          [
            37.3964879,
            55.8330608
          ],
          [
            37.396441,
            55.8331257
          ],
          [
            37.39641,
            55.833208
          ]
        ]
      }
    },
    {
      "type": "Feature",
      "properties": {
        "id": "moscow_mitino_-2_+3_ab4b5530_osm_way_27788643_2",
        "object_type": "restriction",
        "restriction_type": "road",
        "name": "",
        "osm_kind": "road",
        "osm_id": 27788643,
        "osm_type": "way",
        "osm_tags": {
          "highway": "service"
        },
        "case_id": "moscow_mitino_-2_+3_ab4b5530"
      },
      "geometry": {
        "type": "LineString",
        "coordinates": [
          [
            37.401344,
            55.8315898
          ],
          [
            37.4014433,
            55.8317589
          ],
          [
            37.4014946,
            55.8318429
          ],
          [
            37.4015102,
            55.8318685
          ],
          [
            37.4015555,
            55.8319247
          ],
          [
            37.4015852,
            55.8319616
          ],
          [
            37.4016246,
            55.8320105
          ]
        ]
      }
    },
    {
      "type": "Feature",
      "properties": {
        "id": "moscow_mitino_-2_+3_ab4b5530_osm_way_54896107_3",
        "object_type": "restriction",
        "restriction_type": "oks",
        "name": "",
        "osm_kind": "building",
        "osm_id": 54896107,
        "osm_type": "way",
        "osm_tags": {
          "building": "yes"
        },
        "case_id": "moscow_mitino_-2_+3_ab4b5530"
      },
      "geometry": {
        "type": "Polygon",
        "coordinates": [
          [
            [
              37.4027559,
              55.8321339
            ],
            [
              37.4033138,
              55.8319984
            ],
            [
              37.4033567,
              55.8320676
            ],
            [
              37.4028095,
              55.8322062
            ],
            [
              37.4027559,
              55.8321339
            ]
          ]
        ]
      }
    },
    {
      "type": "Feature",
      "properties": {
        "id": "moscow_mitino_-2_+3_ab4b5530_osm_way_54896110_4",
        "object_type": "restriction",
        "restriction_type": "oks",
        "name": "храм Спаса Преображения",
        "osm_kind": "building",
        "osm_id": 54896110,
        "osm_type": "way",
        "osm_tags": {
          "building": "church",
          "name": "храм Спаса Преображения"
        },
        "case_id": "moscow_mitino_-2_+3_ab4b5530"
      },
      "geometry": {
        "type": "Polygon",
        "coordinates": [
          [
            [
              37.402048,
              55.8319014
            ],
            [
              37.4023572,
              55.8318496
            ],
            [
              37.4023433,
              55.8318235
            ],
            [
              37.4026637,
              55.8317698
            ],
            [
              37.4026536,
              55.8317507
            ],
            [
              37.4026406,
              55.8317263
            ],
            [
              37.4026218,
              55.8316908
            ],
            [
              37.4026102,
              55.8316689
            ],
            [
              37.402601,
              55.8316517
            ],
            [
              37.4024861,
              55.8316709
            ],
            [
              37.4024681,
              55.831637
            ],
            [
              37.4023854,
              55.8316508
            ],
            [
              37.4024034,
              55.8316848
            ],
            [
              37.4022806,
              55.8317053
            ],
            [
              37.4022673,
              55.8316802
            ],
            [
              37.4019581,
              55.831732
            ],
            [
              37.4019698,
              55.8317541
            ],
            [
              37.4018132,
              55.8317804
            ],
            [
              37.4018409,
              55.8318325
            ],
            [
              37.4018692,
              55.8318859
            ],
            [
              37.4019693,
              55.8318691
            ],
            [
              37.4019805,
              55.8318902
            ],
            [
              37.402037,
              55.8318808
            ],
            [
              37.402048,
              55.8319014
            ]
          ]
        ]
      }
    },
    {
      "type": "Feature",
      "properties": {
        "id": "moscow_mitino_-2_+3_ab4b5530_osm_way_69863833_5",
        "object_type": "restriction",
        "restriction_type": "road",
        "name": "",
        "osm_kind": "road",
        "osm_id": 69863833,
        "osm_type": "way",
        "osm_tags": {
          "highway": "footway"
        },
        "case_id": "moscow_mitino_-2_+3_ab4b5530"
      },
      "geometry": {
        "type": "LineString",
        "coordinates": [
          [
            37.4016369,
            55.831946
          ],
          [
            37.4015686,
            55.8318576
          ],
          [
            37.4015262,
            55.8317519
          ],
          [
            37.4015252,
            55.8317124
          ],
          [
            37.4015573,
            55.8316754
          ],
          [
            37.4016221,
            55.831648
          ],
          [
            37.4026485,
            55.8314436
          ]
        ]
      }
    },
    {
      "type": "Feature",
      "properties": {
        "id": "moscow_mitino_-2_+3_ab4b5530_osm_way_69863951_6",
        "object_type": "restriction",
        "restriction_type": "road",
        "name": "",
        "osm_kind": "road",
        "osm_id": 69863951,
        "osm_type": "way",
        "osm_tags": {
          "highway": "service"
        },
        "case_id": "moscow_mitino_-2_+3_ab4b5530"
      },
      "geometry": {
        "type": "LineString",
        "coordinates": [
          [
            37.4015102,
            55.8318685
          ],
          [
            37.4015686,
            55.8318576
          ],
          [
            37.4016241,
            55.8318598
          ],
          [
            37.4017643,
            55.8318451
          ]
        ]
      }
    },
    {
      "type": "Feature",
      "properties": {
        "id": "moscow_mitino_-2_+3_ab4b5530_osm_way_69864015_7",
        "object_type": "restriction",
        "restriction_type": "road",
        "name": "",
        "osm_kind": "road",
        "osm_id": 69864015,
        "osm_type": "way",
        "osm_tags": {
          "highway": "footway"
        },
        "case_id": "moscow_mitino_-2_+3_ab4b5530"
      },
      "geometry": {
        "type": "LineString",
        "coordinates": [
          [
            37.4018409,
            55.8318325
          ],
          [
            37.4017643,
            55.8318451
          ]
        ]
      }
    },
    {
      "type": "Feature",
      "properties": {
        "id": "moscow_mitino_-2_+3_ab4b5530_osm_way_86400921_8",
        "object_type": "restriction",
        "restriction_type": "road",
        "name": "Волоколамское шоссе (дублёр)",
        "osm_kind": "major_road",
        "osm_id": 86400921,
        "osm_type": "way",
        "osm_tags": {
          "highway": "secondary",
          "name": "Волоколамское шоссе (дублёр)"
        },
        "case_id": "moscow_mitino_-2_+3_ab4b5530"
      },
      "geometry": {
        "type": "LineString",
        "coordinates": [
          [
            37.4050108,
            55.8308823
          ],
          [
            37.404286,
            55.8310291
          ],
          [
            37.4040165,
            55.8310829
          ],
          [
            37.4030563,
            55.8312876
          ],
          [
            37.4026004,
            55.8313754
          ]
        ]
      }
    },
    {
      "type": "Feature",
      "properties": {
        "id": "moscow_mitino_-2_+3_ab4b5530_osm_way_91137775_9",
        "object_type": "restriction",
        "restriction_type": "road",
        "name": "",
        "osm_kind": "road",
        "osm_id": 91137775,
        "osm_type": "way",
        "osm_tags": {
          "highway": "service"
        },
        "case_id": "moscow_mitino_-2_+3_ab4b5530"
      },
      "geometry": {
        "type": "LineString",
        "coordinates": [
          [
            37.4017643,
            55.8318451
          ],
          [
            37.4018534,
            55.8319149
          ],
          [
            37.4020069,
            55.831973
          ],
          [
            37.4021738,
            55.831945
          ],
          [
            37.4025326,
            55.8318849
          ],
          [
            37.4027488,
            55.8318234
          ],
          [
            37.4028039,
            55.8318077
          ],
          [
            37.4028282,
            55.8317656
          ],
          [
            37.4028582,
            55.8317134
          ],
          [
            37.4028667,
            55.831648
          ]
        ]
      }
    },
    {
      "type": "Feature",
      "properties": {
        "id": "moscow_mitino_-2_+3_ab4b5530_osm_way_91137786_10",
        "object_type": "restriction",
        "restriction_type": "park",
        "name": "",
        "osm_kind": "green",
        "osm_id": 91137786,
        "osm_type": "way",
        "osm_tags": {
          "landuse": "grass"
        },
        "case_id": "moscow_mitino_-2_+3_ab4b5530"
      },
      "geometry": {
        "type": "Polygon",
        "coordinates": [
          [
            [
              37.4031499,
              55.8319406
            ],
            [
              37.4030949,
              55.8319285
            ],
            [
              37.4030249,
              55.8318635
            ],
            [
              37.4029237,
              55.8317545
            ],
            [
              37.4028984,
              55.8316693
            ],
            [
              37.4035231,
              55.8315261
            ],
            [
              37.4036833,
              55.8316753
            ],
            [
              37.403561,
              55.8318056
            ],
            [
              37.4031499,
              55.8319406
            ]
          ]
        ]
      }
    },
    {
      "type": "Feature",
      "properties": {
        "id": "moscow_mitino_-2_+3_ab4b5530_osm_way_91137788_11",
        "object_type": "restriction",
        "restriction_type": "road",
        "name": "",
        "osm_kind": "road",
        "osm_id": 91137788,
        "osm_type": "way",
        "osm_tags": {
          "highway": "service"
        },
        "case_id": "moscow_mitino_-2_+3_ab4b5530"
      },
      "geometry": {
        "type": "LineString",
        "coordinates": [
          [
            37.4017643,
            55.8318451
          ],
          [
            37.4017771,
            55.8317723
          ],
          [
            37.4018436,
            55.8317105
          ],
          [
            37.4025837,
            55.8315795
          ],
          [
            37.402701,
            55.8315809
          ],
          [
            37.4028104,
            55.8316139
          ],
          [
            37.4028667,
            55.831648
          ],
          [
            37.4035021,
            55.8315002
          ],
          [
            37.4036272,
            55.8315022
          ],
          [
            37.4037003,
            55.8315286
          ],
          [
            37.4038269,
            55.8314954
          ],
          [
            37.403848,
            55.8314244
          ],
          [
            37.4041432,
            55.8313391
          ],
          [
            37.4041207,
            55.8312472
          ]
        ]
      }
    },
    {
      "type": "Feature",
      "properties": {
        "id": "moscow_mitino_-2_+3_ab4b5530_osm_way_91137809_12",
        "object_type": "restriction",
        "restriction_type": "park",
        "name": "",
        "osm_kind": "green",
        "osm_id": 91137809,
        "osm_type": "way",
        "osm_tags": {
          "landuse": "grass"
        },
        "case_id": "moscow_mitino_-2_+3_ab4b5530"
      },
      "geometry": {
        "type": "Polygon",
        "coordinates": [
          [
            [
              37.396851,
              55.8328514
            ],
            [
              37.3996574,
              55.8324669
            ],
            [
              37.3997699,
              55.8324298
            ],
            [
              37.3998696,
              55.8323698
            ],
            [
              37.3999358,
              55.832312
            ],
            [
              37.3999501,
              55.8322336
            ],
            [
              37.3999494,
              55.8320554
            ],
            [
              37.3999554,
              55.8319993
            ],
            [
              37.4000178,
              55.8319387
            ],
            [
              37.3987886,
              55.83218
            ],
            [
              37.3964392,
              55.8325631
            ],
            [
              37.3964789,
              55.8326575
            ],
            [
              37.396606,
              55.8326351
            ],
            [
              37.3966777,
              55.8327027
            ],
            [
              37.3964228,
              55.8327453
            ],
            [
              37.3964725,
              55.8328054
            ],
            [
              37.3965463,
              55.8328353
            ],
            [
              37.3966984,
              55.8328575
            ],
            [
              37.3967839,
              55.8328575
            ],
            [
              37.396851,
              55.8328514
            ]
          ]
        ]
      }
    },
    {
      "type": "Feature",
      "properties": {
        "id": "moscow_mitino_-2_+3_ab4b5530_osm_way_123395571_13",
        "object_type": "restriction",
        "restriction_type": "road",
        "name": "Волоколамское шоссе (дублёр)",
        "osm_kind": "major_road",
        "osm_id": 123395571,
        "osm_type": "way",
        "osm_tags": {
          "highway": "primary",
          "name": "Волоколамское шоссе (дублёр)"
        },
        "case_id": "moscow_mitino_-2_+3_ab4b5530"
      },
      "geometry": {
        "type": "LineString",
        "coordinates": [
          [
            37.3985675,
            55.8316748
          ],
          [
            37.3987524,
            55.831636
          ],
          [
            37.3991299,
            55.8315569
          ],
          [
            37.3998947,
            55.8314348
          ]
        ]
      }
    },
    {
      "type": "Feature",
      "properties": {
        "id": "moscow_mitino_-2_+3_ab4b5530_osm_way_211286862_14",
        "object_type": "restriction",
        "restriction_type": "oks",
        "name": "",
        "osm_kind": "building",
        "osm_id": 211286862,
        "osm_type": "way",
        "osm_tags": {
          "building": "yes"
        },
        "case_id": "moscow_mitino_-2_+3_ab4b5530"
      },
      "geometry": {
        "type": "Polygon",
        "coordinates": [
          [
            [
              37.4033181,
              55.8319699
            ],
            [
              37.4033456,
              55.8320073
            ],
            [
              37.4034838,
              55.8319752
            ],
            [
              37.4034564,
              55.8319378
            ],
            [
              37.4033181,
              55.8319699
            ]
          ]
        ]
      }
    },
    {
      "type": "Feature",
      "properties": {
        "id": "moscow_mitino_-2_+3_ab4b5530_osm_way_226257788_15",
        "object_type": "restriction",
        "restriction_type": "road",
        "name": "",
        "osm_kind": "road",
        "osm_id": 226257788,
        "osm_type": "way",
        "osm_tags": {
          "highway": "service"
        },
        "case_id": "moscow_mitino_-2_+3_ab4b5530"
      },
      "geometry": {
        "type": "LineString",
        "coordinates": [
          [
            37.4041207,
            55.8312472
          ],
          [
            37.4040667,
            55.8311507
          ],
          [
            37.4040165,
            55.8310829
          ]
        ]
      }
    },
    {
      "type": "Feature",
      "properties": {
        "id": "moscow_mitino_-2_+3_ab4b5530_osm_way_376003129_16",
        "object_type": "restriction",
        "restriction_type": "road",
        "name": "",
        "osm_kind": "road",
        "osm_id": 376003129,
        "osm_type": "way",
        "osm_tags": {
          "highway": "footway"
        },
        "case_id": "moscow_mitino_-2_+3_ab4b5530"
      },
      "geometry": {
        "type": "LineString",
        "coordinates": [
          [
            37.4051441,
            55.831403
          ],
          [
            37.4050446,
            55.8312373
          ],
          [
            37.4050101,
            55.8311446
          ],
          [
            37.4049229,
            55.8310346
          ],
          [
            37.4048774,
            55.8310133
          ],
          [
            37.4048228,
            55.8310023
          ],
          [
            37.4047717,
            55.8309999
          ],
          [
            37.4046993,
            55.8310082
          ],
          [
            37.4043299,
            55.8310916
          ],
          [
            37.4040667,
            55.8311507
          ],
          [
            37.4037138,
            55.831232
          ],
          [
            37.4032373,
            55.8313266
          ],
          [
            37.4026485,
            55.8314436
          ]
        ]
      }
    },
    {
      "type": "Feature",
      "properties": {
        "id": "moscow_mitino_-2_+3_ab4b5530_osm_way_435436001_17",
        "object_type": "restriction",
        "restriction_type": "road",
        "name": "Волоколамское шоссе (дублёр)",
        "osm_kind": "major_road",
        "osm_id": 435436001,
        "osm_type": "way",
        "osm_tags": {
          "highway": "primary",
          "name": "Волоколамское шоссе (дублёр)"
        },
        "case_id": "moscow_mitino_-2_+3_ab4b5530"
      },
      "geometry": {
        "type": "LineString",
        "coordinates": [
          [
            37.4033956,
            55.830806
          ],
          [
            37.4036848,
            55.830748
          ],
          [
            37.4038239,
            55.8307198
          ]
        ]
      }
    },
    {
      "type": "Feature",
      "properties": {
        "id": "moscow_mitino_-2_+3_ab4b5530_osm_way_483121142_18",
        "object_type": "restriction",
        "restriction_type": "road",
        "name": "Волоколамское шоссе (дублёр)",
        "osm_kind": "major_road",
        "osm_id": 483121142,
        "osm_type": "way",
        "osm_tags": {
          "highway": "primary",
          "name": "Волоколамское шоссе (дублёр)"
        },
        "case_id": "moscow_mitino_-2_+3_ab4b5530"
      },
      "geometry": {
        "type": "LineString",
        "coordinates": [
          [
            37.4024405,
            55.8310246
          ],
          [
            37.4027177,
            55.8309612
          ],
          [
            37.4033956,
            55.830806
          ]
        ]
      }
    },
    {
      "type": "Feature",
      "properties": {
        "id": "moscow_mitino_-2_+3_ab4b5530_osm_way_502681301_19",
        "object_type": "restriction",
        "restriction_type": "oks",
        "name": "",
        "osm_kind": "building",
        "osm_id": 502681301,
        "osm_type": "way",
        "osm_tags": {
          "building": "service"
        },
        "case_id": "moscow_mitino_-2_+3_ab4b5530"
      },
      "geometry": {
        "type": "Polygon",
        "coordinates": [
          [
            [
              37.4041477,
              55.8316588
            ],
            [
              37.404204,
              55.8316423
            ],
            [
              37.4041821,
              55.8316187
            ],
            [
              37.4041257,
              55.8316353
            ],
            [
              37.4041477,
              55.8316588
            ]
          ]
        ]
      }
    },
    {
      "type": "Feature",
      "properties": {
        "id": "moscow_mitino_-2_+3_ab4b5530_osm_way_502681302_20",
        "object_type": "restriction",
        "restriction_type": "oks",
        "name": "",
        "osm_kind": "building",
        "osm_id": 502681302,
        "osm_type": "way",
        "osm_tags": {
          "building": "yes"
        },
        "case_id": "moscow_mitino_-2_+3_ab4b5530"
      },
      "geometry": {
        "type": "Polygon",
        "coordinates": [
          [
            [
              37.4042362,
              55.8314389
            ],
            [
              37.4043556,
              55.8314125
            ],
            [
              37.4043169,
              55.8313574
            ],
            [
              37.4041976,
              55.8313837
            ],
            [
              37.4042362,
              55.8314389
            ]
          ]
        ]
      }
    },
    {
      "type": "Feature",
      "properties": {
        "id": "moscow_mitino_-2_+3_ab4b5530_osm_way_502681303_21",
        "object_type": "restriction",
        "restriction_type": "oks",
        "name": "",
        "osm_kind": "building",
        "osm_id": 502681303,
        "osm_type": "way",
        "osm_tags": {
          "building": "yes"
        },
        "case_id": "moscow_mitino_-2_+3_ab4b5530",
        "selected_as_heat_demand_proxy": true,
        "connection_point_id": "moscow_mitino_-2_+3_ab4b5530_cp_3"
      },
      "geometry": {
        "type": "Polygon",
        "coordinates": [
          [
            [
              37.4035281,
              55.8319586
            ],
            [
              37.4036582,
              55.8319224
            ],
            [
              37.4036186,
              55.8318775
            ],
            [
              37.4034885,
              55.8319137
            ],
            [
              37.4035281,
              55.8319586
            ]
          ]
        ]
      }
    },
    {
      "type": "Feature",
      "properties": {
        "id": "moscow_mitino_-2_+3_ab4b5530_osm_way_502681305_22",
        "object_type": "restriction",
        "restriction_type": "road",
        "name": "",
        "osm_kind": "road",
        "osm_id": 502681305,
        "osm_type": "way",
        "osm_tags": {
          "highway": "footway"
        },
        "case_id": "moscow_mitino_-2_+3_ab4b5530"
      },
      "geometry": {
        "type": "LineString",
        "coordinates": [
          [
            37.4024409,
            55.8320576
          ],
          [
            37.4021738,
            55.831945
          ]
        ]
      }
    },
    {
      "type": "Feature",
      "properties": {
        "id": "moscow_mitino_-2_+3_ab4b5530_osm_way_502681306_23",
        "object_type": "restriction",
        "restriction_type": "road",
        "name": "",
        "osm_kind": "road",
        "osm_id": 502681306,
        "osm_type": "way",
        "osm_tags": {
          "highway": "footway"
        },
        "case_id": "moscow_mitino_-2_+3_ab4b5530"
      },
      "geometry": {
        "type": "LineString",
        "coordinates": [
          [
            37.4025243,
            55.8320836
          ],
          [
            37.4026626,
            55.8319863
          ]
        ]
      }
    },
    {
      "type": "Feature",
      "properties": {
        "id": "moscow_mitino_-2_+3_ab4b5530_osm_way_502681307_24",
        "object_type": "restriction",
        "restriction_type": "road",
        "name": "",
        "osm_kind": "road",
        "osm_id": 502681307,
        "osm_type": "way",
        "osm_tags": {
          "highway": "footway"
        },
        "case_id": "moscow_mitino_-2_+3_ab4b5530"
      },
      "geometry": {
        "type": "LineString",
        "coordinates": [
          [
            37.4024525,
            55.8320558
          ],
          [
            37.4024646,
            55.8320552
          ],
          [
            37.4024766,
            55.832056
          ],
          [
            37.4024881,
            55.832058
          ],
          [
            37.4024987,
            55.8320613
          ],
          [
            37.4025079,
            55.8320657
          ],
          [
            37.4025154,
            55.8320711
          ],
          [
            37.402521,
            55.8320771
          ],
          [
            37.4025243,
            55.8320836
          ],
          [
            37.4025253,
            55.8320904
          ],
          [
            37.4025239,
            55.8320971
          ],
          [
            37.4025202,
            55.8321036
          ],
          [
            37.4025143,
            55.8321095
          ],
          [
            37.4025065,
            55.8321147
          ],
          [
            37.402497,
            55.8321189
          ],
          [
            37.4024863,
            55.8321221
          ],
          [
            37.4024747,
            55.8321239
          ],
          [
            37.4024626,
            55.8321245
          ],
          [
            37.4024506,
            55.8321237
          ],
          [
            37.4024391,
            55.8321216
          ],
          [
            37.4024285,
            55.8321183
          ],
          [
            37.4024193,
            55.8321139
          ],
          [
            37.4024118,
            55.8321086
          ],
          [
            37.4024062,
            55.8321026
          ],
          [
            37.4024029,
            55.8320961
          ],
          [
            37.4024019,
            55.8320893
          ],
          [
            37.4024033,
            55.8320825
          ],
          [
            37.402407,
            55.8320761
          ],
          [
            37.4024129,
            55.8320701
          ],
          [
            37.4024207,
            55.832065
          ],
          [
            37.4024301,
            55.8320607
          ],
          [
            37.4024409,
            55.8320576
          ],
          [
            37.4024525,
            55.8320558
          ]
        ]
      }
    },
    {
      "type": "Feature",
      "properties": {
        "id": "moscow_mitino_-2_+3_ab4b5530_osm_way_502681308_25",
        "object_type": "restriction",
        "restriction_type": "road",
        "name": "",
        "osm_kind": "road",
        "osm_id": 502681308,
        "osm_type": "way",
        "osm_tags": {
          "highway": "footway"
        },
        "case_id": "moscow_mitino_-2_+3_ab4b5530"
      },
      "geometry": {
        "type": "LineString",
        "coordinates": [
          [
            37.4028302,
            55.8319273
          ],
          [
            37.4027488,
            55.8318234
          ]
        ]
      }
    },
    {
      "type": "Feature",
      "properties": {
        "id": "moscow_mitino_-2_+3_ab4b5530_osm_way_502681309_26",
        "object_type": "restriction",
        "restriction_type": "road",
        "name": "",
        "osm_kind": "road",
        "osm_id": 502681309,
        "osm_type": "way",
        "osm_tags": {
          "highway": "footway"
        },
        "case_id": "moscow_mitino_-2_+3_ab4b5530"
      },
      "geometry": {
        "type": "LineString",
        "coordinates": [
          [
            37.4028569,
            55.8319628
          ],
          [
            37.4029305,
            55.8320569
          ]
        ]
      }
    },
    {
      "type": "Feature",
      "properties": {
        "id": "moscow_mitino_-2_+3_ab4b5530_osm_way_502681310_27",
        "object_type": "restriction",
        "restriction_type": "road",
        "name": "",
        "osm_kind": "road",
        "osm_id": 502681310,
        "osm_type": "way",
        "osm_tags": {
          "highway": "footway"
        },
        "case_id": "moscow_mitino_-2_+3_ab4b5530"
      },
      "geometry": {
        "type": "LineString",
        "coordinates": [
          [
            37.4028101,
            55.831955
          ],
          [
            37.4026719,
            55.8319936
          ]
        ]
      }
    },
    {
      "type": "Feature",
      "properties": {
        "id": "moscow_mitino_-2_+3_ab4b5530_osm_way_502681311_28",
        "object_type": "restriction",
        "restriction_type": "road",
        "name": "",
        "osm_kind": "road",
        "osm_id": 502681311,
        "osm_type": "way",
        "osm_tags": {
          "highway": "footway"
        },
        "case_id": "moscow_mitino_-2_+3_ab4b5530"
      },
      "geometry": {
        "type": "LineString",
        "coordinates": [
          [
            37.4028734,
            55.8319401
          ],
          [
            37.403029,
            55.8318969
          ]
        ]
      }
    },
    {
      "type": "Feature",
      "properties": {
        "id": "moscow_mitino_-2_+3_ab4b5530_osm_way_502681312_29",
        "object_type": "restriction",
        "restriction_type": "road",
        "name": "",
        "osm_kind": "road",
        "osm_id": 502681312,
        "osm_type": "way",
        "osm_tags": {
          "highway": "footway"
        },
        "case_id": "moscow_mitino_-2_+3_ab4b5530"
      },
      "geometry": {
        "type": "LineString",
        "coordinates": [
          [
            37.4028099,
            55.8319368
          ],
          [
            37.4028137,
            55.8319336
          ],
          [
            37.4028184,
            55.8319309
          ],
          [
            37.402824,
            55.8319288
          ],
          [
            37.4028302,
            55.8319273
          ],
          [
            37.4028369,
            55.8319265
          ],
          [
            37.4028436,
            55.8319265
          ],
          [
            37.4028503,
            55.8319272
          ],
          [
            37.4028565,
            55.8319287
          ],
          [
            37.4028622,
            55.8319307
          ],
          [
            37.402867,
            55.8319334
          ],
          [
            37.4028708,
            55.8319366
          ],
          [
            37.4028734,
            55.8319401
          ],
          [
            37.4028748,
            55.8319438
          ],
          [
            37.4028748,
            55.8319476
          ],
          [
            37.4028735,
            55.8319513
          ],
          [
            37.402871,
            55.8319548
          ],
          [
            37.4028672,
            55.831958
          ],
          [
            37.4028625,
            55.8319607
          ],
          [
            37.4028569,
            55.8319628
          ],
          [
            37.4028506,
            55.8319643
          ],
          [
            37.402844,
            55.8319651
          ],
          [
            37.4028372,
            55.8319651
          ],
          [
            37.4028306,
            55.8319644
          ],
          [
            37.4028243,
            55.8319629
          ],
          [
            37.4028187,
            55.8319608
          ],
          [
            37.4028139,
            55.8319582
          ],
          [
            37.4028101,
            55.831955
          ],
          [
            37.4028075,
            55.8319515
          ],
          [
            37.4028061,
            55.8319478
          ],
          [
            37.4028061,
            55.831944
          ],
          [
            37.4028074,
            55.8319403
          ],
          [
            37.4028099,
            55.8319368
          ]
        ]
      }
    },
    {
      "type": "Feature",
      "properties": {
        "id": "moscow_mitino_-2_+3_ab4b5530_osm_way_502681313_30",
        "object_type": "restriction",
        "restriction_type": "road",
        "name": "",
        "osm_kind": "road",
        "osm_id": 502681313,
        "osm_type": "way",
        "osm_tags": {
          "highway": "service"
        },
        "case_id": "moscow_mitino_-2_+3_ab4b5530"
      },
      "geometry": {
        "type": "LineString",
        "coordinates": [
          [
            37.4027954,
            55.83209
          ],
          [
            37.4026719,
            55.8319936
          ],
          [
            37.4026626,
            55.8319863
          ],
          [
            37.4025326,
            55.8318849
          ]
        ]
      }
    },
    {
      "type": "Feature",
      "properties": {
        "id": "moscow_mitino_-2_+3_ab4b5530_osm_way_502681314_31",
        "object_type": "restriction",
        "restriction_type": "road",
        "name": "",
        "osm_kind": "road",
        "osm_id": 502681314,
        "osm_type": "way",
        "osm_tags": {
          "highway": "service"
        },
        "case_id": "moscow_mitino_-2_+3_ab4b5530"
      },
      "geometry": {
        "type": "LineString",
        "coordinates": [
          [
            37.4020069,
            55.831973
          ],
          [
            37.4020368,
            55.832046
          ],
          [
            37.4022872,
            55.8321563
          ],
          [
            37.4023359,
            55.8321778
          ],
          [
            37.4024418,
            55.8322071
          ],
          [
            37.4025156,
            55.8322169
          ],
          [
            37.4025947,
            55.8322169
          ],
          [
            37.402647,
            55.8322094
          ],
          [
            37.4026872,
            55.8321951
          ],
          [
            37.4027167,
            55.8321725
          ],
          [
            37.4027261,
            55.8321492
          ],
          [
            37.4027368,
            55.8321138
          ],
          [
            37.402757,
            55.8320994
          ],
          [
            37.4027954,
            55.83209
          ],
          [
            37.4029305,
            55.8320569
          ],
          [
            37.4030641,
            55.8320241
          ],
          [
            37.4030909,
            55.8320068
          ],
          [
            37.4030963,
            55.8319857
          ],
          [
            37.4030922,
            55.8319556
          ],
          [
            37.403029,
            55.8318969
          ],
          [
            37.4029152,
            55.8317914
          ],
          [
            37.4028282,
            55.8317656
          ]
        ]
      }
    },
    {
      "type": "Feature",
      "properties": {
        "id": "moscow_mitino_-2_+3_ab4b5530_osm_way_531219498_32",
        "object_type": "restriction",
        "restriction_type": "road",
        "name": "",
        "osm_kind": "road",
        "osm_id": 531219498,
        "osm_type": "way",
        "osm_tags": {
          "highway": "service"
        },
        "case_id": "moscow_mitino_-2_+3_ab4b5530"
      },
      "geometry": {
        "type": "LineString",
        "coordinates": [
          [
            37.4038269,
            55.8314954
          ],
          [
            37.4041985,
            55.8317579
          ],
          [
            37.4041047,
            55.8318351
          ],
          [
            37.4037399,
            55.8319432
          ]
        ]
      }
    },
    {
      "type": "Feature",
      "properties": {
        "id": "moscow_mitino_-2_+3_ab4b5530_osm_way_691590405_33",
        "object_type": "restriction",
        "restriction_type": "road",
        "name": "Волоколамское шоссе",
        "osm_kind": "major_road",
        "osm_id": 691590405,
        "osm_type": "way",
        "osm_tags": {
          "highway": "primary",
          "name": "Волоколамское шоссе"
        },
        "case_id": "moscow_mitino_-2_+3_ab4b5530"
      },
      "geometry": {
        "type": "LineString",
        "coordinates": [
          [
            37.3987767,
            55.8319477
          ],
          [
            37.3994842,
            55.8318214
          ],
          [
            37.4004905,
            55.8316226
          ]
        ]
      }
    },
    {
      "type": "Feature",
      "properties": {
        "id": "moscow_mitino_-2_+3_ab4b5530_osm_way_737793431_34",
        "object_type": "restriction",
        "restriction_type": "road",
        "name": "Волоколамское шоссе (дублёр)",
        "osm_kind": "major_road",
        "osm_id": 737793431,
        "osm_type": "way",
        "osm_tags": {
          "highway": "primary",
          "name": "Волоколамское шоссе (дублёр)"
        },
        "case_id": "moscow_mitino_-2_+3_ab4b5530"
      },
      "geometry": {
        "type": "LineString",
        "coordinates": [
          [
            37.3998947,
            55.8314348
          ],
          [
            37.401613,
            55.8311888
          ],
          [
            37.4024405,
            55.8310246
          ]
        ]
      }
    },
    {
      "type": "Feature",
      "properties": {
        "id": "moscow_mitino_-2_+3_ab4b5530_osm_way_737842036_35",
        "object_type": "restriction",
        "restriction_type": "road",
        "name": "",
        "osm_kind": "road",
        "osm_id": 737842036,
        "osm_type": "way",
        "osm_tags": {
          "highway": "footway"
        },
        "case_id": "moscow_mitino_-2_+3_ab4b5530"
      },
      "geometry": {
        "type": "LineString",
        "coordinates": [
          [
            37.4007616,
            55.8327351
          ],
          [
            37.40087,
            55.8324693
          ],
          [
            37.4008855,
            55.8324459
          ],
          [
            37.4009129,
            55.8324045
          ],
          [
            37.4015555,
            55.8319247
          ]
        ]
      }
    },
    {
      "type": "Feature",
      "properties": {
        "id": "moscow_mitino_-2_+3_ab4b5530_osm_way_742421988_36",
        "object_type": "restriction",
        "restriction_type": "road",
        "name": "",
        "osm_kind": "road",
        "osm_id": 742421988,
        "osm_type": "way",
        "osm_tags": {
          "highway": "footway"
        },
        "case_id": "moscow_mitino_-2_+3_ab4b5530"
      },
      "geometry": {
        "type": "LineString",
        "coordinates": [
          [
            37.4075839,
            55.8298622
          ],
          [
            37.4062907,
            55.830137
          ],
          [
            37.4045542,
            55.8305155
          ],
          [
            37.4039444,
            55.8306489
          ],
          [
            37.4031697,
            55.8308183
          ],
          [
            37.4027929,
            55.8309012
          ],
          [
            37.4024203,
            55.8309787
          ],
          [
            37.4019733,
            55.8310657
          ],
          [
            37.4018862,
            55.8310857
          ],
          [
            37.4017624,
            55.8311039
          ],
          [
            37.4016994,
            55.8311148
          ],
          [
            37.4015245,
            55.8311451
          ],
          [
            37.4006876,
            55.8312596
          ],
          [
            37.4002582,
            55.8313146
          ],
          [
            37.3996242,
            55.8313959
          ],
          [
            37.3989051,
            55.8315095
          ],
          [
            37.3984171,
            55.8316076
          ],
          [
            37.3983328,
            55.8314859
          ],
          [
            37.3983104,
            55.8314231
          ]
        ]
      }
    },
    {
      "type": "Feature",
      "properties": {
        "id": "moscow_mitino_-2_+3_ab4b5530_osm_way_772357474_37",
        "object_type": "restriction",
        "restriction_type": "road",
        "name": "Волоколамское шоссе",
        "osm_kind": "major_road",
        "osm_id": 772357474,
        "osm_type": "way",
        "osm_tags": {
          "highway": "primary",
          "name": "Волоколамское шоссе"
        },
        "case_id": "moscow_mitino_-2_+3_ab4b5530"
      },
      "geometry": {
        "type": "LineString",
        "coordinates": [
          [
            37.4059499,
            55.830567
          ],
          [
            37.4037646,
            55.8310361
          ]
        ]
      }
    },
    {
      "type": "Feature",
      "properties": {
        "id": "moscow_mitino_-2_+3_ab4b5530_osm_way_816094249_38",
        "object_type": "restriction",
        "restriction_type": "road",
        "name": "Волоколамское шоссе",
        "osm_kind": "major_road",
        "osm_id": 816094249,
        "osm_type": "way",
        "osm_tags": {
          "highway": "primary",
          "name": "Волоколамское шоссе"
        },
        "case_id": "moscow_mitino_-2_+3_ab4b5530"
      },
      "geometry": {
        "type": "LineString",
        "coordinates": [
          [
            37.4036872,
            55.8309224
          ],
          [
            37.4058675,
            55.8304459
          ]
        ]
      }
    },
    {
      "type": "Feature",
      "properties": {
        "id": "moscow_mitino_-2_+3_ab4b5530_osm_way_859638576_39",
        "object_type": "restriction",
        "restriction_type": "road",
        "name": "",
        "osm_kind": "road",
        "osm_id": 859638576,
        "osm_type": "way",
        "osm_tags": {
          "highway": "primary_link"
        },
        "case_id": "moscow_mitino_-2_+3_ab4b5530"
      },
      "geometry": {
        "type": "LineString",
        "coordinates": [
          [
            37.3991883,
            55.8317303
          ],
          [
            37.4001383,
            55.8315924
          ],
          [
            37.4022885,
            55.831231
          ]
        ]
      }
    },
    {
      "type": "Feature",
      "properties": {
        "id": "moscow_mitino_-2_+3_ab4b5530_osm_way_874541117_40",
        "object_type": "restriction",
        "restriction_type": "road",
        "name": "Волоколамское шоссе",
        "osm_kind": "major_road",
        "osm_id": 874541117,
        "osm_type": "way",
        "osm_tags": {
          "highway": "primary",
          "name": "Волоколамское шоссе"
        },
        "case_id": "moscow_mitino_-2_+3_ab4b5530"
      },
      "geometry": {
        "type": "LineString",
        "coordinates": [
          [
            37.401344,
            55.8315898
          ],
          [
            37.4007377,
            55.8317123
          ]
        ]
      }
    },
    {
      "type": "Feature",
      "properties": {
        "id": "moscow_mitino_-2_+3_ab4b5530_osm_way_881554229_41",
        "object_type": "restriction",
        "restriction_type": "road",
        "name": "",
        "osm_kind": "road",
        "osm_id": 881554229,
        "osm_type": "way",
        "osm_tags": {
          "highway": "footway"
        },
        "case_id": "moscow_mitino_-2_+3_ab4b5530"
      },
      "geometry": {
        "type": "LineString",
        "coordinates": [
          [
            37.4028355,
            55.8308588
          ],
          [
            37.4027804,
            55.8308712
          ],
          [
            37.402776,
            55.8308767
          ],
          [
            37.4027929,
            55.8309012
          ]
        ]
      }
    },
    {
      "type": "Feature",
      "properties": {
        "id": "moscow_mitino_-2_+3_ab4b5530_osm_way_881554230_42",
        "object_type": "restriction",
        "restriction_type": "road",
        "name": "",
        "osm_kind": "road",
        "osm_id": 881554230,
        "osm_type": "way",
        "osm_tags": {
          "highway": "footway"
        },
        "case_id": "moscow_mitino_-2_+3_ab4b5530"
      },
      "geometry": {
        "type": "LineString",
        "coordinates": [
          [
            37.4036744,
            55.8312734
          ],
          [
            37.4037261,
            55.8312626
          ],
          [
            37.4037303,
            55.8312576
          ],
          [
            37.4037138,
            55.831232
          ]
        ]
      }
    },
    {
      "type": "Feature",
      "properties": {
        "id": "moscow_mitino_-2_+3_ab4b5530_osm_way_881554231_43",
        "object_type": "restriction",
        "restriction_type": "road",
        "name": "",
        "osm_kind": "road",
        "osm_id": 881554231,
        "osm_type": "way",
        "osm_tags": {
          "highway": "steps"
        },
        "case_id": "moscow_mitino_-2_+3_ab4b5530"
      },
      "geometry": {
        "type": "LineString",
        "coordinates": [
          [
            37.4030146,
            55.8308187
          ],
          [
            37.4028355,
            55.8308588
          ]
        ]
      }
    },
    {
      "type": "Feature",
      "properties": {
        "id": "moscow_mitino_-2_+3_ab4b5530_osm_way_881554232_44",
        "object_type": "restriction",
        "restriction_type": "road",
        "name": "",
        "osm_kind": "road",
        "osm_id": 881554232,
        "osm_type": "way",
        "osm_tags": {
          "highway": "steps"
        },
        "case_id": "moscow_mitino_-2_+3_ab4b5530"
      },
      "geometry": {
        "type": "LineString",
        "coordinates": [
          [
            37.4034592,
            55.8313174
          ],
          [
            37.4036744,
            55.8312734
          ]
        ]
      }
    },
    {
      "type": "Feature",
      "properties": {
        "id": "moscow_mitino_-2_+3_ab4b5530_osm_way_881554233_45",
        "object_type": "restriction",
        "restriction_type": "road",
        "name": "",
        "osm_kind": "road",
        "osm_id": 881554233,
        "osm_type": "way",
        "osm_tags": {
          "highway": "footway"
        },
        "case_id": "moscow_mitino_-2_+3_ab4b5530"
      },
      "geometry": {
        "type": "LineString",
        "coordinates": [
          [
            37.4034592,
            55.8313174
          ],
          [
            37.4034094,
            55.8313277
          ],
          [
            37.4030649,
            55.8308078
          ],
          [
            37.4030146,
            55.8308187
          ]
        ]
      }
    },
    {
      "type": "Feature",
      "properties": {
        "id": "moscow_mitino_-2_+3_ab4b5530_osm_way_894260411_46",
        "object_type": "restriction",
        "restriction_type": "road",
        "name": "Волоколамское шоссе (дублёр)",
        "osm_kind": "major_road",
        "osm_id": 894260411,
        "osm_type": "way",
        "osm_tags": {
          "highway": "primary",
          "name": "Волоколамское шоссе (дублёр)"
        },
        "case_id": "moscow_mitino_-2_+3_ab4b5530"
      },
      "geometry": {
        "type": "LineString",
        "coordinates": [
          [
            37.4038239,
            55.8307198
          ],
          [
            37.4045933,
            55.8305598
          ],
          [
            37.4056565,
            55.8303388
          ]
        ]
      }
    },
    {
      "type": "Feature",
      "properties": {
        "id": "moscow_mitino_-2_+3_ab4b5530_osm_way_894260413_47",
        "object_type": "restriction",
        "restriction_type": "road",
        "name": "",
        "osm_kind": "major_road",
        "osm_id": 894260413,
        "osm_type": "way",
        "osm_tags": {
          "highway": "secondary"
        },
        "case_id": "moscow_mitino_-2_+3_ab4b5530"
      },
      "geometry": {
        "type": "LineString",
        "coordinates": [
          [
            37.4038239,
            55.8307198
          ],
          [
            37.4044105,
            55.830651
          ],
          [
            37.4046264,
            55.8306066
          ],
          [
            37.4048057,
            55.8305697
          ]
        ]
      }
    },
    {
      "type": "Feature",
      "properties": {
        "id": "moscow_mitino_-2_+3_ab4b5530_osm_way_1004255874_48",
        "object_type": "restriction",
        "restriction_type": "road",
        "name": "",
        "osm_kind": "road",
        "osm_id": 1004255874,
        "osm_type": "way",
        "osm_tags": {
          "highway": "footway"
        },
        "case_id": "moscow_mitino_-2_+3_ab4b5530"
      },
      "geometry": {
        "type": "LineString",
        "coordinates": [
          [
            37.4031621,
            55.8308068
          ],
          [
            37.4031697,
            55.8308183
          ]
        ]
      }
    },
    {
      "type": "Feature",
      "properties": {
        "id": "moscow_mitino_-2_+3_ab4b5530_osm_way_1004255875_49",
        "object_type": "restriction",
        "restriction_type": "road",
        "name": "",
        "osm_kind": "road",
        "osm_id": 1004255875,
        "osm_type": "way",
        "osm_tags": {
          "highway": "footway"
        },
        "case_id": "moscow_mitino_-2_+3_ab4b5530"
      },
      "geometry": {
        "type": "LineString",
        "coordinates": [
          [
            37.4031302,
            55.8307931
          ],
          [
            37.4031466,
            55.8307899
          ],
          [
            37.4031509,
            55.8307912
          ],
          [
            37.4031621,
            55.8308068
          ]
        ]
      }
    },
    {
      "type": "Feature",
      "properties": {
        "id": "moscow_mitino_-2_+3_ab4b5530_osm_way_1004255877_50",
        "object_type": "restriction",
        "restriction_type": "oks",
        "name": "",
        "osm_kind": "building",
        "osm_id": 1004255877,
        "osm_type": "way",
        "osm_tags": {
          "building": "service"
        },
        "case_id": "moscow_mitino_-2_+3_ab4b5530"
      },
      "geometry": {
        "type": "Polygon",
        "coordinates": [
          [
            [
              37.400697,
              55.8312351
            ],
            [
              37.400874,
              55.8312137
            ],
            [
              37.4008591,
              55.8311749
            ],
            [
              37.4006821,
              55.8311963
            ],
            [
              37.400697,
              55.8312351
            ]
          ]
        ]
      }
    },
    {
      "type": "Feature",
      "properties": {
        "id": "moscow_mitino_-2_+3_ab4b5530_osm_way_1004255878_51",
        "object_type": "restriction",
        "restriction_type": "road",
        "name": "",
        "osm_kind": "road",
        "osm_id": 1004255878,
        "osm_type": "way",
        "osm_tags": {
          "highway": "footway"
        },
        "case_id": "moscow_mitino_-2_+3_ab4b5530"
      },
      "geometry": {
        "type": "LineString",
        "coordinates": [
          [
            37.4033019,
            55.8313501
          ],
          [
            37.4032654,
            55.8313578
          ],
          [
            37.4032567,
            55.8313564
          ],
          [
            37.4032373,
            55.8313266
          ]
        ]
      }
    },
    {
      "type": "Feature",
      "properties": {
        "id": "moscow_mitino_-2_+3_ab4b5530_osm_way_1004255879_52",
        "object_type": "restriction",
        "restriction_type": "road",
        "name": "",
        "osm_kind": "road",
        "osm_id": 1004255879,
        "osm_type": "way",
        "osm_tags": {
          "highway": "footway"
        },
        "case_id": "moscow_mitino_-2_+3_ab4b5530"
      },
      "geometry": {
        "type": "LineString",
        "coordinates": [
          [
            37.4033397,
            55.8313422
          ],
          [
            37.4033019,
            55.8313501
          ]
        ]
      }
    },
    {
      "type": "Feature",
      "properties": {
        "id": "moscow_mitino_-2_+3_ab4b5530_osm_way_1004255880_53",
        "object_type": "restriction",
        "restriction_type": "road",
        "name": "",
        "osm_kind": "road",
        "osm_id": 1004255880,
        "osm_type": "way",
        "osm_tags": {
          "highway": "footway"
        },
        "case_id": "moscow_mitino_-2_+3_ab4b5530"
      },
      "geometry": {
        "type": "LineString",
        "coordinates": [
          [
            37.4030649,
            55.8308078
          ],
          [
            37.4031302,
            55.8307931
          ]
        ]
      }
    },
    {
      "type": "Feature",
      "properties": {
        "id": "moscow_mitino_-2_+3_ab4b5530_osm_way_1004255881_54",
        "object_type": "restriction",
        "restriction_type": "road",
        "name": "",
        "osm_kind": "road",
        "osm_id": 1004255881,
        "osm_type": "way",
        "osm_tags": {
          "highway": "footway"
        },
        "case_id": "moscow_mitino_-2_+3_ab4b5530"
      },
      "geometry": {
        "type": "LineString",
        "coordinates": [
          [
            37.4034094,
            55.8313277
          ],
          [
            37.4033397,
            55.8313422
          ]
        ]
      }
    },
    {
      "type": "Feature",
      "properties": {
        "id": "moscow_mitino_-2_+3_ab4b5530_osm_way_1004255882_55",
        "object_type": "restriction",
        "restriction_type": "oks",
        "name": "",
        "osm_kind": "building",
        "osm_id": 1004255882,
        "osm_type": "way",
        "osm_tags": {
          "building": "yes"
        },
        "case_id": "moscow_mitino_-2_+3_ab4b5530"
      },
      "geometry": {
        "type": "Polygon",
        "coordinates": [
          [
            [
              37.4033108,
              55.8313636
            ],
            [
              37.4033876,
              55.8313476
            ],
            [
              37.4033698,
              55.8313206
            ],
            [
              37.4032931,
              55.8313366
            ],
            [
              37.4033019,
              55.8313501
            ],
            [
              37.4033108,
              55.8313636
            ]
          ]
        ]
      }
    },
    {
      "type": "Feature",
      "properties": {
        "id": "moscow_mitino_-2_+3_ab4b5530_osm_way_1004255883_56",
        "object_type": "restriction",
        "restriction_type": "oks",
        "name": "",
        "osm_kind": "building",
        "osm_id": 1004255883,
        "osm_type": "way",
        "osm_tags": {
          "building": "yes"
        },
        "case_id": "moscow_mitino_-2_+3_ab4b5530",
        "selected_as_heat_demand_proxy": true,
        "connection_point_id": "moscow_mitino_-2_+3_ab4b5530_cp_2"
      },
      "geometry": {
        "type": "Polygon",
        "coordinates": [
          [
            [
              37.4031036,
              55.830819
            ],
            [
              37.4031621,
              55.8308068
            ],
            [
              37.4031869,
              55.8308017
            ],
            [
              37.4031653,
              55.8307689
            ],
            [
              37.403082,
              55.8307862
            ],
            [
              37.4031036,
              55.830819
            ]
          ]
        ]
      }
    },
    {
      "type": "Feature",
      "properties": {
        "id": "moscow_mitino_-2_+3_ab4b5530_osm_way_1083548376_57",
        "object_type": "restriction",
        "restriction_type": "park",
        "name": "",
        "osm_kind": "green",
        "osm_id": 1083548376,
        "osm_type": "way",
        "osm_tags": {
          "landuse": "grass"
        },
        "case_id": "moscow_mitino_-2_+3_ab4b5530"
      },
      "geometry": {
        "type": "Polygon",
        "coordinates": [
          [
            [
              37.3987904,
              55.8318685
            ],
            [
              37.3980845,
              55.8319747
            ],
            [
              37.3974133,
              55.8320644
            ],
            [
              37.3973467,
              55.832057
            ],
            [
              37.3973946,
              55.8320226
            ],
            [
              37.3976344,
              55.8319463
            ],
            [
              37.3979806,
              55.831849
            ],
            [
              37.3985107,
              55.8317353
            ],
            [
              37.3989689,
              55.8316366
            ],
            [
              37.3995442,
              55.8315468
            ],
            [
              37.4000636,
              55.8314661
            ],
            [
              37.4007695,
              55.8313703
            ],
            [
              37.4011158,
              55.8313329
            ],
            [
              37.4016059,
              55.8312551
            ],
            [
              37.4016272,
              55.8312835
            ],
            [
              37.4012543,
              55.8313613
            ],
            [
              37.4007748,
              55.8314406
            ],
            [
              37.4003486,
              55.831502
            ],
            [
              37.3999704,
              55.8315423
            ],
            [
              37.3994616,
              55.8316186
            ],
            [
              37.3989156,
              55.8317174
            ],
            [
              37.3987238,
              55.8317503
            ],
            [
              37.3987904,
              55.8318685
            ]
          ]
        ]
      }
    },
    {
      "type": "Feature",
      "properties": {
        "id": "moscow_mitino_-2_+3_ab4b5530_osm_way_1176278941_58",
        "object_type": "restriction",
        "restriction_type": "road",
        "name": "Волоколамское шоссе",
        "osm_kind": "major_road",
        "osm_id": 1176278941,
        "osm_type": "way",
        "osm_tags": {
          "highway": "primary",
          "name": "Волоколамское шоссе"
        },
        "case_id": "moscow_mitino_-2_+3_ab4b5530"
      },
      "geometry": {
        "type": "LineString",
        "coordinates": [
          [
            37.4022885,
            55.831231
          ],
          [
            37.4036872,
            55.8309224
          ]
        ]
      }
    },
    {
      "type": "Feature",
      "properties": {
        "id": "moscow_mitino_-2_+3_ab4b5530_osm_way_1176278942_59",
        "object_type": "restriction",
        "restriction_type": "road",
        "name": "Волоколамское шоссе",
        "osm_kind": "major_road",
        "osm_id": 1176278942,
        "osm_type": "way",
        "osm_tags": {
          "highway": "primary",
          "name": "Волоколамское шоссе"
        },
        "case_id": "moscow_mitino_-2_+3_ab4b5530"
      },
      "geometry": {
        "type": "LineString",
        "coordinates": [
          [
            37.4004905,
            55.8316226
          ],
          [
            37.4022885,
            55.831231
          ]
        ]
      }
    },
    {
      "type": "Feature",
      "properties": {
        "id": "moscow_mitino_-2_+3_ab4b5530_osm_way_1176278945_60",
        "object_type": "restriction",
        "restriction_type": "road",
        "name": "Волоколамское шоссе",
        "osm_kind": "major_road",
        "osm_id": 1176278945,
        "osm_type": "way",
        "osm_tags": {
          "highway": "primary",
          "name": "Волоколамское шоссе"
        },
        "case_id": "moscow_mitino_-2_+3_ab4b5530"
      },
      "geometry": {
        "type": "LineString",
        "coordinates": [
          [
            37.4037646,
            55.8310361
          ],
          [
            37.401344,
            55.8315898
          ]
        ]
      }
    },
    {
      "type": "Feature",
      "properties": {
        "id": "moscow_mitino_-2_+3_ab4b5530_osm_way_1176278946_61",
        "object_type": "restriction",
        "restriction_type": "road",
        "name": "Волоколамское шоссе",
        "osm_kind": "major_road",
        "osm_id": 1176278946,
        "osm_type": "way",
        "osm_tags": {
          "highway": "primary",
          "name": "Волоколамское шоссе"
        },
        "case_id": "moscow_mitino_-2_+3_ab4b5530"
      },
      "geometry": {
        "type": "LineString",
        "coordinates": [
          [
            37.4007377,
            55.8317123
          ],
          [
            37.3991495,
            55.8320308
          ]
        ]
      }
    },
    {
      "type": "Feature",
      "properties": {
        "id": "moscow_mitino_-2_+3_ab4b5530_osm_way_1176278947_62",
        "object_type": "restriction",
        "restriction_type": "road",
        "name": "Волоколамское шоссе (дублёр)",
        "osm_kind": "major_road",
        "osm_id": 1176278947,
        "osm_type": "way",
        "osm_tags": {
          "highway": "secondary",
          "name": "Волоколамское шоссе (дублёр)"
        },
        "case_id": "moscow_mitino_-2_+3_ab4b5530"
      },
      "geometry": {
        "type": "LineString",
        "coordinates": [
          [
            37.4026004,
            55.8313754
          ],
          [
            37.401344,
            55.8315898
          ]
        ]
      }
    },
    {
      "type": "Feature",
      "properties": {
        "id": "moscow_mitino_-2_+3_ab4b5530_osm_way_1287975870_63",
        "object_type": "restriction",
        "restriction_type": "road",
        "name": "",
        "osm_kind": "road",
        "osm_id": 1287975870,
        "osm_type": "way",
        "osm_tags": {
          "highway": "service"
        },
        "case_id": "moscow_mitino_-2_+3_ab4b5530"
      },
      "geometry": {
        "type": "LineString",
        "coordinates": [
          [
            37.4016246,
            55.8320105
          ],
          [
            37.4017069,
            55.8320701
          ],
          [
            37.4020699,
            55.8322538
          ],
          [
            37.4021146,
            55.8322764
          ],
          [
            37.4024311,
            55.832409
          ]
        ]
      }
    },
    {
      "type": "Feature",
      "properties": {
        "id": "moscow_mitino_-2_+3_ab4b5530_osm_way_1376965564_64",
        "object_type": "restriction",
        "restriction_type": "road",
        "name": "",
        "osm_kind": "road",
        "osm_id": 1376965564,
        "osm_type": "way",
        "osm_tags": {
          "highway": "footway"
        },
        "case_id": "moscow_mitino_-2_+3_ab4b5530"
      },
      "geometry": {
        "type": "LineString",
        "coordinates": [
          [
            37.4016994,
            55.8311148
          ],
          [
            37.4015806,
            55.8309348
          ],
          [
            37.4001993,
            55.8312223
          ],
          [
            37.4002582,
            55.8313146
          ]
        ]
      }
    },
    {
      "type": "Feature",
      "properties": {
        "id": "moscow_mitino_-2_+3_ab4b5530_osm_way_1391525608_65",
        "object_type": "restriction",
        "restriction_type": "oks",
        "name": "",
        "osm_kind": "building",
        "osm_id": 1391525608,
        "osm_type": "way",
        "osm_tags": {
          "building": "school"
        },
        "case_id": "moscow_mitino_-2_+3_ab4b5530"
      },
      "geometry": {
        "type": "Polygon",
        "coordinates": [
          [
            [
              37.4012616,
              55.8295468
            ],
            [
              37.4010323,
              55.8296168
            ],
            [
              37.4006876,
              55.8296944
            ],
            [
              37.4007265,
              55.8297532
            ],
            [
              37.4003452,
              55.8298279
            ],
            [
              37.4003101,
              55.8297693
            ],
            [
              37.3995638,
              55.8299068
            ],
            [
              37.3995276,
              55.8299257
            ],
            [
              37.3995101,
              55.8299505
            ],
            [
              37.3995101,
              55.8299709
            ],
            [
              37.3996756,
              55.8301487
            ],
            [
              37.3997019,
              55.830172
            ],
            [
              37.3997368,
              55.8301825
            ],
            [
              37.399781,
              55.8301855
            ],
            [
              37.399887,
              55.8301825
            ],
            [
              37.3999178,
              55.8301772
            ],
            [
              37.3999554,
              55.8301569
            ],
            [
              37.4000949,
              55.8300665
            ],
            [
              37.4001485,
              55.8300409
            ],
            [
              37.4004543,
              55.8299716
            ],
            [
              37.4005119,
              55.8299739
            ],
            [
              37.4005555,
              55.8300368
            ],
            [
              37.4014467,
              55.829836
            ],
            [
              37.4014655,
              55.829827
            ],
            [
              37.4014842,
              55.8298142
            ],
            [
              37.4014936,
              55.8298021
            ],
            [
              37.401495,
              55.8297863
            ],
            [
              37.4013823,
              55.8295694
            ],
            [
              37.4013582,
              55.8295551
            ],
            [
              37.401334,
              55.8295468
            ],
            [
              37.4012992,
              55.8295445
            ],
            [
              37.4012616,
              55.8295468
            ]
          ]
        ]
      }
    },
    {
      "type": "Feature",
      "properties": {
        "id": "moscow_mitino_-2_+3_ab4b5530_osm_way_1450714303_66",
        "object_type": "restriction",
        "restriction_type": "oks",
        "name": "",
        "osm_kind": "building",
        "osm_id": 1450714303,
        "osm_type": "way",
        "osm_tags": {
          "building": "construction"
        },
        "case_id": "moscow_mitino_-2_+3_ab4b5530"
      },
      "geometry": {
        "type": "Polygon",
        "coordinates": [
          [
            [
              37.3992559,
              55.8310851
            ],
            [
              37.3992651,
              55.8310674
            ],
            [
              37.3996046,
              55.8309988
            ],
            [
              37.39965,
              55.8310062
            ],
            [
              37.3996731,
              55.8310458
            ],
            [
              37.3996547,
              55.8310496
            ],
            [
              37.3996976,
              55.8311165
            ],
            [
              37.3996891,
              55.8311182
            ],
            [
              37.3997306,
              55.831183
            ],
            [
              37.3997174,
              55.8311857
            ],
            [
              37.3997507,
              55.8312376
            ],
            [
              37.3997419,
              55.831251
            ],
            [
              37.3994743,
              55.8313051
            ],
            [
              37.3994496,
              55.8312994
            ],
            [
              37.399417,
              55.8312545
            ],
            [
              37.3994048,
              55.831257
            ],
            [
              37.3993643,
              55.8311937
            ],
            [
              37.3993509,
              55.8311964
            ],
            [
              37.3993112,
              55.8311343
            ],
            [
              37.3992878,
              55.8311391
            ],
            [
              37.3992559,
              55.8310851
            ]
          ]
        ]
      }
    },
    {
      "type": "Feature",
      "properties": {
        "id": "moscow_mitino_-2_+3_ab4b5530_osm_way_1450715315_67",
        "object_type": "restriction",
        "restriction_type": "oks",
        "name": "",
        "osm_kind": "building",
        "osm_id": 1450715315,
        "osm_type": "way",
        "osm_tags": {
          "building": "construction"
        },
        "case_id": "moscow_mitino_-2_+3_ab4b5530"
      },
      "geometry": {
        "type": "Polygon",
        "coordinates": [
          [
            [
              37.3996046,
              55.8309988
            ],
            [
              37.3990864,
              55.8302443
            ],
            [
              37.3989576,
              55.8302714
            ],
            [
              37.3988181,
              55.8300319
            ],
            [
              37.3985678,
              55.830073
            ],
            [
              37.398591,
              55.8301126
            ],
            [
              37.3985726,
              55.8301163
            ],
            [
              37.3986154,
              55.8301832
            ],
            [
              37.398607,
              55.8301849
            ],
            [
              37.3986485,
              55.8302498
            ],
            [
              37.3986353,
              55.8302524
            ],
            [
              37.3986685,
              55.8303044
            ],
            [
              37.3986597,
              55.8303177
            ],
            [
              37.3983922,
              55.8303718
            ],
            [
              37.3985419,
              55.8306126
            ],
            [
              37.3986926,
              55.8305921
            ],
            [
              37.399032,
              55.8305235
            ],
            [
              37.3990775,
              55.8305309
            ],
            [
              37.3991006,
              55.8305705
            ],
            [
              37.3990822,
              55.8305743
            ],
            [
              37.3991251,
              55.8306412
            ],
            [
              37.3991166,
              55.8306429
            ],
            [
              37.3991581,
              55.8307077
            ],
            [
              37.3991449,
              55.8307104
            ],
            [
              37.3991782,
              55.8307623
            ],
            [
              37.3991693,
              55.8307756
            ],
            [
              37.3989018,
              55.8308298
            ],
            [
              37.3990756,
              55.8311014
            ],
            [
              37.3992651,
              55.8310674
            ],
            [
              37.3996046,
              55.8309988
            ]
          ]
        ]
      }
    },
    {
      "type": "Feature",
      "properties": {
        "id": "moscow_mitino_-2_+3_ab4b5530_osm_way_1450730066_68",
        "object_type": "restriction",
        "restriction_type": "oks",
        "name": "",
        "osm_kind": "building",
        "osm_id": 1450730066,
        "osm_type": "way",
        "osm_tags": {
          "building": "construction"
        },
        "case_id": "moscow_mitino_-2_+3_ab4b5530"
      },
      "geometry": {
        "type": "Polygon",
        "coordinates": [
          [
            [
              37.403992,
              55.8297275
            ],
            [
              37.4047983,
              55.829564
            ],
            [
              37.4047031,
              55.8294158
            ],
            [
              37.4038967,
              55.8295793
            ],
            [
              37.403992,
              55.8297275
            ]
          ]
        ]
      }
    },
    {
      "type": "Feature",
      "properties": {
        "id": "moscow_mitino_-2_+3_ab4b5530_osm_way_1450730067_69",
        "object_type": "restriction",
        "restriction_type": "oks",
        "name": "",
        "osm_kind": "building",
        "osm_id": 1450730067,
        "osm_type": "way",
        "osm_tags": {
          "building": "construction"
        },
        "case_id": "moscow_mitino_-2_+3_ab4b5530",
        "selected_as_heat_demand_proxy": true,
        "connection_point_id": "moscow_mitino_-2_+3_ab4b5530_cp_1"
      },
      "geometry": {
        "type": "Polygon",
        "coordinates": [
          [
            [
              37.4041855,
              55.8300191
            ],
            [
              37.404446,
              55.8299631
            ],
            [
              37.4042976,
              55.8297456
            ],
            [
              37.4040372,
              55.8298016
            ],
            [
              37.4041855,
              55.8300191
            ]
          ]
        ]
      }
    },
    {
      "type": "Feature",
      "properties": {
        "id": "moscow_mitino_-2_+3_ab4b5530_osm_way_1494413530_70",
        "object_type": "restriction",
        "restriction_type": "road",
        "name": "",
        "osm_kind": "road",
        "osm_id": 1494413530,
        "osm_type": "way",
        "osm_tags": {
          "highway": "service"
        },
        "case_id": "moscow_mitino_-2_+3_ab4b5530"
      },
      "geometry": {
        "type": "LineString",
        "coordinates": [
          [
            37.4014946,
            55.8318429
          ],
          [
            37.4011816,
            55.8319552
          ]
        ]
      }
    },
    {
      "type": "Feature",
      "properties": {
        "id": "moscow_mitino_-2_+3_ab4b5530_osm_way_1494413531_71",
        "object_type": "restriction",
        "restriction_type": "road",
        "name": "",
        "osm_kind": "road",
        "osm_id": 1494413531,
        "osm_type": "way",
        "osm_tags": {
          "highway": "service"
        },
        "case_id": "moscow_mitino_-2_+3_ab4b5530"
      },
      "geometry": {
        "type": "LineString",
        "coordinates": [
          [
            37.4011816,
            55.8319552
          ],
          [
            37.401145,
            55.8319684
          ],
          [
            37.4008147,
            55.8320363
          ],
          [
            37.4007906,
            55.8320654
          ],
          [
            37.4008729,
            55.8321916
          ],
          [
            37.4009406,
            55.8322215
          ],
          [
            37.400988,
            55.8322183
          ],
          [
            37.4012565,
            55.832021
          ],
          [
            37.4011816,
            55.8319552
          ]
        ]
      }
    },
    {
      "type": "Feature",
      "properties": {
        "id": "moscow_mitino_-2_+3_ab4b5530_osm_way_1494413532_72",
        "object_type": "restriction",
        "restriction_type": "road",
        "name": "",
        "osm_kind": "road",
        "osm_id": 1494413532,
        "osm_type": "way",
        "osm_tags": {
          "highway": "service"
        },
        "case_id": "moscow_mitino_-2_+3_ab4b5530"
      },
      "geometry": {
        "type": "LineString",
        "coordinates": [
          [
            37.4015852,
            55.8319616
          ],
          [
            37.4010973,
            55.8323364
          ]
        ]
      }
    },
    {
      "type": "Feature",
      "properties": {
        "id": "moscow_mitino_-2_+3_ab4b5530_osm_way_1554538555_73",
        "object_type": "restriction",
        "restriction_type": "road",
        "name": "",
        "osm_kind": "road",
        "osm_id": 1554538555,
        "osm_type": "way",
        "osm_tags": {
          "highway": "footway"
        },
        "case_id": "moscow_mitino_-2_+3_ab4b5530"
      },
      "geometry": {
        "type": "LineString",
        "coordinates": [
          [
            37.4018862,
            55.8310857
          ],
          [
            37.4011823,
            55.8300199
          ]
        ]
      }
    },
    {
      "type": "Feature",
      "properties": {
        "id": "moscow_mitino_-2_+3_ab4b5530_osm_way_1554538558_74",
        "object_type": "restriction",
        "restriction_type": "road",
        "name": "",
        "osm_kind": "road",
        "osm_id": 1554538558,
        "osm_type": "way",
        "osm_tags": {
          "highway": "footway"
        },
        "case_id": "moscow_mitino_-2_+3_ab4b5530"
      },
      "geometry": {
        "type": "LineString",
        "coordinates": [
          [
            37.4016743,
            55.8299148
          ],
          [
            37.4016437,
            55.829871
          ]
        ]
      }
    },
    {
      "type": "Feature",
      "properties": {
        "id": "moscow_mitino_-2_+3_ab4b5530_osm_way_1554538559_75",
        "object_type": "restriction",
        "restriction_type": "road",
        "name": "",
        "osm_kind": "road",
        "osm_id": 1554538559,
        "osm_type": "way",
        "osm_tags": {
          "highway": "footway"
        },
        "case_id": "moscow_mitino_-2_+3_ab4b5530"
      },
      "geometry": {
        "type": "LineString",
        "coordinates": [
          [
            37.3995128,
            55.8303767
          ],
          [
            37.4011823,
            55.8300199
          ],
          [
            37.4016743,
            55.8299148
          ],
          [
            37.4032411,
            55.8295799
          ],
          [
            37.4039444,
            55.8306489
          ]
        ]
      }
    },
    {
      "type": "Feature",
      "properties": {
        "id": "moscow_mitino_-2_+3_ab4b5530_osm_way_1554538560_76",
        "object_type": "restriction",
        "restriction_type": "road",
        "name": "",
        "osm_kind": "road",
        "osm_id": 1554538560,
        "osm_type": "way",
        "osm_tags": {
          "highway": "service"
        },
        "case_id": "moscow_mitino_-2_+3_ab4b5530"
      },
      "geometry": {
        "type": "LineString",
        "coordinates": [
          [
            37.3991444,
            55.829812
          ],
          [
            37.3995128,
            55.8303767
          ],
          [
            37.3996523,
            55.8305923
          ]
        ]
      }
    },
    {
      "type": "Feature",
      "properties": {
        "id": "moscow_mitino_-2_+3_ab4b5530_source",
        "object_type": "source",
        "case_id": "moscow_mitino_-2_+3_ab4b5530"
      },
      "geometry": {
        "type": "Point",
        "coordinates": [
          37.39972258666667,
          55.8307287
        ]
      }
    },
    {
      "type": "Feature",
      "properties": {
        "id": "moscow_mitino_-2_+3_ab4b5530_existing_network",
        "object_type": "heat_network",
        "diameter": 500,
        "flow_tph": 180.0,
        "upstream_object_id": "moscow_mitino_-2_+3_ab4b5530_source",
        "case_id": "moscow_mitino_-2_+3_ab4b5530"
      },
      "geometry": {
        "type": "LineString",
        "coordinates": [
          [
            37.39972258666667,
            55.8307287
          ],
          [
            37.400842190000006,
            55.8307287
          ]
        ]
      }
    },
    {
      "type": "Feature",
      "properties": {
        "id": "moscow_mitino_-2_+3_ab4b5530_existing_chamber",
        "object_type": "heat_chamber",
        "diameter": 500,
        "upstream_object_id": "moscow_mitino_-2_+3_ab4b5530_source",
        "case_id": "moscow_mitino_-2_+3_ab4b5530"
      },
      "geometry": {
        "type": "Point",
        "coordinates": [
          37.400842190000006,
          55.8307287
        ]
      }
    },
    {
      "type": "Feature",
      "properties": {
        "id": "moscow_mitino_-2_+3_ab4b5530_cp_1",
        "object_type": "oks_connection_point",
        "flow_tph": 5.0,
        "case_id": "moscow_mitino_-2_+3_ab4b5530",
        "consumer_role": "osm_building_heat_demand_proxy",
        "source_building_osm_id": 1450730067,
        "source_building_osm_type": "way",
        "source_building_name": "",
        "source_building_tags": {
          "building": "construction"
        },
        "footprint_area_m2": 452.08,
        "flow_basis": "synthetic_proxy_from_osm_footprint_area",
        "stress_bucket": ""
      },
      "geometry": {
        "type": "Point",
        "coordinates": [
          37.404265993595764,
          55.82991879325762
        ]
      }
    },
    {
      "type": "Feature",
      "properties": {
        "id": "moscow_mitino_-2_+3_ab4b5530_cp_2",
        "object_type": "oks_connection_point",
        "flow_tph": 5.0,
        "case_id": "moscow_mitino_-2_+3_ab4b5530",
        "consumer_role": "osm_building_heat_demand_proxy",
        "source_building_osm_id": 1004255883,
        "source_building_osm_type": "way",
        "source_building_name": "",
        "source_building_tags": {
          "building": "yes"
        },
        "footprint_area_m2": 21.6,
        "flow_basis": "synthetic_proxy_from_osm_footprint_area",
        "stress_bucket": ""
      },
      "geometry": {
        "type": "Point",
        "coordinates": [
          37.403134449999996,
          55.83079395
        ]
      }
    },
    {
      "type": "Feature",
      "properties": {
        "id": "moscow_mitino_-2_+3_ab4b5530_cp_3",
        "object_type": "oks_connection_point",
        "flow_tph": 5.0,
        "case_id": "moscow_mitino_-2_+3_ab4b5530",
        "consumer_role": "osm_building_heat_demand_proxy",
        "source_building_osm_id": 502681303,
        "source_building_osm_type": "way",
        "source_building_name": "",
        "source_building_tags": {
          "building": "yes"
        },
        "footprint_area_m2": 50.63,
        "flow_basis": "synthetic_proxy_from_osm_footprint_area",
        "stress_bucket": ""
      },
      "geometry": {
        "type": "Point",
        "coordinates": [
          37.40357335,
          55.83191805
        ]
      }
    }
  ]
}